53988KBKB BKB20190601000010706/01/19 00:00:31  5-MIN KBKB 010600Z AUTO 00000KT 8SM CLR 21/19 A2994 280 93 1000 000/00 RMK AO2 T02060194
53988KBKB BKB20190601000510706/01/19 00:05:31  5-MIN KBKB 010605Z AUTO 00000KT 8SM CLR 21/19 A2994 280 93 1000 000/00 RMK AO2 T02060194
53988KBKB BKB20190601001010706/01/19 00:10:31  5-MIN KBKB 010610Z AUTO 00000KT 8SM CLR 21/19 A2994 280 93 1000 000/00 RMK AO2 T02060194
53988KBKB BKB20190601001510706/01/19 00:15:31  5-MIN KBKB 010615Z AUTO 00000KT 8SM CLR 21/19 A2994 280 93 1000 000/00 RMK AO2 T02060194
53988KBKB BKB20190601002010706/01/19 00:20:31  5-MIN KBKB 010620Z AUTO 00000KT 8SM CLR 21/19 A2993 290 93 1000 000/00 RMK AO2 T02060194
53988KBKB BKB20190601002510706/01/19 00:25:31  5-MIN KBKB 010625Z AUTO 00000KT 8SM CLR 21/19 A2993 290 93 1000 000/00 RMK AO2 T02060194
53988KBKB BKB20190601003010706/01/19 00:30:31  5-MIN KBKB 010630Z AUTO 00000KT 8SM CLR 21/19 A2993 290 93 1000 000/00 RMK AO2 T02060194
53988KBKB BKB20190601003510706/01/19 00:35:31  5-MIN KBKB 010635Z AUTO 00000KT 8SM CLR 21/19 A2993 290 93 1000 000/00 RMK AO2 T02060194
53988KBKB BKB20190601004014306/01/19 00:40:31  5-MIN KBKB 010640Z AUTO 00000KT 8S80 87 1400 000/240Z AUTO 00000KT 10SM CLR 23/21 A2993 290 90 1300 000/00 RMK AO2 T02280211
53988KBKB BKB20190601064510806/01/19 06:45:31  5-MIN KBKB 011245Z AUTO VRB03KT 10SM CLR 23/21 A2993 290 90 1300 VRB/03 RMK AO2 T02280211
53988KBKB BKB20190601065011506/01/19 06:50:31  5-MIN KBKB 011250Z AUTO 00000KT 10SM CLR 23/22 A2993 290 90 1400 000/00 RMK AO2 SLP162 T02330217
53988KBKB BKB20190601065510806/01/19 06:55:31  5-MIN KBKB 011255Z AUTO 00000KT 10SM CLR 24/21 A2994 280 84 1400 000/00 RMK AO2 T02390211
53988KBKB BKB20190601070010806/01/19 07:00:31  5-MIN KBKB 011300Z AUTO 00000KT 10SM CLR 24/22 A2994 280 87 1400 000/00 RMK AO2 T02390217
53988KBKB BKB20190601070510806/01/19 07:05:31  5-MIN KBKB 011305Z AUTO VRB03KT 10SM CLR 24/21 A2994 280 81 1500 VRB/03 RMK AO2 T02440211
53988KBKB BKB20190601071010806/01/19 07:10:31  5-MIN KBKB 011310Z AUTO 00000KT 10SM CLR 24/21 A2994 280 81 1500 000/00 RMK AO2 T02440211
53988KBKB BKB20190601071017006/01/19 07:10:31  5-MIN KBKB 011310Z AUTO 00000KT 10SM CLR 24/21 A2994 280 81 1500 000/00 RMK AO 00000KT 10SM CLR 23/22 A2993 290 90 1400 000/00 RMK AO2 SLP162 T02330217
53988KBKB BKB20190601071510806/01/19 07:15:31  5-MIN KBKB 011315Z AUTO VRB03KT 10SM CLR 25/21 A2994 280 79 1500 VRB/03 RMK AO2 T02500211
53988KBKB BKB20190601072010806/01/19 07:20:31  5-MIN KBKB 011320Z AUTO VRB03KT 10SM CLR 25/21 A2994 280 79 1500 VRB/03 RMK AO2 T02500211
53988KBKB BKB20190601072510806/01/19 07:25:31  5-MIN KBKB 011325Z AUTO VRB03KT 10SM CLR 25/21 A2994 280 79 1500 VRB/03 RMK AO2 T02500211
53988KBKB BKB20190601073010806/01/19 07:30:31  5-MIN KBKB 011330Z AUTO 00000KT 10SM CLR 26/21 A2994 280 76 1600 000/00 RMK AO2 T02560211
53988KBKB BKB20190601073510806/01/19 07:35:31  5-MIN KBKB 011335Z AUTO 00000KT 10SM CLR 26/21 A2995 270 76 1600 000/00 RMK AO2 T02560211
53988KBKB BKB20190601074010806/01/19 07:40:31  5-MIN KBKB 011340Z AUTO 00000KT 10SM CLR 26/21 A2995 270 76 1600 000/00 RMK AO2 T02560211
53988KBKB BKB20190601074510806/01/19 07:45:31  5-MIN KBKB 011345Z AUTO VRB03KT 10SM CLR 26/21 A2995 270 73 1700 VRB/03 RMK AO2 T02610211
53988KBKB BKB20190601075011506/01/19 07:50:31  5-MIN KBKB 011350Z AUTO VRB03KT 10SM CLR 26/21 A2995 270 73 1700 VRB/03 RMK AO2 SLP168 T02610211
53988KBKB BKB20190601075510806/01/19 07:55:31  5-MIN KBKB 011355Z AUTO 00000KT 10SM CLR 26/21 A2995 270 73 1700 000/00 RMK AO2 T02610211
53988KBKB BKB20190601080010806/01/19 08:00:31  5-MIN KBKB 011400Z AUTO VRB03KT 10SM CLR 26/21 A2995 270 73 1700 VRB/03 RMK AO2 T02610211
53988KBKB BKB20190601080510806/01/19 08:05:31  5-MIN KBKB 011405Z AUTO 32004KT 10SM CLR 26/21 A2995 270 73 1700 310/04 RMK AO2 T02610211
53988KBKB BKB20190601081010806/01/19 08:10:31  5-MIN KBKB 011410Z AUTO VRB03KT 10SM CLR 26/21 A2995 270 73 1700 VRB/03 RMK AO2 T02610211
53988KBKB BKB20190601081510806/01/19 08:15:31  5-MIN KBKB 011415Z AUTO VRB04KT 10SM CLR 26/21 A2995 270 73 1700 VRB/04 RMK AO2 T02610211
53988KBKB BKB20190601082010806/01/19 08:20:31  5-MIN KBKB 011420Z AUTO VRB03KT 10SM CLR 26/21 A2995 270 73 1700 VRB/03 RMK AO2 T02610211
53988KBKB BKB20190601082510806/01/19 08:25:31  5-MIN KBKB 011425Z AUTO VRB04KT 10SM CLR 26/22 A2995 270 76 1700 VRB/04 RMK AO2 T02610217
53988KBKB BKB20190601083010806/01/19 08:30:31  5-MIN KBKB 011430Z AUTO VRB03KT 10SM CLR 28/22 A2995 270 69 1800 VRB/03 RMK AO2 T02780217
53988KBKB BKB20190601083510806/01/19 08:35:31  5-MIN KBKB 011435Z AUTO VRB03KT 10SM CLR 28/22 A2995 270 69 1800 VRB/03 RMK AO2 T02780217
53988KBKB BKB20190601084010806/01/19 08:40:31  5-MIN KBKB 011440Z AUTO 00000KT 10SM CLR 28/22 A2995 270 66 1900 000/00 RMK AO2 T02830217
53988KBKB BKB20190601084510806/01/19 08:45:31  5-MIN KBKB 011445Z AUTO VRB03KT 10SM CLR 28/22 A2995 270 69 1900 VRB/03 RMK AO2 T02830222
53988KBKB BKB20190601085012106/01/19 08:50:31  5-MIN KBKB 011450Z AUTO 00000KT 10SM CLR 28/22 A2995 270 66 1900 000/00 RMK AO2 SLP167 T02830217 53002
53988KBKB BKB20190601085510806/01/19 08:55:31  5-MIN KBKB 011455Z AUTO VRB03KT 10SM CLR 28/22 A2995 270 66 1900 VRB/03 RMK AO2 T02830217
53988KBKB BKB20190601090010806/01/19 09:00:31  5-MIN KBKB 011500Z AUTO VRB03KT 10SM CLR 28/22 A2995 270 66 1900 VRB/03 RMK AO2 T02830217
53988KBKB BKB20190601090510806/01/19 09:05:31  5-MIN KBKB 011505Z AUTO VRB03KT 10SM CLR 28/22 A2995 270 66 1900 VRB/03 RMK AO2 T02830217
53988KBKB BKB20190601091010806/01/19 09:10:31  5-MIN KBKB 011510Z AUTO 00000KT 10SM CLR 28/22 A2995 270 66 1900 000/00 RMK AO2 T02830217
53988KBKB BKB20190601091510806/01/19 09:15:31  5-MIN KBKB 011515Z AUTO VRB03KT 10SM CLR 29/22 A2995 270 64 2000 VRB/03 RMK AO2 T02890217
53988KBKB BKB20190601092011106/01/19 09:20:31  5-MIN KBKB 011520Z AUTO 00000KT 10SM FEW024 29/22 A2995 270 64 2000 000/00 RMK AO2 T02890217
53988KBKB BKB20190601092511106/01/19 09:25:31  5-MIN KBKB 011525Z AUTO 00000KT 10SM FEW024 29/22 A2995 270 62 2000 000/00 RMK AO2 T02940217
53988KBKB BKB20190601093011106/01/19 09:30:31  5-MIN KBKB 011530Z AUTO 00000KT 10SM FEW024 29/22 A2995 270 64 2000 000/00 RMK AO2 T02890217
53988KBKB BKB20190601093511106/01/19 09:35:31  5-MIN KBKB 011535Z AUTO 35003KT 10SM FEW024 29/22 A2995 270 62 2000 350/03 RMK AO2 T02940217
53988KBKB BKB20190601094011106/01/19 09:40:31  5-MIN KBKB 011540Z AUTO 00000KT 10SM FEW025 30/22 A2995 270 60 2100 000/00 RMK AO2 T03000217
53988KBKB BKB20190601094511106/01/19 09:45:31  5-MIN KBKB 011545Z AUTO 00000KT 10SM FEW025 31/22 A2995 270 58 2200 000/00 RMK AO2 T03060217
53988KBKB BKB20190601095011806/01/19 09:50:31  5-MIN KBKB 011550Z AUTO VRB05KT 10SM FEW025 30/21 A2995 270 58 2100 VRB/05 RMK AO2 SLP167 T03000211
53988KBKB BKB20190601095511106/01/19 09:55:31  5-MIN KBKB 011555Z AUTO VRB03KT 10SM FEW025 30/22 A2995 270 60 2100 VRB/03 RMK AO2 T03000217
53988KBKB BKB20190601100011106/01/19 10:00:31  5-MIN KBKB 011600Z AUTO VRB03KT 10SM FEW027 30/21 A2995 270 58 2100 VRB/03 RMK AO2 T03000211
53988KBKB BKB20190601100511106/01/19 10:05:31  5-MIN KBKB 011605Z AUTO VRB03KT 10SM FEW029 31/22 A2995 270 58 2200 VRB/03 RMK AO2 T03060217
53988KBKB BKB20190601101011106/01/19 10:10:31  5-MIN KBKB 011610Z AUTO 00000KT 10SM FEW029 31/22 A2995 270 58 2200 000/00 RMK AO2 T03060217
53988KBKB BKB20190601101511106/01/19 10:15:31  5-MIN KBKB 011615Z AUTO VRB03KT 10SM FEW031 31/22 A2995 270 58 2200 VRB/03 RMK AO2 T03110222
53988KBKB BKB20190601102011106/01/19 10:20:31  5-MIN KBKB 011620Z AUTO VRB03KT 10SM SCT031 31/22 A2995 270 56 2200 VRB/03 RMK AO2 T03110217
53988KBKB BKB20190601102511106/01/19 10:25:31  5-MIN KBKB 011625Z AUTO 00000KT 10SM SCT031 31/22 A2995 270 56 2200 000/00 RMK AO2 T03110217
53988KBKB BKB20190601103018106/01/19 10:30:31  5-MIN KBKB 011630Z AUTO VRB05KT 10SM SCT031 30/21 A2995 270 58 2100 VRB/05 R290 49 2400 VRB/05 RMK AO2 T0322020606/01/19 12:45:31  5-MI00 000/00 RMK AO2 T03220200
53988KBKB BKB20190601122511106/01/19 12:25:31  5-MIN KBKB 011825Z AUTO 00000KT 10SM SCT043 32/20 A2993 290 48 2400 000/00 RMK AO2 T03220200
53988KBKB BKB20190601123011106/01/19 12:30:31  5-MIN KBKB 011830Z AUTO VRB03KT 10SM SCT045 32/21 A2993 290 49 2400 VRB/03 RMK AO2 T03220206
53988KBKB BKB20190601123511106/01/19 12:35:31  5-MIN KBKB 011835Z AUTO 00000KT 10SM FEW045 32/21 A2993 290 49 2400 000/00 RMK AO2 T03220206
53988KBKB BKB20190601124011106/01/19 12:40:31  5-MIN KBKB 011840Z AUTO VRB05KT 10SM FEW045 32/21 A2992 290 49 2400 VRB/05 RMK AO2 T03220206
53988KBKB BKB20190601124510106/01/19 12:45:31  5-MIN KBKB 011845Z AUTO 10SM FEW045 32/19 A2992 290 46 2400 M /M RMK AO2 T03220194
53988KBKB BKB20190601125011806/01/19 12:50:31  5-MIN KBKB 011850Z AUTO 00000KT 10SM FEW049 33/20 A2992 300 46 2400 000/00 RMK AO2 SLP158 T03280200
53988KBKB BKB20190601125511106/01/19 12:55:31  5-MIN KBKB 011855Z AUTO VRB03KT 10SM SCT049 33/20 A2992 300 46 2400 VRB/03 RMK AO2 T03280200
53988KBKB BKB20190601130011106/01/19 13:00:31  5-MIN KBKB 011900Z AUTO 00000KT 10SM SCT049 34/21 A2992 300 45 2600 000/00 RMK AO2 T03390206
53988KBKB BKB20190601130011706/01/19 13:00:31  5-MIN KBKB 011900Z AUTO 00000KT 10SM SCT049 34/21 A2992 300 45 2600 00400 000/00 RMK AO2 T03170194
53988KBKB BKB20190601172510806/01/19 17:25:31  5-MIN KBKB 012325Z AUTO 00000KT 10SM CLR 32/19 A2986 360 47 2400 000/00 RMK AO2 T03170194
53988KBKB BKB20190601173010806/01/19 17:30:31  5-MIN KBKB 012330Z AUTO 00000KT 10SM CLR 32/19 A2986 360 47 2400 000/00 RMK AO2 T03170194
53988KBKB BKB20190601173510806/01/19 17:35:31  5-MIN KBKB 012335Z AUTO 00000KT 10SM CLR 31/20 A2986 360 51 2300 000/00 RMK AO2 T03110200
53988KBKB BKB20190601174010806/01/19 17:40:31  5-MIN KBKB 012340Z AUTO 00000KT 10SM CLR 31/22 A2986 360 60 2300 000/00 RMK AO2 T03060222
53988KBKB BKB20190601174017206/01/19 17:40:31  5-MIN KBKB 012340Z AUTO 00000KT 10SM CLR 31/22 A29817:20:31  5-MIN KBKB 012320Z AUTO 00000KT 10SM FEW055 32/19 A2986 360 44 2400 000/00 RMK AO2 T03220189
53988KBKB BKB20190601174510806/01/19 17:45:31  5-MIN KBKB 012345Z AUTO 00000KT 10SM CLR 30/22 A2986 360 60 2200 000/00 RMK AO2 T03000217
53988KBKB BKB20190601175010806/01/19 17:50:31  5-MIN KBKB 012350Z AUTO 00000KT 10SM CLR 29/22 A2986 350 47 2400 000/00 RMK AO2 T03170194
53988KBKB BKB20190601175013306/01/19 17:50:31  5-MIN KBKB 012350Z AUTO 00000KT 10SM CLR 29/22 A2986 350 62 2100 000/00 RMK AO2 SLP137 T02940217 10339 20294 58017
53988KBKB BKB20190601175510806/01/19 17:55:31  5-MIN KBKB 012355Z AUTO 00000KT 10SM CLR 29/21 A2986 350 62 2100 000/00 RMK AO2 T02890211
53988KBKB BKB20190601180010806/01/19 18:00:31  5-MIN KBKB 020000Z AUTO 00000KT 10SM CLR 29/22 A2986 360 64 2100 000/00 RMK AO2 T02890217
53988KBKB BKB20190601180014706/01/19 18:00:31  5-MIN KBKB 020000Z AUTO 00000KT 10SM CLR 29/22 AB 012340Z AUTO 00000KT 10SM CLR 31/22 A2986 360 60 2300 000/00 RMK AO2 T03060222
53988KBKB BKB20190601180510806/01/19 18:05:31  5-MIN KBKB 020005Z AUTO 00000KT 10SM CLR 29/22 A2986 360 64 2100 000/00 RMK AO2 T02890217
53988KBKB BKB20190601181010806/01/19 18:10:31  5-MIN KBKB 020010Z AUTO 00000KT 10SM CLR 28/22 A2986 360 66 2000 000/00 RMK AO2 T02830217
53988KBKB BKB20190601181017206/01/19 18:10:31  5-MIN KBKB 020010Z AUTO 00000KT 10SM   5-MIN KBKB 012350Z AUTO 00000KT 10SM CLR 29/22 A2986 350 62 2100 000/00 RMK AO2 SLP137 T02940217 10339 20294 58017
53988KBKB BKB20190601181510806/01/19 18:15:31  5-MIN KBKB 020015Z AUTO 00000KT 10SM CLR 28/22 A2986 360 66 2000 000/00 RMK AO2 T02830217
53988KBKB BKB20190601182010806/01/19 18:20:31  5-MIN KBKB 020020Z AUTO 00000KT 10SM CLR 28/22 A2986 360 66 2000 000/00 RMK AO2 T02830217
53988KBKB BKB20190601182017106/01/19 18:20:31  5-MIN KBKB 020020Z AUTO 00000KT 10SM CLR 28/06/01/19 18:00:31  5-MIN KBKB 020000Z AUTO 00000KT 10SM CLR 29/22 A2986 360 64 2100 000/00 RMK AO2 T02890217
53988KBKB BKB20190601182510806/01/19 18:25:31  5-MIN KBKB 020025Z AUTO 00000KT 10SM CLR 28/22 A2986 350 69 2000 000/00 RMK AO2 T02830222
53988KBKB BKB20190601183010806/01/19 18:30:31  5-MIN KBKB 020030Z AUTO 00000KT 10SM CLR 28/22 A2986 360 69 2000 000/00 RMK AO2 T02830222
53988KBKB BKB20190601183017106/01/19 18:30:31  5-MIN KBKB 020030Z AUTO 00000KT 10SM CLR 28/06/01/19 18:10:31  5-MIN KBKB 020010Z AUTO 00000KT 10SM CLR 28/22 A2986 360 66 2000 000/00 RMK AO2 T02830217
53988KBKB BKB20190601183510806/01/19 18:35:31  5-MIN KBKB 020035Z AUTO 00000KT 10SM CLR 28/22 A2986 360 66 2000 000/00 RMK AO2 T02830217
53988KBKB BKB20190601184010806/01/19 18:40:31  5-MIN KBKB 020040Z AUTO 00000KT 10SM CLR 28/22 A2986 360 66 2000 000/00 RMK AO2 T02830217
53988KBKB BKB20190601184010806/01/19 18:40:31  5-MIN KBKB 020040Z AUTO 00000KT 10SM CLR 28/22 A2986 360 69 2000 000/00 RMK AO2 T02830222
53988KBKB BKB20190601184510806/01/19 18:45:31  5-MIN KBKB 020045Z AUTO 00000KT 10SM CLR 28/22 A2986 360 69 2000 000/00 RMK AO2 T02830222
53988KBKB BKB20190601185011506/01/19 18:50:31  5-MIN KBKB 020050Z AUTO 00000KT 10SM CLR 28/22 A2986 360 66 2000 000/00 RMK AO2 SLP135 T02830217
53988KBKB BKB20190601185510806/01/19 18:55:31  5-MIN KBKB 020055Z AUTO 00000KT 10SM CLR 28/22 A2986 360 71 1900 000/00 RMK AO2 T02780222
53988KBKB BKB20190601190010806/01/19 19:00:31  5-MIN KBKB 020100Z AUTO 00000KT 10SM CLR 28/22 A2986 350 71 1900 000/00 RMK AO2 T02780222
53988KBKB BKB20190601205510806/01/19 20:55:31  5-MIN KBKB 020255Z AUTO 00000KT 10SM CLR 24/21 A2987 350 81 1600 000/00 RMK AO2 T02440211
53988KBKB BKB20190601210010806/01/19 21:00:31  5-MIN KBKB 020300Z AUTO 00000KT 10SM CLR 24/21 A2987 350 84 1500 000/00 RMK AO2 T02390211
53988KBKB BKB20190601210510806/01/19 21:05:31  5-MIN KBKB 020305Z AUTO 00000KT 10SM CLR 24/21 A2987 340 84 1500 000/00 RMK AO2 T02390211
53988KBKB BKB20190601211010806/01/19 21:10:31  5-MIN KBKB 020310Z AUTO 00000KT 10SM CLR 24/21 A2987 340 81 1500 000/00 RMK AO2 T02390206
53988KBKB BKB20190601211510806/01/19 21:15:31  5-MIN KBKB 020315Z AUTO 00000KT 10SM CLR 24/21 A2987 340 81 1500 000/00 RMK AO2 T02390206
53988KBKB BKB20190601212010806/01/19 21:20:31  5-MIN KBKB 020320Z AUTO 00000KT 10SM CLR 24/21 A2988 340 81 1500 000/00 RMK AO2 T02390206
53988KBKB BKB20190601212510806/01/19 21:25:31  5-MIN KBKB 020325Z AUTO 00000KT 10SM CLR 23/21 A2988 340 84 1400 000/00 RMK AO2 T02330206
53988KBKB BKB20190601213010806/01/19 21:30:31  5-MIN KBKB 020330Z AUTO 00000KT 10SM CLR 23/21 A2988 340 84 1400 000/00 RMK AO2 T02330206
53988KBKB BKB20190601213510806/01/19 21:35:31  5-MIN KBKB 020335Z AUTO 00000KT 10SM CLR 23/21 A2988 330 84 1400 000/00 RMK AO2 T02330206
53988KBKB BKB20190601214010806/01/19 21:40:31  5-MIN KBKB 020340Z AUTO 00000KT 10SM CLR 23/21 A2989 330 84 1400 000/00 RMK AO2 T02330206
53988KBKB BKB20190601214510806/01/19 21:45:31  5-MIN KBKB 020345Z AUTO 00000KT 10SM CLR 23/21 A2989 330 84 1400 000/00 RMK AO2 T02330206
53988KBKB BKB20190601215011506/01/19 21:50:31  5-MIN KBKB 020350Z AUTO 00000KT 10SM CLR 23/21 A2989 330 87 1300 000/00 RMK AO2 SLP146 T02280206
53988KBKB BKB20190601215510806/01/19 21:55:31  5-MIN KBKB 020355Z AUTO 00000KT 10SM CLR 23/21 A2989 330 87 1300 000/00 RMK AO2 T02280206
53988KBKB BKB20190601220010806/01/19 22:00:31  5-MIN KBKB 020400Z AUTO 00000KT 10SM CLR 23/21 A2989 320 87 1300 000/00 RMK AO2 T02280206
53988KBKB BKB20190601220510806/01/19 22:05:31  5-MIN KBKB 020405Z AUTO 00000KT 10SM CLR 23/21 A2990 320 90 1300 000/00 RMK AO2 T02280211
53988KBKB BKB20190601221010806/01/19 22:10:31  5-MIN KBKB 020410Z AUTO 00000KT 10SM CLR 23/21 A2990 320 90 1300 000/00 RMK AO2 T02280211
53988KBKB BKB20190601221510806/01/19 22:15:31  5-MIN KBKB 020415Z AUTO 00000KT 10SM CLR 23/21 A2990 320 90 1300 000/00 RMK AO2 T02280211
53988KBKB BKB20190601222010806/01/19 22:20:31  5-MIN KBKB 020420Z AUTO 00000KT 10SM CLR 23/21 A2990 320 87 1300 000/00 RMK AO2 T02280206
53988KBKB BKB20190601222510806/01/19 22:25:31  5-MIN KBKB 020425Z AUTO 00000KT 10SM CLR 23/21 A2990 320 87 1300 000/00 RMK AO2 T02280206
53988KBKB BKB20190601223010806/01/19 22:30:31  5-MIN KBKB 020430Z AUTO 00000KT 10SM CLR 23/21 A2990 310 87 1300 000/00 RMK AO2 T02280206
53988KBKB BKB20190601223510806/01/19 22:35:31  5-MIN KBKB 020435Z AUTO 00000KT 10SM CLR 22/21 A2991 310 90 1300 000/00 RMK AO2 T02220206
53988KBKB BKB20190601224010806/01/19 22:40:31  5-MIN KBKB 020440Z AUTO 00000KT 10SM CLR 22/21 A2990 310 90 1300 000/00 RMK AO2 T02220206
53988KBKB BKB20190601224510806/01/19 22:45:31  5-MIN KBKB 020445Z AUTO 00000KT 10SM CLR 22/21 A2990 320 90 1300 000/00 RMK AO2 T02220206
53988KBKB BKB20190601225011506/01/19 22:50:31  5-MIN KBKB 020450Z AUTO 00000KT 10SM CLR 22/21 A2990 320 90 1300 000/00 RMK AO2 SLP150 T02220206
53988KBKB BKB20190601225510806/01/19 22:55:31  5-MIN KBKB 020455Z AUTO 00000KT 10SM CLR 22/21 A2990 320 90 1300 000/00 RMK AO2 T02220206
53988KBKB BKB20190601230010806/01/19 23:00:31  5-MIN KBKB 020500Z AUTO 00000KT 10SM CLR 22/21 A2990 320 90 1300 000/00 RMK AO2 T02220206
53988KBKB BKB20190601230510806/01/19 23:05:31  5-MIN KBKB 020505Z AUTO 00000KT 10SM CLR 22/21 A2990 320 90 1300 000/00 RMK AO2 T02220206
53988KBKB BKB20190601231010806/01/19 23:10:31  5-MIN KBKB 020510Z AUTO 00000KT 10SM CLR 22/21 A2990 320 90 1300 000/00 RMK AO2 T02220206
53988KBKB BKB20190601231510806/01/19 23:15:31  5-MIN KBKB 020515Z AUTO 00000KT 10SM CLR 22/21 A2990 320 90 1300 000/00 RMK AO2 T02220206
53988KBKB BKB20190601232010806/01/19 23:20:31  5-MIN KBKB 020520Z AUTO 00000KT 10SM CLR 22/21 A2990 320 90 1300 000/00 RMK AO2 T02220206
53988KBKB BKB20190601232510806/01/19 23:25:31  5-MIN KBKB 020525Z AUTO 00000KT 10SM CLR 22/21 A2989 320 90 1300 000/00 RMK AO2 T02220206
53988KBKB BKB20190601233010806/01/19 23:30:31  5-MIN KBKB 020530Z AUTO 00000KT 10SM CLR 22/21 A2989 320 90 1300 000/00 RMK AO2 T02220206
53988KBKB BKB20190601233510806/01/19 23:35:31  5-MIN KBKB 020535Z AUTO 00000KT 10SM CLR 22/21 A2990 320 93 1200 000/00 RMK AO2 T02170206
53988KBKB BKB20190601234010806/01/19 23:40:31  5-MIN KBKB 020540Z AUTO 00000KT 10SM CLR 22/21 A2990 320 93 1200 000/00 RMK AO2 T02170206
53988KBKB BKB20190601234510806/01/19 23:45:31  5-MIN KBKB 020545Z AUTO 00000KT 10SM CLR 22/21 A2989 320 93 1200 000/00 RMK AO2 T02170206
53988KBKB BKB20190601235014206/01/19 23:50:31  5-MIN KBKB 020550Z AUTO 00000KT 9SM CLR 22/21 A2989 320 93 1200 000/00 RMK AO2 SLP148 T02170206 10289 20217 403390194 53003
53988KBKB BKB20190601235510706/01/19 23:55:31  5-MIN KBKB 020555Z AUTO 00000KT 9SM CLR 22/20 A2989 320 90 1200 000/00 RMK AO2 T02170200
53988KBKB BKB20190602000010706/02/19 00:00:31  5-MIN KBKB 020600Z AUTO 00000KT 9SM CLR 22/20 A2989 320 90 1200 000/00 RMK AO2 T02170200
53988KBKB BKB20190602000510706/02/19 00:05:31  5-MIN KBKB 020605Z AUTO 00000KT 9SM CLR 22/20 A2989 320 90 1200 000/00 RMK AO2 T02170200
53988KBKB BKB20190602001010706/02/19 00:10:31  5-MIN KBKB 020610Z AUTO 00000KT 9SM CLR 22/20 A2989 330 90 1200 000/00 RMK AO2 T02170200
53988KBKB BKB20190602001510806/02/19 00:15:31  5-MIN KBKB 020615Z AUTO 00000KT 10SM CLR 22/20 A2989 330 90 1200 000/00 RMK AO2 T02170200
53988KBKB BKB20190602002014006/02/19 00:20:31  5-MIN KBKB 020620Z AUTO 00000KT 10SM CLR 22/20 A2989 330 90 1200 000/00 RMK AO2 T0217020093 1200 000/00 RMK AO2 T02110200
53988KBKB BKB20190602021010706/02/19 02:10:31  5-MIN KBKB 020810Z AUTO 00000KT 8SM CLR 21/20 A2988 340 93 1200 000/00 RMK AO2 T02110200
53988KBKB BKB20190602021510706/02/19 02:15:31  5-MIN KBKB 020815Z AUTO 00000KT 8SM CLR 21/20 A2988 330 93 1200 000/00 RMK AO2 T02110200
53988KBKB BKB20190602022010706/02/19 02:20:31  5-MIN KBKB 020820Z AUTO 00000KT 7SM CLR 21/20 A2988 340 93 1200 000/00 RMK AO2 T02110200
53988KBKB BKB20190602022510706/02/19 02:25:31  5-MIN KBKB 020825Z AUTO 00000KT 8SM CLR 21/19 A2988 340 90 1200 000/00 RMK AO2 T02110194
53988KBKB BKB20190602022517306/02/19 02:25:31  5-MIN KBKB 020825Z AUTO 00000KT 8SM CLR 21/19 A2988 340 90 1200 000/00 RMK AO2 T005Z AUTO 00000KT 8SM CLR 21/19 A2988 330 90 1200 000/00 RMK AO2 T02110194
53988KBKB BKB20190602023010706/02/19 02:30:31  5-MIN KBKB 020830Z AUTO 00000KT 9SM CLR 21/20 A2987 340 93 1200 000/00 RMK AO2 T02110200
53988KBKB BKB20190602023510706/02/19 02:35:31  5-MIN KBKB 020835Z AUTO 00000KT 9SM CLR 21/20 A2987 340 93 1200 000/00 RMK AO2 T02110200
53988KBKB BKB20190602023517306/02/19 02:35:31  5-MIN KBKB 020835Z AUTO 00000KT 9SM CLR 21/20 A2987 340 93 1200 000/00 RMBKB 020815Z AUTO 00000KT 8SM CLR 21/20 A2988 330 93 1200 000/00 RMK AO2 T02110200
53988KBKB BKB20190602024010706/02/19 02:40:31  5-MIN KBKB 020840Z AUTO 00000KT 7SM CLR 21/19 A2990 320 93 1100 000/00 RMK AO2 T02060194
53988KBKB BKB20190602051010706/02/19 05:10:31  5-MIN KBKB 021110Z AUTO 00000KT 8SM CLR 21/19 A2989 320 93 1100 000/00 RMK AO2 T02060194
53988KBKB BKB20190602051510706/02/19 05:15:31  5-MIN KBKB 021115Z AUTO 00000KT 8SM CLR 21/19 A2990 320 93 1100 000/00 RMK AO2 T02060194
53988KBKB BKB20190602052010706/02/19 05:20:31  5-MIN KBKB 021120Z AUTO 00000KT 7SM CLR 21/19 A2990 320 93 1100 000/00 RMK AO2 T02060194
53988KBKB BKB20190602052510706/02/19 05:25:31  5-MIN KBKB 021125Z AUTO 00000KT 7SM CLR 21/19 A2990 320 93 1100 000/00 RMK AO2 T02060194
53988KBKB BKB20190602052514006/02/19 05:25:31  5-MIN KBKB 021125Z AUTO 00000KT 7SM CLR 21/19 A2990 320 93 1100 000/00 RMK AO2 T02060194 64 2100 000/00 RMK AO2 T02940222
53988KBKB BKB20190602052517106/02/19 05:25:31  5-MIN KBKB 021125Z AUTO 00000KT 7SM CLR 21/19 A2990 320 93 1100 000/00 RMK AO2 T0206019406/02/19 05:30: 21/19 A2990 320 93 1100 000/00 RMK AO2 T02060194
53988KBKB BKB20190602053010706/02/19 05:30:31  5-MIN KBKB 021130Z AUTO 00000KT 7SM CLR 21/19 A2990 320 93 1100 000/00 RMK AO2 T02060194
53988KBKB BKB20190602053517106/02/19 05:35:31  5-MIN KBKB 021135Z AUTO 00000KT 7SM CLR 21/19 A2990 320 93 1100 000/00 RMK AO2 T0206019406/02/1 8SM CLR 21/19 A2990 320 93 1100 000/00 RMK AO2 T02060194
53988KBKB BKB20190602081510806/02/19 08:15:31  5-MIN KBKB 021415Z AUTO 00000KT 10SM CLR 29/22 A2993 290 62 2100 000/00 RMK AO2 T02940217
53988KBKB BKB20190602082010806/02/19 08:20:31  5-MIN KBKB 021420Z AUTO 00000KT 10SM CLR 30/22 A2993 290 62 2100 000/00 RMK AO2 T03000222
53988KBKB BKB20190602082510806/02/19 08:25:31  5-MIN KBKB 021425Z AUTO 00000KT 10SM CLR 30/22 A2993 290 60 2100 000/00 RMK AO2 T03000217
53988KBKB BKB20190602083010806/02/19 08:30:31  5-MIN KBKB 021430Z AUTO 00000KT 10SM CLR 31/22 A2993 290 58 2200 000/00 RMK AO2 T03060217
53988KBKB BKB20190602083510806/02/19 08:35:31  5-MIN KBKB 021435Z AUTO 00000KT 10SM CLR 30/22 A2993 290 60 2100 000/00 RMK AO2 T03000217
53988KBKB BKB20190602083510806/02/19 08:35:31  5-MIN KBKB 021435Z AUTO 00000KT 10SM CLR 30/22 A2993 290 62 2100 000/00 RMK AO2 T02940217
53988KBKB BKB20190602084010806/02/19 08:40:31  5-MIN KBKB 021440Z AUTO 00000KT 10SM CLR 31/22 A2993 290 58 2200 000/00 RMK AO2 T03060217
53988KBKB BKB20190602084510806/02/19 08:45:31  5-MIN KBKB 021445Z AUTO 00000KT 10SM CLR 31/22 A2993 290 58 2200 000/00 RMK AO2 T03110222
53988KBKB BKB20190602085012106/02/19 08:50:31  5-MIN KBKB 021450Z AUTO 00000KT 10SM CLR 31/22 A2993 290 58 2200 000/00 RMK AO2 SLP161 T03060217 53009
53988KBKB BKB20190602094511106/02/19 09:45:31  5-MIN KBKB 021545Z AUTO 00000KT 10SM FEW038 31/21 A2993 290 54 2200 000/00 RMK AO2 T03110211
53988KBKB BKB20190602095011806/02/19 09:50:31  5-MIN KBKB 021550Z AUTO 00000KT 10SM FEW038 31/21 A2993 290 54 2200 000/00 RMK AO2 SLP159 T03110211
53988KBKB BKB20190602095511106/02/19 09:55:31  5-MIN KBKB 021555Z AUTO 00000KT 10SM FEW040 31/21 A2993 290 53 2200 000/00 RMK AO2 T03110206
53988KBKB BKB20190602100011106/02/19 10:00:31  5-MIN KBKB 021600Z AUTO 00000KT 10SM FEW040 31/21 A2993 290 56 2200 000/00 RMK AO2 T03060211
53988KBKB BKB20190602100511106/02/19 10:05:31  5-MIN KBKB 021605Z AUTO 00000KT 10SM FEW041 31/21 A2993 290 56 2200 000/00 RMK AO2 T03060211
53988KBKB BKB20190602101010806/02/19 10:10:31  5-MIN KBKB 021610Z AUTO 00000KT 10SM CLR 31/22 A2993 290 58 2200 000/00 RMK AO2 T03060217
53988KBKB BKB20190602101511106/02/19 10:15:31  5-MIN KBKB 021615Z AUTO 00000KT 10SM FEW044 31/21 A2993 290 56 2200 000/00 RMK AO2 T03060211
53988KBKB BKB20190602102011106/02/19 10:20:31  5-MIN KBKB 021620Z AUTO 00000KT 10SM FEW046 31/21 A2993 290 56 2200 000/00 RMK AO2 T03060211
53988KBKB BKB20190602102511106/02/19 10:25:31  5-MIN KBKB 021625Z AUTO VRB03KT 10SM FEW046 31/21 A2994 280 54 2200 VRB/03 RMK AO2 T03060206
53988KBKB BKB20190602103011106/02/19 10:30:31  5-MIN KBKB 021630Z AUTO 00000KT 10SM FEW046 31/21 A2994 280 53 2200 000/00 RMK AO2 T03110206
53988KBKB BKB20190602103511106/02/19 10:35:31  5-MIN KBKB 021635Z AUTO 00000KT 10SM FEW046 32/21 A2994 280 51 2300 000/00 RMK AO2 T03170206
53988KBKB BKB20190602104011106/02/19 10:40:31  5-MIN KBKB 021640Z AUTO 00000KT 10SM FEW046 32/21 A2994 280 53 2300 000/00 RMK AO2 T03170211
53988KBKB BKB20190602104510806/02/19 10:45:31  5-MIN KBKB 021645Z AUTO 00000KT 10SM CLR 32/21 A2994 280 53 2300 000/00 RMK AO2 T03170211
53988KBKB BKB20190602105011506/02/19 10:50:31  5-MIN KBKB 021650Z AUTO 00000KT 10SM CLR 32/21 A2994 280 53 2300 000/00 RMK AO2 SLP162 T03170211
53988KBKB BKB20190602105510806/02/19 10:55:31  5-MIN KBKB 021655Z AUTO VRB03KT 10SM CLR 32/21 A2994 280 51 2400 VRB/03 RMK AO2 T03220211
53988KBKB BKB20190602110021306/02/19 11:00:31  5-MIN KBKB 021700Z AUTO VRB03KT 10SM CLR 33/21 A2994 280 48 2400 VRB/03 RMK AO VRB03KT 10SM FEW06 2100 190/03 RMK AO2 T029402440600000KT 10SM CLR 30/23 A2990 320 67 2100 000/00 RMK AO2 T03000233
53988KBKB BKB20190602142010806/02/19 14:20:31  5-MIN KBKB 022020Z AUTO 18003KT 10SM CLR 31/24 A2990 320 67 2200 170/03 RMK AO2 T03060239
53988KBKB BKB20190602142510806/02/19 14:25:31  5-MIN KBKB 022025Z AUTO VRB03KT 10SM CLR 31/23 A2989 320 63 2300 VRB/03 RMK AO2 T03110233
53988KBKB BKB20190602143010806/02/19 14:30:31  5-MIN KBKB 022030Z AUTO VRB05KT 10SM CLR 31/23 A2989 330 60 2300 VRB/05 RMK AO2 T03110228
53988KBKB BKB20190602143510806/02/19 14:35:31  5-MIN KBKB 022035Z AUTO 17004KT 10SM CLR 31/23 A2989 330 60 2300 160/04 RMK AO2 T03110228
53988KBKB BKB20190602144010806/02/19 14:40:31  5-MIN KBKB 022040Z AUTO 00000KT 10SM CLR 31/22 A2989 330 58 2300 000/00 RMK AO2 T03110222
53988KBKB BKB20190602144510806/02/19 14:45:31  5-MIN KBKB 022045Z AUTO VRB04KT 10SM CLR 32/23 A2989 330 58 2300 VRB/04 RMK AO2 T03170228
53988KBKB BKB20190602145012706/02/19 14:50:31  5-MIN KBKB 022050Z AUTO VRB05KT 10SM CLR 31/21 A2989 330 54 2300 VRB/05 RMK AO2 SLP146 60005 T03110211 58001
53988KBKB BKB20190602145510806/02/19 14:55:31  5-MIN KBKB 022055Z AUTO VRB04KT 10SM CLR 31/21 A2989 320 53 2300 VRB/04 RMK AO2 T03110206
53988KBKB BKB20190602150010806/02/19 15:00:31  5-MIN KBKB 022100Z AUTO VRB03KT 10SM CLR 31/21 A2989 320 53 2300 VRB/03 RMK AO2 T03110206
53988KBKB BKB20190602150513406/02/19 15:05:31  5-MIN KBKB 022105Z AUTO 00000KT 10SM CLR 32/21 A2990 320 53 2300 000/00 RA2990 320 74 2000 000/00 RMK AO2 T02830233
53988KBKB BKB20190602163010106/02/19 16:30:31  5-MIN KBKB 022230Z AUTO 10SM SCT050 29/23 A2990 320 69 2000 M /M RMK AO2 T02890228
53988KBKB BKB20190602163511806/02/19 16:35:31  5-MIN KBKB 022235Z AUTO VRB03KT 10SM SCT050 SCT120 28/22 A2990 320 66 2000 VRB/03 RMK AO2 T02830217
53988KBKB BKB20190602164011806/02/19 16:40:31  5-MIN KBKB 022240Z AUTO VRB03KT 10SM FEW050 SCT110 28/22 A2990 320 71 1900 VRB/03 RMK AO2 T02780222
53988KBKB BKB20190602164512706/02/19 16:45:31  5-MIN KBKB 022245Z AUTO 00000KT 10SM -RA FEW110 28/22 A2990 310 69 1900 000/00 RMK AO2 RAB45 P0000 T02780217
53988KBKB BKB20190602165013406/02/19 16:50:31  5-MIN KBKB 022250Z AUTO 00000KT 10SM -RA FEW120 27/22 A2990 320 74 1800 000/00 RMK AO2 RAB45 SLP151 P0000 T02720222
53988KBKB BKB20190602165512106/02/19 16:55:31  5-MIN KBKB 022255Z AUTO 00000KT 10SM -RA FEW120 27/22 A2990 320 76 1800 000/00 RMK AO2 P0000 T02670222
53988KBKB BKB20190602170012106/02/19 17:00:31  5-MIN KBKB 022300Z AUTO 00000KT 10SM -RA FEW120 26/22 A2990 320 79 1700 000/00 RMK AO2 P0000 T02610222
53988KBKB BKB20190602170512106/02/19 17:05:31  5-MIN KBKB 022305Z AUTO 00000KT 10SM -RA FEW110 26/23 A2990 320 84 1700 000/00 RMK AO2 P0000 T02560228
53988KBKB BKB20190602171012006/02/19 17:10:31  5-MIN KBKB 022310Z AUTO 00000KT 9SM -RA FEW120 26/23 A2990 320 87 1700 000/00 RMK AO2 P0000 T02560233
53988KBKB BKB20190602171512006/02/19 17:15:31  5-MIN KBKB 022315Z AUTO 00000KT 8SM -RA FEW120 26/23 A2990 320 87 1700 000/00 RMK AO2 P0000 T02560233
53988KBKB BKB20190602172012006/02/19 17:20:31  5-MIN KBKB 022320Z AUTO 00000KT 7SM -RA FEW120 25/23 A2990 320 90 1600 000/00 RMK AO2 P0001 T02500233
53988KBKB BKB20190602172512306/02/19 17:25:31  5-MIN KBKB 022325Z AUTO VRB03KT 5SM -RA BR FEW120 25/23 A2990 320 90 1600 VRB/03 RMK AO2 P0001 T02500233
53988KBKB BKB20190602173015006/02/19 17:30:31  5-MIN KBKB 022330Z AUTO 00000KT 5SM -RA BR F0 24/23 A2990 320 93 1500 VRB/03 RMK AO2 SLP150 P0002 60007 T02440233 10333 20244 58013
53988KBKB BKB20190602175512306/02/19 17:55:31  5-MIN KBKB 022355Z AUTO 00000KT 5SM -RA BR SCT120 24/23 A2989 320 90 1500 000/00 RMK AO2 P0000 T02440228
53988KBKB BKB20190602180012306/02/19 18:00:31  5-MIN KBKB 030000Z AUTO 00000KT 5SM -RA BR SCT120 24/23 A2989 320 90 1500 000/00 RMK AO2 P0000 T02440228
53988KBKB BKB20190602180512306/02/19 18:05:31  5-MIN KBKB 030005Z AUTO VRB03KT 4SM -RA BR SCT120 24/23 A2989 330 90 1500 VRB/03 RMK AO2 P0001 T02440228
53988KBKB BKB20190602181012306/02/19 18:10:31  5-MIN KBKB 030010Z AUTO 00000KT 4SM -RA BR SCT110 24/23 A2989 330 90 1500 000/00 RMK AO2 P0001 T02440228
53988KBKB BKB20190602181512306/02/19 18:15:31  5-MIN KBKB 030015Z AUTO VRB04KT 4SM -RA BR SCT110 24/23 A2988 330 90 1500 VRB/04 RMK AO2 P0001 T02440228
53988KBKB BKB20190602182013706/02/19 18:20:31  5-MIN KBKB 030020Z AUTO 00000KT 5SM -RA BR FEW047 SCT100 BKN120 24/23 A2988 340 93 1500 000/00 RMK AO2 P0002 T02440233
53988KBKB BKB20190602182513706/02/19 18:25:31  5-MIN KBKB 030025Z AUTO 00000KT 6SM -RA BR FEW033 SCT100 BKN120 24/23 A2988 330 93 1500 000/00 RMK AO2 P0002 T02440233
53988KBKB BKB20190602183013406/02/19 18:30:31  5-MIN KBKB 030030Z AUTO 00000KT 7SM -RA FEW033 FEW100 SCT120 25/23 A2988 330 90 1600 000/00 RMK AO2 P0002 T02500233
53988KBKB BKB20190602183512906/02/19 18:35:31  5-MIN KBKB 030035Z AUTO 00000KT 7SM FEW100 FEW110 24/23 A2988 330 93 1500 000/00 RMK AO2 RAE32 P0002 T02440233
53988KBKB BKB20190602184011906/02/19 18:40:31  5-MIN KBKB 030040Z AUTO 00000KT 7SM CLR 24/23 A2988 340 90 1500 000/00 RMK AO2 RAE32 P0002 T02440228
53988KBKB BKB20190602184511906/02/19 18:45:31  5-MIN KBKB 030045Z AUTO 00000KT 7SM CLR 24/23 A2989 330 93 1500 000/00 RMK AO2 RAE32 P0002 T02440233
53988KBKB BKB20190602185011606/02/19 18:50:31  5-MIN KBKB 030050Z AUTO 00000KT 6SM BR CLR 24/23 A2989 A2989 330 93 1300 000/00 RMK AO2 T02280217
53988KBKB BKB20190602185511006/02/19 18:55:31  5-MIN KBKB 030055Z AUTO 00000KT 5SM BR CLR 24/23 A2989 330 93 1500 000/00 RMK AO2 T02440233
53988KBKB BKB20190602190011006/02/19 19:00:31  5-MIN KBKB 030100Z AUTO 00000KT 5SM BR CLR 24/23 A2989 320 90 1500 000/00 RMK AO2 T02440228
53988KBKB BKB20190602190511006/02/19 19:05:31  5-MIN KBKB 030105Z AUTO 00000KT 5SM BR CLR 24/23 A2989 330 93 1500 000/00 RMK AO2 T02390228
53988KBKB BKB20190602191011006/02/19 19:10:31  5-MIN KBKB 030110Z AUTO 00000KT 4SM BR CLR 24/23 A2989 330 93 1500 000/00 RMK AO2 T02390228
53988KBKB BKB20190602191511006/02/19 19:15:31  5-MIN KBKB 030115Z AUTO 00000KT 4SM BR CLR 24/23 A2988 330 93 1500 000/00 RMK AO2 T02390228
53988KBKB BKB20190602192011006/02/19 19:20:31  5-MIN KBKB 030120Z AUTO 00000KT 4SM BR CLR 24/23 A2988 330 93 1500 000/00 RMK AO2 T02390228
53988KBKB BKB20190602192511006/02/19 19:25:31  5-MIN KBKB 030125Z AUTO 00000KT 3SM BR CLR 24/22 A2989 330 90 1500 000/00 RMK AO2 T02390222
53988KBKB BKB20190602193011006/02/19 19:30:31  5-MIN KBKB 030130Z AUTO 00000KT 3SM BR CLR 23/22 A2989 330 93 1400 000/00 RMK AO2 T02330222
53988KBKB BKB20190602193511006/02/19 19:35:31  5-MIN KBKB 030135Z AUTO 00000KT 3SM BR CLR 23/22 A2989 330 93 1400 000/00 RMK AO2 T02330222
53988KBKB BKB20190602194011406/02/19 19:40:31  5-MIN KBKB 030140Z AUTO 00000KT 2 1/2SM BR CLR 23/22 A2989 330 93 1400 000/00 RMK AO2 T02330222
53988KBKB BKB20190602194511406/02/19 19:45:31  5-MIN KBKB 030145Z AUTO 00000KT 2 1/2SM BR CLR 23/22 A2988 330 93 1400 000/00 RMK AO2 T02330222
53988KBKB BKB20190602195010006/02/19 19:50:31  5-MIN KBKB 030150Z AUTO 00000KT 3SM BR CLR 23/22 A2988 330 93 1400 000/00 RMK AO2
53988KBKB BKB20190602195511006/02/19 19:55:31  5-MIN KBKB 030155Z AUTO 00000KT 3SM BR CLR 23/22 A2989 330 97 1300 000/00 RMK AO2 T02280222
53988KBKB BKB20190602200011406/02/19 20:00:31  5-MIN KBKB 030200Z AUTO 00000KT 2 1/2SM BR CLR 23/22 A2989 330 97 1300 000/00 RMK AO2 T02280222
53988KBKB BKB20190602200511406/02/19 20:05:31  5-MIN KBKB 030205Z AUTO 00000KT 2 1/2SM BR CLR 23/22 A2989 330 93 1300 000/00 RMK AO2 T02280217
53988KBKB BKB20190602201011406/02/19 20:10:31  5-MIN KBKB 030210Z AUTO 00000KT 2 1/2SM BR CLR 23/22 A2989 330 93 1300 000/00 RMK AO2 T02280217
53988KBKB BKB20190602201511406/02/19 20:15:31  5-MIN KBKB 030215Z AUTO 00000KT 2 1/2SM BR CLR 23/22 A2989 330 93 1300 000/00 RMK AO2 T02280217
53988KBKB BKB20190602202011406/02/19 20:20:31  5-MIN KBKB 030220Z AUTO 00000KT 2 1/2SM BR CLR 23/22 A2989 330 93 1300 000/00 RMK AO2 T02280217
53988KBKB BKB20190602202511406/02/19 20:25:31  5-MIN KBKB 030225Z AUTO 00000KT 2 1/2SM BR CLR 23/22 A2989 330 93 1300 000/00 RMK AO2 T02280217
53988KBKB BKB20190602203011406/02/19 20:30:31  5-MIN KBKB 030230Z AUTO 00000KT 2 1/2SM BR CLR 23/22 A2989 330 93 1300 000/00 RMK AO2 T02280217
53988KBKB BKB20190602203511006/02/19 20:35:31  5-MIN KBKB 030235Z AUTO 00000KT 2SM BR CLR 23/22 A2989 330 93 1300 000/00 RMK AO2 T02280217
53988KBKB BKB20190602204011006/02/19 20:40:31  5-MIN KBKB 030240Z AUTO 00000KT 2SM BR CLR 22/22 A2989 330 97 1300 000/00 RMK AO2 T02220217
53988KBKB BKB20190602204511406/02/19 20:45:31  5-MIN KBKB 030245Z AUTO 00000KT 2 1/2SM BR CLR 22/22 A2989 330 97 1300 000/00 RMK AO2 T02220217
53988KBKB BKB20190602205010006/02/19 20:50:31  5-MIN KBKB 030250Z AUTO 00000KT 3SM BR CLR 23/22 A2989 330 93 1300 000/00 RMK AO2
53988KBKB BKB20190602205511006/02/19 20:55:31  5-MIN KBKB 030255Z AUTO 00000KT 3SM BR CLR 23/22 A2989 320 93 1300 000/00 RMK AO2 T02280217
53988KBKB BKB20190602210011006/02/19 21:00:31  5-MIN KBKB 030300Z AUTO 00000KT 3SM BR CLR 22/22 A2990 320 97 1300 000/00 RMK AO2 T02220217
53988KBKB BKB20190602210017406/02/19 21:00:31  5-MIN KBKB 030300Z AUTO 00000KT 3SM BR CLR 22/22 A2990 320 97 1300 000/00 RMKZ AUTO 00000KT 1 3/4SM BR CLR 22/21 A2991 310 93 1300 000/00 RMK AO2 T02220211
53988KBKB BKB20190602210511006/02/19 21:05:31  5-MIN KBKB 030305Z AUTO 00000KT 3SM BR CLR 23/22 A2990 320 93 1300 000/00 RMK AO2 T02280217
53988KBKB BKB20190602211011006/02/19 21:10:31  5-MIN KBKB 030310Z AUTO 00000KT 3SM BR CLR 23/22 A2990 320 93 1300 000/00 RMK AO2 T02280217
53988KBKB BKB20190602211511406/02/19 21:15:31  5-MIN KBKB 030315Z AUTO 00000KT 2 1/2SM BR CLR 22/22 A2990 320 97 1300 000/00 RMK AO2 T02220217
53988KBKB BKB20190602212011006/02/19 21:20:31  5-MIN KBKB 030320Z AUTO 00000KT 2SM BR CLR 22/21 A2990 310 93 1300 000/00 RMK AO2 T02220211
53988KBKB BKB20190602212511406/02/19 21:25:31  5-MIN KBKB 030325Z AUTO 00000KT 1 3/4SM BR CLR 22/21 A2991 310 93 1300 000/00 RMK AO2 T02220211
53988KBKB BKB20190602213011006/02/19 21:30:31  5-MIN KBKB 030330Z AUTO 00000KT 2SM BR CLR 22/21 A2991 310 93 1300 000/00 RMK AO2 T02220211
53988KBKB BKB20190602213511006/02/19 21:35:31  5-MIN KBKB 030335Z AUTO 00000KT 2SM BR CLR 22/21 A2991 310 93 1300 000/00 RMK AO2 T02220211
53988KBKB BKB20190602214011006/02/19 21:40:31  5-MIN KBKB 030340Z AUTO 00000KT 2SM BR CLR 22/21 A2991 310 93 1300 000/00 RMK AO2 T02220211
53988KBKB BKB20190602214511006/02/19 21:45:31  5-MIN KBKB 030345Z AUTO 00000KT 2SM BR CLR 22/21 A2991 300 93 1300 000/00 RMK AO2 T02220211
53988KBKB BKB20190602215012106/02/19 21:50:31  5-MIN KBKB 030350Z AUTO 00000KT 2 1/2SM BR CLR 22/21 A2992 300 93 1300 000/00 RMK AO2 SLP155 T02220211
53988KBKB BKB20190602215511406/02/19 21:55:31  5-MIN KBKB 030355Z AUTO 00000KT 2 1/2SM BR CLR 22/21 A2991 300 93 1300 000/00 RMK AO2 T02220211
53988KBKB BKB20190602220011406/02/19 22:00:31  5-MIN KBKB 030400Z AUTO 00000KT 2 1/2SM BR CLR 22/21 A2992 300 93 1300 000/00 RMK AO2 T02220211
53988KBKB BKB20190602220014906/02/19 22:00:31  5-MIN KBKB 030400Z AUTO 00000KT 2 1/2SM BR CLR 22/21 A2992 300 93 10KT 2SM BR CLR 22/21 A2991 310 93 1300 000/00 RMK AO2 T02220211
53988KBKB BKB20190602220511406/02/19 22:05:31  5-MIN KBKB 030405Z AUTO 00000KT 2 1/2SM BR CLR 22/21 A2992 300 93 1200 000/00 RMK AO2 T02220211
53988KBKB BKB20190602221011706/02/19 22:10:31  5-MIN KBKB 030410Z AUTO 22004KT 2 1/2SM BR FEW003 22/21 A2992 290 97 1200 220/04 RMK AO2 T02170211
53988KBKB BKB20190602221511306/02/19 22:15:31  5-MIN KBKB 030415Z AUTO 00000KT 3SM BR FEW003 22/21 A2992 300 97 1200 000/00 RMK AO2 T02170211
53988KBKB BKB20190602222011306/02/19 22:20:31  5-MIN KBKB 030420Z AUTO 00000KT 3SM BR FEW002 22/21 A2993 290 93 1200 000/00 RMK AO2 T02220211
53988KBKB BKB20190602222513606/02/19 22:25:31  5-MIN KBKB 030425Z AUTO 00000KT 3SM BR SCT002 22/21 A2993 290 97 CLR 21/20 A2992 300 93 1100 000/00 RMK AO2 T02110200
53988KBKB BKB20190603010511406/03/19 01:05:31  5-MIN KBKB 030705Z AUTO 00000KT 2 1/2SM BR CLR 21/20 A2992 300 93 1100 000/00 RMK AO2 T02110200
53988KBKB BKB20190603011011006/03/19 01:10:31  5-MIN KBKB 030710Z AUTO 00000KT 3SM BR CLR 21/20 A2992 300 93 1100 000/00 RMK AO2 T02110200
53988KBKB BKB20190603011511406/03/19 01:15:31  5-MIN KBKB 030715Z AUTO 00000KT 2 1/2SM BR CLR 21/20 A2992 300 93 1100 000/00 RMK AO2 T02110200
53988KBKB BKB20190603012011006/03/19 01:20:31  5-MIN KBKB 030720Z AUTO 00000KT 2SM BR CLR 21/20 A2992 290 93 1100 000/00 RMK AO2 T02110200
53988KBKB BKB20190603012015606/03/19 01:20:31  5-MIN KBKB 030720Z AUTO 00000KT 2SM BR CLR 21/20 A2992 290 93 1100 000/00 RMK AO2 TR CLR 21/20 A2992 300 93 1100 000/00 RMK AO2 T02110200
53988KBKB BKB20190603012511006/03/19 01:25:31  5-MIN KBKB 030725Z AUTO 00000KT 2SM BR CLR 21/20 A2992 290 97 1100 000/00 RMK AO2 T02060200
53988KBKB BKB20190603013011006/03/19 01:30:31  5-MIN KBKB 030730Z AUTO 00000KT 2SM BR CLR 21/20 A2993 290 97 1000 000/00 RMK AO2 T02060200
53988KBKB BKB20190603013016006/03/19 01:30:31  5-MIN KBKB 030730Z AUTO 00000KT 2SM BR CLR 21/20 A2993 290 97 1000 000/00 RMK AO2 T02060 CLR 21/20 A2992 300 93 1100 000/00 RMK AO2 T02110200
53988KBKB BKB20190603013511006/03/19 01:35:31  5-MIN KBKB 030735Z AUTO 00000KT 3SM BR CLR 21/20 A2993 290 93 1100 000/00 RMK AO2 T02110200
53988KBKB BKB20190603014020006/03/19 01:40:31  5-MIN KBKB 030740Z AUTO 00000KT 4SM BR CLR 21/20 A2993 290 93 1100 000/00 RMK AO2 T0T 2SM BR CLR 21/20 A2992 290 93 1100 000/00 RMK AO2 T02110200280 93 1000 000/00 RMK AO2 T02060194
53988KBKB BKB20190603035511006/03/19 03:55:31  5-MIN KBKB 030955Z AUTO 00000KT 3SM BR CLR 21/19 A2994 280 93 1000 000/00 RMK AO2 T02060194
53988KBKB BKB20190603040011006/03/19 04:00:31  5-MIN KBKB 031000Z AUTO 00000KT 3SM BR CLR 21/19 A2994 280 93 1000 000/00 RMK AO2 T02060194
53988KBKB BKB20190603040511006/03/19 04:05:31  5-MIN KBKB 031005Z AUTO 00000KT 5SM BR CLR 21/19 A2994 280 93 1000 000/00 RMK AO2 T02060194
53988KBKB BKB20190603041011006/03/19 04:10:31  5-MIN KBKB 031010Z AUTO 00000KT 5SM BR CLR 21/19 A2994 280 93 1000 000/00 RMK AO2 T02060194
53988KBKB BKB20190603041016406/03/19 04:10:31  5-MIN KBKB 031010Z AUTO 00000KT 5SM BR CLR 21/19 A2994 280 93 1000 000/00 RMK AO2 T020CLR 21/19 A2994 280 93 1000 000/00 RMK AO2 SLP164 T02060194
53988KBKB BKB20190603041511006/03/19 04:15:31  5-MIN KBKB 031015Z AUTO 00000KT 4SM BR CLR 21/19 A2994 280 93 1000 000/00 RMK AO2 T02060194
53988KBKB BKB20190603042011006/03/19 04:20:31  5-MIN KBKB 031020Z AUTO 00000KT 4SM BR CLR 21/19 A2994 280 93 1000 000/00 RMK AO2 T02060194
53988KBKB BKB20190603042511006/03/19 04:25:31  5-MIN KBKB 031025Z AUTO 00000KT 5SM BR CLR 21/19 A2994 280 93 1000 000/00 RMK AO2 T02060194
53988KBKB BKB20190603043005406/03/19 04:30:31  5-MIN KBKB 031030Z AUTO 00000KT 5SM
53988KBKB BKB20190603043011006/03/19 04:30:31  5-MIN KBKB 031030Z AUTO 00000KT 5SM BR CLR 21/19 A2994 280 93 1000 000/00 RMK AO2 T02060194
53988KBKB BKB20190603043513706/03/19 04:35:31  5-MIN KBKB 031035Z AUTO 00000KT 5SM BR CLR 21/19 A2994 280 93 1000 000/00 RMK AO2 T0206019406/03K AO2 SLP177 T02390222
53988KBKB BKB20190603060511006/03/19 06:05:31  5-MIN KBKB 031205Z AUTO 00000KT 4SM BR CLR 21/21 A2996 260 97 1100 000/00 RMK AO2 T02110206
53988KBKB BKB20190603061011006/03/19 06:10:31  5-MIN KBKB 031210Z AUTO 00000KT 4SM BR CLR 22/21 A2996 260 93 1100 000/00 RMK AO2 T02170206
53988KBKB BKB20190603061511006/03/19 06:15:31  5-MIN KBKB 031215Z AUTO 00000KT 5SM BR CLR 22/21 A2996 260 97 1100 000/00 RMK AO2 T02170211
53988KBKB BKB20190603062011006/03/19 06:20:31  5-MIN KBKB 031220Z AUTO 00000KT 6SM BR CLR 22/21 A2996 260 93 1200 000/00 RMK AO2 T02220211
53988KBKB BKB20190603062510706/03/19 06:25:31  5-MIN KBKB 031225Z AUTO 00000KT 7SM CLR 22/21 A2996 260 93 1200 000/00 RMK AO2 T02220211
53988KBKB BKB20190603063010706/03/19 06:30:31  5-MIN KBKB 031230Z AUTO 00000KT 8SM CLR 22/21 A2997 260 93 1200 000/00 RMK AO2 T02220211
53988KBKB BKB20190603063510706/03/19 06:35:31  5-MIN KBKB 031235Z AUTO 00000KT 9SM CLR 23/22 A2997 250 93 1300 000/00 RMK AO2 T02280217
53988KBKB BKB20190603064010706/03/19 06:40:31  5-MIN KBKB 031240Z AUTO 00000KT 9SM CLR 23/22 A2997 250 90 1300 000/00 RMK AO2 T02330217
53988KBKB BKB20190603064510706/03/19 06:45:31  5-MIN KBKB 031245Z AUTO 00000KT 9SM CLR 23/22 A2997 250 90 1300 000/00 RMK AO2 T02330217
53988KBKB BKB20190603065011506/03/19 06:50:31  5-MIN KBKB 031250Z AUTO 00000KT 10SM CLR 24/22 A2998 250 90 1400 000/00 RMK AO2 SLP177 T02390222
53988KBKB BKB20190603065511106/03/19 06:55:31  5-MIN KBKB 031255Z AUTO 00000KT 10SM FEW055 24/22 A2998 250 90 1400 000/00 RMK AO2 T02390222
53988KBKB BKB20190603070011106/03/19 07:00:31  5-MIN KBKB 031300Z AUTO 00000KT 10SM FEW055 24/22 A2997 250 87 1400 000/00 RMK AO2 T02440222
53988KBKB BKB20190603070510806/03/19 07:05:31  5-MIN KBKB 031305Z AUTO 00000KT 10SM CLR 24/22 A2997 250 87 1400 000/00 RMK AO2 T02440222
53988KBKB BKB20190603071010806/03/19 07:10:31  5-MIN KBKB 031310Z AUTO 00000KT 10SM CLR 25/22 A2998 250 84 1500 000/00 RMK AO2 T02500222
53988KBKB BKB20190603071510806/03/19 07:15:31  5-MIN KBKB 031315Z AUTO 00000KT 10SM CLR 25/22 A2998 250 84 1500 000/00 RMK AO2 T02500222
53988KBKB BKB20190603072010806/03/19 07:20:31  5-MIN KBKB 031320Z AUTO 00000KT 10SM CLR 26/22 A2998 240 81 1600 000/00 RMK AO2 T02560222
53988KBKB BKB20190603072510806/03/19 07:25:31  5-MIN KBKB 031325Z AUTO 00000KT 10SM CLR 26/22 A2998 240 81 1600 000/00 RMK AO2 T02560222
53988KBKB BKB20190603073010806/03/19 07:30:31  5-MIN KBKB 031330Z AUTO 00000KT 10SM CLR 26/22 A2998 240 76 1600 000/00 RMK AO2 T02610217
53988KBKB BKB20190603073510806/03/19 07:35:31  5-MIN KBKB 031335Z AUTO 00000KT 10SM CLR 26/22 A2998 240 79 1600 000/00 RMK AO2 T02610222
53988KBKB BKB20190603074010806/03/19 07:40:31  5-MIN KBKB 031340Z AUTO VRB03KT 10SM CLR 26/22 A2998 240 79 1600 VRB/03 RMK AO2 T02610222
53988KBKB BKB20190603074510806/03/19 07:45:31  5-MIN KBKB 031345Z AUTO 00000KT 10SM CLR 27/22 A2999 240 73 1700 000/00 RMK AO2 T02670217
53988KBKB BKB20190603075011506/03/19 07:50:31  5-MIN KBKB 031350Z AUTO 04003KT 10SM CLR 27/22 A2999 230 73 1700 030/03 RMK AO2 SLP180 T02670217
53988KBKB BKB20190603075510806/03/19 07:55:31  5-MIN KBKB 031355Z AUTO 03003KT 10SM CLR 27/22 A2999 230 73 1700 030/03 RMK AO2 T02670217
53988KBKB BKB20190603080010806/03/19 08:00:31  5-MIN KBKB 031400Z AUTO 02003KT 10SM CLR 28/22 A2999 230 69 1800 020/03 RMK AO2 T02780217
53988KBKB BKB20190603080510806/03/19 08:05:31  5-MIN KBKB 031405Z AUTO VRB03KT 10SM CLR 28/22 A2999 230 69 1800 VRB/03 RMK AO2 T02780217
53988KBKB BKB20190603081010806/03/19 08:10:31  5-MIN KBKB 031410Z AUTO VRB03KT 10SM CLR 28/21 A2999 230 66 1800 VRB/03 RMK AO2 T02780211
53988KBKB BKB20190603081510806/03/19 08:15:31  5-MIN KBKB 031415Z AUTO VRB03KT 10SM CLR 28/21 A2999 230 64 1800 VRB/03 RMK AO2 T02780206
53988KBKB BKB20190603082010806/03/19 08:20:31  5-MIN KBKB 031420Z AUTO VRB03KT 10SM CLR 28/21 A2999 230 64 1900 VRB/03 RMK AO2 T02830211
53988KBKB BKB20190603082510806/03/19 08:25:31  5-MIN KBKB 031425Z AUTO 00000KT 10SM CLR 28/22 A2999 230 66 1900 000/00 RMK AO2 T02830217
53988KBKB BKB20190603083010806/03/19 08:30:31  5-MIN KBKB 031430Z AUTO 03003KT 10SM CLR 28/21 A2999 230 64 1900 020/03 RMK AO2 T02830211
53988KBKB BKB20190603083510806/03/19 08:35:31  5-MIN KBKB 031435Z AUTO 00000KT 10SM CLR 28/21 A2999 240 64 1900 000/00 RMK AO2 T02830211
53988KBKB BKB20190603084010806/03/19 08:40:31  5-MIN KBKB 031440Z AUTO 00000KT 10SM CLR 29/21 A2999 240 62 1900 000/00 RMK AO2 T02890211
53988KBKB BKB20190603084510806/03/19 08:45:31  5-MIN KBKB 031445Z AUTO 00000KT 10SM CLR 29/22 A2999 230 64 1900 000/00 RMK AO2 T02890217
53988KBKB BKB20190603085012106/03/19 08:50:31  5-MIN KBKB 031450Z AUTO 00000KT 10SM CLR 29/21 A2999 230 60 2000 000/00 RMK AO2 SLP180 T02940211 51010
53988KBKB BKB20190603085510806/03/19 08:55:31  5-MIN KBKB 031455Z AUTO VRB03KT 10SM CLR 29/21 A2999 240 62 1900 VRB/03 RMK AO2 T02890211
53988KBKB BKB20190603090010806/03/19 09:00:31  5-MIN KBKB 031500Z AUTO 00000KT 10SM CLR 29/21 A2999 240 62 1900 000/00 RMK AO2 T02890211
53988KBKB BKB20190603090510806/03/19 09:05:31  5-MIN KBKB 031505Z AUTO 00000KT 10SM CLR 29/22 A2999 230 62 2000 000/00 RMK AO2 T02940217
53988KBKB BKB20190603091010806/03/19 09:10:31  5-MIN KBKB 031510Z AUTO 00000KT 10SM CLR 29/21 A2999 230 60 2000 000/00 RMK AO2 T02940211
53988KBKB BKB20190603091510806/03/19 09:15:31  5-MIN KBKB 031515Z AUTO 00000KT 10SM CLR 30/21 A2999 240 58 2000 000/00 RMK AO2 T03000211
53988KBKB BKB20190603092010806/03/19 09:20:31  5-MIN KBKB 031520Z AUTO VRB03KT 10SM CLR 30/22 A2999 240 60 2000 VRB/03 RMK AO2 T03000217
53988KBKB BKB20190603092510806/03/19 09:25:31  5-MIN KBKB 031525Z AUTO 00000KT 10SM CLR 30/21 A2999 240 58 2000 000/00 RMK AO2 T03000211
53988KBKB BKB20190603093010806/03/19 09:30:31  5-MIN KBKB 031530Z AUTO 00000KT 10SM CLR 31/22 A2999 240 58 2200 000/00 RMK AO2 T03110222
53988KBKB BKB20190603093510806/03/19 09:35:31  5-MIN KBKB 031535Z AUTO 12004KT 10SM CLR 31/22 A2999 230 58 2100 110/04 RMK AO2 T03060217
53988KBKB BKB20190603094010806/03/19 09:40:31  5-MIN KBKB 031540Z AUTO 00000KT 10SM CLR 30/21 A2999 230 58 2000 000/00 RMK AO2 T03000211
53988KBKB BKB20190603094510806/03/19 09:45:31  5-MIN KBKB 031545Z AUTO 00000KT 10SM CLR 31/21 A2999 230 56 2100 000/00 RMK AO2 T03060211
53988KBKB BKB20190603095011506/03/19 09:50:31  5-MIN KBKB 031550Z AUTO 00000KT 10SM CLR 31/22 A2999 230 56 2200 000/00 RMK AO2 SLP181 T03110217
53988KBKB BKB20190603095510806/03/19 09:55:31  5-MIN KBKB 031555Z AUTO VRB03KT 10SM CLR 31/21 A2999 230 56 2100 VRB/03 RMK AO2 T03060211
53988KBKB BKB20190603100010806/03/19 10:00:31  5-MIN KBKB 031600Z AUTO VRB03KT 10SM CLR 31/21 A2999 230 56 2100 VRB/03 RMK AO2 T03060211
53988KBKB BKB20190603100510806/03/19 10:05:31  5-MIN KBKB 031605Z AUTO 00000KT 10SM CLR 31/21 A2999 230 54 2100 000/00 RMK AO2 T03060206
53988KBKB BKB20190603101010806/03/19 10:10:31  5-MIN KBKB 031610Z AUTO 00000KT 10SM CLR 31/21 A2999 230 54 2200 000/00 RMK AO2 T03110211
53988KBKB BKB20190603101510806/03/19 10:15:31  5-MIN KBKB 031615Z AUTO 00000KT 10SM CLR 31/22 A2999 230 56 2200 000/00 RMK AO2 T03110217
53988KBKB BKB20190603102010806/03/19 10:20:31  5-MIN KBKB 031620Z AUTO VRB03KT 10SM CLR 32/22 A2999 230 55 2200 VRB/03 RMK AO2 T03170217
53988KBKB BKB20190603102510806/03/19 10:25:31  5-MIN KBKB 031625Z AUTO 00000KT 10SM CLR 32/22 A2999 230 55 2200 000/00 RMK AO2 T03170217
53988KBKB BKB20190603103010806/03/19 10:30:31  5-MIN KBKB 031630Z AUTO 00000KT 10SM CLR 31/21 A2999 230 54 2200 000/00 RMK AO2 T03110211
53988KBKB BKB20190603103510806/03/19 10:35:31  5-MIN KBKB 031635Z AUTO 00000KT 10SM CLR 32/21 A2999 230 53 2200 000/00 RMK AO2 T03170211
53988KBKB BKB20190603104010806/03/19 10:40:31  5-MIN KBKB 031640Z AUTO 00000KT 10SM CLR 32/21 A2999 230 53 2200 000/00 RMK AO2 T03170211
53988KBKB BKB20190603104510806/03/19 10:45:31  5-MIN KBKB 031645Z AUTO VRB03KT 10SM CLR 32/21 A2999 230 51 2300 VRB/03 RMK AO2 T03220211
53988KBKB BKB20190603105011506/03/19 10:50:31  5-MIN KBKB 031650Z AUTO 00000KT 10SM CLR 32/21 A2999 240 51 2300 000/00 RMK AO2 SLP180 T03220211
53988KBKB BKB20190603105510806/03/19 10:55:31  5-MIN KBKB 031655Z AUTO 00000KT 10SM CLR 32/21 A2999 240 51 2300 000/00 RMK AO2 T03220211
53988KBKB BKB20190603110011106/03/19 11:00:31  5-MIN KBKB 031700Z AUTO 00000KT 10SM FEW042 33/22 A2998 240 51 2400 000/00 RMK AO2 T03280217
53988KBKB BKB20190603110511106/03/19 11:05:31  5-MIN KBKB 031705Z AUTO 13003KT 10SM FEW042 32/21 A2998 240 51 2300 130/03 RMK AO2 T03220211
53988KBKB BKB20190603111010806/03/19 11:10:31  5-MIN KBKB 031710Z AUTO VRB03KT 10SM CLR 32/21 A2998 240 51 2300 VRB/03 RMK AO2 T03220211
53988KBKB BKB20190603111511106/03/19 11:15:31  5-MIN KBKB 031715Z AUTO VRB03KT 10SM FEW043 33/21 A2998 240 49 2400 VRB/03 RMK AO2 T03280211
53988KBKB BKB20190603112011806/03/19 11:20:31  5-MIN KBKB 031720Z AUTO VRB03KT 10SM FEW043 SCT050 33/21 A2998 240 48 2400 VRB/03 RMK AO2 T03280206
53988KBKB BKB20190603112511806/03/19 11:25:31  5-MIN KBKB 031725Z AUTO 00000KT 10SM FEW043 SCT050 32/21 A2998 240 49 2300 000/00 RMK AO2 T03220206
53988KBKB BKB20190603113011806/03/19 11:30:31  5-MIN KBKB 031730Z AUTO VRB03KT 10SM FEW043 FEW050 33/21 A2998 240 48 2400 VRB/03 RMK AO2 T03280206
53988KBKB BKB20190603113511106/03/19 11:35:31  5-MIN KBKB 031735Z AUTO 00000KT 10SM FEW046 33/21 A2998 240 48 2400 000/00 RMK AO2 T03280206
53988KBKB BKB20190603114016206/03/19 11:40:31  5-MIN KBKB 031740Z AUTO 00000KT 10SM SCT048 SCT055 33/21 A2998 250 48 2400 000/00 RMK AO2 T0328020606/03/19290 45 2500 VRB/03 RMK AO2 T03330200
53988KBKB BKB20190603134010106/03/19 13:40:31  5-MIN KBKB 031940Z AUTO 10SM SCT055 34/19 A2994 280 42 2500 M /M RMK AO2 T03390194
53988KBKB BKB20190603134511106/03/19 13:45:31  5-MIN KBKB 031945Z AUTO 13003KT 10SM SCT060 33/19 A2994 280 44 2400 130/03 RMK AO2 T03280194
53988KBKB BKB20190603135011806/03/19 13:50:31  5-MIN KBKB 031950Z AUTO VRB03KT 10SM SCT060 32/20 A2993 290 48 2400 VRB/03 RMK AO2 SLP161 T03220200
53988KBKB BKB20190603135511106/03/19 13:55:31  5-MIN KBKB 031955Z AUTO VRB03KT 10SM FEW060 33/20 A2993 290 45 2500 VRB/03 RMK AO2 T03330200
53988KBKB BKB20190603140005306/03/19 14:00:31  5-MIN KBKB 032000Z AUTO  T03390189
53988KBKB BKB20190603140011106/03/19 14:00:31  5-MIN KBKB 032000Z AUTO 00000KT 10SM FEW060 34/19 A2993 290 42 2500 000/00 RMK AO2 T03390194
53988KBKB BKB20190603140511106/03/19 14:05:31  5-MIN KBKB 032005Z AUTO 21004KT 10SM FEW060 34/20 A2993 290 43 2500 210/04 RMK AO2 T03390200
53988KBKB BKB20190603141011106/03/19 14:10:31  5-MIN KBKB 032010Z AUTO 00000KT 10SM FEW060 34/19 A2993 290 42 2500 000/00 RMK AO2 T03390194
53988KBKB BKB20190603141016506/03/19 14:10:31  5-MIN KBKB 032010Z AUTO 00000KT 10SM FEW060 34/19 A2993 290 2250Z AUTO VRB03KT 10SM FEW055 32/21 A2990 320 51 2300 VRB/03 RMK AO2 SLP149 T03170206
53988KBKB BKB20190603141510806/03/19 14:15:31  5-MIN KBKB 032015Z AUTO VRB04KT 10SM CLR 34/21 A2993 290 43 2600 VRB/04 RMK AO2 T03440206
53988KBKB BKB20190603142005306/03/19 14:20:31  5-MIN KBKB 032020Z K AO2 T03330200
53988KBKB BKB20190603142010806/03/19 14:20:31  5-MIN KBKB 032020Z AUTO VRB03KT 10SM CLR 34/20 A2992 290 43 2500 VRB/03 RMK AO2 T03390200
53988KBKB BKB20190603142510806/03/19 14:25:31  5-MIN KBKB 032025Z AUTO VRB03KT 10SM CLR 34/21 A2992 300 43 2600 VRB/03 RMK AO2 T03440206
53988KBKB BKB20190603143005906/03/19 14:30:31  5-MIN KBKB 032030Z AUTO 00000KT 13390200
53988KBKB BKB20190603164011106/03/19 16:40:31  5-MIN KBKB 032240Z AUTO VRB03KT 10SM SCT055 33/21 A2990 320 48 2500 VRB/03 RMK AO2 T03280206
53988KBKB BKB20190603164511106/03/19 16:45:31  5-MIN KBKB 032245Z AUTO VRB03KT 10SM SCT055 32/21 A2990 320 51 2300 VRB/03 RMK AO2 T03170206
53988KBKB BKB20190603165011806/03/19 16:50:31  5-MIN KBKB 032250Z AUTO VRB03KT 10SM FEW055 32/21 A2990 320 51 2300 VRB/03 RMK AO2 SLP149 T03170206
53988KBKB BKB20190603165511106/03/19 16:55:31  5-MIN KBKB 032255Z AUTO 00000KT 10SM FEW055 32/21 A2990 320 53 2300 000/00 RMK AO2 T03170211
53988KBKB BKB20190603165515406/03/19 16:55:31  5-MIN KBKB 032255Z AUTO 00000KT 10SM FEW055 32/21 A2990 320 53 2300 000/00 RMK AO2 T0317021106/03/19 17:00:31  5-M/00 RMK AO2 T03280206
53988KBKB BKB20190603170010806/03/19 17:00:31  5-MIN KBKB 032300Z AUTO 00000KT 10SM CLR 32/22 A2990 320 55 2300 000/00 RMK AO2 T03170217
53988KBKB BKB20190603170510806/03/19 17:05:31  5-MIN KBKB 032305Z AUTO 00000KT 10SM CLR 32/21 A2990 320 53 2300 000/00 RMK AO2 T03170211
53988KBKB BKB20190603170515706/03/19 17:05:31  5-MIN KBKB 032305Z AUTO 00000KT 10SM CLR 32/21 A2990 320 53 2300 000/00RB03KT 10SM SCT055 32/21 A2990 320 51 2300 VRB/03 RMK AO2 T03170206
53988KBKB BKB20190603171010806/03/19 17:10:31  5-MIN KBKB 032310Z AUTO 00000KT 10SM CLR 32/22 A2990 320 55 2300 000/00 RMK AO2 T03170217
53988KBKB BKB20190603171510806/03/19 17:15:31  5-MIN KBKB 032315Z AUTO 00000KT 10SM CLR 32/22 A2990 320 55 2300 000/00 RMK AO2 T03170217
53988KBKB BKB20190603171517206/03/19 17:15:31  5-MIN KBKB 032315Z AUTO 00000KT 10SM CLR 32/22 A29 16:55:31  5-MIN KBKB 032255Z AUTO 00000KT 10SM FEW055 32/21 A2990 320 53 2300 000/00 RMK AO2 T03170211
53988KBKB BKB20190603172010806/03/19 17:20:31  5-MIN KBKB 032320Z AUTO 00000KT 10SM CLR 32/22 A2989 320 55 2300 000/00 RMK AO2 T03170217
53988KBKB BKB20190603172507506/03/19 17:25:31  5-MIN KBKB 032325Z AUTO 00000KT 10SM CLR 32/22 A2990 320
53988KBKB BKB20190603172510806/03/19 17:25:31  5-MIN KBKB 032325Z AUTO 00000KT 10SM CLR 32/22 A2990 320 55 2300 000/00 RMK AO2 T03170217
53988KBKB BKB20190603173010806/03/19 17:30:31  5-MIN KBKB 032330Z AUTO 00000KT 10SM CLR 32/22 A2989 320 55 2300 000/00 RMK AO2 T03170217
53988KBKB BKB20190603173510806/03/19 17:35:31  5-MIN KBKB 032335Z AUTO 00000KT 10SM CLR 32/22 A2989 320 55 2300 000/00 RMK AO2 T03170217
53988KBKB BKB20190603174010806/03/19 17:40:31  5-MIN KBKB 032340Z AUTO 00000KT 10SM CLR 32/22 A2989 320 56 2300 000/00 RMK AO2 T03170222
53988KBKB BKB20190603174510806/03/19 17:45:31  5-MIN KBKB 032345Z AUTO 00000KT 10SM CLR 32/22 A2990 320 56 2300 000/00 RMK AO2 T03170222
53988KBKB BKB20190603175013306/03/19 17:50:31  5-MIN KBKB 032350Z AUTO 00000KT 10SM CLR 32/21 A2990 320 53 2300 000/00 RMK AO2 SLP149 T03170211 10350 20311 56019
53988KBKB BKB20190603175510806/03/19 17:55:31  5-MIN KBKB 032355Z AUTO 00000KT 10SM CLR 31/22 A2990 320 56 2300 000/00 RMK AO2 T03110217
53988KBKB BKB20190603180010806/03/19 18:00:31  5-MIN KBKB 040000Z AUTO 00000KT 10SM CLR 31/22 A2990 320 58 2200 000/00 RMK AO2 T03060217
53988KBKB BKB20190603180510806/03/19 18:05:31  5-MIN KBKB 040005Z AUTO 00000KT 10SM CLR 31/22 A2990 310 56 2300 000/00 RMK AO2 T03110217
53988KBKB BKB20190603181010806/03/19 18:10:31  5-MIN KBKB 040010Z AUTO 00000KT 10SM CLR 31/22 A2990 310 60 2200 000/00 RMK AO2 T03060222
53988KBKB BKB20190603181510806/03/19 18:15:31  5-MIN KBKB 040015Z AUTO 00000KT 10SM CLR 31/22 A2991 310 60 2200 000/00 RMK AO2 T03060222
53988KBKB BKB20190603182010806/03/19 18:20:31  5-MIN KBKB 040020Z AUTO 00000KT 10SM CLR 30/23 A2991 310 65 2100 000/00 RMK AO2 T03000228
53988KBKB BKB20190603182510806/03/19 18:25:31  5-MIN KBKB 040025Z AUTO 00000KT 10SM CLR 30/23 A2991 310 65 2100 000/00 RMK AO2 T03000228
53988KBKB BKB20190603183010806/03/19 18:30:31  5-MIN KBKB 040030Z AUTO 00000KT 10SM CLR 30/23 A2991 310 67 2100 000/00 RMK AO2 T03000233
53988KBKB BKB20190603183510806/03/19 18:35:31  5-MIN KBKB 040035Z AUTO 00000KT 10SM CLR 29/23 A2991 310 69 2100 000/00 RMK AO2 T02940233
53988KBKB BKB20190603184010806/03/19 18:40:31  5-MIN KBKB 040040Z AUTO 00000KT 10SM CLR 29/23 A2991 310 67 2100 000/00 RMK AO2 T02940228
53988KBKB BKB20190603184510806/03/19 18:45:31  5-MIN KBKB 040045Z AUTO 00000KT 10SM CLR 29/23 A2991 300 67 2100 000/00 RMK AO2 T02940228
53988KBKB BKB20190603185011506/03/19 18:50:31  5-MIN KBKB 040050Z AUTO 00000KT 10SM CLR 29/23 A2991 310 69 2000 000/00 RMK AO2 SLP153 T02890228
53988KBKB BKB20190603185510806/03/19 18:55:31  5-MIN KBKB 040055Z AUTO 00000KT 10SM CLR 28/23 A2991 300 71 1900 000/00 RMK AO2 T02830228
53988KBKB BKB20190603190010806/03/19 19:00:31  5-MIN KBKB 040100Z AUTO 00000KT 10SM CLR 28/23 A2991 310 71 1900 000/00 RMK AO2 T02830228
53988KBKB BKB20190603190510806/03/19 19:05:31  5-MIN KBKB 040105Z AUTO 00000KT 10SM CLR 28/23 A2992 300 71 1900 000/00 RMK AO2 T02830228
53988KBKB BKB20190603191010806/03/19 19:10:31  5-MIN KBKB 040110Z AUTO 00000KT 10SM CLR 28/23 A2992 300 71 1900 000/00 RMK AO2 T02830228
53988KBKB BKB20190603191510806/03/19 19:15:31  5-MIN KBKB 040115Z AUTO 00000KT 10SM CLR 28/22 A2992 300 71 1900 000/00 RMK AO2 T02780222
53988KBKB BKB20190603192010806/03/19 19:20:31  5-MIN KBKB 040120Z AUTO 00000KT 10SM CLR 28/22 A2992 300 71 1900 000/00 RMK AO2 T02780222
53988KBKB BKB20190603192510806/03/19 19:25:31  5-MIN KBKB 040125Z AUTO 00000KT 10SM CLR 28/22 A2992 300 71 1900 000/00 RMK AO2 T02780222
53988KBKB BKB20190603193010806/03/19 19:30:31  5-MIN KBKB 040130Z AUTO 00000KT 10SM CLR 27/22 A2992 300 74 1800 000/00 RMK AO2 T02720222
53988KBKB BKB20190603193510806/03/19 19:35:31  5-MIN KBKB 040135Z AUTO 00000KT 10SM CLR 27/22 A2992 300 74 1800 000/00 RMK AO2 T02720222
53988KBKB BKB20190603194010806/03/19 19:40:31  5-MIN KBKB 040140Z AUTO 00000KT 10SM CLR 27/22 A2992 300 74 1800 000/00 RMK AO2 T02720222
53988KBKB BKB20190603194510806/03/19 19:45:31  5-MIN KBKB 040145Z AUTO 00000KT 10SM CLR 27/22 A2992 300 74 1800 000/00 RMK AO2 T02720222
53988KBKB BKB20190603195011506/03/19 19:50:31  5-MIN KBKB 040150Z AUTO 00000KT 10SM CLR 27/22 A2992 300 76 1800 000/00 RMK AO2 SLP156 T02670222
53988KBKB BKB20190603195510806/03/19 19:55:31  5-MIN KBKB 040155Z AUTO 00000KT 10SM CLR 27/22 A2992 300 76 1800 000/00 RMK AO2 T02670222
53988KBKB BKB20190603200010806/03/19 20:00:31  5-MIN KBKB 040200Z AUTO 00000KT 10SM CLR 27/22 A2992 300 76 1800 000/00 RMK AO2 T02670222
53988KBKB BKB20190603200510806/03/19 20:05:31  5-MIN KBKB 040205Z AUTO 00000KT 10SM CLR 27/22 A2992 300 76 1800 000/00 RMK AO2 T02670222
53988KBKB BKB20190603201010806/03/19 20:10:31  5-MIN KBKB 040210Z AUTO 00000KT 10SM CLR 26/22 A2992 290 79 1700 000/00 RMK AO2 T02610222
53988KBKB BKB20190603201510806/03/19 20:15:31  5-MIN KBKB 040215Z AUTO 00000KT 10SM CLR 26/23 A2992 290 81 1700 000/00 RMK AO2 T02610228
53988KBKB BKB20190603202010806/03/19 20:20:31  5-MIN KBKB 040220Z AUTO 00000KT 10SM CLR 26/22 A2993 290 79 1700 000/00 RMK AO2 T02610222
53988KBKB BKB20190603202510806/03/19 20:25:31  5-MIN KBKB 040225Z AUTO 00000KT 10SM CLR 26/22 A2993 290 79 1700 000/00 RMK AO2 T02610222
53988KBKB BKB20190603203010806/03/19 20:30:31  5-MIN KBKB 040230Z AUTO 00000KT 10SM CLR 26/22 A2993 290 81 1600 000/00 RMK AO2 T02560222
53988KBKB BKB20190603203510806/03/19 20:35:31  5-MIN KBKB 040235Z AUTO 00000KT 10SM CLR 26/22 A2993 290 81 1600 000/00 RMK AO2 T02560222
53988KBKB BKB20190603204010806/03/19 20:40:31  5-MIN KBKB 040240Z AUTO 00000KT 10SM CLR 26/22 A2994 280 81 1600 000/00 RMK AO2 T02560222
53988KBKB BKB20190603204510806/03/19 20:45:31  5-MIN KBKB 040245Z AUTO 00000KT 10SM CLR 26/22 A2994 280 81 1600 000/00 RMK AO2 T02560222
53988KBKB BKB20190603205012106/03/19 20:50:31  5-MIN KBKB 040250Z AUTO 00000KT 10SM CLR 26/22 A2994 280 81 1600 000/00 RMK AO2 SLP164 T02560222 56007
53988KBKB BKB20190603205510806/03/19 20:55:31  5-MIN KBKB 040255Z AUTO 00000KT 10SM CLR 26/22 A2995 270 81 1600 000/00 RMK AO2 T02560222
53988KBKB BKB20190603210010806/03/19 21:00:31  5-MIN KBKB 040300Z AUTO 00000KT 10SM CLR 25/23 A2995 270 87 1500 000/00 RMK AO2 T02500228
53988KBKB BKB20190603210510706/03/19 21:05:31  5-MIN KBKB 040305Z AUTO 00000KT 9SM CLR 25/23 A2995 270 87 1500 000/00 RMK AO2 T02500228
53988KBKB BKB20190603211010706/03/19 21:10:31  5-MIN KBKB 040310Z AUTO 00000KT 9SM CLR 25/23 A2995 270 87 1500 000/00 RMK AO2 T02500228
53988KBKB BKB20190603211510706/03/19 21:15:31  5-MIN KBKB 040315Z AUTO 00000KT 9SM CLR 25/23 A2995 270 87 1500 000/00 RMK AO2 T02500228
53988KBKB BKB20190603212010706/03/19 21:20:31  5-MIN KBKB 040320Z AUTO 00000KT 9SM CLR 25/23 A2996 260 87 1500 000/00 RMK AO2 T02500228
53988KBKB BKB20190603212510706/03/19 21:25:31  5-MIN KBKB 040325Z AUTO 00000KT 9SM CLR 25/23 A2996 260 87 1500 000/00 RMK AO2 T02500228
53988KBKB BKB20190603213010706/03/19 21:30:31  5-MIN KBKB 040330Z AUTO 00000KT 9SM CLR 25/23 A2996 260 87 1500 000/00 RMK AO2 T02500228
53988KBKB BKB20190603213510706/03/19 21:35:31  5-MIN KBKB 040335Z AUTO 00000KT 9SM CLR 24/23 A2996 260 90 1500 000/00 RMK AO2 T02440228
53988KBKB BKB20190603214011006/03/19 21:40:31  5-MIN KBKB 040340Z AUTO 00000KT 9SM FEW065 24/23 A2996 260 90 1500 000/00 RMK AO2 T02440228
53988KBKB BKB20190603214511006/03/19 21:45:31  5-MIN KBKB 040345Z AUTO 00000KT 9SM FEW065 24/23 A2996 260 90 1500 000/00 RMK AO2 T02440228
53988KBKB BKB20190603215015306/03/19 21:50:31  5-MIN KBKB 040350Z AUTO 00000KT 9SM FEW065 24/22 A2996 260 87 1500 000/00 RMK AO2 SLP172 T02440222250 90 1400 000/00 RMK AO2 T02390222
53988KBKB BKB20190603235014506/03/19 23:50:31  5-MIN KBKB 040550Z AUTO 00000KT 7SM FEW060 23/22 A2997 250 93 1300 000/00 RMK AO2 SLP173 T02330222 10311 20233 403500200 53016
53988KBKB BKB20190603235510706/03/19 23:55:31  5-MIN KBKB 040555Z AUTO 00000KT 7SM CLR 23/22 A2997 260 93 1300 000/00 RMK AO2 T02330222
53988KBKB BKB20190604000010706/04/19 00:00:31  5-MIN KBKB 040600Z AUTO 00000KT 7SM CLR 23/22 A2997 250 90 1300 000/00 RMK AO2 T02330217
53988KBKB BKB20190604000510706/04/19 00:05:31  5-MIN KBKB 040605Z AUTO 00000KT 7SM CLR 24/22 A2997 250 87 1400 000/00 RMK AO2 T02390217
53988KBKB BKB20190604001010706/04/19 00:10:31  5-MIN KBKB 040610Z AUTO 00000KT 7SM CLR 24/22 A2997 250 90 1400 000/00 RMK AO2 T02390222
53988KBKB BKB20190604001506606/04/19 00:15:31  5-MIN KBKB 040615Z AUTO11 20233 403500200 53016
53988KBKB BKB20190604001511006/04/19 00:15:31  5-MIN KBKB 040615Z AUTO 00000KT 7SM FEW055 24/22 A2997 250 90 1400 000/00 RMK AO2 T02390222
53988KBKB BKB20190604002011006/04/19 00:20:31  5-MIN KBKB 040620Z AUTO 00000KT 7SM FEW055 24/22 A2997 250 90 1400 000/00 RMK AO2 T02390222
53988KBKB BKB20190604002017606/04/19 00:20:31  5-MIN KBKB 040620Z AUTO 00000KT 7SM FEW055 24/22 A2997 250 90 1400 000/00 RMK AO2 T0239022206/04/19 00:25:31 23/22 A2994 280 93 1300 000/00 RMK AO2 T02330222
53988KBKB BKB20190604002506006/04/19 00:25:31  5-MIN KBKB 040625Z AUTO 00000O2 T02330217
53988KBKB BKB20190604002510706/04/19 00:25:31  5-MIN KBKB 040625Z AUTO 00000KT 7SM CLR 24/22 A2997 250 90 1400 000/00 RMK AO2 T02390222
53988KBKB BKB20190604003016706/04/19 00:30:31  5-MIN KBKB 040630Z AUTO 00000KT 7SM CLR 24/22 A2997 250 90 1400 000/00 RMK AO2 T023900000KT 7SM CLR 24/22 A2997 250 90 1400 000/00 RMK AO2 T02390222
53988KBKB BKB20190604025012306/04/19 02:50:31  5-MIN KBKB 040850Z AUTO 00000KT 6SM BR CLR 23/22 A2994 280 93 1300 000/00 RMK AO2 SLP164 T02330222 50007
53988KBKB BKB20190604025511006/04/19 02:55:31  5-MIN KBKB 040855Z AUTO 00000KT 6SM BR CLR 23/22 A2995 270 93 1300 000/00 RMK AO2 T02330222
53988KBKB BKB20190604030011006/04/19 03:00:31  5-MIN KBKB 040900Z AUTO 00000KT 6SM BR CLR 23/22 A2994 280 93 1300 000/00 RMK AO2 T02330222
53988KBKB BKB20190604030511006/04/19 03:05:31  5-MIN KBKB 040905Z AUTO 00000KT 6SM BR CLR 24/22 A2994 280 90 1400 000/00 RMK AO2 T02390222
53988KBKB BKB20190604030515106/04/19 03:05:31  5-MIN KBKB 040905Z AUTO 00000KT 6SM BR CLR 24/22 A2994 280 90 14000000KT 6SM BR CLR 23/22 A2995 270 93 1300 000/00 RMK AO2 T02330222
53988KBKB BKB20190604031011006/04/19 03:10:31  5-MIN KBKB 040910Z AUTO 00000KT 6SM BR CLR 24/22 A2994 280 90 1400 000/00 RMK AO2 T02390222
53988KBKB BKB20190604031511006/04/19 03:15:31  5-MIN KBKB 040915Z AUTO 00000KT 6SM BR CLR 24/22 A2994 280 90 1400 000/00 RMK AO2 T02390222
53988KBKB BKB20190604031516406/04/19 03:15:31  5-MIN KBKB 040915Z AUTO 00000KT 6SM BR CLR 24/22 A2994 280 90 1400 0005Z AUTO 00000KT 6SM BR CLR 23/22 A2995 270 93 1300 000/00 RMK AO2 T02330222
53988KBKB BKB20190604032011006/04/19 03:20:31  5-MIN KBKB 040920Z AUTO 00000KT 6SM BR CLR 24/22 A2994 280 90 1400 000/00 RMK AO2 T02390222
53988KBKB BKB20190604032511006/04/19 03:25:31  5-MIN KBKB 040925Z AUTO 00000KT 6SM BR CLR 24/22 A2994 280 90 1400 000/00 RMK AO2 T02390222
53988KBKB BKB20190604032516606/04/19 03:25:31  5-MIN KBKB 040925Z AUTO 00000KT 6SM BR CLR 24/22 A5:31  5-MIN KBKB 040905Z AUTO 00000KT 6SM BR CLR 24/22 A2994 280 90 1400 000/00 RMK AO2 T02390222
53988KBKB BKB20190604033011006/04/19 03:30:31  5-MIN KBKB 040930Z AUTO 00000KT 6SM BR CLR 24/22 A2994 280 90 1400 000/00 RMK AO2 T02390222
53988KBKB BKB20190604033512906/04/19 03:35:31  5-MIN KBKB 040935Z AUTO 00000KT 6SM BR CLR 24/22 A2994 280 90 1400 0A2993 290 97 1300 000/00 RMK AO2 T02280222
53988KBKB BKB20190604045012106/04/19 04:50:31  5-MIN KBKB 041050Z AUTO 00000KT 2 1/2SM BR CLR 23/22 A2993 290 97 1300 000/00 RMK AO2 SLP160 T02280222
53988KBKB BKB20190604045511406/04/19 04:55:31  5-MIN KBKB 041055Z AUTO 00000KT 2 1/2SM BR CLR 23/22 A2993 290 97 1300 000/00 RMK AO2 T02280222
53988KBKB BKB20190604050011406/04/19 05:00:31  5-MIN KBKB 041100Z AUTO 00000KT 2 1/2SM BR CLR 23/22 A2993 290 93 1300 000/00 RMK AO2 T02280217
53988KBKB BKB20190604054511006/04/19 05:45:31  5-MIN KBKB 041145Z AUTO 00000KT 2SM BR CLR 23/22 A2995 270 93 1300 000/00 RMK AO2 T02280217
53988KBKB BKB20190604055013506/04/19 05:50:31  5-MIN KBKB 041150Z AUTO 00000KT 2SM BR CLR 23/22 A2995 270 93 1300 000/00 RMK AO2 SLP167 T02280217 10244 20228 53002
53988KBKB BKB20190604055511406/04/19 05:55:31  5-MIN KBKB 041155Z AUTO 00000KT 2 1/2SM BR CLR 23/22 A2995 270 97 1300 000/00 RMK AO2 T02280222
53988KBKB BKB20190604060011006/04/19 06:00:31  5-MIN KBKB 041200Z AUTO 00000KT 2SM BR CLR 23/22 A2995 270 93 1300 000/00 RMK AO2 T02330222
53988KBKB BKB20190604060511006/04/19 06:05:31  5-MIN KBKB 041205Z AUTO 00000KT 2SM BR CLR 23/22 A2995 270 93 1300 000/00 RMK AO2 T02330222
53988KBKB BKB20190604061011406/04/19 06:10:31  5-MIN KBKB 041210Z AUTO 00000KT 2 1/2SM BR CLR 23/22 A2995 270 93 1300 000/00 RMK AO2 T02330222
53988KBKB BKB20190604061511006/04/19 06:15:31  5-MIN KBKB 041215Z AUTO 00000KT 3SM BR CLR 24/23 A2995 270 93 1400 000/00 RMK AO2 T02390228
53988KBKB BKB20190604062011006/04/19 06:20:31  5-MIN KBKB 041220Z AUTO 00000KT 3SM BR CLR 24/23 A2996 260 97 1400 000/00 RMK AO2 T02390233
53988KBKB BKB20190604062511006/04/19 06:25:31  5-MIN KBKB 041225Z AUTO 00000KT 4SM BR CLR 24/23 A2996 260 93 1500 000/00 RMK AO2 T02440233
53988KBKB BKB20190604063011006/04/19 06:30:31  5-MIN KBKB 041230Z AUTO 00000KT 5SM BR CLR 24/23 A2996 260 93 1500 000/00 RMK AO2 T02440233
53988KBKB BKB20190604063511006/04/19 06:35:31  5-MIN KBKB 041235Z AUTO 00000KT 5SM BR CLR 25/23 A2996 260 90 1500 000/00 RMK AO2 T02500233
53988KBKB BKB20190604064011006/04/19 06:40:31  5-MIN KBKB 041240Z AUTO 00000KT 5SM BR CLR 26/23 A2996 260 87 1600 000/00 RMK AO2 T02560233
53988KBKB BKB20190604064511006/04/19 06:45:31  5-MIN KBKB 041245Z AUTO 00000KT 6SM BR CLR 26/23 A2997 260 87 1600 000/00 RMK AO2 T02560233
53988KBKB BKB20190604065011406/04/19 06:50:31  5-MIN KBKB 041250Z AUTO 00000KT 7SM CLR 26/23 A2997 250 84 1600 000/00 RMK AO2 SLP173 T02610233
53988KBKB BKB20190604065510706/04/19 06:55:31  5-MIN KBKB 041255Z AUTO 00000KT 9SM CLR 27/24 A2997 250 84 1700 000/00 RMK AO2 T02670239
53988KBKB BKB20190604070010706/04/19 07:00:31  5-MIN KBKB 041300Z AUTO 00000KT 9SM CLR 27/24 A2997 250 82 1800 000/00 RMK AO2 T02720239
53988KBKB BKB20190604070510806/04/19 07:05:31  5-MIN KBKB 041305Z AUTO 00000KT 10SM CLR 27/23 A2997 250 79 1800 000/00 RMK AO2 T02720233
53988KBKB BKB20190604071010806/04/19 07:10:31  5-MIN KBKB 041310Z AUTO 00000KT 10SM CLR 28/23 A2998 250 76 1800 000/00 RMK AO2 T02780233
53988KBKB BKB20190604071510806/04/19 07:15:31  5-MIN KBKB 041315Z AUTO 00000KT 10SM CLR 28/23 A2998 250 76 1800 000/00 RMK AO2 T02780233
53988KBKB BKB20190604072010806/04/19 07:20:31  5-MIN KBKB 041320Z AUTO 00000KT 10SM CLR 28/23 A2998 240 76 1800 000/00 RMK AO2 T02780233
53988KBKB BKB20190604072510806/04/19 07:25:31  5-MIN KBKB 041325Z AUTO 00000KT 10SM CLR 28/23 A2998 240 74 1900 000/00 RMK AO2 T02830233
53988KBKB BKB20190604073010806/04/19 07:30:31  5-MIN KBKB 041330Z AUTO 00000KT 10SM CLR 28/24 A2998 240 76 1900 000/00 RMK AO2 T02830239
53988KBKB BKB20190604073510806/04/19 07:35:31  5-MIN KBKB 041335Z AUTO 00000KT 10SM CLR 28/24 A2998 240 76 1900 000/00 RMK AO2 T02830239
53988KBKB BKB20190604074010806/04/19 07:40:31  5-MIN KBKB 041340Z AUTO VRB03KT 10SM CLR 29/24 A2998 240 74 1900 VRB/03 RMK AO2 T02890239
53988KBKB BKB20190604074510806/04/19 07:45:31  5-MIN KBKB 041345Z AUTO VRB03KT 10SM CLR 28/23 A2998 240 74 1900 VRB/03 RMK AO2 T02830233
53988KBKB BKB20190604075011506/04/19 07:50:31  5-MIN KBKB 041350Z AUTO VRB04KT 10SM CLR 29/24 A2998 240 74 1900 VRB/04 RMK AO2 SLP179 T02890239
53988KBKB BKB20190604075510806/04/19 07:55:31  5-MIN KBKB 041355Z AUTO 00000KT 10SM CLR 29/23 A2999 240 71 1900 000/00 RMK AO2 T02890233
53988KBKB BKB20190604080010806/04/19 08:00:31  5-MIN KBKB 041400Z AUTO VRB03KT 10SM CLR 29/24 A2999 240 71 2000 VRB/03 RMK AO2 T02940239
53988KBKB BKB20190604080510806/04/19 08:05:31  5-MIN KBKB 041405Z AUTO 21005KT 10SM CLR 29/23 A2999 240 71 1900 200/05 RMK AO2 T02890233
53988KBKB BKB20190604081010806/04/19 08:10:31  5-MIN KBKB 041410Z AUTO 00000KT 10SM CLR 29/23 A2999 240 71 1900 000/00 RMK AO2 T02890233
53988KBKB BKB20190604081510806/04/19 08:15:31  5-MIN KBKB 041415Z AUTO 00000KT 10SM CLR 29/24 A2998 240 71 2000 000/00 RMK AO2 T02940239
53988KBKB BKB20190604082010806/04/19 08:20:31  5-MIN KBKB 041420Z AUTO VRB03KT 10SM CLR 30/24 A2998 240 69 2100 VRB/03 RMK AO2 T03000239
53988KBKB BKB20190604082510806/04/19 08:25:31  5-MIN KBKB 041425Z AUTO VRB03KT 10SM CLR 30/24 A2999 240 69 2100 VRB/03 RMK AO2 T03000239
53988KBKB BKB20190604083010806/04/19 08:30:31  5-MIN KBKB 041430Z AUTO VRB03KT 10SM CLR 29/23 A2999 240 69 2000 VRB/03 RMK AO2 T02940233
53988KBKB BKB20190604083510806/04/19 08:35:31  5-MIN KBKB 041435Z AUTO 23004KT 10SM CLR 30/23 A2999 240 67 2100 230/04 RMK AO2 T03000233
53988KBKB BKB20190604084011106/04/19 08:40:31  5-MIN KBKB 041440Z AUTO VRB04KT 10SM FEW022 29/23 A2999 240 69 2000 VRB/04 RMK AO2 T02940233
53988KBKB BKB20190604084511106/04/19 08:45:31  5-MIN KBKB 041445Z AUTO VRB04KT 10SM SCT022 30/24 A2999 240 69 2100 VRB/04 RMK AO2 T03000239
53988KBKB BKB20190604085012406/04/19 08:50:31  5-MIN KBKB 041450Z AUTO VRB03KT 10SM FEW021 31/23 A2998 240 65 2100 VRB/03 RMK AO2 SLP179 T03060233 53006
53988KBKB BKB20190604085511106/04/19 08:55:31  5-MIN KBKB 041455Z AUTO VRB03KT 10SM FEW021 31/23 A2998 240 65 2100 VRB/03 RMK AO2 T03060233
53988KBKB BKB20190604090011106/04/19 09:00:31  5-MIN KBKB 041500Z AUTO 20004KT 10SM FEW021 31/23 A2999 240 65 2100 190/04 RMK AO2 T03060233
53988KBKB BKB20190604090511106/04/19 09:05:31  5-MIN KBKB 041505Z AUTO 00000KT 10SM FEW021 31/23 A2998 240 65 2100 000/00 RMK AO2 T03060233
53988KBKB BKB20190604091011106/04/19 09:10:31  5-MIN KBKB 041510Z AUTO 17003KT 10SM FEW021 31/23 A2998 240 65 2100 170/03 RMK AO2 T03060233
53988KBKB BKB20190604091510806/04/19 09:15:31  5-MIN KBKB 041515Z AUTO VRB03KT 10SM CLR 30/23 A2998 240 67 2100 VRB/03 RMK AO2 T03000233
53988KBKB BKB20190604092010806/04/19 09:20:31  5-MIN KBKB 041520Z AUTO 00000KT 10SM CLR 31/23 A2998 240 63 2200 000/00 RMK AO2 T03110233
53988KBKB BKB20190604092510806/04/19 09:25:31  5-MIN KBKB 041525Z AUTO 00000KT 10SM CLR 31/23 A2998 240 62 2100 000/00 RMK AO2 T03060228
53988KBKB BKB20190604093010806/04/19 09:30:31  5-MIN KBKB 041530Z AUTO 00000KT 10SM CLR 31/23 A2998 240 62 2100 000/00 RMK AO2 T03060228
53988KBKB BKB20190604093511106/04/19 09:35:31  5-MIN KBKB 041535Z AUTO 00000KT 10SM FEW032 31/23 A2999 240 62 2100 000/00 RMK AO2 T03060228
53988KBKB BKB20190604094011806/04/19 09:40:31  5-MIN KBKB 041540Z AUTO VRB04KT 10SM FEW032 FEW050 31/23 A2999 240 63 2200 VRB/04 RMK AO2 T03110233
53988KBKB BKB20190604094511806/04/19 09:45:31  5-MIN KBKB 041545Z AUTO 00000KT 10SM SCT032 SCT055 32/23 A2999 240 61 2200 000/00 RMK AO2 T03170233
53988KBKB BKB20190604095011806/04/19 09:50:31  5-MIN KBKB 041550Z AUTO 00000KT 10SM SCT032 32/23 A2998 240 59 2300 000/00 RMK AO2 SLP179 T03220233
53988KBKB BKB20190604095511806/04/19 09:55:31  5-MIN KBKB 041555Z AUTO VRB03KT 10SM SCT031 SCT041 32/23 A2998 240 58 2200 VRB/03 RMK AO2 T03170228
53988KBKB BKB20190604100019106/04/19 10:00:31  5-MIN KBKB 041600Z AUTO 00000KT 10SM 6/04/19 11:50:31  5-MIN KBKB 041750Z AUTO 16005KT 10SM FEW040 34/22 A2997 250 50 2500 160/05 RMK AO2 SLP172 T03390222 10339 20228 51011
53988KBKB BKB20190604115511806/04/19 11:55:31  5-MIN KBKB 041755Z AUTO VRB06KT 10SM FEW040 FEW080 32/22 A2997 250 55 2300 VRB/06 RMK AO2 T03220222
53988KBKB BKB20190604120011806/04/19 12:00:31  5-MIN KBKB 041800Z AUTO VRB03KT 10SM FEW040 FEW080 32/22 A2997 260 55 2300 VRB/03 RMK AO2 T03220222
53988KBKB BKB20190604120511806/04/19 12:05:31  5-MIN KBKB 041805Z AUTO VRB03KT 10SM FEW041 FEW090 33/23 A2996 260 55 2400 VRB/03 RMK AO2 T03330233
53988KBKB BKB20190604121011806/04/19 12:10:31  5-MIN KBKB 041810Z AUTO 00000KT 10SM FEW041 SCT090 32/23 A2996 260 58 2300 000/00 RMK AO2 T03170228
53988KBKB BKB20190604121512506/04/19 12:15:31  5-MIN KBKB 041815Z AUTO 00000KT 10SM FEW041 SCT070 SCT090 31/23 A2996 260 60 2200 000/00 RMK AO2 T03110228
53988KBKB BKB20190604122012506/04/19 12:20:31  5-MIN KBKB 041820Z AUTO VRB03KT 10SM FEW050 SCT070 BKN095 32/23 A2996 260 58 2300 VRB/03 RMK AO2 T03170228
53988KBKB BKB20190604122512506/04/19 12:25:31  5-MIN KBKB 041825Z AUTO VRB03KT 10SM FEW050 FEW070 SCT095 32/23 A2996 260 57 2300 VRB/03 RMK AO2 T03220228
53988KBKB BKB20190604123012506/04/19 12:30:31  5-MIN KBKB 041830Z AUTO VRB03KT 10SM FEW050 FEW070 SCT095 33/22 A2996 270 51 2500 VRB/03 RMK AO2 T03330222
53988KBKB BKB20190604123512506/04/19 12:35:31  5-MIN KBKB 041835Z AUTO VRB03KT 10SM FEW050 FEW070 SCT095 33/22 A2995 270 51 2500 VRB/03 RMK AO2 T03330222
53988KBKB BKB20190604124012506/04/19 12:40:31  5-MIN KBKB 041840Z AUTO 00000KT 10SM FEW045 FEW070 SCT100 33/22 A2995 270 51 2400 000/00 RMK AO2 T03280217
53988KBKB BKB20190604135012506/04/19 13:50:31  5-MIN KBKB 041950Z AUTO VRB06KT 10SM FEW046 FEW065 34/22 A2993 290 50 2500 VRB/06 RMK AO2 SLP160 T03390222
53988KBKB BKB20190604135511806/04/19 13:55:31  5-MIN KBKB 041955Z AUTO VRB03KT 10SM FEW046 FEW065 34/22 A2993 290 48 2500 VRB/03 RMK AO2 T03390217
53988KBKB BKB20190604140011806/04/19 14:00:31  5-MIN KBKB 042000Z AUTO VRB03KT 10SM FEW046 SCT065 34/22 A2993 290 48 2500 VRB/03 RMK AO2 T03390217
53988KBKB BKB20190604140511806/04/19 14:05:31  5-MIN KBKB 042005Z AUTO 12005KT 10SM SCT044 SCT060 33/22 A2993 290 51 2500 110/05 RMK AO2 T03330222
53988KBKB BKB20190604141011806/04/19 14:10:31  5-MIN KBKB 042010Z AUTO VRB03KT 10SM SCT044 BKN060 33/23 A2993 290 53 2500 VRB/03 RMK AO2 T03330228
53988KBKB BKB20190604141511806/04/19 14:15:31  5-MIN KBKB 042015Z AUTO VRB03KT 10SM SCT044 SCT065 33/22 A2993 290 51 2500 VRB/03 RMK AO2 T03330222
53988KBKB BKB20190604142010806/04/19 14:20:31  5-MIN KBKB 042020Z AUTO 10SM SCT044 SCT060 33/23 A2993 290 55 2400 M /M RMK AO2 T03280228
53988KBKB BKB20190604142511806/04/19 14:25:31  5-MIN KBKB 042025Z AUTO VRB06KT 10SM SCT044 SCT060 32/23 A2993 290 58 2300 VRB/06 RMK AO2 T03170228
53988KBKB BKB20190604143012506/04/19 14:30:31  5-MIN KBKB 042030Z AUTO VRB04KT 10SM FEW044 SCT060 SCT090 31/23 A2994 280 60 2200 VRB/04 RMK AO2 T03110228
53988KBKB BKB20190604143514006/04/19 14:35:31  5-MIN KBKB 042035Z AUTO VRB03KT 8SM -RA FEW042 FEW070 SCT090 30/24 A2994 280 69 2100 VRB/03 RMK AO2 RAB33 P0000 T03000239
53988KBKB BKB20190604144014006/04/19 14:40:31  5-MIN KBKB 042040Z AUTO 00000KT 6SM -RA SCT070 SCT090 BKN110 28/24 A2994 280 76 1900 000/00 RMK AO2 RAB33 P0001 T02830239
53988KBKB BKB20190604144515306/04/19 14:45:31  5-MIN KBKB 042045Z AUTO 00000KT 7SM -RA FEW042 SCT070 BKN090 29/26 A2994 280 82 2000 000/00 RMK AO2 RAB33 P0001 T0289025606/04/3330233
53988KBKB BKB20190604152012506/04/19 15:20:31  5-MIN KBKB 042120Z AUTO VRB03KT 10SM FEW044 SCT070 BKN100 34/23 A2991 310 51 2600 VRB/03 RMK AO2 T03390228
53988KBKB BKB20190604152512506/04/19 15:25:31  5-MIN KBKB 042125Z AUTO VRB05KT 10SM SCT044 SCT060 BKN075 33/23 A2991 310 53 2500 VRB/05 RMK AO2 T03330228
53988KBKB BKB20190604153012506/04/19 15:30:31  5-MIN KBKB 042130Z AUTO VRB06KT 10SM SCT044 SCT060 SCT075 33/22 A2990 310 51 2500 VRB/06 RMK AO2 T03330222
53988KBKB BKB20190604153512506/04/19 15:35:31  5-MIN KBKB 042135Z AUTO VRB03KT 10SM BKN044 BKN060 BKN075 33/22 A2990 310 53 2500 VRB/03 RMK AO2 T03280222
53988KBKB BKB20190604154011806/04/19 15:40:31  5-MIN KBKB 042140Z AUTO VRB04KT 10SM BKN044 BKN070 32/23 A2990 310 57 2400 VRB/04 RMK AO2 T03220228
53988KBKB BKB20190604154511806/04/19 15:45:31  5-MIN KBKB 042145Z AUTO VRB04KT 10SM BKN044 BKN060 32/22 A2991 310 56 2300 VRB/04 RMK AO2 T03170222
53988KBKB BKB20190604155012506/04/19 15:50:31  5-MIN KBKB 042150Z AUTO VRB05KT 10SM SCT046 BKN060 32/22 A2991 310 55 2400 VRB/05 RMK AO2 SLP152 T03220222
53988KBKB BKB20190604155511806/04/19 15:55:31  5-MIN KBKB 042155Z AUTO VRB05KT 10SM FEW044 SCT055 32/22 A2990 310 55 2400 VRB/05 RMK AO2 T03220222
53988KBKB BKB20190604160011806/04/19 16:00:31  5-MIN KBKB 042200Z AUTO 20004KT 10SM FEW044 SCT055 32/22 A2990 310 55 2400 200/04 RMK AO2 T03220222
53988KBKB BKB20190604160510806/04/19 16:05:31  5-MIN KBKB 042205Z AUTO 10SM FEW044 FEW055 32/22 A2990 310 56 2300 M /M RMK AO2 T03170222
53988KBKB BKB20190604161011106/04/19 16:10:31  5-MIN KBKB 042210Z AUTO VRB03KT 10SM FEW055 32/22 A2990 310 56 2300 VRB/03 RMK AO2 T03170222
53988KBKB BKB20190604161510806/04/19 16:15:31  5-MIN KBKB 042215Z AUTO 00000KT 10SM CLR 32/22 A2990 320 55 2400 000/00 RMK AO2 T03220222
53988KBKB BKB20190604162010706/04/19 16:20:31  5-MIN KBKB 042220Z AUTO VRB06KT 10SM CLR 32/22 A2990 320 53 2400 VRB/06RMK AO2 T02940228
53988KBKB BKB20190604173010806/04/19 17:30:31  5-MIN KBKB 042330Z AUTO 00000KT 10SM CLR 29/23 A2989 320 67 2100 000/00 RMK AO2 T02940228
53988KBKB BKB20190604173510806/04/19 17:35:31  5-MIN KBKB 042335Z AUTO 00000KT 10SM CLR 29/23 A2989 330 67 2100 000/00 RMK AO2 T02940228
53988KBKB BKB20190604174010806/04/19 17:40:31  5-MIN KBKB 042340Z AUTO 00000KT 10SM CLR 29/23 A2989 330 67 2100 000/00 RMK AO2 T02940228
53988KBKB BKB20190605014512006/05/19 01:45:31  5-MIN KBKB 050745Z AUTO 00000KT 9SM -RA OVC085 24/23 A2992 290 93 1500 000/00 RMK AO2 P0001 T02440233
53988KBKB BKB20190605015012706/05/19 01:50:31  5-MIN KBKB 050750Z AUTO 00000KT 9SM -RA BKN085 24/23 A2993 290 93 1500 000/00 RMK AO2 SLP157 P0002 T02440233
53988KBKB BKB20190605015512006/05/19 01:55:31  5-MIN KBKB 050755Z AUTO 00000KT 8SM -RA BKN085 24/23 A2992 290 93 1500 000/00 RMK AO2 P0000 T02440233
53988KBKB BKB20190605020012706/05/19 02:00:31  5-MIN KBKB 050800Z AUTO 00000KT 7SM -RA SCT085 SCT120 24/23 A2992 300 93 1500 000/00 RMK AO2 P0000 T02440233
53988KBKB BKB20190605020513006/05/19 02:05:31  5-MIN KBKB 050805Z AUTO 00000KT 6SM -RA BR SCT090 BKN110 24/23 A2992 290 93 1500 000/00 RMK AO2 P0001 T02440233
53988KBKB BKB20190605021013706/05/19 02:10:31  5-MIN KBKB 050810Z AUTO 00000KT 5SM -RA BR SCT080 BKN100 BKN120 24/23 A2992 300 93 1500 000/00 RMK AO2 P0002 T02440233
53988KBKB BKB20190605021513706/05/19 02:15:31  5-MIN KBKB 050815Z AUTO 00000KT 5SM -RA BR FEW065 SCT080 BKN095 24/23 A2992 300 93 1500 000/00 RMK AO2 P0002 T02440233
53988KBKB BKB20190605022013706/05/19 02:20:31  5-MIN KBKB 050820Z AUTO 00000KT 6SM -RA BR FEW060 BKN095 BKN110 24/23 A2992 300 93 1500 000/00 RMK AO2 P0003 T02440233
53988KBKB BKB20190605022513406/05/19 02:25:31  5-MIN KBKB 050825Z AUTO 00000KT 7SM -RA FEW065 SCT095 OVC110 24/23 A2992 300 93 1500 000/00 RMK AO2 P0003 T02440233
53988KBKB BKB20190605023013406/05/19 02:30:31  5-MIN KBKB 050830Z AUTO 00000KT 9SM -RA FEW065 SCT095 OVC120 24/23 A2992 300 93 1500 000/00 RMK AO2 P0003 T02440233
53988KBKB BKB20190605023513506/05/19 02:35:31  5-MIN KBKB 050835Z AUTO 00000KT 10SM -RA FEW065 SCT095 OVC120 24/23 A2992 300 93 1500 000/00 RMK AO2 P0003 T02440233
53988KBKB BKB20190605024012806/05/19 02:40:31  5-MIN KBKB 050840Z AUTO 00000KT 10SM -RA FEW095 OVC110 24/23 A2992 300 93 1500 000/00 RMK AO2 P0003 T02440233
53988KBKB BKB20190605024512106/05/19 02:45:31  5-MIN KBKB 050845Z AUTO 00000KT 10SM -RA OVC110 24/23 A2992 300 93 1500 000/00 RMK AO2 P0003 T02440233
53988KBKB BKB20190605025014006/05/19 02:50:31  5-MIN KBKB 050850Z AUTO 00000KT 10SM -RA OVC110 24/23 A2992 300 93 1500 000/00 RMK AO2 SLP156 P0003 60006 T02440233 55001
53988KBKB BKB20190605025512806/05/19 02:55:31  5-MIN KBKB 050855Z AUTO 00000KT 10SM -RA FEW090 OVC110 24/23 A2992 300 97 1400 000/00 RMK AO2 P0000 T02390233
53988KBKB BKB20190605030012806/05/19 03:00:31  5-MIN KBKB 050900Z AUTO 00000KT 10SM -RA FEW075 OVC110 24/23 A2992 300 97 1400 000/00 RMK AO2 P0000 T02390233
53988KBKB BKB20190605030512806/05/19 03:05:31  5-MIN KBKB 050905Z AUTO 00000KT 10SM -RA SCT090 OVC110 24/23 A2992 300 97 1400 000/00 RMK AO2 P0000 T02390233
53988KBKB BKB20190605031012706/05/19 03:10:31  5-MIN KBKB 050910Z AUTO 00000KT 9SM -RA BKN085 OVC110 24/23 A2992 300 97 1400 000/00 RMK AO2 P0000 T02390233
53988KBKB BKB20190605031512706/05/19 03:15:31  5-MIN KBKB 050915Z AUTO 00000KT 7SM -RA BKN085 OVC110 24/23 A2992 300 93 1500 000/00 RMK AO2 P0000 T02440233
53988KBKB BKB20190605032012706/05/19 03:20:31  5-MIN KBKB 050920Z AUTO 00000KT 7SM -RA BKN080 OVC110 24/23 A2992 300 93 1500 000/00 RMK AO2 P0000 T02440233
53988KBKB BKB20190605032512706/05/19 03:25:31  5-MIN KBKB 050925Z AUTO 00000KT 7SM -RA BKN075 OVC100 24/23 A2992 300 93 1500 000/00 RMK AO2 P0001 T02440233
53988KBKB BKB20190605033012306/05/19 03:30:31  5-MIN KBKB 050930Z AUTO 00000KT 6SM -RA BR OVC075 24/23 A2992 300 97 1400 000/00 RMK AO2 P0001 T02390233
53988KBKB BKB20190605033512306/05/19 03:35:31  5-MIN KBKB 050935Z AUTO 00000KT 5SM -RA BR OVC075 24/23 A2992 300 97 1400 000/00 RMK AO2 P0001 T02390233
53988KBKB BKB20190605034012306/05/19 03:40:31  5-MIN KBKB 050940Z AUTO 00000KT 5SM -RA BR OVC070 24/23 A2992 300 97 1400 000/00 RMK AO2 P0002 T02390233
53988KBKB BKB20190605034512306/05/19 03:45:31  5-MIN KBKB 050945Z AUTO 00000KT 5SM -RA BR OVC070 24/23 A2992 290 97 1400 000/00 RMK AO2 P0002 T02390233
53988KBKB BKB20190605035013006/05/19 03:50:31  5-MIN KBKB 050950Z AUTO 00000KT 6SM -RA BR OVC070 24/23 A2993 290 97 1400 000/00 RMK AO2 SLP159 P0002 T02390233
53988KBKB BKB20190605035513006/05/19 03:55:31  5-MIN KBKB 050955Z AUTO 00000KT 6SM -RA BR SCT050 OVC070 24/23 A2993 290 97 1400 000/00 RMK AO2 P0001 T02390233
53988KBKB BKB20190605040012906/05/19 04:00:31  5-MIN KBKB 051000Z AUTO 00000KT 4SM RA BR BKN050 OVC070 24/23 A2993 290 97 1400 000/00 RMK AO2 P0002 T02390233
53988KBKB BKB20190605040512906/05/19 04:05:31  5-MIN KBKB 051005Z AUTO 00000KT 3SM RA BR BKN050 OVC070 24/23 A2993 290 97 1400 000/00 RMK AO2 P0004 T02390233
53988KBKB BKB20190605041012906/05/19 04:10:31  5-MIN KBKB 051010Z AUTO 00000KT 3SM RA BR BKN048 OVC065 24/23 A2993 290 97 1400 000/00 RMK AO2 P0006 T02390233
53988KBKB BKB20190605041513006/05/19 04:15:31  5-MIN KBKB 051015Z AUTO 00000KT 3SM -RA BR BKN048 OVC065 24/23 A2993 290 97 1400 000/00 RMK AO2 P0007 T02390233
53988KBKB BKB20190605042012306/05/19 04:20:31  5-MIN KBKB 051020Z AUTO 00000KT 3SM -RA BR OVC048 24/23 A2993 290 97 1400 000/00 RMK AO2 P0007 T02390233
53988KBKB BKB20190605042512206/05/19 04:25:31  5-MIN KBKB 051025Z AUTO 00000KT 3SM RA BR OVC048 24/23 A2992 290 97 1400 000/00 RMK AO2 P0008 T02390233
53988KBKB BKB20190605043012206/05/19 04:30:31  5-MIN KBKB 051030Z AUTO 00000KT 4SM RA BR OVC050 24/23 A2992 290 93 1400 000/00 RMK AO2 P0009 T02390228
53988KBKB BKB20190605043512906/05/19 04:35:31  5-MIN KBKB 051035Z AUTO 00000KT 4SM RA BR BKN050 OVC065 24/23 A2992 300 93 1400 000/00 RMK AO2 P0011 T02390228
53988KBKB BKB20190605044013006/05/19 04:40:31  5-MIN KBKB 051040Z AUTO 00000KT 4SM -RA BR BKN055 OVC080 24/23 A2992 300 93 1400 000/00 RMK AO2 P0012 T02390228
53988KBKB BKB20190605044512906/05/19 04:45:31  5-MIN KBKB 051045Z AUTO 00000KT 4SM RA BR BKN050 OVC075 24/23 A2992 300 93 1400 000/00 RMK AO2 P0013 T02390228
53988KBKB BKB20190605045014306/05/19 04:50:31  5-MIN KBKB 051050Z AUTO 00000KT 4SM RA BR FEW025 BKN055 OVC075 24/23 A2992 300 93 1400 000/00 RMK AO2 SLP157 P0014 T02390228
53988KBKB BKB20190605045513706/05/19 04:55:31  5-MIN KBKB 051055Z AUTO 00000KT 5SM -RA BR FEW025 BKN055 OVC075 24/23 A2993 290 93 1400 000/00 RMK AO2 P0000 T02390228
53988KBKB BKB20190605050013706/05/19 05:00:31  5-MIN KBKB 051100Z AUTO 00000KT 5SM -RA BR SCT023 BKN060 OVC075 24/23 A2993 290 93 1400 000/00 RMK AO2 P0000 T02390228
53988KBKB BKB20190605050513706/05/19 05:05:31  5-MIN KBKB 051105Z AUTO 00000KT 6SM -RA BR SCT025 BKN055 OVC075 24/23 A2993 290 93 1400 000/00 RMK AO2 P0001 T02390228
53988KBKB BKB20190605051013406/05/19 05:10:31  5-MIN KBKB 051110Z AUTO 00000KT 8SM -RA FEW025 SCT055 OVC075 24/23 A2993 290 93 1400 000/00 RMK AO2 P0001 T02390228
53988KBKB BKB20190605051513406/05/19 05:15:31  5-MIN KBKB 051115Z AUTO 00000KT 9SM -RA FEW025 BKN060 OVC075 23/23 A2993 290 97 1400 000/00 RMK AO2 P0001 T02330228
53988KBKB BKB20190605052013506/05/19 05:20:31  5-MIN KBKB 051120Z AUTO 00000KT 10SM -RA FEW023 BKN060 OVC075 23/22 A2993 290 93 1400 000/00 RMK AO2 P0001 T02330222
53988KBKB BKB20190605052516506/05/19 05:25:31  5-MIN KBKB 051125Z AUTO 00000KT 5SM RA BR FEW023 BKN060 OVC075 23/22 A2994 280 93 1400 000/00 RMK AO2 P0004 T0233022206/05/19 05O2 P0006 T02280217
53988KBKB BKB20190605055016706/05/19 05:50:31  5-MIN KBKB 051150Z AUTO 00000KT 6SM -RA BR SCT045 OVC055 23/22 A2994 280 93 1300 000/00 RMK AO2 SLP162 P0006 60029 70030 T02280217 10250 20228 58007
53988KBKB BKB20190605055513006/05/19 05:55:31  5-MIN KBKB 051155Z AUTO 00000KT 5SM -RA BR BKN040 OVC050 23/22 A2994 280 93 1300 000/00 RMK AO2 P0001 T02280217
53988KBKB BKB20190605060013006/05/19 06:00:31  5-MIN KBKB 051200Z AUTO 05003KT 5SM -RA BR BKN040 OVC055 23/22 A2994 280 93 1300 040/03 RMK AO2 P0001 T02280217
53988KBKB BKB20190605060513706/05/19 06:05:31  5-MIN KBKB 051205Z AUTO 00000KT 5SM -RA BR BKN038 BKN049 OVC060 23/22 A2993 290 93 1300 000/00 RMK AO2 P0002 T02280217
53988KBKB BKB20190605061013706/05/19 06:10:31  5-MIN KBKB 051210Z AUTO 00000KT 6SM -RA BR SCT036 BKN044 OVC070 23/22 A2993 290 93 1300 000/00 RMK AO2 P0002 T02280217
53988KBKB BKB20190605061513406/05/19 06:15:31  5-MIN KBKB 051215Z AUTO 00000KT 9SM -RA FEW037 BKN045 OVC085 23/22 A2993 290 93 1300 000/00 RMK AO2 P0002 T02280217
53988KBKB BKB20190605062013706/05/19 06:20:31  5-MIN KBKB 051220Z AUTO 00000KT 10SM SCT039 BKN065 OVC080 23/22 A2993 290 93 1300 000/00 RMK AO2 RAE19 P0002 T02280217
53988KBKB BKB20190605062513706/05/19 06:25:31  5-MIN KBKB 051225Z AUTO VRB03KT 10SM FEW044 BKN060 OVC075 23/22 A2993 290 93 1300 VRB/03 RMK AO2 RAE19 P0002 T02280217
53988KBKB BKB20190605063013506/05/19 06:30:31  5-MIN KBKB 051230Z AUTO 00000KT 10SM -RA FEW044 BKN060 OVC090 23/22 A2993 290 93 1300 000/00 RMK AO2 P0002 T02280217
53988KBKB BKB20190605063512806/05/19 06:35:31  5-MIN KBKB 051235Z AUTO 00000KT 10SM -RA BKN060 OVC090 23/22 A2993 290 93 1300 000/00 RMK AO2 P0002 T02280217
53988KBKB BKB20190605064019606/05/19 06:40:31  5-MIN KBKB 051240Z AUTO 00000KT 10SM -RA FEW043 BKN060 OVC095 23/22 A2993 290 93 1300 000/00 RMK AO2 P0002 T02280217OVC100 23/22 A2992 290 93 1300 000/00 RMK AO2 P0000 T02280217
53988KBKB BKB20190605070013506/05/19 07:00:31  5-MIN KBKB 051300Z AUTO VRB03KT 10SM -RA FEW004 BKN060 OVC100 23/22 A2993 290 93 1300 VRB/03 RMK AO2 P0000 T02280217
53988KBKB BKB20190605070513506/05/19 07:05:31  5-MIN KBKB 051305Z AUTO 00000KT 10SM -RA FEW004 BKN060 OVC080 23/22 A2993 290 93 1300 000/00 RMK AO2 P0000 T02280217
53988KBKB BKB20190605071013506/05/19 07:10:31  5-MIN KBKB 051310Z AUTO VRB03KT 10SM -RA SCT004 BKN050 OVC075 23/22 A2992 300 97 1300 VRB/03 RMK AO2 P0000 T02280222
53988KBKB BKB20190605071513506/05/19 07:15:31  5-MIN KBKB 051315Z AUTO VRB03KT 10SM -RA FEW004 SCT045 OVC060 23/22 A2992 300 93 1400 VRB/03 RMK AO2 P0000 T02330222
53988KBKB BKB20190605072013506/05/19 07:20:31  5-MIN KBKB 051320Z AUTO 00000KT 10SM -RA FEW004 BKN049 OVC060 23/22 A2992 290 93 1400 000/00 RMK AO2 P0000 T02330222
53988KBKB BKB20190605072513706/05/19 07:25:31  5-MIN KBKB 051325Z AUTO 00000KT 6SM -RA BR FEW004 BKN031 OVC060 23/22 A2994 280 93 1400 000/00 RMK AO2 P0001 T02330222
53988KBKB BKB20190605073013906/05/19 07:30:31  5-MIN KBKB 051330Z AUTO 25003KT 3/4SM +RA BR FEW004 BKN031 OVC060 23/22 A2994 280 93 1300 240/03 RMK AO2 P0013 T02330222
53988KBKB BKB20190605073513906/05/19 07:35:31  5-MIN KBKB 051335Z AUTO 00000KT 1/2SM +RA FG FEW004 BKN016 OVC046 23/22 A2994 280 97 1300 000/00 RMK AO2 P0020 T02280222
53988KBKB BKB20190605074013906/05/19 07:40:31  5-MIN KBKB 051340Z AUTO 06003KT 1/2SM +RA FG FEW004 BKN016 OVC045 23/22 A2994 280 97 1300 060/03 RMK AO2 P0030 T02280222
53988KBKB BKB20190605074513906/05/19 07:45:31  5-MIN KBKB 051345Z AUTO VRB03KT 3/4SM +RA BR FEW004 BKN020 OVC037 23/22 A2994 280 97 1300 VRB/03 RMK AO2 P0033 T02280222
53988KBKB BKB20190605075008806/05/19 07:50:31  5-MIN KBKB 051350Z AUTO VRB04KT 1050/04 RMK AO2 RAE30 P0001 T02390228
53988KBKB BKB20190605085014906/05/19 08:50:31  5-MIN KBKB 051450Z AUTO 00000KT 10SM BKN005 OVC027 24/23 A2994 280 93 1400 000/00 RMK AO2 RAE30 SLP162 P0001 60039 T02390228 53007
53988KBKB BKB20190605085512506/05/19 08:55:31  5-MIN KBKB 051455Z AUTO 00000KT 10SM BKN005 BKN027 OVC110 24/23 A2994 280 93 1400 000/00 RMK AO2 T02390228
53988KBKB BKB20190605090013706/05/19 09:00:31  5-MIN KBKB 051500Z AUTO 00000KT 10SM BKN005 BKN026 OVC110 24/23 A2994 280 93 1400 000/00 RMK AO2 CIG 003V007 T02390228
53988KBKB BKB20190605090511806/05/19 09:05:31  5-MIN KBKB 051505Z AUTO 00000KT 10SM BKN005 OVC110 24/23 A2994 280 93 1400 000/00 RMK AO2 T02390228
53988KBKB BKB20190605091011106/05/19 09:10:31  5-MIN KBKB 051510Z AUTO 00000KT 10SM OVC005 24/23 A2994 280 93 1400 000/00 RMK AO2 T02390228
53988KBKB BKB20190605091512306/05/19 09:15:31  5-MIN KBKB 051515Z AUTO 00000KT 10SM OVC005 24/23 A2994 280 93 1400 000/00 RMK AO2 CIG 004V009 T02390228
53988KBKB BKB20190605092012306/05/19 09:20:31  5-MIN KBKB 051520Z AUTO 00000KT 10SM OVC005 24/23 A2994 280 93 1400 000/00 RMK AO2 CIG 004V009 T02390228
53988KBKB BKB20190605092512306/05/19 09:25:31  5-MIN KBKB 051525Z AUTO 00000KT 10SM OVC006 24/23 A2994 280 93 1400 000/00 RMK AO2 CIG 004V009 T02390228
53988KBKB BKB20190605093019006/05/19 09:30:31  5-MIN KBKB 051530Z AUTO 00000KT 10SM OVC006 24/23 A2994 280 90 1500 000/00 RMK AO2 CIG 004V010 T02440228OVC080 24/23 A2995 270 90 1500 000/00 RMK AO2 RAB00 P0000 T02440228
53988KBKB BKB20190605100514106/05/19 10:05:31  5-MIN KBKB 051605Z AUTO 00000KT 10SM -RA SCT008 BKN050 OVC080 24/23 A2995 270 90 1500 000/00 RMK AO2 RAB00 P0000 T02440228
53988KBKB BKB20190605101014106/05/19 10:10:31  5-MIN KBKB 051610Z AUTO 00000KT 10SM -RA FEW008 BKN050 OVC085 24/23 A2995 270 90 1500 000/00 RMK AO2 RAB00 P0000 T02440228
53988KBKB BKB20190605101514106/05/19 10:15:31  5-MIN KBKB 051615Z AUTO 00000KT 10SM -RA FEW008 BKN049 OVC085 24/23 A2995 270 90 1500 000/00 RMK AO2 RAB00 P0000 T02440228
53988KBKB BKB20190605102014106/05/19 10:20:31  5-MIN KBKB 051620Z AUTO 00000KT 10SM -RA SCT049 BKN070 OVC080 24/23 A2995 270 90 1500 000/00 RMK AO2 RAB00 P0000 T02440228
53988KBKB BKB20190605102514006/05/19 10:25:31  5-MIN KBKB 051625Z AUTO 00000KT 9SM -RA FEW014 SCT049 OVC070 24/23 A2995 270 90 1500 000/00 RMK AO2 RAB00 P0000 T02440228
53988KBKB BKB20190605103014206/05/19 10:30:31  5-MIN KBKB 051630Z AUTO 00000KT 3SM RA BR FEW011 BKN035 OVC070 24/23 A2996 270 93 1400 000/00 RMK AO2 RAB00 P0003 T02390228
53988KBKB BKB20190605103514206/05/19 10:35:31  5-MIN KBKB 051635Z AUTO VRB03KT 2SM RA BR SCT013 BKN048 OVC065 24/22 A2995 270 90 1400 VRB/03 RMK AO2 RAB00 P0004 T02390222
53988KBKB BKB20190605104014306/05/19 10:40:31  5-MIN KBKB 051640Z AUTO 00000KT 4SM -RA BR FEW013 BKN047 OVC065 24/23 A2995 280 93 1400 000/00 RMK AO2 RAB00 P0005 T02390228
53988KBKB BKB20190605104514006/05/19 10:45:31  5-MIN KBKB 051645Z AUTO 00000KT 8SM -RA FEW010 BKN065 OVC080 24/23 A2995 270 93 1400 000/00 RMK AO2 RAB00 P0005 T02390228
53988KBKB BKB20190605105015906/05/19 10:50:31  5-MIN KBKB 051650Z AUTO VRB03KT 8SM -RA FEW013 SCT049 OVC065 24/23 A2995 270 93 1400 VRB/03 RMK AO2 RAB00 SLP167 P0005 T0239022806 T02390228
53988KBKB BKB20190605110513406/05/19 11:05:31  5-MIN KBKB 051705Z AUTO 00000KT 7SM -RA FEW055 BKN070 OVC090 24/23 A2994 280 93 1400 000/00 RMK AO2 P0001 T02390228
53988KBKB BKB20190605111013706/05/19 11:10:31  5-MIN KBKB 051710Z AUTO 00000KT 6SM -RA BR BKN065 BKN080 OVC095 24/23 A2994 280 93 1400 000/00 RMK AO2 P0002 T02390228
53988KBKB BKB20190605111513406/05/19 11:15:31  5-MIN KBKB 051715Z AUTO 00000KT 7SM -RA SCT060 BKN070 OVC090 24/23 A2994 280 93 1400 000/00 RMK AO2 P0002 T02390228
53988KBKB BKB20190605112013406/05/19 11:20:31  5-MIN KBKB 051720Z AUTO 00000KT 9SM -RA FEW055 BKN075 OVC090 24/23 A2994 280 93 1400 000/00 RMK AO2 P0002 T02390228
53988KBKB BKB20190605112513506/05/19 11:25:31  5-MIN KBKB 051725Z AUTO 00000KT 10SM -RA SCT055 BKN070 OVC095 24/23 A2994 280 93 1400 000/00 RMK AO2 P0002 T02390228
53988KBKB BKB20190605113012806/05/19 11:30:31  5-MIN KBKB 051730Z AUTO 00000KT 10SM -RA SCT055 OVC070 24/23 A2993 280 93 1400 000/00 RMK AO2 P0002 T02390228
53988KBKB BKB20190605113513506/05/19 11:35:31  5-MIN KBKB 051735Z AUTO 00000KT 10SM -RA FEW006 SCT055 OVC070 24/23 A2993 290 93 1400 000/00 RMK AO2 P0003 T02390228
53988KBKB BKB20190605114012706/05/19 11:40:31  5-MIN KBKB 051740Z AUTO 00000KT 8SM -RA FEW006 OVC065 24/23 A2993 290 93 1400 000/00 RMK AO2 P0003 T02390228
53988KBKB BKB20190605114512706/05/19 11:45:31  5-MIN KBKB 051745Z AUTO VRB03KT 8SM -RA FEW006 OVC065 24/23 A2993 290 93 1400 VRB/03 RMK AO2 P0004 T02390228
53988KBKB BKB20190605115015806/05/19 11:50:31  5-MIN KBKB 051750Z AUTO 00000KT 8SM -RA FEW006 OVC065 24/23 A2993 290 93 1400 000/00 RMK AO2 SLP162 P0004 60048 T02390228 10244 20228 51004
53988KBKB BKB20190605115513406/05/19 11:55:31  5-MIN KBKB 051755Z AUTO 00000KT 9SM -RA FEW006 FEW022 OVC065 24/23 A2993 290 93 1400 000/00 RMK AO2 P0000 T02390228
53988KBKB BKB20190605120013406/05/19 12:00:31  5-MIN KBKB 051800Z AUTO VRB03KT 9SM -RA FEW006 SCT020 OVC065 24/23 A2994 280 93 1400 VRB/03 RMK AO2 P0000 T02390228
53988KBKB BKB20190605120513406/05/19 12:05:31  5-MIN KBKB 051805Z AUTO VRB04KT 9SM -RA SCT006 BKN020 OVC065 24/23 A2994 280 93 1400 VRB/04 RMK AO2 P0000 T02390228
53988KBKB BKB20190605121013406/05/19 12:10:31  5-MIN KBKB 051810Z AUTO 00000KT 9SM -RA SCT007 BKN014 OVC065 24/23 A2994 280 93 1400 000/00 RMK AO2 P0001 T02390228
53988KBKB BKB20190605121513406/05/19 12:15:31  5-MIN KBKB 051815Z AUTO VRB03KT 9SM -RA SCT007 BKN014 OVC065 24/22 A2994 280 90 1400 VRB/03 RMK AO2 P0001 T02390222
53988KBKB BKB20190605122014706/05/19 12:20:31  5-MIN KBKB 051820Z AUTO 13003KT 10SM -RA SCT006 BKN015 OVC070 23/22 A2994 280 93 1400 130/03 RMK AO2 CIG 011V023 P0001 T02330222
53988KBKB BKB20190605122514706/05/19 12:25:31  5-MIN KBKB 051825Z AUTO VRB03KT 10SM -RA SCT006 BKN015 OVC080 23/22 A2993 290 93 1400 VRB/03 RMK AO2 CIG 011V031 P0001 T02330222
53988KBKB BKB20190605123013506/05/19 12:30:31  5-MIN KBKB 051830Z AUTO 00000KT 10SM -RA SCT008 BKN070 OVC085 23/22 A2993 290 93 1400 000/00 RMK AO2 P0002 T02330222
53988KBKB BKB20190605123513506/05/19 12:35:31  5-MIN KBKB 051835Z AUTO VRB03KT 10SM -RA FEW010 BKN075 OVC095 23/22 A2993 290 93 1400 VRB/03 RMK AO2 P0002 T02330222
53988KBKB BKB20190605124013506/05/19 12:40:31  5-MIN KBKB 051840Z AUTO VRB03KT 10SM -RA FEW005 BKN070 OVC080 23/22 A2992 300 90 1400 VRB/03 RMK AO2 P0002 T02330217
53988KBKB BKB20190605124016306/05/19 12:40:31  5-MIN KBKB 051840Z 13:10:31  5-MIN KBKB 051910Z AUTO 00000KT 9SM -RA FEW046 BKN070 OVC080 23/22 A2991 310 93 1400 000/00 RMK AO2 P0001 T02330222
53988KBKB BKB20190605124512806/05/19 12:45:31  5-MIN KBKB 051845Z AUTO 00000KT 10SM -RA BKN070 OVC085 23/22 A2992 300 90 1400 000/00 RMK AO2 P0002 T02330217
53988KBKB BKB20190605125013506/05/19 12:50:31  5-MIN KBKB 051850Z AUTO 12003KT 10SM -RA BKN070 OVC085 23/22 A2992 300 90 1400 120/03 RMK AO2 SLP157 P0002 T02330217
53988KBKB BKB20190605125512806/05/19 12:55:31  5-MIN KBKB 051855Z AUTO VRB03KT 10SM -RA BKN070 OVC085 23/22 A2991 300 90 1400 VRB/03 RMK AO2 P0000 T02330217
53988KBKB BKB20190605130012006/05/19 13:00:31  5-MIN KBKB 051900Z AUTO 00000KT 9SM -RA OVC070 23/22 A2991 310 93 1400 000/00 RMK AO2 P0001 T02330222
53988KBKB BKB20190605130512706/05/19 13:05:31  5-MIN KBKB 051905Z AUTO VRB03KT 9SM -RA BKN070 OVC080 24/22 A2991 310 90 1400 VRB/03 RMK AO2 P0001 T02390222
53988KBKB BKB20190605131013406/05/19 13:10:31  5-MIN KBKB 051910Z AUTO 00000KT 9SM -RA FEW046 BKN070 OVC080 23/22 A2991 310 93 1400 000/00 RMK AO2 P0001 T02330222
53988KBKB BKB20190605131513506/05/19 13:15:31  5-MIN KBKB 051915Z AUTO 00000KT 10SM -RA SCT006 SCT043 OVC070 24/22 A2991 310 90 1400 000/00 RMK AO2 P0001 T02390222
53988KBKB BKB20190605132013506/05/19 13:20:31  5-MIN KBKB 051920Z AUTO VRB04KT 10SM -RA SCT006 SCT041 OVC070 24/22 A2991 310 90 1500 VRB/04 RMK AO2 P0001 T02390222
53988KBKB BKB20190605132513506/05/19 13:25:31  5-MIN KBKB 051925Z AUTO 11003KT 10SM -RA FEW006 SCT038 OVC075 23/22 A2991 310 93 1400 110/03 RMK AO2 P0001 T02330222
53988KBKB BKB20190605133013506/05/19 13:30:31  5-MIN KBKB 051930Z AUTO VRB03KT 10SM -RA SCT008 BKN040 OVC075 24/22 A2990 310 90 1500 VRB/03 RMK AO2 P0001 T02390222
53988KBKB BKB20190605133513506/05/19 13:35:31  5-MIN KBKB 051935Z AUTO 00000KT 10SM -RA SCT008 BKN035 OVC075 24/22 A2991 310 90 1500 000/00 RMK AO2 P0001 T02390222
53988KBKB BKB20190605134013506/05/19 13:40:31  5-MIN KBKB 051940Z AUTO 00000KT 10SM -RA SCT008 BKN037 BKN075 24/22 A2990 320 90 1500 000/00 RMK AO2 P0001 T02390222
53988KBKB BKB20190605134513706/05/19 13:45:31  5-MIN KBKB 051945Z AUTO VRB03KT 10SM FEW008 SCT035 BKN075 24/22 A2990 320 90 1500 VRB/03 RMK AO2 RAE42 P0001 T02390222
53988KBKB BKB20190605135014406/05/19 13:50:31  5-MIN KBKB 051950Z AUTO 00000KT 10SM FEW010 SCT033 BKN080 24/22 A2990 320 90 1500 000/00 RMK AO2 RAE42 SLP149 P0001 T02390222
53988KBKB BKB20190605135519606/05/19 13:55:31  5-MIN KBKB 051955Z AUTO 00000KT 10SM FEW007 SCT080 23/22 A2989 320 90 1400 000000KT 10SM FEW024 SCT031 OVC060 23/21 A2986 350 90 1400 000/00 RMK AO2 RAE49 SLP137 P0001 T02280211
53988KBKB BKB20190605155512506/05/19 15:55:31  5-MIN KBKB 052155Z AUTO 00000KT 10SM FEW022 SCT034 OVC060 23/21 A2986 350 90 1400 000/00 RMK AO2 T02280211
53988KBKB BKB20190605160012506/05/19 16:00:31  5-MIN KBKB 052200Z AUTO 00000KT 10SM FEW026 SCT043 OVC065 23/21 A2986 350 90 1400 000/00 RMK AO2 T02280211
53988KBKB BKB20190605160514106/05/19 16:05:31  5-MIN KBKB 052205Z AUTO 13003KT 10SM -RA FEW024 BKN050 OVC060 23/21 A2986 350 90 1400 120/03 RMK AO2 RAB03 P0000 T02280211
53988KBKB BKB20190605161010506/05/19 16:10:31  5-MIN KBKB 052210Z AUTO 00000KT 10SM -RA FEW026 BKN041 OVC06049 SLP137 P0001 T02280211
53988KBKB BKB20190605161014106/05/19 16:10:31  5-MIN KBKB 052210Z AUTO 00000KT 10SM -RA FEW026 BKN041 OVC060 23/22 A2986 360 93 1400 000/00 RMK AO2 RAB03 P0000 T02280217
53988KBKB BKB20190605161514006/05/19 16:15:31  5-MIN KBKB 052215Z AUTO 00000KT 10SM SCT026 BKN032 OVC065 23/21 A2985 360 90 1400 000/00 RMK AO2 RAB03E15 P0000 T02280211
53988KBKB BKB20190605162014106/05/19 16:20:31  5-MIN KBKB 052220Z AUTO 00000KT 10SM -RA SCT026 BKN032 OVC060 23/21 A2985 360 90 1400 000/00 RMK AO2 RAB03 P0000 T02280211
53988KBKB BKB20190605162514606/05/19 16:25:31  5-MIN KBKB 052225Z AUTO 00 KBKB 060015Z AUTO VRB03KT 10SM FEW017 BKN025 OVC070 23/21 A2982 390 90 1400 VRB/03 RMK AO2 T02280211
53988KBKB BKB20190605182012506/05/19 18:20:31  5-MIN KBKB 060020Z AUTO VRB04KT 10SM FEW017 BKN025 BKN050 23/21 A2982 390 87 1500 VRB/04 RMK AO2 T02330211
53988KBKB BKB20190605182512506/05/19 18:25:31  5-MIN KBKB 060025Z AUTO VRB04KT 10SM FEW019 BKN027 OVC075 23/21 A2982 390 87 1500 VRB/04 RMK AO2 T02330211
53988KBKB BKB20190605183012506/05/19 18:30:31  5-MIN KBKB 060030Z AUTO VRB04KT 10SM BKN023 BKN033 BKN070 23/21 A2982 390 87 1500 VRB/04 RMK AO2 T02330211
53988KBKB BKB20190605183012506/05/19 18:30:31  5-MIN KBKB 060030Z AUTO VRB04KT 10SM BKN023 BKN033 OVC070 23/21 A2982 390 90 1400 VRB/03 RMK AO2 T02280211
53988KBKB BKB20190605183512506/05/19 18:35:31  5-MIN KBKB 060035Z AUTO VRB03KT 10SM BKN023 BKN033 BKN070 23/21 A2982 390 87 1500 VRB/03 RMK AO2 T02330211
53988KBKB BKB20190605184012106/05/19 18:40:31  5-MIN KBKB 060040Z AUTO VRB03KT 10SM BKN023 BKN033 BKN070 23/22 A2982 390 90 1500 VRB/03 AO2 T02330211
53988KBKB BKB20190605184012506/05/19 18:40:31  5-MIN KBKB 060040Z AUTO VRB03KT 10SM BKN023 BKN033 BKN070 23/22 A2982 390 90 1500 VRB/03 RMK AO2 T02330217
53988KBKB BKB20190605184511806/05/19 18:45:31  5-MIN KBKB 060045Z AUTO VRB04KT 10SM BKN021 OVC033 23/21 A2981 400 87 1500 VRB/04 RMK AO2 T02330211
53988KBKB BKB20190605185019306/05/19 18:50:31  5-MIN KBKB 060050Z AUTO VRB03KT 10SM OVC021 23/21 A2981 400 871004KT 10SM BKN009 BKN032 OVC100 23/21 A2981 400 90 1400 100/04 RMK AO2 CIG 005V012 SLP120 60000 T02280211 55013
53988KBKB BKB20190605205015606/05/19 20:50:31  5-MIN KBKB 060250Z AUTO 11004KT 10SM BKN009 BKN032 OVC100 23/21 A2981 400 90 1400 100/04 RMK AO2 CIG 005V012 SLP120 60000 T02280211 55013
53988KBKB BKB20190605205511506/05/19 20:55:31  5-MIN KBKB 060255Z AUTO 10SM SCT009 BKN030 OVC100 23/21 A2981 400 90 1400 M /M RMK AO2 T02280211
53988KBKB BKB20190605210012506/05/19 21:00:31  5-MIN KBKB 060300Z AUTO VRB04KT 10SM SCT009 BKN055 OVC100 22/21 A2981 400 93 1400 VRB/04 RMK AO2 T02220211
53988KBKB BKB20190605210509806/05/19 21:05:31  5-MIN KBKB 060305Z AUTO VRB04KT 10SM FEW009 BKN055 MK AO2 CIG 005V009 T02280211
53988KBKB BKB20190605210512506/05/19 21:05:31  5-MIN KBKB 060305Z AUTO VRB04KT 10SM FEW009 BKN055 OVC100 22/21 A2982 400 93 1400 VRB/04 RMK AO2 T02220211
53988KBKB BKB20190605210513006/05/19 21:05:31  5-MIN KBKB 060305Z AUTO VRB04KT 10SM FEW009 BKN055 A2977 440 93 1400 VRB/05 RMK AO2 CIG 004V009 P0002 T02220211
53988KBKB BKB20190605211012506/05/19 21:10:31  5-MIN KBKB 060310Z AUTO VRB03KT 10SM FEW007 BKN060 OVC100 22/21 A2981 400 93 1400 VRB/03 RMK AO2 T02220211
53988KBKB BKB20190605211016506/05/19 21:10:31  5-MIN KBKB 060310Z AUTO VRB03KT 10SM FEW007 BKN060 OVC100 22/21 A2981 400 93 1400 VRB/03 RMK AO2 T02220211A2981 400 90 1400 M /M RMK AO2 T02280211
53988KBKB BKB20190605211512506/05/19 21:15:31  5-MIN KBKB 060315Z AUTO VRB05KT 10SM FEW013 BKN060 OVC100 22/21 A2981 400 90 1400 VRB/05 RMK AO2 T02220206
53988KBKB BKB20190605212012106/05/19 21:20:31  5-MIN KBKB 060320Z AUTO VRB05KT 10SM FEW013 BK OVC100 22/21 A2981 400 93 1400 VRB/04 RMK AO2 T02220211
53988KBKB BKB20190605220013306/05/19 22:00:31  5-MIN KBKB 060400Z AUTO VRB04KT 10SM -RA OVC009 22/21 A2981 400 93 1400 VRB/04 RMK AO2 CIG 006V013 P0000 T02220211
53988KBKB BKB20190605220512306/05/19 22:05:31  5-MIN KBKB 060405Z AUTO 10SM -RA OVC009 22/21 A2981 400 93 1400 M /M RMK AO2 CIG 006V013 P0000 T02220211
53988KBKB BKB20190605221016306/05/19 22:10:31  5-MIN KBKB 060410Z AUTO 12008KT 090V160 10SM -RA BKN007 BKN011 OVC036 22/21 A2980 410 93 1400 120/08 090V160 RMK AO2 CIG 006V009 P0000 T02220211
53988KBKB BKB20190605221514006/05/19 22:15:31  5-MIN KBKB 060415Z AUTO VRB03KT 10SM -RA BKN009 OVC034 22/21 A2979 420 93 1400 VRB/03 RMK AO2 CIG 005V013 P0000 T02220211
53988KBKB BKB20190605222014706/05/19 22:20:31  5-MIN KBKB 060420Z AUTO VRB03KT 10SM -RA BKN007 BKN011 OVC034 22/21 A2979 420 93 1400 VRB/03 RMK AO2 CIG 005V009 P0000 T02220211
53988KBKB BKB20190605222514406/05/19 22:25:31  5-MIN KBKB 060425Z AUTO 10SM -RA BKN007 BKN011 OVC035 22/21 A2978 430 93 1400 M /M RMK AO2 CIG 005V010 PRESFR P0000 T02220211
53988KBKB BKB20190605223013006/05/19 22:30:31  5-MIN KBKB 060430Z AUTO VRB04KT 10SM BKN007 OVC035 22/21 A2978 430 93 1400 VRB/04 RMK AO2 RAE28 P0000 T02220211
53988KBKB BKB20190605223512306/05/19 22:35:31  5-MIN KBKB 060435Z AUTO VRB05KT 10SM OVC007 22/21 A2978 420 93 1400 VRB/05 RMK AO2 RAE28 P0000 T02220211
53988KBKB BKB20190605224013506/05/19 22:40:31  5-MIN KBKB 060440Z AUTO VRB04KT 10SM OVC007 22/21 A2978 430 93 1400 VRB/04 RMK AO2 RAE28 CIG 005V009 P0000 T02220211
53988KBKB BKB20190605224513506/05/19 22:45:31  5-MIN KBKB 060445Z AUTO VRB04KT 10SM OVC007 22/21 A2976 440 93 1400 VRB/04 RMK AO2 RAE28 CIG 004V009 P0000 T02220211
53988KBKB BKB20190605225014906/05/19 22:50:31  5-MIN KBKB 060450Z AUTO VRB05KT 10SM OVC005 22/21 A2975 450 93 1400 VRB/05 RMK AO2 RAE28 CIG 004V009 PRESFR SLP101 P0000 T02220211
53988KBKB BKB20190605225513206/05/19 22:55:31  5-MIN KBKB 060455Z AUTO VRB03KT 7SM -RA OVC005 22/21 A2976 440 93 1400 VRB/03 RMK AO2 CIG 004V008 P0001 T02220211
53988KBKB BKB20190605230013406/05/19 23:00:31  5-MIN KBKB 060500Z AUTO VRB05KT 4SM RA BR OVC005 22/21 A2977 440 93 1400 VRB/05 RMK AO2 CIG 004V009 P0002 T02220211
53988KBKB BKB20190605230513406/05/19 23:05:31  5-MIN KBKB 060505Z AUTO VRB06KT 2 1/2SM +RA BR BKN006 OVC014 22/21 A2976 450 93 1400 VRB/06 RMK AO2 P0007 T02220211
53988KBKB BKB20190605231013006/05/19 23:10:31  5-MIN KBKB 060510Z AUTO VRB05KT 2SM +RA BR BKN006 OVC012 22/21 A2976 450 93 1400 VRB/05 RMK AO2 P0010 T02220211
53988KBKB BKB20190605231513306/05/19 23:15:31  5-MIN KBKB 060515Z AUTO VRB05KT 2 1/2SM RA BR BKN006 OVC012 22/21 A2976 450 93 1400 VRB/05 RMK AO2 P0012 T02220211
53988KBKB BKB20190605232013406/05/19 23:20:31  5-MIN KBKB 060520Z AUTO VRB03KT 2 1/2SM +RA BR BKN006 OVC010 22/21 A2975 460 93 1400 VRB/03 RMK AO2 P0016 T02220211
53988KBKB BKB20190605232514006/05/19 23:25:31  5-MIN KBKB 060525Z AUTO VRB03KT 2 1/2SM RA BR SCT006 BKN010 OVC019 22/21 A2976 450 93 1400 VRB/03 RMK AO2 P0017 T02220211
53988KBKB BKB20190605233013706/05/19 23:30:31  5-MIN KBKB 060530Z AUTO VRB04KT 5SM -RA BR SCT006 BKN012 OVC019 22/21 A2975 450 93 1400 VRB/04 RMK AO2 P0017 T02220211
53988KBKB BKB20190605233512706/05/19 23:35:31  5-MIN KBKB 060535Z AUTO VRB03KT 9SM -RA SCT007 OVC012 22/21 A2975 450 90 1400 VRB/03 RMK AO2 P0017 T02220206
53988KBKB BKB20190605234012806/05/19 23:40:31  5-MIN KBKB 060540Z AUTO VRB03KT 10SM -RA SCT005 OVC012 22/21 A2975 450 93 1400 VRB/03 RMK AO2 P0017 T02220211
53988KBKB BKB20190605234513706/05/19 23:45:31  5-MIN KBKB 060545Z AUTO VRB03KT 10SM FEW004 BKN009 OVC012 22/21 A2975 460 93 1400 VRB/03 RMK AO2 RAE41 P0017 T02220211
53988KBKB BKB20190605235016406/05/19 23:50:31  5-MIN KBKB 060550Z AUTO VRB03KT 10SM OVC012 22/21 A2976 450 93 1400 VRB/03 RMK AO2 RAE41 SLP102 P0017 60017 T02220211 10233 20222 402500222 55005
53988KBKB BKB20190605235511106/05/19 23:55:31  5-MIN KBKB 060555Z AUTO VRB03KT 10SM OVC012 22/21 A2976 450 93 1400 VRB/03 RMK AO2 T02220211
53988KBKB BKB20190606000013606/06/19 00:00:31  5-MIN KBKB 060600Z AUTO VRB03KT 10SM -RA SCT009 OVC014 22/21 A2976 450 93 1400 VRB/03 RMK AO2 RAB0559 P0000 T02220211
53988KBKB BKB20190606000513606/06/19 00:05:31  5-MIN KBKB 060605Z AUTO 00000KT 10SM -RA FEW010 OVC014 22/21 A2976 450 93 1400 000/00 RMK AO2 RAB0559 P0000 T02220211
53988KBKB BKB20190606001012806/06/19 00:10:31  5-MIN KBKB 060610Z AUTO VRB03KT 8SM -RA OVC014 22/21 A2976 450 93 1400 VRB/03 RMK AO2 RAB0559 P0001 T02220211
53988KBKB BKB20190606001513006/06/19 00:15:31  5-MIN KBKB 060615Z AUTO 09003KT 5SM RA BR OVC014 22/21 A2976 450 93 1400 090/03 RMK AO2 RAB0559 P0002 T02220211
53988KBKB BKB20190606002013006/06/19 00:20:31  5-MIN KBKB 060620Z AUTO VRB04KT 4SM RA BR OVC015 22/21 A2975 460 93 1400 VRB/04 RMK AO2 RAB0559 P0004 T02220211
53988KBKB BKB20190606002513706/06/19 00:25:31  5-MIN KBKB 060625Z AUTO 00000KT 3SM RA BR FEW008 OVC015 22/21 A2974 460 93 1500 000/00 RMK AO2 RAB0559 P0005 T02220211
53988KBKB BKB20190606003013806/06/19 00:30:31  5-MIN KBKB 060630Z AUTO VRB03KT 4SM -RA BR SCT008 OVC015 22/21 A2974 470 93 1500 VRB/03 RMK AO2 RAB0559 P0006 T02220211
53988KBKB BKB20190606003514206/06/19 00:35:31  5-MIN KBKB 060635Z AUTO 00000KT 8SM -RA SCT008 BKN015 OVC021 22/21 A2974 470 93 1500 000/00 RMK AO2 RAB0559 P0006 T02220211
53988KBKB BKB20190606004014206/06/19 00:40:31  5-MIN KBKB 060640Z AUTO VRB04KT 10SM SCT008 BKN013 OVC019 22/21 A2973 480 93 1500 VRB/04 RMK AO2 RAB0559E40 P0006 T02220211
53988KBKB BKB20190606004514206/06/19 00:45:31  5-MIN KBKB 060645Z AUTO 00000KT 10SM FEW008 SCT013 OVC019 22/21 A2973 470 93 1500 000/00 RMK AO2 RAB0559E40 P0006 T02220211
53988KBKB BKB20190606005014906/06/19 00:50:31  5-MIN KBKB 060650Z AUTO VRB03KT 10SM SCT006 BKN015 OVC021 22/21 A2973 480 93 1500 VRB/03 RMK AO2 RAB0559E40 SLP092 P0006 T02220211
53988KBKB BKB20190606005514606/06/19 00:55:31  5-MIN KBKB 060655Z AUTO 00000KT 9SM -RA BKN006 BKN011 OVC018 22/21 A2972 480 93 1500 000/00 RMK AO2 CIG 004V010 P0000 T02220211
53988KBKB BKB20190606010014606/06/19 01:00:31  5-MIN KBKB 060700Z AUTO VRB04KT 7SM -RA BKN006 BKN011 OVC018 22/21 A2972 490 93 1500 VRB/04 RMK AO2 CIG 003V008 P0000 T02220211
53988KBKB BKB20190606010514906/06/19 01:05:31  5-MIN KBKB 060705Z AUTO 00000KT 6SM -RA BR BKN006 BKN011 OVC018 22/21 A2972 490 93 1500 000/00 RMK AO2 CIG 003V009 P0000 T02220211
53988KBKB BKB20190606011014606/06/19 01:10:31  5-MIN KBKB 060710Z AUTO 00000KT 7SM -RA BKN006 BKN011 OVC018 22/21 A2972 480 93 1500 000/00 RMK AO2 CIG 003V008 P0000 T02220211
53988KBKB BKB20190606011513906/06/19 01:15:31  5-MIN KBKB 060715Z AUTO 10003KT 9SM -RA BKN006 OVC013 22/21 A2972 480 93 1500 090/03 RMK AO2 CIG 003V008 P0000 T02220211
53988KBKB BKB20190606012014206/06/19 01:20:31  5-MIN KBKB 060720Z AUTO VRB04KT 10SM BKN006 OVC013 22/21 A2972 490 93 1500 VRB/04 RMK AO2 RAE16 CIG 003V009 P0000 T02220211
53988KBKB BKB20190606012514206/06/19 01:25:31  5-MIN KBKB 060725Z AUTO 10003KT 10SM BKN006 OVC011 22/21 A2971 490 93 1500 090/03 RMK AO2 RAE16 CIG 003V009 P0000 T02220211
53988KBKB BKB20190606013014206/06/19 01:30:31  5-MIN KBKB 060730Z AUTO VRB03KT 10SM BKN006 OVC011 22/21 A2971 490 93 1500 VRB/03 RMK AO2 RAE16 CIG 004V009 P0000 T02220211
53988KBKB BKB20190606013516206/06/19 01:35:31  5-MIN KBKB 060735Z AUTO VRB05KT 10SM BKN008 OVC011 22/21 A2972 490 93 1500 VRB/05 RMK AO2 RAE16 CIG 004V010 1500 000/00 RMK AO2 P0001 T02170206
53988KBKB BKB20190606033512806/06/19 03:35:31  5-MIN KBKB 060935Z AUTO 00000KT 10SM -RA SCT024 OVC046 22/21 A2968 520 93 1500 000/00 RMK AO2 P0001 T02170206
53988KBKB BKB20190606034012806/06/19 03:40:31  5-MIN KBKB 060940Z AUTO 00000KT 10SM -RA SCT026 OVC046 22/21 A2968 520 93 1500 000/00 RMK AO2 P0001 T02170206
53988KBKB BKB20190606034513706/06/19 03:45:31  5-MIN KBKB 060945Z AUTO 00000KT 10SM FEW014 SCT026 OVC048 22/21 A2968 520 93 1500 000/00 RMK AO2 RAE42 P0001 T02170206
53988KBKB BKB20190606035010506/06/19 03:50:31  5-MIN KBKB 060950Z AUTO 00000KT 10SM SCT969 520 93 1500 000/00 RMK AO2 P0001 T02170206
53988KBKB BKB20190606035012706/06/19 03:50:31  5-MIN KBKB 060950Z AUTO 00000KT 10SM SCT014 BKN026 OVC048 22/21 A2968 520 93 1500 000/00 RMK AO2 RAE42 P0001
53988KBKB BKB20190606035512506/06/19 03:55:31  5-MIN KBKB 060955Z AUTO 00000KT 10SM SCT012 BKN026 OVC048 22/21 A2968 520 93 1500 000/00 RMK AO2 T02170206
53988KBKB BKB20190606035523206/06/19 03:55:31  5-MIN KBKB 060955Z AUTO 00000KT 10SM SCT012 BKN026 OVC048 22/21 A2968 520 93 1500 000/00 RMK AO2 T0217020606/06/19 04:00:31  5-MI0000KT 10SM -RA SCT026 OVC046 22/21 A2968 520 93 1500 000/00 RMK AO2 P0001 T02170206
53988KBKB BKB20190606040012406/06/19 04:00:31  5-MIN KBKB 061000Z AUTO 00000KT 9SM BKN012 BKN026 OVC048 22/21 A2968 520 93 1500 000/00 RMK AO2 T02170206
53988KBKB BKB20190606040507306/06/19 04:05:31  5-MIN KBKB 061005Z AUTO 00000KT 8SM -RA BKN010 BKN026 
53988KBKB BKB20190606060511706/06/19 06:05:31  5-MIN KBKB 061205Z AUTO 00000KT 2 1/2SM BR OVC004 22/21 A2970 500 97 1400 000/00 RMK AO2 T02170211
53988KBKB BKB20190606061011306/06/19 06:10:31  5-MIN KBKB 061210Z AUTO 00000KT 2SM BR OVC003 22/21 A2970 500 97 1400 000/00 RMK AO2 T02170211
53988KBKB BKB20190606061511306/06/19 06:15:31  5-MIN KBKB 061215Z AUTO VRB03KT 2SM BR OVC003 22/21 A2970 500 97 1400 VRB/03 RMK AO2 T02170211
53988KBKB BKB20190606062011306/06/19 06:20:31  5-MIN KBKB 061220Z AUTO 00000KT 2SM BR OVC003 22/21 A2970 500 93 1400 000/00 RMK AO2 T02170206
53988KBKB BKB20190606062015106/06/19 06:20:31  5-MIN KBKB 061220Z AUTO 00000KT 2SM BR OVC003 22/21 A2970 500 93 1400 000/00 RMK AO2 T021702060 510 97 1400 000/00 RMK AO2 T02170211
53988KBKB BKB20190606062511706/06/19 06:25:31  5-MIN KBKB 061225Z AUTO VRB04KT 2 1/2SM BR OVC003 22/21 A2971 500 97 1400 VRB/04 RMK AO2 T02170211
53988KBKB BKB20190606062515506/06/19 06:25:31  5-MIN KBKB 061225Z AUTO VRB04KT 2 1/2SM BR OVC003 22/21 A2971 500 97 1400 VRB/04 RMK AO2 T0217021106/06/97 1400 000/00 RMK AO2 T02170211
53988KBKB BKB20190606063012906/06/19 06:30:31  5-MIN KBKB 061230Z AUTO VRB03KT 3SM -RA BR OVC003 22/21 A2970 500 97 1400 VRB/03 RMK AO2 RAB28 P0001 T02170211
53988KBKB BKB20190606063015706/06/19 06:30:31  5-MIN KBKB 061230Z AUTO VRB03KT 3SM -RA BR OVC003 22/21 A2970 500 97 1400 VRB 25/22 A2971 490 84 1800 VRB/03 RMK AO2 CIG 007V012 T02500222
53988KBKB BKB20190606063513706/06/19 06:35:31  5-MIN KBKB 061235Z AUTO VRB04KT 3SM -RA BZ AUTO VRB03KT 2SM BR OVC003 22/21 A2970 500 97 1400 VRB/03 RMK AO2 T02170211
53988KBKB BKB20190606084011106/06/19 08:40:31  5-MIN KBKB 061440Z AUTO 36004KT 10SM OVC012 25/22 A2971 500 81 1800 360/04 RMK AO2 T02500217
53988KBKB BKB20190606084511106/06/19 08:45:31  5-MIN KBKB 061445Z AUTO VRB03KT 10SM OVC012 25/22 A2971 500 81 1800 VRB/03 RMK AO2 T02500217
53988KBKB BKB20190606085013706/06/19 08:50:31  5-MIN KBKB 061450Z AUTO VRB03KT 10SM BKN012 OVC017 26/22 A2971 500 81 1900 VRB/03 RMK AO2 SLP085 60001 T02560222 55000
53988KBKB BKB20190606085511106/06/19 08:55:31  5-MIN KBKB 061455Z AUTO VRB03KT 10SM OVC012 26/22 A2971 490 81 1900 VRB/03 RMK AO2 T02560222
53988KBKB BKB20190606085513506/06/19 08:55:31  5-MIN KBKB 061455Z AUTO VRB03KT 10SM OVC012 26/22 A2971 490 81 1900 VRB/03 RMK AO2 T0256022206/06/19 09:00:31  5-M22
53988KBKB BKB20190606090013006/06/19 09:00:31  5-MIN KBKB 061500Z AUTO 00000KT 10SM BKN010 OVC015 26/22 A2971 490 81 1900 000/00 RMK AO2 CIG 009V013 T02560222
53988KBKB BKB20190606090511106/06/19 09:05:31  5-MIN KBKB 061505Z AUTO 00000KT 10SM OVC010 26/22 A2971 490 81 1900 000/00 RMK AO2 T02560222
53988KBKB BKB20190606090511606/06/19 09:05:31  5-MIN KBKB 061505Z AUTO 00000KT 10SM OVC010 26/22 A2971 490 81 1900 000/00 RMK AO2 T0256022200217
53988KBKB BKB20190606091011106/06/19 09:10:31  5-MIN KBKB 061510Z AUTO 00000KT 10SM OVC012 25/22 A2971 490 84 1800 000/00 RMK AO2 T02500222
53988KBKB BKB20190606091017006/06/19 09:10:31  5-MIN KBKB 061510Z AUTO 00000KT 10SM OVC06/06/19 09:55:31  5-MIN KBKB 061555Z AUTO 00000KT 10SM BKN018 27/22 A2971 490 74 2100 000/00 RMK AO2 T02720222
53988KBKB BKB20190606091511806/06/19 09:15:31  5-MIN KBKB 061515Z AUTO 00000KT 10SM BKN012 OVC018 26/22 A2971 490 81 1900 000/00 RMK AO2 T02560222
53988KBKB BKB20190606091514206/06/19 09:15:31  5-MIN KBKB 061515Z AUTO 00000KT 10SM BKN012 OVC018 26/22 A2971 10SM OVC012 26/22 A2971 490 81 1900 VRB/03 RMK AO2 T02560222
53988KBKB BKB20190606092011806/06/19 09:20:31  5-MIN KBKB 061520Z AUTO VRB03KT 10SM BKN012 OVC018 26/22 A2971 490 81 1900 VRB/03 RMK AO2 T02560222
53988KBKB BKB20190606092511806/06/19 09:25:31  5-MIN KBKB 061525Z AUTO VRB03KT 10SM SCT012 BKN018 27/23 A2970 500 79 2000 VRB/03 RMK AO2 T02670228
53988KBKB BKB20190606093011806/06/19 09:30:31  5-MIN KBKB 061530Z AUTO VRB04KT 10SM BKN015 BKN020 27/23 A2970 500 79 2000 VRB/04 RMK AO2 T02670228
53988KBKB BKB20190606093511806/06/19 09:35:31  5-MIN KBKB 061535Z AUTO VRB04KT 10SM BKN015 BKN020 27/22 A2970 500 76 2000 VRB/04 RMK AO2 T02670222
53988KBKB BKB20190606094011106/06/19 09:40:31  5-MIN KBKB 061540Z AUTO VRB03KT 10SM BKN017 27/22 A2970 510 76 2000 VRB/03 RMK AO2 T02670222
53988KBKB BKB20190606094511806/06/19 09:45:31  5-MIN KBKB 061545Z AUTO VRB05KT 10SM BKN017 BKN021 28/23 A2970 500 74 2100 VRB/05 RMK AO2 T02780228
53988KBKB BKB20190606095011806/06/19 09:50:31  5-MIN KBKB 061550Z AUTO VRB04KT 10SM BKN016 28/22 A2971 500 71 2100 VRB/04 RMK AO2 SLP084 T02780222
53988KBKB BKB20190606095511106/06/19 09:55:31  5-MIN KBKB 061555Z AUTO 00000KT 10SM BKN018 27/22 A2971 490 74 2100 000/00 RMK AO2 T02720222
53988KBKB BKB20190606100011106/06/19 10:00:31  5-MIN KBKB 061600Z AUTO VRB03KT 10SM BKN018 28/23 A2971 490 74 2100 VRB/03 RMK AO2 T02780228
53988KBKB BKB20190606100511106/06/19 10:05:31  5-MIN KBKB 061605Z AUTO 00000KT 10SM BKN020 27/22 A2971 490 74 2000 000/00 RMK AO2 T02720222
53988KBKB BKB20190606101011806/06/19 10:10:31  5-MIN KBKB 061610Z AUTO 00000KT 10SM BKN018 BKN023 27/22 A2971 490 74 2100 000/00 RMK AO2 T02720222
53988KBKB BKB20190606101511806/06/19 10:15:31  5-MIN KBKB 061615Z AUTO VRB04KT 10SM BKN020 BKN025 28/23 A2971 490 74 2100 VRB/04 RMK AO2 T02780228
53988KBKB BKB20190606102011106/06/19 10:20:31  5-MIN KBKB 061620Z AUTO VRB03KT 10SM BKN020 28/23 A2971 500 71 2200 VRB/03 RMK AO2 T02830228
53988KBKB BKB20190606102511106/06/19 10:25:31  5-MIN KBKB 061625Z AUTO VRB03KT 10SM OVC022 28/23 A2971 490 74 2100 VRB/03 RMK AO2 T02780228
53988KBKB BKB20190606103011806/06/19 10:30:31  5-MIN KBKB 061630Z AUTO 01005KT 10SM BKN020 BKN025 29/23 A2971 490 69 2200 360/05 RMK AO2 T02890228
53988KBKB BKB20190606103511806/06/19 10:35:31  5-MIN KBKB 061635Z AUTO VRB05KT 10SM BKN021 BKN026 29/23 A2971 490 69 2200 VRB/05 RMK AO2 T02890228
53988KBKB BKB20190606104011806/06/19 10:40:31  5-MIN KBKB 061640Z AUTO 00000KT 10SM BKN021 BKN026 28/22 A2972 490 69 2200 000/00 RMK AO2 T02830222
53988KBKB BKB20190606104511806/06/19 10:45:31  5-MIN KBKB 061645Z AUTO 00000KT 10SM BKN023 BKN027 29/23 A2972 480 69 2200 000/00 RMK AO2 T02890228
53988KBKB BKB20190606105012506/06/19 10:50:31  5-MIN KBKB 061650Z AUTO VRB05KT 10SM BKN021 BKN027 29/23 A2972 480 69 2200 VRB/05 RMK AO2 SLP089 T02890228
53988KBKB BKB20190606105511806/06/19 10:55:31  5-MIN KBKB 061655Z AUTO 00000KT 10SM SCT021 BKN027 28/23 A2972 480 71 2200 000/00 RMK AO2 T02830228
53988KBKB BKB20190606110011806/06/19 11:00:31  5-MIN KBKB 061700Z AUTO 00000KT 10SM SCT021 BKN027 29/23 A2972 480 69 2200 000/00 RMK AO2 T02890228
53988KBKB BKB20190606110511806/06/19 11:05:31  5-MIN KBKB 061705Z AUTO 00000KT 10SM BKN021 OVC028 28/22 A2972 480 69 2200 000/00 RMK AO2 T02830222
53988KBKB BKB20190606111011806/06/19 11:10:31  5-MIN KBKB 061710Z AUTO 00000KT 10SM BKN021 BKN028 28/23 A2972 480 71 2200 000/00 RMK AO2 T02830228
53988KBKB BKB20190606111511806/06/19 11:15:31  5-MIN KBKB 061715Z AUTO VRB03KT 10SM SCT021 BKN030 29/23 A2973 480 67 2300 VRB/03 RMK AO2 T02940228
53988KBKB BKB20190606112011806/06/19 11:20:31  5-MIN KBKB 061720Z AUTO 00000KT 10SM FEW021 BKN030 29/22 A2973 480 64 2300 000/00 RMK AO2 T02940222
53988KBKB BKB20190606112512506/06/19 11:25:31  5-MIN KBKB 061725Z AUTO VRB03KT 10SM FEW021 BKN030 BKN034 30/23 A2973 480 65 2300 VRB/03 RMK AO2 T03000228
53988KBKB BKB20190606113011806/06/19 11:30:31  5-MIN KBKB 061730Z AUTO VRB03KT 10SM FEW022 BKN031 30/23 A2973 470 65 2300 VRB/03 RMK AO2 T03000228
53988KBKB BKB20190606113511806/06/19 11:35:31  5-MIN KBKB 061735Z AUTO VRB03KT 10SM BKN029 BKN034 29/23 A2973 470 67 2300 VRB/03 RMK AO2 T02940228
53988KBKB BKB20190606114011806/06/19 11:40:31  5-MIN KBKB 061740Z AUTO VRB03KT 10SM BKN029 BKN036 30/23 A2973 470 65 2300 VRB/03 RMK AO2 T03000228
53988KBKB BKB20190606114511806/06/19 11:45:31  5-MIN KBKB 061745Z AUTO 00000KT 10SM BKN029 OVC035 29/23 A2973 470 69 2300 000/00 RMK AO2 T02940233
53988KBKB BKB20190606115011506/06/19 11:50:31  5-MIN KBKB 061750Z AUTO 00000KT 10SM SCT029 BKN035 BKN043 31/23 A2973 470 65 2400 000/00 RMK AO2
53988KBKB BKB20190606115511806/06/19 11:55:31  5-MIN KBKB 061755Z AUTO VRB03KT 10SM SCT029 BKN040 30/23 A2974 470 65 2300 VRB/03 RMK AO2 T03000228
53988KBKB BKB20190606120011806/06/19 12:00:31  5-MIN KBKB 061800Z AUTO VRB03KT 10SM SCT029 BKN040 31/22 A2974 470 60 2400 VRB/03 RMK AO2 T03060222
53988KBKB BKB20190606120512506/06/19 12:05:31  5-MIN KBKB 061805Z AUTO VRB03KT 10SM SCT025 SCT030 BKN040 30/23 A2974 470 65 2300 VRB/03 RMK AO2 T03000228
53988KBKB BKB20190606121012506/06/19 12:10:31  5-MIN KBKB 061810Z AUTO VRB04KT 10SM SCT025 BKN030 BKN040 29/23 A2974 460 67 2300 VRB/04 RMK AO2 T02940228
53988KBKB BKB20190606121512506/06/19 12:15:31  5-MIN KBKB 061815Z AUTO VRB03KT 10SM SCT027 BKN036 BKN043 29/23 A2974 460 69 2200 VRB/03 RMK AO2 T02890228
53988KBKB BKB20190606122012506/06/19 12:20:31  5-MIN KBKB 061820Z AUTO 29003KT 10SM SCT027 BKN036 BKN050 30/23 A2974 470 67 2300 290/03 RMK AO2 T03000233
53988KBKB BKB20190606122512506/06/19 12:25:31  5-MIN KBKB 061825Z AUTO VRB03KT 10SM FEW025 SCT031 BKN038 31/23 A2974 470 65 2400 VRB/03 RMK AO2 T03060233
53988KBKB BKB20190606123012506/06/19 12:30:31  5-MIN KBKB 061830Z AUTO VRB03KT 10SM BKN025 BKN034 OVC050 29/23 A2974 460 69 2200 VRB/03 RMK AO2 T02890228
53988KBKB BKB20190606123512506/06/19 12:35:31  5-MIN KBKB 061835Z AUTO VRB03KT 10SM SCT027 BKN034 OVC048 29/23 A2974 460 69 2200 VRB/03 RMK AO2 T02890228
53988KBKB BKB20190606124012506/06/19 12:40:31  5-MIN KBKB 061840Z AUTO 00000KT 10SM FEW025 BKN034 BKN046 29/23 A2974 460 69 2200 000/00 RMK AO2 T02890228
53988KBKB BKB20190606124512506/06/19 12:45:31  5-MIN KBKB 061845Z AUTO VRB03KT 10SM FEW025 SCT035 BKN048 30/23 A2974 470 67 2300 VRB/03 RMK AO2 T03000233
53988KBKB BKB20190606125013206/06/19 12:50:31  5-MIN KBKB 061850Z AUTO VRB03KT 10SM FEW025 SCT036 BKN048 30/23 A2974 470 65 2300 VRB/03 RMK AO2 SLP095 T03000228
53988KBKB BKB20190606125512506/06/19 12:55:31  5-MIN KBKB 061855Z AUTO 00000KT 10SM SCT027 BKN035 BKN046 30/23 A2974 470 67 2300 000/00 RMK AO2 T03000233
53988KBKB BKB20190606130012506/06/19 13:00:31  5-MIN KBKB 061900Z AUTO 00000KT 10SM SCT030 BKN036 BKN046 29/23 A2974 470 67 2300 000/00 RMK AO2 T02940228
53988KBKB BKB20190606130512506/06/19 13:05:31  5-MIN KBKB 061905Z AUTO VRB03KT 10SM SCT030 BKN036 BKN044 29/23 A2974 470 67 2300 VRB/03 RMK AO2 T02940228
53988KBKB BKB20190606131012506/06/19 13:10:31  5-MIN KBKB 061910Z AUTO VRB04KT 10SM SCT029 BKN038 OVC048 29/23 A2974 460 67 2300 VRB/04 RMK AO2 T02940228
53988KBKB BKB20190606131512506/06/19 13:15:31  5-MIN KBKB 061915Z AUTO VRB03KT 10SM SCT029 BKN038 OVC050 29/23 A2974 470 69 2200 VRB/03 RMK AO2 T02890228
53988KBKB BKB20190606132012506/06/19 13:20:31  5-MIN KBKB 061920Z AUTO VRB03KT 10SM SCT029 BKN036 BKN048 31/23 A2974 470 65 2400 VRB/03 RMK AO2 T03060233
53988KBKB BKB20190606132512506/06/19 13:25:31  5-MIN KBKB 061925Z AUTO 00000KT 10SM SCT029 BKN039 BKN048 29/23 A2974 470 67 2300 000/00 RMK AO2 T02940228
53988KBKB BKB20190606133012506/06/19 13:30:31  5-MIN KBKB 061930Z AUTO VRB03KT 10SM SCT029 BKN037 BKN048 30/23 A2974 470 67 2300 VRB/03 RMK AO2 T03000233
53988KBKB BKB20190606133512506/06/19 13:35:31  5-MIN KBKB 061935Z AUTO 00000KT 10SM SCT030 BKN039 BKN048 30/23 A2974 470 65 2300 000/00 RMK AO2 T03000228
53988KBKB BKB20190606134012506/06/19 13:40:31  5-MIN KBKB 061940Z AUTO VRB04KT 10SM BKN032 BKN039 BKN048 30/23 A2974 470 65 2300 VRB/04 RMK AO2 T03000228
53988KBKB BKB20190606134512506/06/19 13:45:31  5-MIN KBKB 061945Z AUTO VRB04KT 10SM SCT032 BKN042 BKN049 31/23 A2973 470 60 2500 VRB/04 RMK AO2 T03110228
53988KBKB BKB20190606135013206/06/19 13:50:31  5-MIN KBKB 061950Z AUTO VRB04KT 10SM SCT031 BKN037 BKN048 31/23 A2973 470 62 2400 VRB/04 RMK AO2 SLP093 T03060228
53988KBKB BKB20190606135511806/06/19 13:55:31  5-MIN KBKB 061955Z AUTO VRB05KT 10SM SCT031 BKN045 31/23 A2973 480 60 2500 VRB/05 RMK AO2 T03110228
53988KBKB BKB20190606140011806/06/19 14:00:31  5-MIN KBKB 062000Z AUTO VRB03KT 10SM SCT031 SCT048 31/23 A2973 480 62 2400 VRB/03 RMK AO2 T03060228
53988KBKB BKB20190606140512506/06/19 14:05:31  5-MIN KBKB 062005Z AUTO VRB04KT 10SM SCT031 SCT041 BKN048 30/23 A2973 480 65 2300 VRB/04 RMK AO2 T03000228
53988KBKB BKB20190606141012506/06/19 14:10:31  5-MIN KBKB 062010Z AUTO VRB04KT 10SM FEW031 SCT041 SCT048 31/23 A2973 480 62 2400 VRB/04 RMK AO2 T03060228
53988KBKB BKB20190606141511806/06/19 14:15:31  5-MIN KBKB 062015Z AUTO VRB05KT 10SM FEW030 SCT045 31/23 A2969 520 57 2600 VRB/05 RMK AO2 T03220228
53988KBKB BKB20190606161510806/06/19 16:15:31  5-MIN KBKB 062215Z AUTO VRB03KT 10SM CLR 32/22 A2968 520 56 2600 VRB/03 RMK AO2 T03170222
53988KBKB BKB20190606162011106/06/19 16:20:31  5-MIN KBKB 062220Z AUTO 00000KT 10SM FEW043 32/22 A2968 520 55 2600 000/00 RMK AO2 T03170217
53988KBKB BKB20190606162511106/06/19 16:25:31  5-MIN KBKB 062225Z AUTO VRB03KT 10SM SCT043 32/22 A2968 520 55 2600 VRB/03 RMK AO2 T03220222
53988KBKB BKB20190606163011106/06/19 16:30:31  5-MIN KBKB 062230Z AUTO VRB03KT 10SM FEW041 32/22 A2968 520 56 2600 VRB/03 RMK AO2 T03170222
53988KBKB BKB20190606163511106/06/19 16:35:31  5-MIN KBKB 062235Z AUTO VRB03KT 10SM FEW041 32/21 A2968 520 53 2600 VRB/03 RMK AO2 T03170211
53988KBKB BKB20190606164011106/06/19 16:40:31  5-MIN KBKB 062240Z AUTO VRB04KT 10SM FEW041 32/21 A2968 520 53 2600 VRB/04 RMK AO2 T03170211
53988KBKB BKB20190606164016306/06/19 16:40:31  5-MIN KBKB 062240Z AUTO VRB04KT 10SM FEW041 32/21 A2968 N KBKB 062220Z AUTO 00000KT 10SM FEW043 32/22 A2968 520 55 2600 000/00 RMK AO2 T03170217
53988KBKB BKB20190606164511106/06/19 16:45:31  5-MIN KBKB 062245Z AUTO 21003KT 10SM FEW041 32/22 A2967 530 55 2600 200/03 RMK AO2 T03170217
53988KBKB BKB20190606165011806/06/19 16:50:31  5-MIN KBKB 062250Z AUTO 00000KT 10SM FEW041 32/22 A2967 530 56 2600 000/00 RMK AO2 SLP073 T03170222
53988KBKB BKB20190606165016106/06/19 16:50:31  5-MIN KBKB 062250Z AUTO 00000KT 10SM FEW041 32/22 A2967 530 5062230Z AUTO VRB03KT 10SM FEW041 32/22 A2968 520 56 2600 VRB/03 RMK AO2 T03170222
53988KBKB BKB20190606165511106/06/19 16:55:31  5-MIN KBKB 062255Z AUTO VRB03KT 10SM FEW041 32/22 A2967 530 56 2600 VRB/03 RMK AO2 T03170222
53988KBKB BKB20190606170022706/06/19 17:00:31  5-MIN KBKB 062300Z AUTO VRB04KT 10SM FEW041 31/22 A2967 530 58 UTO VRB04KT 10SM FEW041 32/21 A2968 520 53 2600 VRB/04 RMK ABKB 070120Z AUTO 00000KT 10SM FEW039 27/23 A2968 520 79 2000 000/00 RMK AO2 T02670228
53988KBKB BKB20190606191511106/06/19 19:15:31  5-MIN KBKB 070115Z AUTO 00000KT 10SM FEW039 27/23 A2968 520 79 2000 000/00 RMK AO2 T02670228
53988KBKB BKB20190606192011106/06/19 19:20:31  5-MIN KBKB 070120Z AUTO 00000KT 10SM FEW039 27/23 A2968 520 79 2000 000/00 RMK AO2 T02670228
53988KBKB BKB20190606192511106/06/19 19:25:31  5-MIN KBKB 070125Z AUTO 00000KT 10SM FEW039 27/23 A2968 520 79 2000 000/00 RMK AO2 T02670228
53988KBKB BKB20190606193011106/06/19 19:30:31  5-MIN KBKB 070130Z AUTO 00000KT 10SM FEW039 26/23 A2968 520 81 2000 000/00 RMK AO2 T02610228
53988KBKB BKB20190606193015906/06/19 19:30:31  5-MIN KBKB 070130Z AUTO 00000KT 10SM FEW039 26/23 A2968 520 81 2000 000/00 RMK AO2 T0261022827/23 A2968 520 76 2100 000/00 RMK AO2 T02720228
53988KBKB BKB20190606193511106/06/19 19:35:31  5-MIN KBKB 070135Z AUTO 00000KT 10SM FEW039 26/23 A2969 520 81 2000 000/00 RMK AO2 T02610228
53988KBKB BKB20190606194011106/06/19 19:40:31  5-MIN KBKB 070140Z AUTO 00000KT 10SM FEW039 26/23 A2969 510 81 2000 000/00 RMK AO2 T02610228
53988KBKB BKB20190606194016306/06/19 19:40:31  5-MIN KBKB 070140Z AUTO 00000KT 10SM FEW0 19:20:31  5-MIN KBKB 070120Z AUTO 00000KT 10SM FEW039 27/23 A2968 520 79 2000 000/00 RMK AO2 T02670228
53988KBKB BKB20190606194511106/06/19 19:45:31  5-MIN KBKB 070145Z AUTO 00000KT 10SM FEW039 26/22 A2969 510 79 1900 000/00 RMK AO2 T02610222
53988KBKB BKB20190606195011506/06/19 19:50:31  5-MIN KBKB 070150Z AUTO 00000KT 10SM CLR 26/23 A2969 510 81 2000 000/00 RMK AO2 SLP079 T02610228
53988KBKB BKB20190606195507506/06/19 19:55:31  5-MIN KBKB 070155Z AUTO 00000KT 10SM CLR 26/23 A2969 520
53988KBKB BKB20190607070510806/07/19 07:05:31  5-MIN KBKB 071305Z AUTO 23004KT 10SM CLR 25/21 A2973 480 79 1800 220/04 RMK AO2 T02500211
53988KBKB BKB20190607071010806/07/19 07:10:31  5-MIN KBKB 071310Z AUTO 00000KT 10SM CLR 25/21 A2973 480 79 1800 000/00 RMK AO2 T02500211
53988KBKB BKB20190607071510806/07/19 07:15:31  5-MIN KBKB 071315Z AUTO VRB04KT 10SM CLR 25/21 A2973 470 79 1800 VRB/04 RMK AO2 T02500211
53988KBKB BKB20190607072010806/07/19 07:20:31  5-MIN KBKB 071320Z AUTO VRB04KT 10SM CLR 25/21 A2973 470 79 1800 VRB/04 RMK AO2 T02500211
53988KBKB BKB20190607072510806/07/19 07:25:31  5-MIN KBKB 071325Z AUTO VRB05KT 10SM CLR 26/21 A2973 470 76 1800 VRB/05 RMK AO2 T02560211
53988KBKB BKB20190607073010806/07/19 07:30:31  5-MIN KBKB 071330Z AUTO VRB04KT 10SM CLR 26/21 A2973 470 76 1800 VRB/04 RMK AO2 T02560211
53988KBKB BKB20190607073510806/07/19 07:35:31  5-MIN KBKB 071335Z AUTO VRB03KT 10SM CLR 26/21 A2973 470 76 1800 VRB/03 RMK AO2 T02560211
53988KBKB BKB20190607074010806/07/19 07:40:31  5-MIN KBKB 071340Z AUTO VRB04KT 10SM CLR 26/21 A2973 480 73 1900 VRB/04 RMK AO2 T02610211
53988KBKB BKB20190607074510806/07/19 07:45:31  5-MIN KBKB 071345Z AUTO VRB03KT 10SM CLR 26/21 A2973 470 73 1900 VRB/03 RMK AO2 T02610211
53988KBKB BKB20190607075011506/07/19 07:50:31  5-MIN KBKB 071350Z AUTO 00000KT 10SM CLR 27/21 A2973 470 71 2000 000/00 RMK AO2 SLP093 T02670211
53988KBKB BKB20190607075510806/07/19 07:55:31  5-MIN KBKB 071355Z AUTO 00000KT 10SM CLR 27/21 A2973 470 71 2000 000/00 RMK AO2 T02670211
53988KBKB BKB20190607080010806/07/19 08:00:31  5-MIN KBKB 071400Z AUTO 00000KT 10SM CLR 27/21 A2973 470 69 2000 000/00 RMK AO2 T02720211
53988KBKB BKB20190607080510806/07/19 08:05:31  5-MIN KBKB 071405Z AUTO VRB03KT 10SM CLR 27/22 A2973 470 71 2000 VRB/03 RMK AO2 T02720217
53988KBKB BKB20190607081010806/07/19 08:10:31  5-MIN KBKB 071410Z AUTO VRB03KT 10SM CLR 28/21 A2973 470 66 2100 VRB/03 RMK AO2 T02780211
53988KBKB BKB20190607081510806/07/19 08:15:31  5-MIN KBKB 071415Z AUTO VRB03KT 10SM CLR 28/21 A2973 470 66 2100 VRB/03 RMK AO2 T02780211
53988KBKB BKB20190607082010806/07/19 08:20:31  5-MIN KBKB 071420Z AUTO VRB05KT 10SM CLR 28/21 A2973 470 66 2100 VRB/05 RMK AO2 T02780211
53988KBKB BKB20190607082510806/07/19 08:25:31  5-MIN KBKB 071425Z AUTO VRB05KT 10SM CLR 28/21 A2973 470 64 2100 VRB/05 RMK AO2 T02780206
53988KBKB BKB20190607083010806/07/19 08:30:31  5-MIN KBKB 071430Z AUTO VRB03KT 10SM CLR 28/21 A2973 470 64 2100 VRB/03 RMK AO2 T02780206
53988KBKB BKB20190607083510806/07/19 08:35:31  5-MIN KBKB 071435Z AUTO VRB03KT 10SM CLR 28/21 A2973 480 64 2100 VRB/03 RMK AO2 T02780206
53988KBKB BKB20190607084010806/07/19 08:40:31  5-MIN KBKB 071440Z AUTO VRB03KT 10SM CLR 28/21 A2973 480 64 2200 VRB/03 RMK AO2 T02830211
53988KBKB BKB20190607084510806/07/19 08:45:31  5-MIN KBKB 071445Z AUTO 00000KT 10SM CLR 28/21 A2973 480 62 2200 000/00 RMK AO2 T02830206
53988KBKB BKB20190607085012106/07/19 08:50:31  5-MIN KBKB 071450Z AUTO VRB05KT 10SM CLR 28/21 A2973 480 62 2200 VRB/05 RMK AO2 SLP090 T02830206 53016
53988KBKB BKB20190607085510806/07/19 08:55:31  5-MIN KBKB 071455Z AUTO VRB05KT 10SM CLR 28/21 A2972 480 62 2200 VRB/05 RMK AO2 T02830206
53988KBKB BKB20190607090010806/07/19 09:00:31  5-MIN KBKB 071500Z AUTO VRB06KT 10SM CLR 28/20 A2973 480 60 2200 VRB/06 RMK AO2 T02830200
53988KBKB BKB20190607090510806/07/19 09:05:31  5-MIN KBKB 071505Z AUTO VRB03KT 10SM CLR 29/21 A2973 480 60 2200 VRB/03 RMK AO2 T02890206
53988KBKB BKB20190607091010806/07/19 09:10:31  5-MIN KBKB 071510Z AUTO VRB04KT 10SM CLR 29/21 A2972 480 60 2200 VRB/04 RMK AO2 T02890206
53988KBKB BKB20190607091510806/07/19 09:15:31  5-MIN KBKB 071515Z AUTO VRB04KT 10SM CLR 29/21 A2972 480 60 2200 VRB/04 RMK AO2 T02890206
53988KBKB BKB20190607092010806/07/19 09:20:31  5-MIN KBKB 071520Z AUTO 26005KT 10SM CLR 29/20 A2972 480 58 2200 260/05 RMK AO2 T02890200
53988KBKB BKB20190607092509806/07/19 09:25:31  5-MIN KBKB 071525Z AUTO 10SM CLR 29/20 A2972 480 58 2200 M /M RMK AO2 T02890200
53988KBKB BKB20190607093009806/07/19 09:30:31  5-MIN KBKB 071530Z AUTO 10SM CLR 29/19 A2972 480 54 2300 M /M RMK AO2 T02940194
53988KBKB BKB20190607093510806/07/19 09:35:31  5-MIN KBKB 071535Z AUTO VRB04KT 10SM CLR 29/19 A2972 480 54 2300 VRB/04 RMK AO2 T02940194
53988KBKB BKB20190607094010806/07/19 09:40:31  5-MIN KBKB 071540Z AUTO VRB04KT 10SM CLR 29/20 A2973 480 56 2300 VRB/04 RMK AO2 T02940200
53988KBKB BKB20190607094510806/07/19 09:45:31  5-MIN KBKB 071545Z AUTO VRB06KT 10SM CLR 29/19 A2972 480 54 2300 VRB/06 RMK AO2 T02940194
53988KBKB BKB20190607095011506/07/19 09:50:31  5-MIN KBKB 071550Z AUTO VRB05KT 10SM CLR 29/19 A2972 480 52 2300 VRB/05 RMK AO2 SLP090 T02940189
53988KBKB BKB20190607095510806/07/19 09:55:31  5-MIN KBKB 071555Z AUTO VRB04KT 10SM CLR 30/19 A2972 480 52 2300 VRB/04 RMK AO2 T03000194
53988KBKB BKB20190607100010806/07/19 10:00:31  5-MIN KBKB 071600Z AUTO VRB06KT 10SM CLR 29/19 A2972 480 54 2300 VRB/06 RMK AO2 T02940194
53988KBKB BKB20190607100510806/07/19 10:05:31  5-MIN KBKB 071605Z AUTO VRB05KT 10SM CLR 30/20 A2972 480 54 2400 VRB/05 RMK AO2 T03000200
53988KBKB BKB20190607101015206/07/19 10:10:31  5-MIN KBKB 071610Z AUTO VRB04KT 10SM 31  5-MIN KBKB 071825Z AUTO 00000KT 10SM FEW047 32/21 A2969 510 51 2600 000/00 RMK AO2 T03220211
53988KBKB BKB20190607123011106/07/19 12:30:31  5-MIN KBKB 071830Z AUTO VRB06KT 10SM FEW047 32/21 A2969 510 49 2600 VRB/06 RMK AO2 T03220206
53988KBKB BKB20190607123511106/07/19 12:35:31  5-MIN KBKB 071835Z AUTO VRB04KT 10SM FEW047 32/20 A2969 510 49 2600 VRB/04 RMK AO2 T03170200
53988KBKB BKB20190607124011106/07/19 12:40:31  5-MIN KBKB 071840Z AUTO VRB06KT 10SM FEW047 32/21 A2969 510 49 2600 VRB/06 RMK AO2 T03220206
53988KBKB BKB20190607124510806/07/19 12:45:31  5-MIN KBKB 071845Z AUTO VRB05KT 10SM CLR 32/21 A2969 510 51 2600 VRB/05 RMK AO2 T03170206
53988KBKB BKB20190607125011106/07/19 12:50:31  5-MIN KBKB 071850Z AUTO VRB05G16KT 10SM CLR 31/19 A2969 510 49 2600 VRB/06 RMK AO2 T03220206
53988KBKB BKB20190607125012106/07/19 12:50:31  5-MIN KBKB 071850Z AUTO VRB05G16KT 10SM CLR 31/19 A2969 510 49 2500 VRB/05G16 RMK AO2 SLP077 T03110194
53988KBKB BKB20190607125511706/07/19 12:55:31  5-MIN KBKB 071855Z AUTO VRB05G16KT 10SM FEW048 31/20 A2969 510 51 2500 VRB/05G16 RMK AO2 T03110200
53988KBKB BKB20190607125514606/07/19 12:55:31  5-MIN KBKB 071855Z AUTO VRB05G16KT 10SM FEW048 31/20 A2969 510 51 2500 VRB/05G16 RMK AO2 T0310 51 2500 VRB/03 RMK AO2 T03110200
53988KBKB BKB20190607130011106/07/19 13:00:31  5-MIN KBKB 071900Z AUTO VRB05KT 10SM FEW048 32/21 A2968 520 51 2600 VRB/05 RMK AO2 T03170206
53988KBKB BKB20190607130015006/07/19 13:00:31  5-MIN KBKB 071900Z AUTO VRB05KT 10:31  5-MIN KBKB 071840Z AUTO VRB06KT 10SM FEW047 32/21 A2969 510 49 2600 VRB/06 RMK AO2 T03220206
53988KBKB BKB20190607130510806/07/19 13:05:31  5-MIN KBKB 071905Z AUTO VRB06KT 10SM CLR 32/20 A2968 520 48 2600 VRB/06 RMK AO2 T03220200
53988KBKB BKB20190607131016006/07/19 13:10:31  5-MIN KBKB 071910Z AUTO VRB04KT 10SM FEW-MIN KBKB 071850Z AUTO VRB05G16KT 10SM CLR 31/19 A2969 510 49 2500 VRB/05G16 RMK AO2 SLP077 T03110194
53988KBKB BKB20190607152512506/07/19 15:25:31  5-MIN KBKB 072125Z AUTO VRB03KT 10SM SCT047 SCT055 SCT075 31/20 A2966 540 51 2500 VRB/03 RMK AO2 T03110200
53988KBKB BKB20190607153011806/07/19 15:30:31  5-MIN KBKB 072130Z AUTO VRB03KT 10SM BKN047 BKN070 31/21 A2966 540 53 2500 VRB/03 RMK AO2 T03110206
53988KBKB BKB20190607153512506/07/19 15:35:31  5-MIN KBKB 072135Z AUTO VRB03KT 10SM SCT047 SCT055 BKN075 31/21 A2966 540 54 2500 VRB/03 RMK AO2 T03060206
53988KBKB BKB20190607154012506/07/19 15:40:31  5-MIN KBKB 072140Z AUTO VRB04KT 10SM SCT045 BKN055 BKN075 31/21 A2966 540 54 2500 VRB/04 RMK AO2 T03060206
53988KBKB BKB20190607154012806/07/19 15:40:31  5-MIN KBKB 072140Z AUTO VRB04KT 1 VRB04KT 10SM SCT050 SCT075 32/20 A2966 540 49 2600 VRB/04 RMK AO2 T03170200
53988KBKB BKB20190607154511806/07/19 15:45:31  5-MIN KBKB 072145Z AUTO VRB04KT 10SM SCT045 BKN055 32/21 A2966 540 53 2600 VRB/04 RMK AO2 T03170211
53988KBKB BKB20190607155011806/07/19 15:50:31  5-MIN KBKB 072150Z AUTO VRB06KT 10SM SCT047 31/21 A2966 540 53 2500 VRB/06 RMK AO2 SLP068 T03110206
53988KBKB BKB20190607155012806/07/19 15:50:31  5-MIN KBKB 072150Z B 072130Z AUTO VRB03KT 10SM BKN047 BKN070 31/21 A2966 540 53 2500 VRB/03 RMK AO2 T03110206
53988KBKB BKB20190607155511806/07/19 15:55:31  5-MIN KBKB 072155Z AUTO VRB06KT 10SM SCT045 SCT055 31/20 A2966 540 52 2500 VRB/06 RMK AO2 T03060200
53988KBKB BKB20190607155516806/07/19 15:55:31  5-MIN KBKB 072155Z AUTO VRB06KT 10SM S06/07/19 18:35:31  5-MIN KBKB 080035Z AUTO 00000KT 10SM FEW002 28/19 A2967 530 60 2200 000/00 RMK AO2 T02780194
53988KBKB BKB20190607155517306/07/19 15:55:31  5-MIN KBKB 072155Z AUTO VRB06KT 10SM SCT045 SCT055 31/20 A2966 540 52 2500 VRB/06 RMK AO2 T03060200BKN075 31/21 A2966 540 54 2500 VRB/04 RMK AO2 T03060206
53988KBKB BKB20190607160011106/07/19 16:00:31  5-MIN KBKB 072200Z AUTO VRB04KT 10SM SCT045 31/20 A2966 540 52 2500 VRB/04 RMK AO2 T03060200
53988KBKB BKB20190607160514706/07/19 16:05:31  5-MIN KBKB 072205Z AUTO 00000KT 10SM SCT047 31/20 A2966 540 52 2500 000/00 RMK AO2 T0306020006/07/12600 VRB/04 RMK AO2 T03170211
53988KBKB BKB20190607180510806/07/19 18:05:31  5-MIN KBKB 080005Z AUTO VRB03KT 10SM CLR 29/19 A2966 540 54 2300 VRB/03 RMK AO2 T02890189
53988KBKB BKB20190607181010806/07/19 18:10:31  5-MIN KBKB 080010Z AUTO VRB03KT 10SM CLR 29/19 A2966 540 54 2300 VRB/03 RMK AO2 T02890189
53988KBKB BKB20190607181510806/07/19 18:15:31  5-MIN KBKB 080015Z AUTO VRB03KT 10SM CLR 28/19 A2966 540 58 2200 VRB/03 RMK AO2 T02830194
53988KBKB BKB20190607182010806/07/19 18:20:31  5-MIN KBKB 080020Z AUTO 00000KT 10SM CLR 28/19 A2966 540 56 2200 000/00 RMK AO2 T02830189
53988KBKB BKB20190607182510806/07/19 18:25:31  5-MIN KBKB 080025Z AUTO 00000KT 10SM CLR 28/19 A2966 540 58 2200 000/00 RMK AO2 T02830194
53988KBKB BKB20190607183011106/07/19 18:30:31  5-MIN KBKB 080030Z AUTO VRB03KT 10SM FEW002 28/19 A2967 530 58 2200 VRB/03 RMK AO2 T02830194
53988KBKB BKB20190607183511106/07/19 18:35:31  5-MIN KBKB 080035Z AUTO 00000KT 10SM FEW002 28/19 A2967 530 60 2200 000/00 RMK AO2 T02780194
53988KBKB BKB20190607184010806/07/19 18:40:31  5-MIN KBKB 080040Z AUTO 00000KT 10SM CLR 28/19 A2967 530 60 2200 000/00 RMK AO2 T02780194
53988KBKB BKB20190607184510806/07/19 18:45:31  5-MIN KBKB 080045Z AUTO 00000KT 10SM CLR 28/19 A2967 530 60 2200 000/00 RMK AO2 T02780194
53988KBKB BKB20190607185011506/07/19 18:50:31  5-MIN KBKB 080050Z AUTO 00000KT 10SM CLR 27/20 A2967 530 64 2100 000/00 RMK AO2 SLP073 T02720200
53988KBKB BKB20190607185016906/07/19 18:50:31  5-MIN KBKB 080050Z AUTO 00000KT 10SM CLR 27/20 A29670:31  5-MIN KBKB 080030Z AUTO VRB03KT 10SM FEW002 28/19 A2967 530 58 2200 VRB/03 RMK AO2 T02830194
53988KBKB BKB20190607185510806/07/19 18:55:31  5-MIN KBKB 080055Z AUTO 00000KT 10SM CLR 27/20 A2968 520 66 2000 000/00 RMK AO2 T02670200
53988KBKB BKB20190607190010806/07/19 19:00:31  5-MIN KBKB 080100Z AUTO 00000KT 10SM CLR 27/21 A2968 520 69 2000 000/00 RMK AO2 T02670206
53988KBKB BKB20190607190016506/07/19 19:00:31  5-MIN KBKB 080100Z AUTO 00000KT 10SM CLR 27/19 18:40:31  5-MIN KBKB 080040Z AUTO 00000KT 10SM CLR 28/19 A2967 530 60 2200 000/00 RMK AO2 T02780194
53988KBKB BKB20190607190510806/07/19 19:05:31  5-MIN KBKB 080105Z AUTO 00000KT 10SM CLR 26/20 A2968 520 68 2000 000/00 RMK AO2 T02610200
53988KBKB BKB20190607191010806/07/19 19:10:31  5-MIN KBKB 080110Z AUTO 00000KT 10SM CLR 26/20 A2968 520 68 2000 000/00 RMK AO2 T02610200
53988KBKB BKB20190607191510806/07/19 19:15:31  5-MIN KBKB 080115Z AUTO 00000KT 10SM CLR 26/20 A2968 520 71 1900 000/00 RMK AO2 T02560200
53988KBKB BKB20190607192010806/07/19 19:20:31  5-MIN KBKB 080120Z AUTO 00000KT 10SM CLR 26/20 A2968 520 71 1900 000/00 RMK AO2 T02560200
53988KBKB BKB20190607192510806/07/19 19:25:31  5-MIN KBKB 080125Z AUTO 00000KT 10SM CLR 26/20 A2968 520 71 1900 000/00 RMK AO2 T02560200
53988KBKB BKB20190607193010806/07/19 19:30:31  5-MIN KBKB 080130Z AUTO 00000KT 10SM CLR 25/21 A2969 520 76 1800 000/00 RMK AO2 T02500206
53988KBKB BKB20190607193510806/07/19 19:35:31  5-MIN KBKB 080135Z AUTO 00000KT 10SM CLR 25/20 A2969 510 73 1800 000/00 RMK AO2 T02500200
53988KBKB BKB20190607194010806/07/19 19:40:31  5-MIN KBKB 080140Z AUTO 00000KT 10SM CLR 25/20 A2969 510 73 1800 000/00 RMK AO2 T02500200
53988KBKB BKB20190607194510806/07/19 19:45:31  5-MIN KBKB 080145Z AUTO 00000KT 10SM CLR 25/20 A2969 510 73 1800 000/00 RMK AO2 T02500200
53988KBKB BKB20190607195011506/07/19 19:50:31  5-MIN KBKB 080150Z AUTO 00000KT 10SM CLR 24/20 A2969 510 76 1800 000/00 RMK AO2 SLP079 T02440200
53988KBKB BKB20190607195510806/07/19 19:55:31  5-MIN KBKB 080155Z AUTO 00000KT 10SM CLR 24/20 A2969 510 76 1800 000/00 RMK AO2 T02440200
53988KBKB BKB20190607200010806/07/19 20:00:31  5-MIN KBKB 080200Z AUTO 00000KT 10SM CLR 24/21 A2969 510 78 1800 000/00 RMK AO2 T02440206
53988KBKB BKB20190607200510806/07/19 20:05:31  5-MIN KBKB 080205Z AUTO 00000KT 10SM CLR 24/21 A2969 510 78 1800 000/00 RMK AO2 T02440206
53988KBKB BKB20190607201010806/07/19 20:10:31  5-MIN KBKB 080210Z AUTO 00000KT 10SM CLR 24/20 A2969 510 76 1800 000/00 RMK AO2 T02440200
53988KBKB BKB20190607201510806/07/19 20:15:31  5-MIN KBKB 080215Z AUTO 00000KT 10SM CLR 24/21 A2970 510 78 1800 000/00 RMK AO2 T02440206
53988KBKB BKB20190607202010806/07/19 20:20:31  5-MIN KBKB 080220Z AUTO 00000KT 10SM CLR 24/21 A2970 510 78 1800 000/00 RMK AO2 T02440206
53988KBKB BKB20190607202510806/07/19 20:25:31  5-MIN KBKB 080225Z AUTO 00000KT 10SM CLR 24/21 A2970 510 81 1700 000/00 RMK AO2 T02390206
53988KBKB BKB20190607203010806/07/19 20:30:31  5-MIN KBKB 080230Z AUTO 00000KT 10SM CLR 24/20 A2970 510 78 1700 000/00 RMK AO2 T02390200
53988KBKB BKB20190607203510806/07/19 20:35:31  5-MIN KBKB 080235Z AUTO 00000KT 10SM CLR 24/20 A2970 510 78 1700 000/00 RMK AO2 T02390200
53988KBKB BKB20190607204010806/07/19 20:40:31  5-MIN KBKB 080240Z AUTO 00000KT 10SM CLR 24/20 A2969 510 78 1700 000/00 RMK AO2 T02390200
53988KBKB BKB20190607204510806/07/19 20:45:31  5-MIN KBKB 080245Z AUTO 00000KT 10SM CLR 23/20 A2970 510 81 1600 000/00 RMK AO2 T02330200
53988KBKB BKB20190607205012106/07/19 20:50:31  5-MIN KBKB 080250Z AUTO 00000KT 10SM CLR 23/20 A2970 510 81 1600 000/00 RMK AO2 SLP080 T02330200 55001
53988KBKB BKB20190607205510806/07/19 20:55:31  5-MIN KBKB 080255Z AUTO 00000KT 10SM CLR 23/20 A2970 510 81 1600 000/00 RMK AO2 T02330200
53988KBKB BKB20190607210010806/07/19 21:00:31  5-MIN KBKB 080300Z AUTO 00000KT 10SM CLR 23/21 A2970 510 84 1600 000/00 RMK AO2 T02330206
53988KBKB BKB20190607210510806/07/19 21:05:31  5-MIN KBKB 080305Z AUTO 00000KT 10SM CLR 23/21 A2970 500 84 1600 000/00 RMK AO2 T02330206
53988KBKB BKB20190607211010806/07/19 21:10:31  5-MIN KBKB 080310Z AUTO 00000KT 10SM CLR 23/20 A2970 500 81 1600 000/00 RMK AO2 T02330200
53988KBKB BKB20190607211510806/07/19 21:15:31  5-MIN KBKB 080315Z AUTO 00000KT 10SM CLR 23/20 A2970 500 81 1600 000/00 RMK AO2 T02330200
53988KBKB BKB20190607212010806/07/19 21:20:31  5-MIN KBKB 080320Z AUTO 00000KT 10SM CLR 23/21 A2970 500 84 1600 000/00 RMK AO2 T02330206
53988KBKB BKB20190607212510806/07/19 21:25:31  5-MIN KBKB 080325Z AUTO 00000KT 10SM CLR 23/21 A2970 510 87 1600 000/00 RMK AO2 T02280206
53988KBKB BKB20190607213010806/07/19 21:30:31  5-MIN KBKB 080330Z AUTO 00000KT 10SM CLR 23/21 A2970 500 87 1600 000/00 RMK AO2 T02280206
53988KBKB BKB20190607213510806/07/19 21:35:31  5-MIN KBKB 080335Z AUTO 00000KT 10SM CLR 23/21 A2970 500 87 1600 000/00 RMK AO2 T02280206
53988KBKB BKB20190607214010806/07/19 21:40:31  5-MIN KBKB 080340Z AUTO 00000KT 10SM CLR 23/21 A2970 500 87 1600 000/00 RMK AO2 T02280206
53988KBKB BKB20190607214510806/07/19 21:45:31  5-MIN KBKB 080345Z AUTO 00000KT 10SM CLR 23/21 A2970 500 84 1600 000/00 RMK AO2 T02330206
53988KBKB BKB20190607215011506/07/19 21:50:31  5-MIN KBKB 080350Z AUTO 00000KT 10SM CLR 23/21 A2970 500 87 1600 000/00 RMK AO2 SLP083 T02280206
53988KBKB BKB20190607215510806/07/19 21:55:31  5-MIN KBKB 080355Z AUTO 00000KT 10SM CLR 23/21 A2970 500 87 1600 000/00 RMK AO2 T02280206
53988KBKB BKB20190607220010806/07/19 22:00:31  5-MIN KBKB 080400Z AUTO 00000KT 10SM CLR 23/21 A2970 500 87 1600 000/00 RMK AO2 T02280206
53988KBKB BKB20190607220510806/07/19 22:05:31  5-MIN KBKB 080405Z AUTO 00000KT 10SM CLR 23/21 A2970 500 87 1600 000/00 RMK AO2 T02280206
53988KBKB BKB20190607221010806/07/19 22:10:31  5-MIN KBKB 080410Z AUTO 00000KT 10SM CLR 23/21 A2970 500 87 1600 000/00 RMK AO2 T02280206
53988KBKB BKB20190607221510806/07/19 22:15:31  5-MIN KBKB 080415Z AUTO 00000KT 10SM CLR 23/21 A2971 500 87 1600 000/00 RMK AO2 T02280206
53988KBKB BKB20190607222010806/07/19 22:20:31  5-MIN KBKB 080420Z AUTO 00000KT 10SM CLR 23/21 A2971 500 87 1600 000/00 RMK AO2 T02280206
53988KBKB BKB20190607222510806/07/19 22:25:31  5-MIN KBKB 080425Z AUTO 00000KT 10SM CLR 23/20 A2971 500 81 1600 000/00 RMK AO2 T02330200
53988KBKB BKB20190607223010806/07/19 22:30:31  5-MIN KBKB 080430Z AUTO 00000KT 10SM CLR 22/21 A2971 490 90 1500 000/00 RMK AO2 T02220206
53988KBKB BKB20190607223510806/07/19 22:35:31  5-MIN KBKB 080435Z AUTO 00000KT 10SM CLR 22/21 A2971 490 90 1500 000/00 RMK AO2 T02220206
53988KBKB BKB20190607224010806/07/19 22:40:31  5-MIN KBKB 080440Z AUTO 00000KT 10SM CLR 22/20 A2971 490 87 1500 000/00 RMK AO2 T02220200
53988KBKB BKB20190607224510806/07/19 22:45:31  5-MIN KBKB 080445Z AUTO 00000KT 10SM CLR 22/21 A2971 490 90 1500 000/00 RMK AO2 T02220206
53988KBKB BKB20190607225011506/07/19 22:50:31  5-MIN KBKB 080450Z AUTO 00000KT 10SM CLR 22/20 A2971 490 87 1500 000/00 RMK AO2 SLP085 T02220200
53988KBKB BKB20190607225510806/07/19 22:55:31  5-MIN KBKB 080455Z AUTO 00000KT 10SM CLR 22/20 A2971 490 90 1400 000/00 RMK AO2 T02170200
53988KBKB BKB20190607230010806/07/19 23:00:31  5-MIN KBKB 080500Z AUTO 00000KT 10SM CLR 22/20 A2971 500 87 1500 000/00 RMK AO2 T02220200
53988KBKB BKB20190607230510206/07/19 23:05:31  5-MIN KBKB 080505Z AUTO 00000KT 10SM CLR 22970 500 93 1300 000/00 RMK AO2 T02060194
53988KBKB BKB20190608010510806/08/19 01:05:31  5-MIN KBKB 080705Z AUTO 00000KT 10SM CLR 21/19 A2970 500 93 1300 000/00 RMK AO2 T02060194
53988KBKB BKB20190608011010806/08/19 01:10:31  5-MIN KBKB 080710Z AUTO 00000KT 10SM CLR 21/19 A2970 500 93 1300 000/00 RMK AO2 T02060194
53988KBKB BKB20190608011510806/08/19 01:15:31  5-MIN KBKB 080715Z AUTO 00000KT 10SM CLR 21/19 A2970 500 93 1300 000/00 RMK AO2 T02060194
53988KBKB BKB20190608012010806/08/19 01:20:31  5-MIN KBKB 080720Z AUTO 00000KT 10SM CLR 21/19 A2970 500 93 1300 000/00 RMK AO2 T02060194
53988KBKB BKB20190608012510806/08/19 01:25:31  5-MIN KBKB 080725Z AUTO 00000KT 10SM CLR 21/19 A2970 500 93 1300 000/00 RMK AO2 T02060194
53988KBKB BKB20190608013010806/08/19 01:30:31  5-MIN KBKB 080730Z AUTO 00000KT 10SM CLR 21/19 A2970 500 93 1300 000/00 RMK AO2 T02060194
53988KBKB BKB20190608013017006/08/19 01:30:31  5-MIN KBKB 080730Z AUTO 00000KT 10SM CLR 21/19 A2970 500 93 1300 000/00 RMK0710Z AUTO 00000KT 10SM CLR 21/19 A2970 500 93 1300 000/00 RMK AO2 T02060194
53988KBKB BKB20190608013510806/08/19 01:35:31  5-MIN KBKB 080735Z AUTO 00000KT 10SM CLR 21/19 A2970 500 93 1300 000/00 RMK AO2 T02060194
53988KBKB BKB20190608013511906/08/19 01:35:31  5-MIN KBKB 080735Z AUTO 00000KT 10SM CLR 21/19 A2970 500 93 1300 000/00 RMK AO2 T0206K AO2 T02000189
53988KBKB BKB20190608014010806/08/19 01:40:31  5-MIN KBKB 080740Z AUTO 00000KT 10SM CLR 21/19 A2970 500 93 1300 000/00 RMK AO2 T02060194
53988KBKB BKB20190608014016806/08/19 01:40:31  5-MIN KBKB 080740Z AUTO 00000KT 10SM CLR 21/19 A2970 500 93 1300 000/00 RMK AO2 T02060194KT 10SM CLR 21/19 A2970 500 93 1300 000/00 RMK AO2 T02060194
53988KBKB BKB20190608014510806/08/19 01:45:31  5-MIN KBKB 080745Z AUTO 00000KT 10SM CLR 21/19 A2970 500 93 1300 000/00 RMK AO2 T02060194
53988KBKB BKB20190608015010806/08/19 01:50:31  5-MIN KBKB 080750Z AUTO 00000KT 10SM CLR 21/19 A2971 500 93 1300 000/00 RMK AO2 T02060194
53988KBKB BKB20190608040510706/08/19 04:05:31  5-MIN KBKB 081005Z AUTO 00000KT 9SM CLR 20/19 A2971 490 93 1200 000/00 RMK AO2 T02000189
53988KBKB BKB20190608041010706/08/19 04:10:31  5-MIN KBKB 081010Z AUTO 00000KT 9SM CLR 20/19 A2971 490 93 1200 000/00 RMK AO2 T02000189
53988KBKB BKB20190608041510806/08/19 04:15:31  5-MIN KBKB 081015Z AUTO 00000KT 10SM CLR 20/19 A2971 490 93 1200 000/00 RMK AO2 T02000189
53988KBKB BKB20190608042010706/08/19 04:20:31  5-MIN KBKB 081020Z AUTO 00000KT 9SM CLR 20/19 A2971 490 93 1200 000/00 RMK AO2 T02000189
53988KBKB BKB20190608042017006/08/19 04:20:31  5-MIN KBKB 081020Z AUTO 00000KT 9SM CLR 20/19 A2971 490 93 1200 000/00 RMK AO2 T0200018906/08/19 04:25:20/19 A2971 490 93 1200 000/00 RMK AO2 T02000189
53988KBKB BKB20190608042510706/08/19 04:25:31  5-MIN KBKB 081025Z AUTO 00000KT 9SM CLR 20/19 A2972 490 93 1200 000/00 RMK AO2 T02000189
53988KBKB BKB20190608043010706/08/19 04:30:31  5-MIN KBKB 081030Z AUTO 00000KT 9SM CLR 20/19 A2972 490 93 1200 000/00 RMK AO2 T02000189
53988KBKB BKB20190608043017006/08/19 04:30:31  5-MIN KBKB 081030Z AUTO 00000KT 9SM CLR 20/19 A2972 490 93 1200 000/00 RMK AO2 T0200018906/08/19 04:35:31  5-A2971 490 93 1200 000/00 RMK AO2 T02000189
53988KBKB BKB20190608043510806/08/19 04:35:31  5-MIN KBKB 081035Z AUTO 00000KT 10SM CLR 20/19 A2972 490 93 1200 000/00 RMK AO2 T02000189
53988KBKB BKB20190608043515506/08/19 04:35:31  5-MIN KBKB 081035Z AUTO 00000KT 10SM CLR 20/19 A2972 490 93 1200 000/00 RMK AO2 T0200018906/08/19 04:40:31  5-MI000/00 RMK AO2 T02060194
53988KBKB BKB20190608044010706/08/19 04:40:31  5-MIN KBKB 081040Z AUTO 00000KT 9SM CLR 20/19 A2972 490 93 1200 000/00 RMK AO2 T02000189
53988KBKB BKB20190608050510706/08/19 05:05:31  5-MIN KBKB 081105Z AUTO 00000KT 9SM CLR 21/19 A2973 480 93 1300 000/00 RMK AO2 T02060194
53988KBKB BKB20190608051010706/08/19 05:10:31  5-MIN KBKB 081110Z AUTO 00000KT 8SM CLR 21/19 A2973 480 93 1300 000/00 RMK AO2 T02060194
53988KBKB BKB20190608051511006/08/19 05:15:31  5-MIN KBKB 081115Z AUTO 00000KT 6SM BR CLR 21/19 A2973 480 93 1300 000/00 RMK AO2 T02060194
53988KBKB BKB20190608052011006/08/19 05:20:31  5-MIN KBKB 081120Z AUTO 00000KT 6SM BR CLR 20/19 A2973 470 97 1200 000/00 RMK AO2 T02000194
53988KBKB BKB20190608052511006/08/19 05:25:31  5-MIN KBKB 081125Z AUTO 00000KT 5SM BR CLR 20/19 A2973 470 97 1200 000/00 RMK AO2 T02000194
53988KBKB BKB20190608053011006/08/19 05:30:31  5-MIN KBKB 081130Z AUTO 00000KT 6SM BR CLR 21/19 A2974 470 93 1300 000/00 RMK AO2 T02060194
53988KBKB BKB20190608053511006/08/19 05:35:31  5-MIN KBKB 081135Z AUTO 00000KT 6SM BR CLR 21/19 A2974 470 93 1300 000/00 RMK AO2 T02060194
53988KBKB BKB20190608054011006/08/19 05:40:31  5-MIN KBKB 081140Z AUTO 00000KT 6SM BR CLR 21/19 A2974 470 93 1300 000/00 RMK AO2 T02060194
53988KBKB BKB20190608054511006/08/19 05:45:31  5-MIN KBKB 081145Z AUTO 00000KT 6SM BR CLR 21/19 A2974 470 93 1300 000/00 RMK AO2 T02060194
53988KBKB BKB20190608055013506/08/19 05:50:31  5-MIN KBKB 081150Z AUTO 00000KT 6SM BR CLR 21/19 A2974 460 93 1300 000/00 RMK AO2 SLP096 T02060194 10211 20200 58001
53988KBKB BKB20190608055510706/08/19 05:55:31  5-MIN KBKB 081155Z AUTO 00000KT 7SM CLR 21/19 A2974 460 93 1300 000/00 RMK AO2 T02060194
53988KBKB BKB20190608060010706/08/19 06:00:31  5-MIN KBKB 081200Z AUTO 00000KT 8SM CLR 21/19 A2974 460 93 1300 000/00 RMK AO2 T02060194
53988KBKB BKB20190608060510706/08/19 06:05:31  5-MIN KBKB 081205Z AUTO 00000KT 9SM CLR 21/20 A2974 470 93 1300 000/00 RMK AO2 T02110200
53988KBKB BKB20190608061010806/08/19 06:10:31  5-MIN KBKB 081210Z AUTO 00000KT 10SM CLR 22/21 A2974 470 93 1400 000/00 RMK AO2 T02170206
53988KBKB BKB20190608061510806/08/19 06:15:31  5-MIN KBKB 081215Z AUTO 00000KT 10SM CLR 22/21 A2974 470 93 1400 000/00 RMK AO2 T02170206
53988KBKB BKB20190608062010806/08/19 06:20:31  5-MIN KBKB 081220Z AUTO 00000KT 10SM CLR 22/21 A2974 470 93 1500 000/00 RMK AO2 T02220211
53988KBKB BKB20190608062510806/08/19 06:25:31  5-MIN KBKB 081225Z AUTO 00000KT 10SM CLR 23/21 A2974 460 90 1500 000/00 RMK AO2 T02280211
53988KBKB BKB20190608063010806/08/19 06:30:31  5-MIN KBKB 081230Z AUTO 00000KT 10SM CLR 23/21 A2974 460 87 1600 000/00 RMK AO2 T02330211
53988KBKB BKB20190608063510806/08/19 06:35:31  5-MIN KBKB 081235Z AUTO 33003KT 10SM CLR 23/21 A2974 460 87 1600 330/03 RMK AO2 T02330211
53988KBKB BKB20190608064010806/08/19 06:40:31  5-MIN KBKB 081240Z AUTO 00000KT 10SM CLR 24/21 A2974 460 84 1600 000/00 RMK AO2 T02390211
53988KBKB BKB20190608064510806/08/19 06:45:31  5-MIN KBKB 081245Z AUTO 00000KT 10SM CLR 24/22 A2974 460 84 1700 000/00 RMK AO2 T02440217
53988KBKB BKB20190608065011506/08/19 06:50:31  5-MIN KBKB 081250Z AUTO 00000KT 10SM CLR 24/22 A2974 460 84 1700 000/00 RMK AO2 SLP096 T02440217
53988KBKB BKB20190608065510806/08/19 06:55:31  5-MIN KBKB 081255Z AUTO 00000KT 10SM CLR 24/22 A2974 470 84 1700 000/00 RMK AO2 T02440217
53988KBKB BKB20190608070010806/08/19 07:00:31  5-MIN KBKB 081300Z AUTO 00000KT 10SM CLR 25/22 A2974 470 84 1800 000/00 RMK AO2 T02500222
53988KBKB BKB20190608070510806/08/19 07:05:31  5-MIN KBKB 081305Z AUTO 00000KT 10SM CLR 25/22 A2974 460 81 1800 000/00 RMK AO2 T02500217
53988KBKB BKB20190608071010806/08/19 07:10:31  5-MIN KBKB 081310Z AUTO 00000KT 10SM CLR 26/22 A2974 460 79 1800 000/00 RMK AO2 T02560217
53988KBKB BKB20190608071510806/08/19 07:15:31  5-MIN KBKB 081315Z AUTO 00000KT 10SM CLR 26/22 A2974 460 79 1800 000/00 RMK AO2 T02560217
53988KBKB BKB20190608072010806/08/19 07:20:31  5-MIN KBKB 081320Z AUTO 00000KT 10SM CLR 26/22 A2974 460 79 1800 000/00 RMK AO2 T02560217
53988KBKB BKB20190608072510806/08/19 07:25:31  5-MIN KBKB 081325Z AUTO 00000KT 10SM CLR 26/22 A2974 460 76 1900 000/00 RMK AO2 T02610217
53988KBKB BKB20190608073010806/08/19 07:30:31  5-MIN KBKB 081330Z AUTO 00000KT 10SM CLR 26/22 A2975 460 76 1900 000/00 RMK AO2 T02610217
53988KBKB BKB20190608073510806/08/19 07:35:31  5-MIN KBKB 081335Z AUTO 00000KT 10SM CLR 27/22 A2975 460 73 1900 000/00 RMK AO2 T02670217
53988KBKB BKB20190608074010806/08/19 07:40:31  5-MIN KBKB 081340Z AUTO 00000KT 10SM CLR 27/21 A2975 460 71 1900 000/00 RMK AO2 T02670211
53988KBKB BKB20190608074510806/08/19 07:45:31  5-MIN KBKB 081345Z AUTO 00000KT 10SM CLR 27/21 A2975 460 71 1900 000/00 RMK AO2 T02670211
53988KBKB BKB20190608075011506/08/19 07:50:31  5-MIN KBKB 081350Z AUTO 00000KT 10SM CLR 27/22 A2975 460 73 1900 000/00 RMK AO2 SLP098 T02670217
53988KBKB BKB20190608075510806/08/19 07:55:31  5-MIN KBKB 081355Z AUTO 00000KT 10SM CLR 27/22 A2975 460 73 1900 000/00 RMK AO2 T02670217
53988KBKB BKB20190608080011106/08/19 08:00:31  5-MIN KBKB 081400Z AUTO 00000KT 10SM FEW021 27/21 A2975 460 69 2000 000/00 RMK AO2 T02720211
53988KBKB BKB20190608080511106/08/19 08:05:31  5-MIN KBKB 081405Z AUTO 00000KT 10SM SCT021 27/21 A2975 460 69 2000 000/00 RMK AO2 T02720211
53988KBKB BKB20190608081011806/08/19 08:10:31  5-MIN KBKB 081410Z AUTO 00000KT 10SM SCT021 SCT028 27/21 A2975 460 69 2000 000/00 RMK AO2 T02720211
53988KBKB BKB20190608081511106/08/19 08:15:31  5-MIN KBKB 081415Z AUTO 00000KT 10SM FEW021 28/21 A2975 460 66 2100 000/00 RMK AO2 T02780211
53988KBKB BKB20190608082011106/08/19 08:20:31  5-MIN KBKB 081420Z AUTO 00000KT 10SM FEW023 28/21 A2975 460 66 2100 000/00 RMK AO2 T02780211
53988KBKB BKB20190608082511106/08/19 08:25:31  5-MIN KBKB 081425Z AUTO 00000KT 10SM SCT023 28/21 A2975 460 66 2100 000/00 RMK AO2 T02780211
53988KBKB BKB20190608083011106/08/19 08:30:31  5-MIN KBKB 081430Z AUTO 34003KT 10SM FEW023 28/21 A2975 460 64 2100 340/03 RMK AO2 T02780206
53988KBKB BKB20190608083511106/08/19 08:35:31  5-MIN KBKB 081435Z AUTO 00000KT 10SM FEW025 28/21 A2975 460 64 2100 000/00 RMK AO2 T02780206
53988KBKB BKB20190608084011106/08/19 08:40:31  5-MIN KBKB 081440Z AUTO 00000KT 10SM FEW025 28/21 A2975 460 64 2100 000/00 RMK AO2 T02830211
53988KBKB BKB20190608084511106/08/19 08:45:31  5-MIN KBKB 081445Z AUTO VRB03KT 10SM FEW025 28/21 A2975 460 64 2100 VRB/03 RMK AO2 T02780206
53988KBKB BKB20190608085012406/08/19 08:50:31  5-MIN KBKB 081450Z AUTO VRB03KT 10SM SCT027 27/21 A2975 460 66 2000 VRB/03 RMK AO2 SLP098 T02720206 53014
53988KBKB BKB20190608085511106/08/19 08:55:31  5-MIN KBKB 081455Z AUTO VRB04KT 10SM SCT027 28/21 A2975 460 64 2100 VRB/04 RMK AO2 T02830211
53988KBKB BKB20190608090011106/08/19 09:00:31  5-MIN KBKB 081500Z AUTO 26003KT 10SM SCT027 28/21 A2975 460 62 2100 260/03 RMK AO2 T02830206
53988KBKB BKB20190608090511106/08/19 09:05:31  5-MIN KBKB 081505Z AUTO VRB03KT 10SM SCT029 28/21 A2975 460 62 2100 VRB/03 RMK AO2 T02830206
53988KBKB BKB20190608091011106/08/19 09:10:31  5-MIN KBKB 081510Z AUTO 00000KT 10SM SCT029 28/21 A2975 460 62 2100 000/00 RMK AO2 T02830206
53988KBKB BKB20190608091511106/08/19 09:15:31  5-MIN KBKB 081515Z AUTO 00000KT 10SM FEW029 28/20 A2975 460 60 2100 000/00 RMK AO2 T02830200
53988KBKB BKB20190608092011106/08/19 09:20:31  5-MIN KBKB 081520Z AUTO VRB03KT 10SM FEW029 29/21 A2975 460 60 2200 VRB/03 RMK AO2 T02890206
53988KBKB BKB20190608092511106/08/19 09:25:31  5-MIN KBKB 081525Z AUTO 00000KT 10SM SCT029 29/20 A2975 460 58 2200 000/00 RMK AO2 T02890200
53988KBKB BKB20190608093011106/08/19 09:30:31  5-MIN KBKB 081530Z AUTO VRB03KT 10SM SCT030 28/20 A2975 460 60 2100 VRB/03 RMK AO2 T02830200
53988KBKB BKB20190608093511106/08/19 09:35:31  5-MIN KBKB 081535Z AUTO 24005KT 10SM SCT030 29/21 A2975 460 60 2200 230/05 RMK AO2 T02890206
53988KBKB BKB20190608094011106/08/19 09:40:31  5-MIN KBKB 081540Z AUTO 00000KT 10SM SCT031 29/20 A2975 460 58 2200 000/00 RMK AO2 T02890200
53988KBKB BKB20190608094511106/08/19 09:45:31  5-MIN KBKB 081545Z AUTO VRB04KT 10SM SCT031 29/21 A2975 460 60 2200 VRB/04 RMK AO2 T02890206
53988KBKB BKB20190608095011806/08/19 09:50:31  5-MIN KBKB 081550Z AUTO VRB04KT 10SM SCT031 28/20 A2975 460 60 2100 VRB/04 RMK AO2 SLP098 T02830200
53988KBKB BKB20190608095511106/08/19 09:55:31  5-MIN KBKB 081555Z AUTO 00000KT 10SM BKN032 29/20 A2975 460 58 2200 000/00 RMK AO2 T02890200
53988KBKB BKB20190608100011106/08/19 10:00:31  5-MIN KBKB 081600Z AUTO 00000KT 10SM SCT032 28/20 A2975 460 60 2100 000/00 RMK AO2 T02830200
53988KBKB BKB20190608100511106/08/19 10:05:31  5-MIN KBKB 081605Z AUTO 00000KT 10SM BKN034 29/21 A2975 460 58 2300 000/00 RMK AO2 T02940206
53988KBKB BKB20190608101011106/08/19 10:10:31  5-MIN KBKB 081610Z AUTO VRB03KT 10SM BKN034 29/21 A2975 460 60 2200 VRB/03 RMK AO2 T02890206
53988KBKB BKB20190608101511106/08/19 10:15:31  5-MIN KBKB 081615Z AUTO VRB04KT 10SM BKN034 28/20 A2975 450 60 2100 VRB/04 RMK AO2 T02830200
53988KBKB BKB20190608102011106/08/19 10:20:31  5-MIN KBKB 081620Z AUTO VRB03KT 10SM BKN034 28/19 A2976 450 58 2100 VRB/03 RMK AO2 T02830194
53988KBKB BKB20190608102511106/08/19 10:25:31  5-MIN KBKB 081625Z AUTO VRB04KT 10SM BKN036 29/20 A2976 450 56 2200 VRB/04 RMK AO2 T02940200
53988KBKB BKB20190608103011106/08/19 10:30:31  5-MIN KBKB 081630Z AUTO VRB05KT 10SM BKN036 29/20 A2976 450 56 2200 VRB/05 RMK AO2 T02940200
53988KBKB BKB20190608103511106/08/19 10:35:31  5-MIN KBKB 081635Z AUTO VRB03KT 10SM BKN038 28/20 A2976 450 60 2100 VRB/03 RMK AO2 T02830200
53988KBKB BKB20190608104011806/08/19 10:40:31  5-MIN KBKB 081640Z AUTO 00000KT 10SM SCT037 BKN044 29/20 A2976 450 56 2200 000/00 RMK AO2 T02940200
53988KBKB BKB20190608104507106/08/19 10:45:31  5-MIN KBKB 081645Z AUTO VRB04KT 10SM SCT037 BK110206
53988KBKB BKB20190608124011106/08/19 12:40:31  5-MIN KBKB 081840Z AUTO VRB05KT 10SM BKN055 30/21 A2975 450 56 2300 VRB/05 RMK AO2 T03000206
53988KBKB BKB20190608124511106/08/19 12:45:31  5-MIN KBKB 081845Z AUTO VRB04KT 10SM BKN055 31/21 A2975 450 54 2400 VRB/04 RMK AO2 T03060206
53988KBKB BKB20190608125011806/08/19 12:50:31  5-MIN KBKB 081850Z AUTO VRB03KT 10SM FEW055 31/21 A2975 460 53 2400 VRB/03 RMK AO2 SLP099 T03110206
53988KBKB BKB20190608125511106/08/19 12:55:31  5-MIN KBKB 081855Z AUTO 00000KT 10SM SCT055 32/21 A2975 460 53 2500 000/00 RMK AO2 T03170211
53988KBKB BKB20190608125515406/08/19 12:55:31  5-MIN KBKB 081855Z AUTO 00000KT 10SM SCT055 32/21 A2975 460 53 2500 000/00 RMK AO2 T03170211 A2975 450 54 2400 VRB/03 RMK AO2 T03060206
53988KBKB BKB20190608130011806/08/19 13:00:31  5-MIN KBKB 081900Z AUTO VRB04KT 10SM FEW048 SCT060 31/21 A2975 460 54 2400 VRB/04 RMK AO2 T03060206
53988KBKB BKB20190608130511106/08/19 13:05:31  5-MIN KBKB 081905Z AUTO VRB04KT 10SM SCT060 31/21 A2975 460 54 2400 VRB/04 RMK AO2 T03060206
53988KBKB BKB20190608130514706/08/19 13:05:31  5-MIN KBKB 081905Z AUTO VRB04KT 10SM SCT060 31/21 A2975 460 54 2400 10SM BKN055 31/21 A2975 450 54 2400 VRB/04 RMK AO2 T03060206
53988KBKB BKB20190608131007306/08/19 13:10:31  5-MIN KBKB 081910Z AUTO VRB03KT 10SM FEW060 32/21 A211
53988KBKB BKB20190608131011106/08/19 13:10:31  5-MIN KBKB 081910Z AUTO VRB03KT 10SM FEW060 32/21 A2975 460 51 2500 VRB/03 RMK AO2 T03170206
53988KBKB BKB20190608131515606/08/19 13:15:31  5-MIN KBKB 081915Z AUTO 10SM 08/19 12:55:31  5-MIN KBKB 081855Z AUTO 00000KT 10SM SCT055 32/21 A2975 460 53 2500 000/00 RMK AO2 T03170211
53988KBKB BKB20190608151511806/08/19 15:15:31  5-MIN KBKB 082115Z AUTO VRB04KT 10SM SCT042 BKN065 32/21 A2973 470 51 2600 VRB/04 RMK AO2 T03220211
53988KBKB BKB20190608152011806/08/19 15:20:31  5-MIN KBKB 082120Z AUTO VRB04KT 10SM SCT042 BKN065 32/21 A2973 470 51 2600 VRB/04 RMK AO2 T03220211
53988KBKB BKB20190608152511806/08/19 15:25:31  5-MIN KBKB 082125Z AUTO VRB04KT 10SM SCT042 BKN060 31/21 A2973 470 54 2500 VRB/04 RMK AO2 T03110211
53988KBKB BKB20190608152516106/08/19 15:25:31  5-MIN KBKB 082125Z AUTO VRB04KT 10SM SCT042 BKN060 31/21 A2973 470 54 2500 VRB/04 RMK AO2 T03110211 A2973 470 51 2600 VRB/03 RMK AO2 T03220211
53988KBKB BKB20190608153011806/08/19 15:30:31  5-MIN KBKB 082130Z AUTO VRB03KT 10SM SCT042 BKN065 31/21 A2973 480 54 2500 VRB/03 RMK AO2 T03110211
53988KBKB BKB20190608153511306/08/19 15:35:31  5-MIN KBKB 082135Z AUTO 00000KT 10SM SCT042 BKN050 BKN073 470 55 2500 VRB/04 RMK AO2 T03170217
53988KBKB BKB20190608153512506/08/19 15:35:31  5-MIN KBKB 082135Z AUTO 00000KT 10SM SCT042 BKN050 BKN065 32/22 A2973 480 55 2500 000/00 RMK AO2 T03170217
53988KBKB BKB20190608153514206/08/19 15:35:31  5-MIN KBKB 082135Z AUTO 00000KT 10SM SCT042 BKN050 BKN065 32/22 A2973 480 55 2500 000/00 RMK AO2 T0VRB/04 RMK AO2 T03220211
53988KBKB BKB20190608154012506/08/19 15:40:31  5-MIN KBKB 082140Z AUTO VRB04KT 10SM BKN044 BKN055 BKN065 32/21 A2973 480 51 2600 VRB/04 RMK AO2 T03220211
53988KBKB BKB20190608154512806/08/19 15:45:31  5-MIN KBKB 082145Z AUTO VRB03KT 10SM SCT044 BKN060 32/21 A2973 480 51 2600 V 54 2500 VRB/04 RMK AO2 T03110211
53988KBKB BKB20190608160512506/08/19 16:05:31  5-MIN KBKB 082205Z AUTO VRB03KT 10SM SCT042 SCT049 BKN065 31/22 A2973 470 56 2500 VRB/03 RMK AO2 T03110217
53988KBKB BKB20190608161011806/08/19 16:10:31  5-MIN KBKB 082210Z AUTO VRB03KT 10SM SCT042 BKN055 32/21 A2973 480 53 2500 VRB/03 RMK AO2 T03170211
53988KBKB BKB20190608161511806/08/19 16:15:31  5-MIN KBKB 082215Z AUTO VRB05KT 10SM SCT043 SCT055 31/21 A2973 470 54 2500 VRB/05 RMK AO2 T03110211
53988KBKB BKB20190608162011806/08/19 16:20:31  5-MIN KBKB 082220Z AUTO 00000KT 10SM SCT043 BKN055 31/21 A2973 470 56 2400 000/00 RMK AO2 T03060211
53988KBKB BKB20190608162512506/08/19 16:25:31  5-MIN KBKB 082225Z AUTO VRB04KT 10SM BKN043 BKN060 BKN075 31/22 A2973 470 58 2400 VRB/04 RMK AO2 T03060217
53988KBKB BKB20190608163012506/08/19 16:30:31  5-MIN KBKB 082230Z AUTO 00000KT 10SM SCT043 BKN050 BKN070 31/22 A2973 470 56 2500 000/00 RMK AO2 T03110217
53988KBKB BKB20190608163512506/08/19 16:35:31  5-MIN KBKB 082235Z AUTO 00000KT 10SM FEW042 SCT050 BKN070 31/22 A2973 470 56 2500 000/00 RMK AO2 T03110217
53988KBKB BKB20190608164012506/08/19 16:40:31  5-MIN KBKB 082240Z AUTO 03005KT 10SM SCT042 SCT055 BKN070 32/22 A2973 470 55 2500 020/05 RMK AO2 T03170217
53988KBKB BKB20190608164512506/08/19 16:45:31  5-MIN KBKB 082245Z AUTO VRB03KT 10SM BKN042 BKN050 OVC070 31/22 A2973 470 56 2500 VRB/03 RMK AO2 T03110217
53988KBKB BKB20190608165013206/08/19 16:50:31  5-MIN KBKB 082250Z AUTO VRB03KT 10SM SCT042 BKN055 BKN070 32/22 A2973 470 56 2500 VRB/03 RMK AO2 SLP093 T03170222
53988KBKB BKB20190608165512506/08/19 16:55:31  5-MIN KBKB 082255Z AUTO VRB04KT 10SM FEW042 SCT055 BKN070 32/22 A2973 470 55 2500 VRB/04 RMK AO2 T03170217
53988KBKB BKB20190608170012506/08/19 17:00:31  5-MIN KBKB 082300Z AUTO VRB04KT 10SM FEW041 FEW055 SCT070 32/22 A2973 470 56 2500 VRB/04 RMK AO2 T03170222
53988KBKB BKB20190608170511806/08/19 17:05:31  5-MIN KBKB 082305Z AUTO VRB03KT 10SM FEW041 FEW055 31/22 A2974 470 58 2400 VRB/03 RMK AO2 T03060217
53988KBKB BKB20190608171011106/08/19 17:10:31  5-MIN KBKB 082310Z AUTO 00000KT 10SM FEW041 30/22 A2974 470 60 2300 000/00 RMK AO2 T03000217
53988KBKB BKB20190608171510806/08/19 17:15:31  5-MIN KBKB 082315Z AUTO 00000KT 10SM CLR 30/22 A2974 470 60 2300 000/00 RMK AO2 T03000217
53988KBKB BKB20190608172010806/08/19 17:20:31  5-MIN KBKB 082320Z AUTO 00000KT 10SM CLR 29/22 A2974 470 64 2300 000/00 RMK AO2 T02940222
53988KBKB BKB20190608172511106/08/19 17:25:31  5-MIN KBKB 082325Z AUTO 00000KT 10SM FEW039 30/22 A2974 470 62 2300 000/00 RMK AO2 T03000222
53988KBKB BKB20190608173011106/08/19 17:30:31  5-MIN KBKB 082330Z AUTO VRB03KT 10SM FEW039 31/22 A2974 470 58 2400 VRB/03 RMK AO2 T03060217
53988KBKB BKB20190608173511106/08/19 17:35:31  5-MIN KBKB 082335Z AUTO 00000KT 10SM FEW038 31/22 A2974 470 58 2400 000/00 RMK AO2 T03060217
53988KBKB BKB20190608174011106/08/19 17:40:31  5-MIN KBKB 082340Z AUTO VRB04KT 10SM FEW040 30/22 A2974 470 60 2300 VRB/04 RMK AO2 T03000217
53988KBKB BKB20190608174511106/08/19 17:45:31  5-MIN KBKB 082345Z AUTO 00000KT 10SM FEW040 30/22 A2974 470 60 2300 000/00 RMK AO2 T03000217
53988KBKB BKB20190608175013606/08/19 17:50:31  5-MIN KBKB 082350Z AUTO VRB03KT 10SM SCT040 30/22 A2974 470 60 2300 VRB/03 RMK AO2 SLP096 T03000217 10328 20289 58007
53988KBKB BKB20190608175511106/08/19 17:55:31  5-MIN KBKB 082355Z AUTO 02004KT 10SM SCT040 30/21 A2974 460 58 2300 020/04 RMK AO2 T03000211
53988KBKB BKB20190608180011106/08/19 18:00:31  5-MIN KBKB 090000Z AUTO VRB03KT 10SM FEW039 30/21 A2974 470 58 2300 VRB/03 RMK AO2 T03000211
53988KBKB BKB20190608180511106/08/19 18:05:31  5-MIN KBKB 090005Z AUTO VRB03KT 10SM FEW039 29/21 A2974 460 60 2300 VRB/03 RMK AO2 T02940211
53988KBKB BKB20190608181011106/08/19 18:10:31  5-MIN KBKB 090010Z AUTO 00000KT 10SM FEW039 29/21 A2974 460 60 2300 000/00 RMK AO2 T02940211
53988KBKB BKB20190608181511106/08/19 18:15:31  5-MIN KBKB 090015Z AUTO 00000KT 10SM FEW039 29/21 A2974 460 62 2200 000/00 RMK AO2 T02890211
53988KBKB BKB20190608182010806/08/19 18:20:31  5-MIN KBKB 090020Z AUTO 00000KT 10SM CLR 29/21 A2974 460 62 2200 000/00 RMK AO2 T02890211
53988KBKB BKB20190608182510806/08/19 18:25:31  5-MIN KBKB 090025Z AUTO 34003KT 10SM CLR 29/21 A2974 460 62 2200 340/03 RMK AO2 T02890211
53988KBKB BKB20190608183010806/08/19 18:30:31  5-MIN KBKB 090030Z AUTO 00000KT 10SM CLR 29/21 A2974 460 62 2200 000/00 RMK AO2 T02890211
53988KBKB BKB20190608183510806/08/19 18:35:31  5-MIN KBKB 090035Z AUTO 00000KT 10SM CLR 28/21 A2975 460 64 2100 000/00 RMK AO2 T02830211
53988KBKB BKB20190608184010806/08/19 18:40:31  5-MIN KBKB 090040Z AUTO 00000KT 10SM CLR 28/21 A2975 460 64 2100 000/00 RMK AO2 T02830211
53988KBKB BKB20190608184510806/08/19 18:45:31  5-MIN KBKB 090045Z AUTO 00000KT 10SM CLR 28/22 A2975 460 69 2100 000/00 RMK AO2 T02780217
53988KBKB BKB20190608185011506/08/19 18:50:31  5-MIN KBKB 090050Z AUTO 00000KT 10SM CLR 28/21 A2975 460 66 2100 000/00 RMK AO2 SLP099 T02780211
53988KBKB BKB20190608185510806/08/19 18:55:31  5-MIN KBKB 090055Z AUTO 00000KT 10SM CLR 27/21 A2975 460 69 2000 000/00 RMK AO2 T02720211
53988KBKB BKB20190608190010806/08/19 19:00:31  5-MIN KBKB 090100Z AUTO 00000KT 10SM CLR 27/21 A2975 460 69 2000 000/00 RMK AO2 T02720211
53988KBKB BKB20190608190510806/08/19 19:05:31  5-MIN KBKB 090105Z AUTO 00000KT 10SM CLR 27/21 A2975 460 71 1900 000/00 RMK AO2 T02670211
53988KBKB BKB20190608191010806/08/19 19:10:31  5-MIN KBKB 090110Z AUTO 00000KT 10SM CLR 27/21 A2975 460 71 1900 000/00 RMK AO2 T02670211
53988KBKB BKB20190608191510806/08/19 19:15:31  5-MIN KBKB 090115Z AUTO 00000KT 10SM CLR 27/21 A2975 450 71 1900 000/00 RMK AO2 T02670211
53988KBKB BKB20190608192010806/08/19 19:20:31  5-MIN KBKB 090120Z AUTO 00000KT 10SM CLR 26/21 A2975 450 73 1900 000/00 RMK AO2 T02610211
53988KBKB BKB20190608192510806/08/19 19:25:31  5-MIN KBKB 090125Z AUTO 00000KT 10SM CLR 26/21 A2975 450 73 1900 000/00 RMK AO2 T02610211
53988KBKB BKB20190608193010806/08/19 19:30:31  5-MIN KBKB 090130Z AUTO 00000KT 10SM CLR 26/21 A2975 450 73 1900 000/00 RMK AO2 T02610211
53988KBKB BKB20190608193510806/08/19 19:35:31  5-MIN KBKB 090135Z AUTO 00000KT 10SM CLR 26/21 A2976 450 73 1900 000/00 RMK AO2 T02610211
53988KBKB BKB20190608194014006/08/19 19:40:31  5-MIN KBKB 090140Z AUTO 00000KT 10SM CLR 26/21 A2976 450 76 1808021106/08/19 22:00:31  5 87 1500 000/00 RMK AO2 T02330211
53988KBKB BKB20190608214010806/08/19 21:40:31  5-MIN KBKB 090340Z AUTO 00000KT 10SM CLR 23/21 A2980 410 87 1500 000/00 RMK AO2 T02330211
53988KBKB BKB20190608214510806/08/19 21:45:31  5-MIN KBKB 090345Z AUTO 00000KT 10SM CLR 23/21 A2980 410 87 1500 000/00 RMK AO2 T02330211
53988KBKB BKB20190608215011506/08/19 21:50:31  5-MIN KBKB 090350Z AUTO 00000KT 10SM CLR 23/21 A2981 400 90 1400 000/00 RMK AO2 SLP118 T02280211
53988KBKB BKB20190608215510806/08/19 21:55:31  5-MIN KBKB 090355Z AUTO 00000KT 10SM CLR 23/21 A2980 410 90 1400 000/00 RMK AO2 T02280211
53988KBKB BKB20190608220010806/08/19 22:00:31  5-MIN KBKB 090400Z AUTO 00000KT 10SM CLR 23/21 A2981 400 90 1400 000/00 RMK AO2 T02280211
53988KBKB BKB20190608220510806/08/19 22:05:31  5-MIN KBKB 090405Z AUTO 00000KT 10SM CLR 23/21 A2981 400 90 1400 000/00 RMK AO2 T02280211
53988KBKB BKB20190608221010806/08/19 22:10:31  5-MIN KBKB 090410Z AUTO 00000KT 10SM CLR 23/21 A2981 400 87 1400 000/00 RMK AO2 T02280206
53988KBKB BKB20190608221510806/08/19 22:15:31  5-MIN KBKB 090415Z AUTO 00000KT 10SM CLR 23/21 A2981 400 87 1400 000/00 RMK AO2 T02280206
53988KBKB BKB20190608221520006/08/19 22:15:31  5-MIN KBKB 090415Z AUTO 00000KT 10S1  5-MIN KBKB 090655Z AUTO 00000KT 7SM CLR 21/20 A2980 410 -MIN KBKB 090635Z AUTO 00000KT 7SM CLR 21/20 A2980 410 93 1300 000/00 RMK AO2 T02110200
53988KBKB BKB20190608222010806/08/19 22:20:31  5-MIN KBKB 090420Z AUTO 00000KT 10SM CLR 23/21 A2981 400 87 1400 000/00 RMK AO2 T02280206
53988KBKB BKB20190608222516806/08/19 22:25:31  5-MIN KBKB 090425Z AUTO 00000KT 10SM CLR 23/21 A2980 410 90 1400 000/00 RMK AO2 T0228021106/08/19 LR 23/21 A2981 400 90 1400 000/00 RMK AO2 T02280211
53988KBKB BKB20190609004011006/09/19 00:40:31  5-MIN KBKB 090640Z AUTO 00000KT 6SM BR CLR 21/20 A2980 410 93 1300 000/00 RMK AO2 T02110200
53988KBKB BKB20190609004511006/09/19 00:45:31  5-MIN KBKB 090645Z AUTO 00000KT 6SM BR CLR 21/20 A2980 410 93 1300 000/00 RMK AO2 T02110200
53988KBKB BKB20190609005011406/09/19 00:50:31  5-MIN KBKB 090650Z AUTO 00000KT 7SM CLR 21/20 A2980 410 93 1300 000/00 RMK AO2 SLP115 T02110200
53988KBKB BKB20190609005510706/09/19 00:55:31  5-MIN KBKB 090655Z AUTO 00000KT 7SM CLR 21/20 A2980 410 93 1300 000/00 RMK AO2 T02110200
53988KBKB BKB20190609010011006/09/19 01:00:31  5-MIN KBKB 090700Z AUTO 00000KT 6SM BR CLR 21/20 A2980 410 93 1300 000/00 RMK AO2 T02110200
53988KBKB BKB20190609010511006/09/19 01:05:31  5-MIN KBKB 090705Z AUTO 00000KT 6SM BR CLR 21/19 A2980 410 90 1300 000/00 RMK AO2 T02110194
53988KBKB BKB20190609010511006/09/19 01:05:31  5-MIN KBKB 090705Z AUTO 00000KT 6SM BR CLR 21/19 A2980 410 93 1300 000/00 RMK AO2 T02110200
53988KBKB BKB20190609011010706/09/19 01:10:31  5-MIN KBKB 090710Z AUTO 00000KT 7SM CLR 21/19 A2980 410 93 1200 000/00 RMK AO2 T02060194
53988KBKB BKB20190609011510706/09/19 01:15:31  5-MIN KBKB 090715Z AUTO 00000KT 7SM CLR 21/19 A2980 410 93 1300 000/00 RMK AO2 T02110200
53988KBKB BKB20190609011513306/09/19 01:15:31  5-MIN KBKB 090715Z AUTO 00000KT 7SM CLR 21/UTO 00000KT 5SM BR CLR 19/19 A2982 400 97 1000 000/00 RMK AO2 T01940189
53988KBKB BKB20190609030511006/09/19 03:05:31  5-MIN KBKB 090905Z AUTO 00000KT 5SM BR CLR 20/19 A2981 400 93 1100 000/00 RMK AO2 T02000189
53988KBKB BKB20190609031011006/09/19 03:10:31  5-MIN KBKB 090910Z AUTO 00000KT 5SM BR CLR 19/19 A2981 400 97 1100 000/00 RMK AO2 T01940189
53988KBKB BKB20190609031511006/09/19 03:15:31  5-MIN KBKB 090915Z AUTO 00000KT 5SM BR CLR 19/18 A2981 400 93 1100 000/00 RMK AO2 T01940183
53988KBKB BKB20190609032011006/09/19 03:20:31  5-MIN KBKB 090920Z AUTO 00000KT 4SM BR CLR 19/18 A2981 400 93 1000 000/00 RMK AO2 T01940183
53988KBKB BKB20190609032511006/09/19 03:25:31  5-MIN KBKB 090925Z AUTO 00000KT 4SM BR CLR 19/18 A2982 390 93 1000 000/00 RMK AO2 T01940183
53988KBKB BKB20190609033011006/09/19 03:30:31  5-MIN KBKB 090930Z AUTO 00000KT 5SM BR CLR 19/19 A2982 400 97 1000 000/00 RMK AO2 T01940189
53988KBKB BKB20190609033511006/09/19 03:35:31  5-MIN KBKB 090935Z AUTO 00000KT 5SM BR CLR 19/18 A2982 390 93 1000 000/00 RMK AO2 T01940183
53988KBKB BKB20190609034011006/09/19 03:40:31  5-MIN KBKB 090940Z AUTO 00000KT 4SM BR CLR 19/18 A2982 390 93 1000 000/00 RMK AO2 T01940183
53988KBKB BKB20190609034511006/09/19 03:45:31  5-MIN KBKB 090945Z AUTO 00000KT 4SM BR CLR 19/18 A2982 390 93 1000 000/00 RMK AO2 T01940183
53988KBKB BKB20190609035011706/09/19 03:50:31  5-MIN KBKB 090950Z AUTO 00000KT 5SM BR CLR 19/18 A2982 390 93 1000 000/00 RMK AO2 SLP123 T01940183
53988KBKB BKB20190609035016406/09/19 03:50:31  5-MIN KBKB 090950Z AUTO 00000KT 5SM BR CLR 19/18 A2982 390 93 1000 000/00 RMK AO2 SLP123 T0194018306/09/19 03:55:31 1000 000/00 RMK AO2 T01940189
53988KBKB BKB20190609035511006/09/19 03:55:31  5-MIN KBKB 090955Z AUTO 00000KT 4SM BR CLR 19/18 A2982 390 93 1000 000/00 RMK AO2 T01940183
53988KBKB BKB20190609040011006/09/19 04:00:31  5-MIN KBKB 091000Z AUTO 00000KT 4SM BR CLR 19/18 A2982 390 93 1000 000/00 RMK AO2 T01940183
53988KBKB BKB20190609040511006/09/19 04:05:31  5-MIN KBKB 091005Z AUTO 00000KT 4SM BR CLR 19/18 A2982 390 93 1000 000/00 RMK AO2 T01940183
53988KBKB BKB20190609041011006/09/19 04:10:31  5-MIN KBKB 091010Z AUTO 00000KT 5SM BR CLR 19/18 A2982 390 93 1000 000/00 RMK AO2 T01940183
53988KBKB BKB20190609041511006/09/19 04:15:31  5-MIN KBKB 091015Z AUTO 00000KT 5SM BR CLR 19/18 A2983 390 93 1000 000/00 RMK AO2 T01940183
53988KBKB BKB20190609042011006/09/19 04:20:31  5-MIN KBKB 091020Z AUTO 00000KT 5SM BR CLR 19/18 A2983 380 93 1000 000/00 RMK AO2 T01940183
53988KBKB BKB20190609042511006/09/19 04:25:31  5-MIN KBKB 091025Z AUTO 00000KT 4SM BR CLR 19/18 A2983 380 93 1000 000/00 RMK AO2 T01940183
53988KBKB BKB20190609043011006/09/19 04:30:31  5-MIN KBKB 091030Z AUTO 00000KT 4SM BR CLR 19/18 A2983 380 93 1000 000/00 RMK AO2 T01940183
53988KBKB BKB20190609043511006/09/19 04:35:31  5-MIN KBKB 091035Z AUTO 00000KT 4SM BR CLR 19/18 A2983 380 97 1000 000/00 RMK AO2 T01890183
53988KBKB BKB20190609044011006/09/19 04:40:31  5-MIN KBKB 091040Z AUTO 00000KT 4SM BR CLR 19/18 A2983 380 97 1000 000/00 RMK AO2 T01890183
53988KBKB BKB20190609044511006/09/19 04:45:31  5-MIN KBKB 091045Z AUTO 00000KT 4SM BR CLR 19/18 A2984 380 93 1000 000/00 RMK AO2 T01890178
53988KBKB BKB20190609045011706/09/19 04:50:31  5-MIN KBKB 091050Z AUTO 00000KT 4SM BR CLR 19/18 A2984 370 93 1000 000/00 RMK AO2 SLP129 T01890178
53988KBKB BKB20190609045511006/09/19 04:55:31  5-MIN KBKB 091055Z AUTO 00000KT 5SM BR CLR 19/18 A2984 370 93 1000 000/00 RMK AO2 T01890178
53988KBKB BKB20190609050011006/09/19 05:00:31  5-MIN KBKB 091100Z AUTO 00000KT 5SM BR CLR 19/18 A2984 370 93 1000 000/00 RMK AO2 T01890178
53988KBKB BKB20190609050510906/09/19 05:05:31  5-MIN KBKB 091105Z AUTO 00000KT 5SM BR CLR 19/18 A2985 370 93 900 000/00 RMK AO2 T01890178
53988KBKB BKB20190609051010906/09/19 05:10:31  5-MIN KBKB 091110Z AUTO 00000KT 4SM BR CLR 19/18 A2985 370 93 900 000/00 RMK AO2 T01890178
53988KBKB BKB20190609051510906/09/19 05:15:31  5-MIN KBKB 091115Z AUTO 00000KT 3SM BR CLR 19/18 A2985 360 93 900 000/00 RMK AO2 T01890178
53988KBKB BKB20190609052010906/09/19 05:20:31  5-MIN KBKB 091120Z AUTO 00000KT 3SM BR CLR 19/18 A2985 360 93 900 000/00 RMK AO2 T01890178
53988KBKB BKB20190609052510906/09/19 05:25:31  5-MIN KBKB 091125Z AUTO 00000KT 3SM BR CLR 19/18 A2985 360 93 900 000/00 RMK AO2 T01890178
53988KBKB BKB20190609053010906/09/19 05:30:31  5-MIN KBKB 091130Z AUTO 00000KT 3SM BR CLR 19/18 A2986 360 93 900 000/00 RMK AO2 T01890178
53988KBKB BKB20190609053510906/09/19 05:35:31  5-MIN KBKB 091135Z AUTO 00000KT 4SM BR CLR 19/18 A2986 360 93 900 000/00 RMK AO2 T01890178
53988KBKB BKB20190609054010906/09/19 05:40:31  5-MIN KBKB 091140Z AUTO 00000KT 4SM BR CLR 19/18 A2986 350 97 900 000/00 RMK AO2 T01890183
53988KBKB BKB20190609054510906/09/19 05:45:31  5-MIN KBKB 091145Z AUTO 00000KT 4SM BR CLR 19/18 A2987 350 97 900 000/00 RMK AO2 T01890183
53988KBKB BKB20190609055013506/09/19 05:50:31  5-MIN KBKB 091150Z AUTO 00000KT 4SM BR CLR 19/18 A2987 350 93 1000 000/00 RMK AO2 SLP138 T01940183 10211 20189 53003
53988KBKB BKB20190609055511006/09/19 05:55:31  5-MIN KBKB 091155Z AUTO 00000KT 4SM BR CLR 19/18 A2987 350 93 1000 000/00 RMK AO2 T01940183
53988KBKB BKB20190609060011006/09/19 06:00:31  5-MIN KBKB 091200Z AUTO 00000KT 5SM BR CLR 19/18 A2987 350 93 1000 000/00 RMK AO2 T01940183
53988KBKB BKB20190609060511006/09/19 06:05:31  5-MIN KBKB 091205Z AUTO 00000KT 5SM BR CLR 19/19 A2987 350 97 1000 000/00 RMK AO2 T01940189
53988KBKB BKB20190609061011006/09/19 06:10:31  5-MIN KBKB 091210Z AUTO 00000KT 5SM BR CLR 20/19 A2987 350 97 1100 000/00 RMK AO2 T02000194
53988KBKB BKB20190609061511006/09/19 06:15:31  5-MIN KBKB 091215Z AUTO 00000KT 6SM BR CLR 20/19 A2987 350 97 1100 000/00 RMK AO2 T02000194
53988KBKB BKB20190609062010706/09/19 06:20:31  5-MIN KBKB 091220Z AUTO 00000KT 8SM CLR 21/19 A2987 350 93 1100 000/00 RMK AO2 T02060194
53988KBKB BKB20190609062510706/09/19 06:25:31  5-MIN KBKB 091225Z AUTO 00000KT 8SM CLR 21/20 A2987 350 93 1200 000/00 RMK AO2 T02110200
53988KBKB BKB20190609063010706/09/19 06:30:31  5-MIN KBKB 091230Z AUTO 00000KT 7SM CLR 22/21 A2987 350 93 1200 000/00 RMK AO2 T02170206
53988KBKB BKB20190609063510706/09/19 06:35:31  5-MIN KBKB 091235Z AUTO 00000KT 7SM CLR 22/21 A2987 350 93 1200 000/00 RMK AO2 T02170206
53988KBKB BKB20190609064008706/09/19 06:40:31  5-MIN KBKB 091240Z AUTO 00000KT 8SM C4 2100 340/03 RMK AO2 T02940194
53988KBKB BKB20190609085510806/09/19 08:55:31  5-MIN KBKB 091455Z AUTO 34003KT 10SM CLR 29/19 A2989 330 54 2100 340/03 RMK AO2 T02940194
53988KBKB BKB20190609090010806/09/19 09:00:31  5-MIN KBKB 091500Z AUTO VRB03KT 10SM CLR 30/19 A2988 330 52 2200 VRB/03 RMK AO2 T03000194
53988KBKB BKB20190609090510806/09/19 09:05:31  5-MIN KBKB 091505Z AUTO 00000KT 10SM CLR 30/19 A2988 330 52 2200 000/00 RMK AO2 T03000194
53988KBKB BKB20190609091010806/09/19 09:10:31  5-MIN KBKB 091510Z AUTO 00000KT 10SM CLR 30/19 A2988 330 51 2200 000/00 RMK AO2 T03000189
53988KBKB BKB20190609091506206/09/19 09:15:31  5-MIN KBKB 091515Z 2 SLP146 T02940200 53019
53988KBKB BKB20190609091510806/09/19 09:15:31  5-MIN KBKB 091515Z AUTO 00000KT 10SM CLR 30/19 A2988 330 51 2200 000/00 RMK AO2 T03000189
53988KBKB BKB20190609091516906/09/19 09:15:31  5-MIN KBKB 091515Z AUTO 00000KT 10SM CLR 30/19 A2988 330 51 2200 000/00 RMK AO2 T03000189310 49 23008 32/19 A2991 310 46 2400 VRB/05 RMK AO2 T03220194
53988KBKB BKB20190609092010806/09/19 09:20:31  5-MIN KBKB 091520Z AUTO 00000KT 10SM CLR 31/19 A2988 330 49 2200 000/00 RMK AO2 T03060189
53988KBKB BKB20190609092506206/09/19 09:25:31  5-MIN KBKB 091525Z AUTO 000MK AO2 T03000194
53988KBKB BKB20190609092510806/09/19 09:25:31  5-MIN KBKB 091525Z AUTO 00000KT 10SM CLR 30/19 A2988 330 52 2200 000/00 RMK AO2 T03000194
53988KBKB BKB20190609093010806/09/19 09:30:31  5-MIN KBKB 091530Z AUTO 36004KT 10SM CLR 30/19 A2988 330 52 2200 350/04 RMK AO2 T03000194
53988KBKB BKB20190609093506206/09/19 09:35:31  5-MIN KBKB 091535Z AUTO 35004KT 10S03000189
53988KBKB BKB20190609114011106/09/19 11:40:31  5-MIN KBKB 091740Z AUTO 00000KT 10SM SCT048 32/19 A2991 310 46 2300 000/00 RMK AO2 T03170189
53988KBKB BKB20190609114511106/09/19 11:45:31  5-MIN KBKB 091745Z AUTO VRB06KT 10SM FEW048 32/20 A2991 310 49 2300 VRB/06 RMK AO2 T03170200
53988KBKB BKB20190609115013606/09/19 11:50:31  5-MIN KBKB 091750Z AUTO VRB04KT 10SM SCT050 32/19 A2991 310 46 2400 VRB/04 RMK AO2 SLP153 T03220194 10328 20194 50006
53988KBKB BKB20190609115511106/09/19 11:55:31  5-MIN KBKB 091755Z AUTO 29004KT 10SM BKN050 31/19 A2991 310 49 2300 290/04 RMK AO2 T03110194
53988KBKB BKB20190609120011106/09/19 12:00:31  5-MIN KBKB 091800Z AUTO VRB05KT 10SM BKN050 31/19 A2991 310 49 2300 VRB/05 RMK AO2 T03110194
53988KBKB BKB20190609120511106/09/19 12:05:31  5-MIN KBKB 091805Z AUTO VRB04KT 10SM SCT050 32/19 A2991 310 46 2400 VRB/04 RMK AO2 T03220194
53988KBKB BKB20190609120513606/09/19 12:05:31  5-MIN KBKB 091805Z AUTO VRB04KT 10SM SCT050 32/19 A2991 310 46 2400 VRB/04 A2991 310 49 2300 VRB/06 RMK AO2 T03170200
53988KBKB BKB20190609121011106/09/19 12:10:31  5-MIN KBKB 091810Z AUTO VRB03KT 10SM FEW050 33/19 A2991 310 44 2400 VRB/03 RMK AO2 T03280194
53988KBKB BKB20190609121016006/09/19 12:10:31  5-MIN KBKB 091810Z AUTO VRB03KT 10SM FEW050 33/19 A2991 310 44 2400 VRB/03 RMK AO2 T0328019406/09/19 12:15:31  5-M00 VRB/06 RMK AO2 T03280200
53988KBKB BKB20190609121516106/09/19 12:15:31  5-MIN KBKB 091815Z AUTO VRB05KT 10SM SCT050 33/20 A2990 310 46 2400 VRB/05 RMK AT 10SM BKN050 31/19 A2991 310 49 2300 290/04 RMK AO2 T03110194
53988KBKB BKB20190609140510106/09/19 14:05:31  5-MIN KBKB 092005Z AUTO 10SM FEW055 33/19 A2990 320 44 2500 M /M RMK AO2 T03280194
53988KBKB BKB20190609141011106/09/19 14:10:31  5-MIN KBKB 092010Z AUTO VRB06KT 10SM FEW055 33/19 A2990 320 43 2500 VRB/06 RMK AO2 T03330194
53988KBKB BKB20190609141510106/09/19 14:15:31  5-MIN KBKB 092015Z AUTO 10SM FEW050 33/19 A2990 320 43 2500 M /M RMK AO2 T03330194
53988KBKB BKB20190609142011106/09/19 14:20:31  5-MIN KBKB 092020Z AUTO 02003KT 10SM SCT055 32/20 A2990 310 48 2400 020/03 RMK AO2 T03220200
53988KBKB BKB20190609142511106/09/19 14:25:31  5-MIN KBKB 092025Z AUTO VRB06KT 10SM FEW055 33/20 A2990 320 46 2500 VRB/06 RMK AO2 T03280200
53988KBKB BKB20190609143011106/09/19 14:30:31  5-MIN KBKB 092030Z AUTO VRB05KT 10SM FEW055 33/20 A2990 320 46 2500 VRB/05 RMK AO2 T03280200
53988KBKB BKB20190609143511106/09/19 14:35:31  5-MIN KBKB 092035Z AUTO VRB04KT 10SM FEW055 33/21 A2990 320 46 2500 VRB/04 RMK AO2 T03330206
53988KBKB BKB20190609144011106/09/19 14:40:31  5-MIN KBKB 092040Z AUTO VRB04KT 10SM FEW055 33/19 A2990 320 44 2500 VRB/04 RMK AO2 T03280194
53988KBKB BKB20190609144511106/09/19 14:45:31  5-MIN KBKB 092045Z AUTO 01004KT 10SM FEW050 33/20 A2990 320 46 2500 360/04 RMK AO2 T03280200
53988KBKB BKB20190609145012106/09/19 14:50:31  5-MIN KBKB 092050Z AUTO VRB04KT 10SM CLR 32/19 A2990 310 46 2400 VRB/04 RMK AO2 SLP151 T03220194 53008
53988KBKB BKB20190609145016106/09/19 14:50:31  5-MIN KBKB 092050Z AUTO VRB04KT 10SM CLR 32/19 A2990 310 46 2400 VRB/04TO VRB05KT 10SM FEW055 33/20 A2990 320 46 2500 VRB/05 RMK AO2 T03280200
53988KBKB BKB20190609145510806/09/19 14:55:31  5-MIN KBKB 092055Z AUTO 00000KT 10SM CLR 32/20 A2991 310 48 2400 000/00 RMK AO2 T03220200
53988KBKB BKB20190609150010806/09/19 15:00:31  5-MIN KBKB 092100Z AUTO 00000KT 10SM CLR 33/21 A2991 310 48 2400 000/00 RMK AO2 T03280206
53988KBKB BKB20190609150015406/09/19 15:00:31  5-MIN KBKB 092100Z AUTO 00000KT 10SM CLR 33/21 A2991 310 48 2400TO VRB04KT 10SM FEW055 33/19 A2990 320 44 2500 VRB/04 RMK AO2 T03280194
53988KBKB BKB20190609150510806/09/19 15:05:31  5-MIN KBKB 092105Z AUTO VRB04KT 10SM CLR 33/21 A2991 310 48 2400 VRB/04 RMK AO2 T03280206
53988KBKB BKB20190609151010806/09/19 15:10:31  5-MIN KBKB 092110Z AUTO VRB05KT 10SM CLR 33/20 A2991 300 46 2400 VRB/05 RMK AO2 T03280200
53988KBKB BKB20190609151510806/09/19 15:15:31  5-MIN KBKB 092115Z AUTO VRB03KT 10SM CLR 33/20 A2992 300 46 2400 VRB/03 RMK AO2 T03280200
53988KBKB BKB20190609152010806/09/19 15:20:31  5-MIN KBKB 092120Z AUTO 00000KT 10SM CLR 32/21 A2991 300 49 2400 000/00 RMK AO2 T03220206
53988KBKB BKB20190609152510806/09/19 15:25:31  5-MIN KBKB 092125Z AUTO 00000KT 10SM CLR 32/21 A2991 300 49 2400 000/00 RMK AO2 T03220206
53988KBKB BKB20190609153010806/09/19 15:30:31  5-MIN KBKB 092130Z AUTO 01005KT 10SM CLR 32/20 A2991 310 48 2400 360/05 RMK AO2 T03220200
53988KBKB BKB20190609153510806/09/19 15:35:31  5-MIN KBKB 092135Z AUTO VRB04KT 10SM CLR 32/20 A2991 310 48 2400 VRB/04 RMK AO2 T03220200
53988KBKB BKB20190609154010806/09/19 15:40:31  5-MIN KBKB 092140Z AUTO VRB05KT 10SM CLR 32/20 A2991 310 48 2400 VRB/05 RMK AO2 T03220200
53988KBKB BKB20190609154510806/09/19 15:45:31  5-MIN KBKB 092145Z AUTO VRB05KT 10SM CLR 33/21 A2991 310 48 2400 VRB/05 RMK AO2 T03280206
53988KBKB BKB20190609155011506/09/19 15:50:31  5-MIN KBKB 092150Z AUTO VRB04KT 10SM CLR 32/21 A2991 310 49 2400 VRB/04 RMK AO2 SLP154 T03220206
53988KBKB BKB20190609155510806/09/19 15:55:31  5-MIN KBKB 092155Z AUTO VRB05KT 10SM CLR 32/21 A2991 310 49 2400 VRB/05 RMK AO2 T03220206
53988KBKB BKB20190609160010806/09/19 16:00:31  5-MIN KBKB 092200Z AUTO 00000KT 10SM CLR 32/21 A2991 310 49 2400 000/00 RMK AO2 T03220206
53988KBKB BKB20190609160509806/09/19 16:05:31  5-MIN KBKB 092205Z AUTO 10SM CLR 32/21 A2991 310 49 2400 M /M RMK AO2 T03220206
53988KBKB BKB20190609161011106/09/19 16:10:31  5-MIN KBKB 092210Z AUTO VRB04KT 10SM FEW050 32/20 A2991 310 49 2300 VRB/04 RMK AO2 T03170200
53988KBKB BKB20190609161511106/09/19 16:15:31  5-MIN KBKB 092215Z AUTO VRB03KT 10SM FEW050 32/20 A2991 310 49 2300 VRB/03 RMK AO2 T03170200
53988KBKB BKB20190609162010806/09/19 16:20:31  5-MIN KBKB 092220Z AUTO VRB04KT 10SM CLR 31/21 A2991 310 53 2300 VRB/04 RMK AO2 T03110206
53988KBKB BKB20190609162510806/09/19 16:25:31  5-MIN KBKB 092225Z AUTO VRB04KT 10SM CLR 31/21 A2991 310 53 2300 VRB/04 RMK AO2 T03110206
53988KBKB BKB20190609163010806/09/19 16:30:31  5-MIN KBKB 092230Z AUTO VRB04KT 10SM CLR 31/20 A2991 310 51 2300 VRB/04 RMK AO2 T03110200
53988KBKB BKB20190609163510806/09/19 16:35:31  5-MIN KBKB 092235Z AUTO VRB03KT 10SM CLR 31/21 A2991 310 54 2200 VRB/03 RMK AO2 T03060206
53988KBKB BKB20190609164010806/09/19 16:40:31  5-MIN KBKB 092240Z AUTO VRB03KT 10SM CLR 31/21 A2990 310 54 2200 VRB/03 RMK AO2 T03060206
53988KBKB BKB20190609164510806/09/19 16:45:31  5-MIN KBKB 092245Z AUTO VRB03KT 10SM CLR 31/21 A2990 320 54 2200 VRB/03 RMK AO2 T03060206
53988KBKB BKB20190609165011506/09/19 16:50:31  5-MIN KBKB 092250Z AUTO 00000KT 10SM CLR 31/21 A2990 320 56 2200 000/00 RMK AO2 SLP149 T03060211
53988KBKB BKB20190609165510806/09/19 16:55:31  5-MIN KBKB 092255Z AUTO 00000KT 10SM CLR 31/21 A2990 320 56 2200 000/00 RMK AO2 T03060211
53988KBKB BKB20190609170010806/09/19 17:00:31  5-MIN KBKB 092300Z AUTO VRB03KT 10SM CLR 31/21 A2989 320 56 2200 VRB/03 RMK AO2 T03060211
53988KBKB BKB20190609170510806/09/19 17:05:31  5-MIN KBKB 092305Z AUTO 00000KT 10SM CLR 31/21 A2989 320 56 2200 000/00 RMK AO2 T03060211
53988KBKB BKB20190609171010806/09/19 17:10:31  5-MIN KBKB 092310Z AUTO 00000KT 10SM CLR 31/21 A2989 330 56 2200 000/00 RMK AO2 T03060211
53988KBKB BKB20190609171510806/09/19 17:15:31  5-MIN KBKB 092315Z AUTO 00000KT 10SM CLR 31/22 A2989 330 58 2200 000/00 RMK AO2 T03060217
53988KBKB BKB20190609172010806/09/19 17:20:31  5-MIN KBKB 092320Z AUTO 00000KT 10SM CLR 30/22 A2989 330 60 2200 000/00 RMK AO2 T03000217
53988KBKB BKB20190609172510806/09/19 17:25:31  5-MIN KBKB 092325Z AUTO 00000KT 10SM CLR 31/22 A2989 330 60 2200 000/00 RMK AO2 T03060222
53988KBKB BKB20190609173010806/09/19 17:30:31  5-MIN KBKB 092330Z AUTO 00000KT 10SM CLR 31/22 A2989 330 60 2200 000/00 RMK AO2 T03060222
53988KBKB BKB20190609173510806/09/19 17:35:31  5-MIN KBKB 092335Z AUTO 00000KT 10SM CLR 31/22 A2988 330 58 2200 000/00 RMK AO2 T03060217
53988KBKB BKB20190609174010806/09/19 17:40:31  5-MIN KBKB 092340Z AUTO 00000KT 10SM CLR 31/21 A2988 340 56 2200 000/00 RMK AO2 T03060211
53988KBKB BKB20190609174510806/09/19 17:45:31  5-MIN KBKB 092345Z AUTO 00000KT 10SM CLR 30/21 A2987 340 58 2200 000/00 RMK AO2 T03000211
53988KBKB BKB20190609175013306/09/19 17:50:31  5-MIN KBKB 092350Z AUTO 00000KT 10SM CLR 29/22 A2987 340 62 2100 000/00 RMK AO2 SLP141 T02940217 10333 20294 55002
53988KBKB BKB20190609175510806/09/19 17:55:31  5-MIN KBKB 092355Z AUTO 00000KT 10SM CLR 29/21 A2987 350 60 2100 000/00 RMK AO2 T02940211
53988KBKB BKB20190609180010806/09/19 18:00:31  5-MIN KBKB 100000Z AUTO 00000KT 10SM CLR 29/22 A2987 350 67 2100 000/00 RMK AO2 T02890222
53988KBKB BKB20190609180510806/09/19 18:05:31  5-MIN KBKB 100005Z AUTO 00000KT 10SM CLR 29/22 A2986 350 67 2100 000/00 RMK AO2 T02890222
53988KBKB BKB20190609181010806/09/19 18:10:31  5-MIN KBKB 100010Z AUTO 00000KT 10SM CLR 29/23 A2986 350 69 2100 000/00 RMK AO2 T02890228
53988KBKB BKB20190609181510806/09/19 18:15:31  5-MIN KBKB 100015Z AUTO 00000KT 10SM CLR 28/22 A2986 350 69 2000 000/00 RMK AO2 T02830222
53988KBKB BKB20190609182010806/09/19 18:20:31  5-MIN KBKB 100020Z AUTO 00000KT 10SM CLR 28/23 A2986 350 71 2000 000/00 RMK AO2 T02830228
53988KBKB BKB20190609182510806/09/19 18:25:31  5-MIN KBKB 100025Z AUTO 00000KT 10SM CLR 28/23 A2987 350 74 1900 000/00 RMK AO2 T02780228
53988KBKB BKB20190609183010806/09/19 18:30:31  5-MIN KBKB 100030Z AUTO 00000KT 10SM CLR 27/23 A2988 340 76 1900 000/00 RMK AO2 T02720228
53988KBKB BKB20190609183511506/09/19 18:35:31  5-MIN KBKB 100035Z AUTO 00000KT 10SM CLR 27/23 A2989 330 76 1900 000/00 RMK AO2 PRESRR T02720228
53988KBKB BKB20190609184010806/09/19 18:40:31  5-MIN KBKB 100040Z AUTO 00000KT 10SM CLR 27/23 A2989 330 79 1800 000/00 RMK AO2 T02670228
53988KBKB BKB20190609184510806/09/19 18:45:31  5-MIN KBKB 100045Z AUTO 00000KT 10SM CLR 27/23 A2989 330 79 1800 000/00 RMK AO2 T02670228
53988KBKB BKB20190609185011506/09/19 18:50:31  5-MIN KBKB 100050Z AUTO 00000KT 10SM CLR 27/23 A2988 340 79 1800 000/00 RMK AO2 SLP143 T02670228
53988KBKB BKB20190609185510806/09/19 18:55:31  5-MIN KBKB 100055Z AUTO 00000KT 10SM CLR 26/22 A2988 330 79 1700 000/00 RMK AO2 T02610222
53988KBKB BKB20190609190010806/09/19 19:00:31  5-MIN KBKB 100100Z AUTO 00000KT 10SM CLR 26/22 A2988 330 79 1700 000/00 RMK AO2 T02610222
53988KBKB BKB20190609190510806/09/19 19:05:31  5-MIN KBKB 100105Z AUTO 00000KT 10SM CLR 26/22 A2988 340 79 1700 000/00 RMK AO2 T02610222
53988KBKB BKB20190609191010806/09/19 19:10:31  5-MIN KBKB 100110Z AUTO 00000KT 10SM CLR 26/22 A2987 340 81 1700 000/00 RMK AO2 T02560222
53988KBKB BKB20190609191510806/09/19 19:15:31  5-MIN KBKB 100115Z AUTO 00000KT 10SM CLR 26/22 A2988 340 81 1700 000/00 RMK AO2 T02560222
53988KBKB BKB20190609192010806/09/19 19:20:31  5-MIN KBKB 100120Z AUTO 00000KT 10SM CLR 26/22 A2988 340 81 1700 000/00 RMK AO2 T02560222
53988KBKB BKB20190609192510806/09/19 19:25:31  5-MIN KBKB 100125Z AUTO 00000KT 10SM CLR 26/22 A2988 330 81 1700 000/00 RMK AO2 T02560222
53988KBKB BKB20190609193010806/09/19 19:30:31  5-MIN KBKB 100130Z AUTO 00000KT 10SM CLR 26/22 A2989 330 81 1700 000/00 RMK AO2 T02560222
53988KBKB BKB20190609193510806/09/19 19:35:31  5-MIN KBKB 100135Z AUTO 00000KT 10SM CLR 26/22 A2989 330 81 1700 000/00 RMK AO2 T02560222
53988KBKB BKB20190609194010806/09/19 19:40:31  5-MIN KBKB 100140Z AUTO 00000KT 10SM CLR 26/22 A2988 330 81 1700 000/00 RMK AO2 T02560222
53988KBKB BKB20190609194510806/09/19 19:45:31  5-MIN KBKB 100145Z AUTO 00000KT 10SM CLR 26/22 A2988 330 81 1700 000/00 RMK AO2 T02560222
53988KBKB BKB20190609195011506/09/19 19:50:31  5-MIN KBKB 100150Z AUTO 00000KT 10SM CLR 25/22 A2988 330 84 1600 000/00 RMK AO2 SLP145 T02500222
53988KBKB BKB20190609215011506/09/19 21:50:31  5-MIN KBKB 100350Z AUTO 00000KT 10SM CLR 24/22 A2996 260 87 1500 000/00 RMK AO2 SLP171 T02440222
53988KBKB BKB20190609215510806/09/19 21:55:31  5-MIN KBKB 100355Z AUTO 00000KT 10SM CLR 24/22 A2996 260 90 1400 000/00 RMK AO2 T02390222
53988KBKB BKB20190609220010806/09/19 22:00:31  5-MIN KBKB 100400Z AUTO 00000KT 10SM CLR 24/22 A2997 260 90 1400 000/00 RMK AO2 T02390222
53988KBKB BKB20190609220510806/09/19 22:05:31  5-MIN KBKB 100405Z AUTO 00000KT 10SM CLR 24/22 A2997 250 84 1400 000/00 RMK AO2 T02440217
53988KBKB BKB20190609221010806/09/19 22:10:31  5-MIN KBKB 100410Z AUTO 00000KT 10SM CLR 24/22 A2997 250 87 1400 000/00 RMK AO2 T02440222
53988KBKB BKB20190609221510806/09/19 22:15:31  5-MIN KBKB 100415Z AUTO 00000KT 10SM CLR 24/22 A2997 250 87 1400 000/00 RMK AO2 T02440222
53988KBKB BKB20190609222010806/09/19 22:20:31  5-MIN KBKB 100420Z AUTO 00000KT 10SM CLR 24/22 A2998 250 87 1400 000/00 RMK AO2 T02440222
53988KBKB BKB20190609222506206/09/19 22:25:31  5-MIN KBKB 100425Z AUTO 0 RMK AO2 T02390222
53988KBKB BKB20190609222509006/09/19 22:25:31  5-MIN KBKB 100425Z AUTO 00000KT 10SM CLR 24/22 A2998 250 84 1400 090211
53988KBKB BKB20190609222510806/09/19 22:25:31  5-MIN KBKB 100425Z AUTO 00000KT 10SM CLR 24/22 A2998 250 84 1400 000/00 RMK AO2 T02440217
53988KBKB BKB20190609223010806/09/19 22:30:31  5-MIN KBKB 100430Z AUTO 00000KT 10SM CLR 24/22 A2998 240 87 1400 000/00 RMK AO2 T02390217
53988KBKB BKB20190609223016806/09/19 22:30:31  5-MIN KBKB 100430Z AUTO 00000KT 10SM CLR 24/22 A2998 240 87 1400 000/00 RMK AO2 T0239021706/09/19 22:35:31 A2997 250 87 1400 000/00 RMK AO2 T02440222
53988KBKB BKB20190609223510806/09/19 22:35:31  5-MIN KBKB 100435Z AUTO 00000KT 10SM CLR 24/22 A2998 240 87 1400 000/00 RMK AO2 T02390217
53988KBKB BKB20190609224010806/09/19 22:40:31  5-MIN KBKB 100440Z AUTO 00000KT 10SM CLR 24/22 A2999 240 84 1400 000/00 RMK AO2 T02440217
53988KBKB BKB20190609224510806/09/19 22:45:31  5-MIN KBKB 100445Z AUTO 00000KT 10SM CLR 24/22 A2999 230 84 1400 000/00 RMK AO2 T02440217
53988KBKB BKB20190609225011506/09/19 22:50:31  5-MIN KBKB 100450Z AUTO 00000KT 10SM CLR 24/22 A2999 230 84 1400 000/00 RMK AO2 SLP181 T02440217
53988KBKB BKB20190609225510806/09/19 22:55:31  5-MIN KBKB 100455Z AUTO 00000KT 10SM CLR 24/22 A2999 230 84 1400 000/00 RMK AO2 T02440217
53988KBKB BKB20190609230010806/09/19 23:00:31  5-MIN KBKB 100500Z AUTO 00000KT 10SM CLR 24/22 A2999 230 87 1400 000/00 RMK AO2 T02390217
53988KBKB BKB20190609230510806/09/19 23:05:31  5-MIN KBKB 100505Z AUTO 00000KT 10SM CLR 24/22 A2999 230 87 1400 000/00 RMK AO2 T02390217
53988KBKB BKB20190609231010806/09/19 23:10:31  5-MIN KBKB 100510Z AUTO 00000KT 10SM CLR 24/22 A2999 230 84 1400 000/00 RMK AO2 T02440217
53988KBKB BKB20190609231511106/09/19 23:15:31  5-MIN KBKB 100515Z AUTO 00000KT 10SM FEW048 24/22 A2999 230 84 1400 000/00 RMK AO2 T02440217
53988KBKB BKB20190609232011106/09/19 23:20:31  5-MIN KBKB 100520Z AUTO 00000KT 10SM SCT046 24/22 A2999 230 84 1400 000/00 RMK AO2 T02440217
53988KBKB BKB20190609232511106/09/19 23:25:31  5-MIN KBKB 100525Z AUTO 00000KT 10SM SCT046 24/22 A2999 230 84 1400 000/00 RMK AO2 T02440217
53988KBKB BKB20190609233011106/09/19 23:30:31  5-MIN KBKB 100530Z AUTO 00000KT 10SM BKN046 24/22 A2999 230 84 1400 000/00 RMK AO2 T02440217
53988KBKB BKB20190609233511106/09/19 23:35:31  5-MIN KBKB 100535Z AUTO 00000KT 10SM BKN046 24/22 A2999 230 84 1400 000/00 RMK AO2 T02440217
53988KBKB BKB20190609234011106/09/19 23:40:31  5-MIN KBKB 100540Z AUTO 00000KT 10SM BKN048 24/22 A2999 230 84 1400 000/00 RMK AO2 T02440217
53988KBKB BKB20190609234511106/09/19 23:45:31  5-MIN KBKB 100545Z AUTO 00000KT 10SM BKN048 24/21 A2999 230 81 1400 000/00 RMK AO2 T02440211
53988KBKB BKB20190609235015306/09/19 23:50:31  5-MIN KBKB 100550Z AUTO 00000KT 10SM SCT046 SCT055 24/21 A2999 230 81 1400 000/00 RMK AO2 SLP181 T02440211 10294 20239 403330189 53019
53988KBKB BKB20190609235511106/09/19 23:55:31  5-MIN KBKB 100555Z AUTO VRB03KT 10SM SCT049 24/21 A2999 240 81 1400 VRB/03 RMK AO2 T02440211
53988KBKB BKB20190610000011106/10/19 00:00:31  5-MIN KBKB 100600Z AUTO 00000KT 10SM FEW047 24/21 A2998 240 81 1400 000/00 RMK AO2 T02440211
53988KBKB BKB20190610000511106/10/19 00:05:31  5-MIN KBKB 100605Z AUTO 00000KT 10SM FEW049 24/21 A2998 240 81 1400 000/00 RMK AO2 T02440211
53988KBKB BKB20190610001010806/10/19 00:10:31  5-MIN KBKB 100610Z AUTO VRB03KT 10SM CLR 24/21 A2999 240 81 1400 VRB/03 RMK AO2 T02440211
53988KBKB BKB20190610001511106/10/19 00:15:31  5-MIN KBKB 100615Z AUTO 00000KT 10SM FEW055 24/21 A2998 240 81 1400 000/00 RMK AO2 T02440211
53988KBKB BKB20190610002010806/10/19 00:20:31  5-MIN KBKB 100620Z AUTO 00000KT 10SM CLR 24/21 A2998 240 81 1400 000/00 RMK AO2 T02440211
53988KBKB BKB20190610002513606/10/19 00:25:31  5-MIN KBKB 100625Z AUTO 00000KT 10SM CLR 24/21 A2998 250 84 1400 000/00 RMK A998 240 87 1300 000/00 RMK AO2 T02330211
53988KBKB BKB20190610005011506/10/19 00:50:31  5-MIN KBKB 100650Z AUTO 00000KT 10SM CLR 24/21 A2998 250 84 1400 000/00 RMK AO2 SLP176 T02390211
53988KBKB BKB20190610005510806/10/19 00:55:31  5-MIN KBKB 100655Z AUTO 00000KT 10SM CLR 24/21 A2997 250 84 1400 000/00 RMK AO2 T02390211
53988KBKB BKB20190610010010806/10/19 01:00:31  5-MIN KBKB 100700Z AUTO 00000KT 10SM CLR 24/21 A2997 250 84 1400 000/00 RMK AO2 T02390211
53988KBKB BKB20190610010510806/10/19 01:05:31  5-MIN KBKB 100705Z AUTO 00000KT 10SM CLR 24/21 A2997 250 84 1400 000/00 RMK AO2 T02390211
53988KBKB BKB20190610010516306/10/19 01:05:31  5-MIN KBKB 100705Z AUTO 00000KT 10SM CLR 24/21 A2997 250 84 14BKB 100645Z AUTO 00000KT 10SM CLR 24/21 A2998 250 84 1400 000/00 RMK AO2 T02390211
53988KBKB BKB20190610011010806/10/19 01:10:31  5-MIN KBKB 100710Z AUTO 00000KT 10SM CLR 24/21 A2997 250 84 1400 000/00 RMK AO2 T02390211
53988KBKB BKB20190610011510806/10/19 01:15:31  5-MIN KBKB 100715Z AUTO VRB03KT 10SM CLR 24/21 A2997 250 84 1400 VRB/03 RMK AO2 T02390211
53988KBKB BKB20190610011517006/10/19 01:15:31  5-MIN KBKB 100715Z AUTO VRB03KT 10SM CLR 24/21 A2997 250 84 1400 VRB/03 RMK 655Z AUTO 00000KT 10SM CLR 24/21 A2997 250 84 1400 000/00 RMK AO2 T02390211
53988KBKB BKB20190610012004606/10/19 01:20:31  5-MIN KBKB 100720Z AUTO 011
53988KBKB BKB20190610012010806/10/19 01:20:31  5-MIN KBKB 100720Z AUTO 00000KT 10SM CLR 23/21 A2997 250 87 1300 000/00 RMK AO2 T02330211
53988KBKB BKB20190610012510806/10/19 01:25:31  5-MIN KBKB 100725Z AUTO 00000KT 10SM CLR 24/21 A2997 250 84 1400 000/00 RMK AO2 T02390211
53988KBKB BKB20190610012516806/10/19 01:25:31  5-MIN KBKB 100725Z AUTO 00000KT 10SM CLR 24/21 A2997 250 84 1400 000/00 RMK AO2 T02390211KT 10SM CLR 24/21 A2997 250 84 1400 000/00 RMK AO2 T02390211
53988KBKB BKB20190610013010806/10/19 01:30:31  5-MIN KBKB 100730Z AUTO 00000KT 10SM CLR 23/21 A2997 250 87 1300 000/00 RMK AO2 T02330211
53988KBKB BKB20190610013517006/10/19 01:35:31  5-MIN KBKB 100735Z AUTO 00000KT 10SM CLR 24/21 A2997 250 84 1400 000/00 RMK AO2 T02TO VRB03KT 10SM CLR 24/21 A2997 250 84 1400 VRB/03 RMK AO2 T02390211
53988KBKB BKB20190610014510806/10/19 01:45:31  5-MIN KBKB 100745Z AUTO 00000KT 10SM CLR 23/21 A2998 250 87 1300 000/00 RMK AO2 T02330211
53988KBKB BKB20190610015011506/10/19 01:50:31  5-MIN KBKB 100750Z AUTO 00000KT 10SM CLR 23/21 A2998 250 87 1300 000/00 RMK AO2 SLP176 T02330211
53988KBKB BKB20190610015510806/10/19 01:55:31  5-MIN KBKB 100755Z AUTO 00000KT 10SM CLR 23/21 A2998 240 87 1300 000/00 RMK AO2 T02330211
53988KBKB BKB20190610020010806/10/19 02:00:31  5-MIN KBKB 100800Z AUTO 00000KT 10SM CLR 23/21 A2998 240 87 1300 000/00 RMK AO2 T02330211
53988KBKB BKB20190610022510806/10/19 02:25:31  5-MIN KBKB 100825Z AUTO 00000KT 10SM CLR 23/21 A2998 240 87 1300 000/00 RMK AO2 T02330211
53988KBKB BKB20190610023010806/10/19 02:30:31  5-MIN KBKB 100830Z AUTO 00000KT 10SM CLR 23/21 A2998 240 90 1200 000/00 RMK AO2 T02280211
53988KBKB BKB20190610023510806/10/19 02:35:31  5-MIN KBKB 100835Z AUTO 00000KT 10SM CLR 23/21 A2999 240 87 1300 000/00 RMK AO2 T02330211
53988KBKB BKB20190610024010806/10/19 02:40:31  5-MIN KBKB 100840Z AUTO 00000KT 10SM CLR 23/21 A2999 230 87 1300 000/00 RMK AO2 T02330211
53988KBKB BKB20190610024510806/10/19 02:45:31  5-MIN KBKB 100845Z AUTO VRB03KT 10SM CLR 23/21 A2999 240 90 1200 VRB/03 RMK AO2 T02280211
53988KBKB BKB20190610025012106/10/19 02:50:31  5-MIN KBKB 100850Z AUTO 00000KT 10SM CLR 23/21 A2999 240 90 1200 000/00 RMK AO2 SLP180 T02280211 50021
53988KBKB BKB20190610025510806/10/19 02:55:31  5-MIN KBKB 100855Z AUTO VRB03KT 10SM CLR 23/21 A2999 240 90 1200 VRB/03 RMK AO2 T02280211
53988KBKB BKB20190610025515706/10/19 02:55:31  5-MIN KBKB 100855Z AUTO VRB03KT 10SM CLR 23/21 A2999 240 90 1200 VRB/03 RMK AO2 T0228021R 23/21 A2999 240 87 1300 000/00 RMK AO2 T02330211
53988KBKB BKB20190610030010806/10/19 03:00:31  5-MIN KBKB 100900Z AUTO 00000KT 10SM CLR 23/21 A2999 230 87 1300 000/00 RMK AO2 T02330211
53988KBKB BKB20190610030510806/10/19 03:05:31  5-MIN KBKB 100905Z AUTO 00000KT 10SM CLR 23/21 A2999 230 87 1300 000/00 RMK AO2 T02330211
53988KBKB BKB20190610031010806/10/19 03:10:31  5-MIN KBKB 100910Z AUTO 00000KT 10SM CLR 23/21 A2999 230 87 1300 000/00 RMK AO2 T02330211
53988KBKB BKB20190610031510806/10/19 03:15:31  5-MIN KBKB 100915Z AUTO 00000KT 10SM CLR 23/21 A2999 230 87 1300 000/00 RMK AO2 T02330211
53988KBKB BKB20190610031527606/10/19 03:15:31  5-MIN KBKB 100915Z AUTO 00000KT 10SM CLR 23/21 A2999 230 87 1300 000/00 RMK AO2 T02330VRB03KT 10SM CLR 23/21 A2999 240 90 1200 VRB/03 RMK AO2 T0228021106/10/19 30 87 1300 000/00 RMK AO2Z AUTO 00000KT 10SM CLR 23/21 A2999 230 87 1300 000/00 RMK AO2 T02330211
53988KBKB BKB20190610032010806/10/19 03:20:31  5-MIN KBKB 100920Z AUTO 00000KT 10SM CLR 23/21 A3000 230 87 1300 000/00 RMK AO2 T02330211
53988KBKB BKB20190610032510806/10/19 03:25:31  5-MIN KBKB 100925Z AUTO 00000KT 10SM CLR 23/21 A3000 230 90 1200 000/00 RMK AO2 T02280211
53988KBKB BKB20190610033010806/10/19 03:30:31  5-MIN KBKB 100930Z AUTO 00000KT 10SM CLR 23/21 A3000 230 90 1200 000/00 RMK AO2 T02280211
53988KBKB BKB20190610033510806/10/19 03:35:31  5-MIN KBKB 100935Z AUTO 00000KT 10SM CLR 23/21 A3000 230 90 1200 000/00 RMK AO2 T02280211
53988KBKB BKB20190610034010706/10/19 03:40:31  5-MIN KBKB 100940Z AUTO 00000KT 9SM CLR 23/21 A3000 220 90 1200 000/00 RMK AO2 T02280211
53988KBKB BKB20190610034017206/10/19 03:40:31  5-MIN KBKB 100940Z AUTO 00000KT 9SM CLR 23/2106/10/19 03:20:31  5-MIN KBKB 100920Z AUTO 00000KT 10SM CLR 23/21 A3000 230 87 1300 000/00 RMK AO2 T02330211
53988KBKB BKB20190610034510706/10/19 03:45:31  5-MIN KBKB 100945Z AUTO 00000KT 9SM CLR 23/21 A3000 220 90 1200 000/00 RMK AO2 T02280211
53988KBKB BKB20190610035011506/10/19 03:50:31  5-MIN KBKB 100950Z AUTO 00000KT 10SM CLR 23/21 A3000 220 90 1200 000/00 RMK AO2 SLP184 T02280211
53988KBKB BKB20190610035510706/10/19 03:55:31  5-MIN KBKB 100955Z AUTO VRB03KT 9SM CLR 23/21 A3000 220 90 1200 VRB/03 RMK AO2 T02280211
53988KBKB BKB20190610040016706/10/19 04:00:31  5-MIN KBKB 101000Z AUTO 00000KT 9SM CLR 23/21 A30 03:40:31  5-MIN KBKB 100940Z AUTO 00000KT 9SM CLR 23/21 A3000 220 90 1200 000/00 RMK AO2 T02280211
53988KBKB BKB20190610064510806/10/19 06:45:31  5-MIN KBKB 101245Z AUTO 35007KT 10SM CLR 25/22 A3005 180 81 1400 340/07 RMK AO2 T02500217
53988KBKB BKB20190610065011506/10/19 06:50:31  5-MIN KBKB 101250Z AUTO VRB04KT 10SM CLR 25/22 A3005 170 81 1400 VRB/04 RMK AO2 SLP202 T02500217
53988KBKB BKB20190610065510806/10/19 06:55:31  5-MIN KBKB 101255Z AUTO VRB05KT 10SM CLR 25/22 A3006 170 81 1400 VRB/05 RMK AO2 T02500217
53988KBKB BKB20190610070010806/10/19 07:00:31  5-MIN KBKB 101300Z AUTO VRB04KT 10SM CLR 25/22 A3006 170 81 1400 VRB/04 RMK AO2 T02500217
53988KBKB BKB20190610070505506/10/19 07:05:31  5-MIN KBKB 101305Z RMK AO2 T02500217
53988KBKB BKB20190610070510806/10/19 07:05:31  5-MIN KBKB 101305Z AUTO VRB04KT 10SM CLR 25/22 A3006 170 81 1400 VRB/04 RMK AO2 T02500217
53988KBKB BKB20190610070515806/10/19 07:05:31  5-MIN KBKB 101305Z AUTO VRB04KT 10SM CLR 25/22 A3006 170 811007KT 310V060 10SM CLR 29/22 A3007 160 64 1900 360/07 310V060 RMK AO2 T02940222
53988KBKB BKB20190610071010806/10/19 07:10:31  5-MIN KBKB 101310Z AUTO VRB05KT 10SM CLR 26/22 A3007 160 79 1500 VRB/05 RMK AO2 T02560217
53988KBKB BKB20190610071506206/10/19 07:15:31  5-MIN KBKB 101315Z AUTO VRB05KT 1 T02500217
53988KBKB BKB20190610071510806/10/19 07:15:31  5-MIN KBKB 101315Z AUTO VRB05KT 10SM CLR 26/22 A3007 160 79 1500 VRB/05 RMK AO2 T02560217
53988KBKB BKB20190610072010806/10/19 07:20:31  5-MIN KBKB 101320Z AUTO VRB05KT 10SM CLR 26/22 A3007 160 79 1500 VRB/05 RMK AO2 T02560217
53988KBKB BKB20190610095011506/10/19 09:50:31  5-MIN KBKB 101550Z AUTO VRB05KT 10SM CLR 29/22 A3008 160 64 1800 VRB/05 RMK AO2 SLP209 T02890217
53988KBKB BKB20190610095510806/10/19 09:55:31  5-MIN KBKB 101555Z AUTO VRB05KT 10SM CLR 29/22 A3008 150 64 1900 VRB/05 RMK AO2 T02940222
53988KBKB BKB20190610100010806/10/19 10:00:31  5-MIN KBKB 101600Z AUTO 03006KT 10SM CLR 29/22 A3008 150 64 1900 030/06 RMK AO2 T02940222
53988KBKB BKB20190610103511106/10/19 10:35:31  5-MIN KBKB 101635Z AUTO VRB03KT 10SM FEW027 31/23 A3008 150 60 2100 VRB/03 RMK AO2 T03110228
53988KBKB BKB20190610104010106/10/19 10:40:31  5-MIN KBKB 101640Z AUTO 10SM FEW027 30/22 A3008 150 62 1900 M /M RMK AO2 T03000222
53988KBKB BKB20190610104511106/10/19 10:45:31  5-MIN KBKB 101645Z AUTO 01006KT 10SM FEW029 30/22 A3008 150 62 1900 010/06 RMK AO2 T03000222
53988KBKB BKB20190610105011806/10/19 10:50:31  5-MIN KBKB 101650Z AUTO VRB04KT 10SM FEW029 30/22 A3008 150 62 1900 VRB/04 RMK AO2 SLP210 T03000222
53988KBKB BKB20190610105512706/10/19 10:55:31  5-MIN KBKB 101655Z AUTO 01007KT 340V040 10SM FEW029 30/22 A3008 150 62 1900 010/07 340V040 RMK AO2 T03000222
53988KBKB BKB20190610110010106/10/19 11:00:31  5-MIN KBKB 101700Z AUTO 10SM SCT029 30/22 A3008 150 62 1900 M /M RMK AO2 T03000222
53988KBKB BKB20190610110511106/10/19 11:05:31  5-MIN KBKB 101705Z AUTO VRB04KT 10SM SCT029 29/22 A3008 150 64 1900 VRB/04 RMK AO2 T02940222
53988KBKB BKB20190610111011806/10/19 11:10:31  5-MIN KBKB 101710Z AUTO 03005KT 10SM BKN029 BKN036 29/23 A3008 150 67 1900 030/05 RMK AO2 T02940228
53988KBKB BKB20190610111511806/10/19 11:15:31  5-MIN KBKB 101715Z AUTO VRB04KT 10SM SCT029 BKN038 30/22 A3008 150 62 2000 VRB/04 RMK AO2 T03000222
53988KBKB BKB20190610112011806/10/19 11:20:31  5-MIN KBKB 101720Z AUTO VRB04KT 10SM SCT029 BKN038 31/23 A3008 150 62 2000 VRB/04 RMK AO2 T03060228
53988KBKB BKB20190610112512506/10/19 11:25:31  5-MIN KBKB 101725Z AUTO VRB05KT 10SM SCT029 BKN038 BKN048 31/22 A3008 160 60 2000 VRB/05 RMK AO2 T03060222
53988KBKB BKB20190610113012506/10/19 11:30:31  5-MIN KBKB 101730Z AUTO VRB04KT 10SM SCT029 BKN036 BKN048 30/23 A3008 150 65 1900 VRB/04 RMK AO2 T03000228
53988KBKB BKB20190610113511806/10/19 11:35:31  5-MIN KBKB 101735Z AUTO VRB04KT 10SM SCT029 BKN036 30/22 A3008 150 62 1900 VRB/04 RMK AO2 T03000222
53988KBKB BKB20190610114011806/10/19 11:40:31  5-MIN KBKB 101740Z AUTO VRB05KT 10SM FEW029 SCT037 31/22 A3007 160 60 2000 VRB/05 RMK AO2 T03060222
53988KBKB BKB20190610114512506/10/19 11:45:31  5-MIN KBKB 101745Z AUTO VRB05KT 10SM SCT029 BKN036 BKN047 29/22 A3008 150 62 1900 VRB/05 RMK AO2 T02940217
53988KBKB BKB20190610115015006/10/19 11:50:31  5-MIN KBKB 101750Z AUTO 04005KT 10SM SCT029 SCT037 BKN046 31/22 A3008 160 60 2000 030/05 RMK AO2 SLP209 T03060222 10311 20233 51012
53988KBKB BKB20190610115511106/10/19 11:55:31  5-MIN KBKB 101755Z AUTO VRB03KT 10SM SCT031 31/23 A3008 160 60 2100 VRB/03 RMK AO2 T03110228
53988KBKB BKB20190610120010806/10/19 12:00:31  5-MIN KBKB 101800Z AUTO 36005KT 10SM SCT031 SCT039 BKN00 60 2000 VRB/06 RMK AO2 T03060222
53988KBKB BKB20190610122511806/10/19 12:25:31  5-MIN KBKB 101825Z AUTO 06006KT 10SM FEW031 FEW070 31/22 A3007 160 58 2100 060/06 RMK AO2 T03110222
53988KBKB BKB20190610123011806/10/19 12:30:31  5-MIN KBKB 101830Z AUTO VRB06KT 10SM FEW033 SCT075 31/22 A3007 160 56 2100 VRB/06 RMK AO2 T03110217
53988KBKB BKB20190610123511806/10/19 12:35:31  5-MIN KBKB 101835Z AUTO VRB04KT 10SM FEW033 SCT075 30/22 A3007 160 60 2000 VRB/04 RMK AO2 T03000217
53988KBKB BKB20190610124011806/10/19 12:40:31  5-MIN KBKB 101840Z AUTO VRB06KT 10SM FEW033 BKN075 30/22 A3007 160 60 2000 VRB/06 RMK AO2 T03000217
53988KBKB BKB20190610124511106/10/19 12:45:31  5-MIN KBKB 101845Z AUTO VRB04KT 10SM SCT075 31/22 A3007 160 58 2100 VRB/04 RMK AO2 T03110222
53988KBKB BKB20190610125012506/10/19 12:50:31  5-MIN KBKB 101850Z AUTO 03006KT 10SM FEW035 SCT075 32/22 A3007 160 56 2100 020/06 RMK AO2 SLP207 T03170222
53988KBKB BKB20190610125512406/10/19 12:55:31  5-MIN KBKB 101855Z AUTO 02005G14KT 10SM FEW035 SCT075 31/22 A3006 170 56 2100 010/05G14 RMK AO2 T03110217
53988KBKB BKB20190610130012406/10/19 13:00:31  5-MIN KBKB 101900Z AUTO VRB05G14KT 10SM SCT037 BKN075 31/22 A3006 170 56 2100 VRB/05G14 RMK AO2 T03110217
53988KBKB BKB20190610130511806/10/19 13:05:31  5-MIN KBKB 101905Z AUTO VRB04KT 10SM SCT037 SCT075 30/22 A3006 170 60 2000 VRB/04 RMK AO2 T03000217
53988KBKB BKB20190610131011106/10/19 13:10:31  5-MIN KBKB 101910Z AUTO VRB04KT 10SM FEW037 32/22 A3006 170 56 2200 VRB/04 RMK AO2 T03170222
53988KBKB BKB20190610131511106/10/19 13:15:31  5-MIN KBKB 101915Z AUTO VRB05KT 10SM FEW037 32/22 A3006 170 56 2200 VRB/05 RMK AO2 T03170222
53988KBKB BKB20190610132011806/10/19 13:20:31  5-MIN KBKB 101920Z AUTO VRB05KT 10SM FEW037 SCT070 31/22 A3006 170 58 2100 VRB/05 RMK AO2 T03110222
53988KBKB BKB20190610132512406/10/19 13:25:31  5-MIN KBKB 101925Z AUTO VRB04KT 10SM FEW037 SCT055 BK2 A3006 170 55 2200 350/07 320V050 RMK AO2 T03170217
53988KBKB BKB20190610135012506/10/19 13:50:31  5-MIN KBKB 101950Z AUTO VRB06KT 10SM FEW060 SCT075 31/21 A3006 170 54 2100 VRB/06 RMK AO2 SLP203 T03110211
53988KBKB BKB20190610135511106/10/19 13:55:31  5-MIN KBKB 101955Z AUTO VRB06KT 10SM FEW070 32/22 A3005 180 53 2200 VRB/06 RMK AO2 T03220217
53988KBKB BKB20190610140011106/10/19 14:00:31  5-MIN KBKB 102000Z AUTO VRB04KT 10SM FEW075 32/22 A3005 180 55 2200 VRB/04 RMK AO2 T03220222
53988KBKB BKB20190610140513406/10/19 14:05:31  5-MIN KBKB 102005Z AUTO 34007KT 310V030 10SM FEW042 FEW075 32/21 A3005 180 53 2200 340/07 310V030 RMK AO2 T03170211
53988KBKB BKB20190610141011806/10/19 14:10:31  5-MIN KBKB 102010Z AUTO VRB05KT 10SM FEW042 FEW075 32/22 A3005 180 53 2200 VRB/05 RMK AO2 T03220217
53988KBKB BKB20190610141511106/10/19 14:15:31  5-MIN KBKB 102015Z AUTO VRB04KT 10SM FEW044 33/22 A3005 180 51 2300 VRB/04 RMK AO2 T03280217
53988KBKB BKB20190610142011106/10/19 14:20:31  5-MIN KBKB 102020Z AUTO VRB05KT 10SM FEW044 32/21 A3005 180 51 2200 VRB/05 RMK AO2 T03220211
53988KBKB BKB20190610142511106/10/19 14:25:31  5-MIN KBKB 102025Z AUTO VRB05KT 10SM FEW043 32/21 A3005 180 53 2200 VRB/05 RMK AO2 T03170211
53988KBKB BKB20190610143011806/10/19 14:30:31  5-MIN KBKB 102030Z AUTO VRB05KT 10SM FEW043 FEW060 32/22 A3005 180 53 2200 VRB/05 RMK AO2 T03220217
53988KBKB BKB20190610143511106/10/19 14:35:31  5-MIN KBKB 102035Z AUTO VRB04KT 10SM FEW065 32/22 A3005 180 53 2200 VRB/04 RMK AO2 T03220217
53988KBKB BKB20190610144012406/10/19 14:40:31  5-MIN KBKB 102040Z AUTO 01008KT 330V040 10SM CLR 32/22 A3005 180 55 2200 010/08 330V040 RMK AO2 T03170217
53988KBKB BKB20190610144510806/10/19 14:45:31  5-MIN KBKB 102045Z AUTO 35005KT 10SM CLR 31/21 A3005 180 54 2100 350/05 RMK AO2 T03110211
53988KBKB BKB20190610145012106/10/19 14:50:31  5-MIN KBKB 102050Z AUTO 01008KT 330V050 10SM CLR 32/21 A3004 180 51 2200 360/08 330V050 RMK AT03220211
53988KBKB BKB20190610150510806/10/19 15:05:31  5-MIN KBKB 102105Z AUTO VRB03KT 10SM CLR 32/21 A3004 190 49 2200 VRB/03 RMK AO2 T03220206
53988KBKB BKB20190610151010806/10/19 15:10:31  5-MIN KBKB 102110Z AUTO VRB06KT 10SM CLR 33/21 A3004 190 49 2300 VRB/06 RMK AO2 T03280211
53988KBKB BKB20190610151510806/10/19 15:15:31  5-MIN KBKB 102115Z AUTO VRB04KT 10SM CLR 32/21 A3004 190 51 2200 VRB/04 RMK AO2 T03170206
53988KBKB BKB20190610152011106/10/19 15:20:31  5-MIN KBKB 102120Z AUTO VRB04KT 10SM FEW047 32/21 A3004 190 49 2200 VRB/04 RMK AO2 T03220206
53988KBKB BKB20190610152511106/10/19 15:25:31  5-MIN KBKB 102125Z AUTO 03006KT 10SM FEW044 32/21 A3004 190 51 2200 030/06 RMK AO2 T03220211
53988KBKB BKB20190610153011106/10/19 15:30:31  5-MIN KBKB 102130Z AUTO VRB06KT 10SM FEW046 33/21 A3004 190 49 2300 VRB/06 RMK AO2 T03280211
53988KBKB BKB20190610153511106/10/19 15:35:31  5-MIN KBKB 102135Z AUTO VRB03KT 10SM FEW046 32/21 A3003 190 49 2200 VRB/03 RMK AO2 T03220206
53988KBKB BKB20190610154011106/10/19 15:40:31  5-MIN KBKB 102140Z AUTO VRB05KT 10SM FEW046 32/21 A3003 200 49 2200 VRB/05 RMK AO2 T03220206
53988KBKB BKB20190610154511106/10/19 15:45:31  5-MIN KBKB 102145Z AUTO VRB04KT 10SM FEW046 33/21 A3003 200 49 2300 VRB/04 RMK AO2 T03280211
53988KBKB BKB20190610155011806/10/19 15:50:31  5-MIN KBKB 102150Z AUTO VRB03KT 10SM FEW046 33/21 A3003 200 49 2300 VRB/03 RMK AO2 SLP194 T03280211
53988KBKB BKB20190610155511106/10/19 15:55:31  5-MIN KBKB 102155Z AUTO 36004KT 10SM FEW046 32/21 A3003 200 51 2200 360/04 RMK AO2 T03220211
53988KBKB BKB20190610160011106/10/19 16:00:31  5-MIN KBKB 102200Z AUTO 01005KT 10SM FEW046 32/21 A3003 200 51 2200 360/05 RMK AO2 T03220211
53988KBKB BKB20190610160512406/10/19 16:05:31  5-MIN KBKB 102205Z AUTO 01007KT 330V050 10SM CLR 32/20 A3003 200 48 2200 010/07 330V050 RMK AO2 T03220200
53988KBKB BKB20190610161010406/10/19 16:10:31  5-MIN KBKB 102210Z AUTO VRB06KT 10SM CLR 32/20 A3003 200 48 2200 VRB/06 RO2 T03170206
53988KBKB BKB20190610165011506/10/19 16:50:31  5-MIN KBKB 102250Z AUTO VRB04KT 10SM CLR 32/21 A3002 210 51 2200 VRB/04 RMK AO2 SLP190 T03170206
53988KBKB BKB20190610165510806/10/19 16:55:31  5-MIN KBKB 102255Z AUTO VRB05KT 10SM CLR 31/19 A3002 210 49 2100 VRB/05 RMK AO2 T03110194
53988KBKB BKB20190610170010806/10/19 17:00:31  5-MIN KBKB 102300Z AUTO VRB05KT 10SM CLR 31/19 A3002 210 51 2100 VRB/05 RMK AO2 T03060194
53988KBKB BKB20190610170510806/10/19 17:05:31  5-MIN KBKB 102305Z AUTO VRB03KT 10SM CLR 31/21 A3002 210 53 2100 VRB/03 RMK AO2 T03110206
53988KBKB BKB20190610171010806/10/19 17:10:31  5-MIN KBKB 102310Z AUTO VRB03KT 10SM CLR 31/21 A3002 200 53 2100 VRB/03 RMK AO2 T03110206
53988KBKB BKB20190610171510806/10/19 17:15:31  5-MIN KBKB 102315Z AUTO VRB03KT 10SM CLR 31/21 A3002 210 54 2100 VRB/03 RMK AO2 T03110211
53988KBKB BKB20190610172010806/10/19 17:20:31  5-MIN KBKB 102320Z AUTO VRB04KT 10SM CLR 31/20 A3002 210 51 2100 VRB/04 RMK AO2 T03110200
53988KBKB BKB20190610172510806/10/19 17:25:31  5-MIN KBKB 102325Z AUTO 02004KT 10SM CLR 31/20 A3002 200 52 2100 020/04 RMK AO2 T03060200
53988KBKB BKB20190610173010806/10/19 17:30:31  5-MIN KBKB 102330Z AUTO VRB04KT 10SM CLR 31/20 A3002 200 52 2100 VRB/04 RMK AO2 T03060200
53988KBKB BKB20190610173510806/10/19 17:35:31  5-MIN KBKB 102335Z AUTO 36004KT 10SM CLR 31/20 A3002 200 52 2100 360/04 RMK AO2 T03060200
53988KBKB BKB20190610174010806/10/19 17:40:31  5-MIN KBKB 102340Z AUTO 00000KT 10SM CLR 31/21 A3002 200 54 2100 000/00 RMK AO2 T03060206
53988KBKB BKB20190610174510806/10/19 17:45:31  5-MIN KBKB 102345Z AUTO VRB06KT 10SM CLR 30/20 A3002 200 54 2000 VRB/06 RMK AO2 T03000200
53988KBKB BKB20190610175013306/10/19 17:50:31  5-MIN KBKB 102350Z AUTO VRB04KT 10SM CLR 30/20 A3002 200 54 2000 VRB/04 RMK AO2 SLP192 T03000200 10328 20294 57010
53988KBKB BKB20190610175515206/10/19 17:55:31  5-MIN KBKB 102355Z AUTO VRB05KT 10SM CLR 30/21 A3002 200 56 2000 VRB/05 RMK AO2 T03000206 160 71 1500 VRB/03 RMK AO2 SLP207 T02610206
53988KBKB BKB20190610195011506/10/19 19:50:31  5-MIN KBKB 110150Z AUTO VRB03KT 10SM CLR 26/21 A3007 160 71 1500 VRB/03 RMK AO2 SLP207 T02610206
53988KBKB BKB20190610195510806/10/19 19:55:31  5-MIN KBKB 110155Z AUTO VRB03KT 10SM CLR 27/21 A3007 160 69 1600 VRB/03 RMK AO2 T02670206
53988KBKB BKB20190610200010806/10/19 20:00:31  5-MIN KBKB 110200Z AUTO VRB04KT 10SM CLR 27/21 A3007 160 69 1600 VRB/04 RMK AO2 T02670206
53988KBKB BKB20190610200510806/10/19 20:05:31  5-MIN KBKB 110205Z AUTO VRB04KT 10SM CLR 26/21 A3008 150 71 1500 VRB/04 RMK AO2 T02610206
53988KBKB BKB20190610201010806/10/19 20:10:31  5-MIN KBKB 110210Z AUTO 02004KT 10SM CLR 27/20 A3008 150 66 1600 020/04 RMK AO2 T02670200
53988KBKB BKB20190610201510806/10/19 20:15:31  5-MIN KBKB 110215Z AUTO VRB03KT 10SM CLR 26/21 A3008 150 71 1500 VRB/03 RMK AO2 T02610206
53988KBKB BKB20190610202010806/10/19 20:20:31  5-MIN KBKB 110220Z AUTO VRB04KT 10SM CLR 26/20 A3008 150 68 1500 VRB/04 RMK AO2 T02610200
53988KBKB BKB20190610202510806/10/19 20:25:31  5-MIN KBKB 110225Z AUTO VRB03KT 10SM CLR 26/20 A3008 150 68 1500 VRB/03 RMK AO2 T02610200
53988KBKB BKB20190610203010806/10/19 20:30:31  5-MIN KBKB 110230Z AUTO VRB03KT 10SM CLR 26/20 A3008 150 68 1500 VRB/03 RMK AO2 T02610200
53988KBKB BKB20190610203510806/10/19 20:35:31  5-MIN KBKB 110235Z AUTO VRB03KT 10SM CLR 26/20 A3008 150 71 1400 VRB/03 RMK AO2 T02560200
53988KBKB BKB20190610204010806/10/19 20:40:31  5-MIN KBKB 110240Z AUTO VRB03KT 10SM CLR 26/20 A3008 150 71 1400 VRB/03 RMK AO2 T02560200
53988KBKB BKB20190610204017206/10/19 20:40:31  5-MIN KBKB 110240Z AUTO VRB03KT 10SM CLR 26/20 A3008 150 71 1400 VRB/03 RMK AO2 T0256020006/10/19 20:45:31  5-MA3010 130 73 1200 000/00 RMK AO2 T02390189
53988KBKB BKB20190610204510806/10/19 20:45:31  5-MIN KBKB 110245Z AUTO VRB03KT 10SM CLR 26/20 A3008 150 71 1400 VRB/03 RMK AO2 T02560200
53988KBKB BKB20190610205012106/10/19 20:50:31  5-MIN KBKB 110250Z AUTO VRB04KT 10SM CLR 26/20 A3009 150 71 1400 VRB/04 RMK AO2 SLP213 T02560200 55006
53988KBKB BKB20190610205510806/10/19 20:55:31  5-MIN KBKB 110255Z AUTO VRB03KT 10SM CLR 25/20 A3009 140 73 1400 VRB/03 RMK AO2 T02500200
53988KBKB BKB20190610210018406/10/19 21:00:31  5-MIN KBKB 110300Z AUTO 02003KT 10SM CLR 26/20 A3009 140 71 1400 020/03 RMK AO2 T0256020006/10/19 21:05:31  5-MM CLR 25/20 A3010 140 76 1300 000/00 RMK AO2 T02440200
53988KBKB BKB20190610213510806/10/19 21:35:31  5-MIN KBKB 110335Z AUTO 02003KT 10SM CLR 24/20 A3010 130 76 1300 010/03 RMK AO2 T02440200
53988KBKB BKB20190610214010806/10/19 21:40:31  5-MIN KBKB 110340Z AUTO VRB03KT 10SM CLR 24/20 A3010 130 76 1300 VRB/03 RMK AO2 T02440200
53988KBKB BKB20190610214512906/10/19 21:45:31  5-MIN KBKB 110345Z AUTO 00000KT 10SM CLR 24/20 A3010 130 76 1304/19 A3010 130 71 1300 VRB/03 RMK AO2 T02440189
53988KBKB BKB20190610222510806/10/19 22:25:31  5-MIN KBKB 110425Z AUTO 00000KT 10SM CLR 24/19 A3010 130 73 1200 000/00 RMK AO2 T02390189
53988KBKB BKB20190610223010806/10/19 22:30:31  5-MIN KBKB 110430Z AUTO 01004KT 10SM CLR 24/19 A3010 130 73 1200 010/04 RMK AO2 T02390189
53988KBKB BKB20190610223519106/10/19 22:35:31  5-MIN KBKB 110435Z AUTO 00000KT 10SM CLR 24/18 A3010 130 71 1200 000/00 RMK AO2 T0239018306/10/19 22:40:4KT 10SM CLR 24/18 A3010 130 71 1200 VRB/04 RMK AO2 SLP219 T02390183
53988KBKB BKB20190610225510806/10/19 22:55:31  5-MIN KBKB 110455Z AUTO VRB03KT 10SM CLR 24/18 A3010 130 68 1200 VRB/03 RMK AO2 T02390178
53988KBKB BKB20190610230010806/10/19 23:00:31  5-MIN KBKB 110500Z AUTO VRB03KT 10SM CLR 23/18 A3010 130 70 1200 VRB/03 RMK AO2 T02330178
53988KBKB BKB20190610230510806/10/19 23:05:31  5-MIN KBKB 110505Z AUTO 02004KT 10SM CLR 23/18 A3010 130 70 1200 010/04 RMK AO2 T02330178
53988KBKB BKB20190610231010806/10/19 23:10:31  5-MIN KBKB 110510Z AUTO VRB03KT 10SM CLR 23/18 A3010 130 70 1200 VRB/03 RMK AO2 T02330178
53988KBKB BKB20190610231510806/10/19 23:15:31  5-MIN KBKB 110515Z AUTO VRB03KT 10SM CLR 23/18 A3010 130 70 1200 VRB/03 RMK AO2 T02330178
53988KBKB BKB20190610232010806/10/19 23:20:31  5-MIN KBKB 110520Z AUTO VRB04KT 10SM CLR 23/18 A3010 130 70 1200 VRB/04 RMK AO2 T02330178
53988KBKB BKB20190610232510806/10/19 23:25:31  5-MIN KBKB 110525Z AUTO VRB03KT 10SM CLR 23/17 A3010 130 68 1200 VRB/03 RMK AO2 T02330172
53988KBKB BKB20190610233010806/10/19 23:30:31  5-MIN KBKB 110530Z AUTO VRB04KT 10SM CLR 23/17 A3010 130 70 1100 VRB/04 RMK AO2 T02280172
53988KBKB BKB20190610233510806/10/19 23:35:31  5-MIN KBKB 110535Z AUTO VRB03KT 10SM CLR 23/17 A3010 130 68 1100 VRB/03 RMK AO2 T02280167
53988KBKB BKB20190610234014106/10/19 23:40:31  5-MIN KBKB 110540Z AUTO 00000KT 10SM CLR 23/17 A3010 130 68 1100 000/00 RMK AO2 T02280167 65 1100 VRB/03 RMK AO2 T02280161
53988KBKB BKB20190611000010806/11/19 00:00:31  5-MIN KBKB 110600Z AUTO VRB03KT 10SM CLR 22/16 A3010 140 68 1000 VRB/03 RMK AO2 T02220161
53988KBKB BKB20190611000510806/11/19 00:05:31  5-MIN KBKB 110605Z AUTO VRB03KT 10SM CLR 22/16 A3010 140 68 1000 VRB/03 RMK AO2 T02220161
53988KBKB BKB20190611001010806/11/19 00:10:31  5-MIN KBKB 110610Z AUTO VRB03KT 10SM CLR 22/16 A3009 140 65 1100 VRB/03 RMK AO2 T02220156
53988KBKB BKB20190611001510806/11/19 00:15:31  5-MIN KBKB 110615Z AUTO VRB03KT 10SM CLR 22/16 A3009 140 65 1100 VRB/03 RMK AO2 T02220156
53988KBKB BKB20190611002010806/11/19 00:20:31  5-MIN KBKB 110620Z AUTO VRB03KT 10SM CLR 22/16 A3010 140 65 1000 VRB/03 RMK AO2 T02220156
53988KBKB BKB20190611002510806/11/19 00:25:31  5-MIN KBKB 110625Z AUTO 00000KT 10SM CLR 22/15 A3010 140 63 1000 000/00 RMK AO2 T02220150
53988KBKB BKB20190611003010806/11/19 00:30:31  5-MIN KBKB 110630Z AUTO VRB03KT 10SM CLR 22/15 A3010 140 65 1000 VRB/03 RMK AO2 T02170150
53988KBKB BKB20190611003510806/11/19 00:35:31  5-MIN KBKB 110635Z AUTO VRB03KT 10SM CLR 22/15 A3009 140 65 1000 VRB/03 RMK AO2 T02170150
53988KBKB BKB20190611004010806/11/19 00:40:31  5-MIN KBKB 110640Z AUTO VRB03KT 10SM CLR 22/15 A3009 140 65 1000 VRB/03 RMK AO2 T02170150
53988KBKB BKB20190611004510806/11/19 00:45:31  5-MIN KBKB 110645Z AUTO VRB03KT 10SM CLR 22/14 A3009 140 63 1000 VRB/03 RMK AO2 T02170144
53988KBKB BKB20190611005011506/11/19 00:50:31  5-MIN KBKB 110650Z AUTO VRB03KT 10SM CLR 22/14 A3009 140 63 1000 VRB/03 RMK AO2 SLP215 T02170144
53988KBKB BKB20190611005510806/11/19 00:55:31  5-MIN KBKB 110655Z AUTO VRB03KT 10SM CLR 22/14 A3009 140 63 1000 VRB/03 RMK AO2 T02170144
53988KBKB BKB20190611010014806/11/19 01:00:31  5-MIN KBKB 110700Z AUTO VRB03KT 10SM CLR 21/14 A3009 140 65 900 VRB/03 RMK AO2 T0211014406/11/19 01:05:31  5/00 RMK AO2 T02060144
53988KBKB BKB20190611013010706/11/19 01:30:31  5-MIN KBKB 110730Z AUTO 00000KT 10SM CLR 21/14 A3009 140 67 900 000/00 RMK AO2 T02060144
53988KBKB BKB20190611013510706/11/19 01:35:31  5-MIN KBKB 110735Z AUTO 00000KT 10SM CLR 21/14 A3009 140 67 900 000/00 RMK AO2 T02060144
53988KBKB BKB20190611014010706/11/19 01:40:31  5-MIN KBKB 110740Z AUTO 00000KT 10SM CLR 21/14 A3009 140 67 900 000/00 RMK AO2 T02060144
53988KBKB BKB20190611014510706/11/19 01:45:31  5-MIN KBKB 110745Z AUTO 00000KT 10SM CLR 21/14 A3009 140 67 900 000/00 RMK AO2 T02060144
53988KBKB BKB20190611015011406/11/19 01:50:31  5-MIN KBKB 110750Z AUTO 00000KT 10SM CLR 21/14 A3009 140 67 900 000/00 RMK AO2 SLP214 T02060144
53988KBKB BKB20190611015510706/11/19 01:55:31  5-MIN KBKB 110755Z AUTO VRB03KT 10SM CLR 21/14 A3009 140 67 900 VRB/03 RMK AO2 T02060144
53988KBKB BKB20190611020010706/11/19 02:00:31  5-MIN KBKB 110800Z AUTO 36003KT 10SM CLR 21/14 A3009 140 67 900 360/03 RMK AO2 T02060144
53988KBKB BKB20190611020510706/11/19 02:05:31  5-MIN KBKB 110805Z AUTO VRB03KT 10SM CLR 21/14 A3009 140 67 900 VRB/03 RMK AO2 T02060144
53988KBKB BKB20190611021010706/11/19 02:10:31  5-MIN KBKB 110810Z AUTO 00000KT 10SM CLR 20/14 A3009 140 70 800 000/00 RMK AO2 T02000144
53988KBKB BKB20190611021510706/11/19 02:15:31  5-MIN KBKB 110815Z AUTO 00000KT 10SM CLR 21/14 A3009 140 65 900 000/00 RMK AO2 T02060139
53988KBKB BKB20190611022010906/11/19 02:20:31  5-MIN KBKB 110820Z AUTO 00000KT 10SM CLR 20/14 A3009 14040 67 600 VRB/03 RMK AO2 T01830122
53988KBKB BKB20190611054010706/11/19 05:40:31  5-MIN KBKB 111140Z AUTO 03004KT 10SM CLR 18/12 A3009 140 67 600 020/04 RMK AO2 T01830122
53988KBKB BKB20190611054510706/11/19 05:45:31  5-MIN KBKB 111145Z AUTO VRB04KT 10SM CLR 18/12 A3009 140 67 600 VRB/04 RMK AO2 T01830122
53988KBKB BKB20190611055013206/11/19 05:50:31  5-MIN KBKB 111150Z AUTO VRB03KT 10SM CLR 18/12 A3010 130 67 600 VRB/03 RMK AO2 SLP218 T01830122 10228 20178 55002
53988KBKB BKB20190611055510706/11/19 05:55:31  5-MIN KBKB 111155Z AUTO 02004KT 10SM CLR 19/13 A3010 140 67 700 020/04 RMK AO2 T01890128
53988KBKB BKB20190611060010706/11/19 06:00:31  5-MIN KBKB 111200Z AUTO VRB03KT 10SM CLR 19/13 A3010 140 67 700 VRB/03 RMK AO2 T01890128
53988KBKB BKB20190611060510706/11/19 06:05:31  5-MIN KBKB 111205Z AUTO 00000KT 10SM CLR 19/13 A3010 140 67 700 000/00 RMK AO2 T01890128
53988KBKB BKB20190611061013206/11/19 06:10:31  5-MIN KBKB 111210Z AUTO VRB03KT 10SM CLR 19/13 A3010 140 10SM CLR 21/13 A3010 130 61 900 VRB/03 RMK AO2 T02110133
53988KBKB BKB20190611064510706/11/19 06:45:31  5-MIN KBKB 111245Z AUTO VRB03KT 10SM CLR 19/13 A3010 130 65 700 VRB/03 RMK AO2 T01940128
53988KBKB BKB20190611065011406/11/19 06:50:31  5-MIN KBKB 111250Z AUTO 00000KT 10SM CLR 20/13 A3011 120 65 800 000/00 RMK AO2 SLP222 T02000133
53988KBKB BKB20190611065510706/11/19 06:55:31  5-MIN KBKB 111255Z AUTO VRB04KT 10SM CLR 20/13 A3011 120 63 800 VRB/04 RMK AO2 T02000128
53988KBKB BKB20190611070010706/11/19 07:00:31  5-MIN KBKB 111300Z AUTO VRB04KT 10SM CLR 20/13 A3011 120 63 800 VRB/04 RMK AO2 T02000128
53988KBKB BKB20190611070510706/11/19 07:05:31  5-MIN KBKB 111305Z AUTO VRB05KT 10SM CLR 21/13 A3011 120 60 800 VRB/05 RMK AO2 T02060128
53988KBKB BKB20190611071010706/11/19 07:10:31  5-MIN KBKB 111310Z AUTO 03004KT 10SM CLR 21/13 A3011 120 63 800 030/04 RMK AO2 T02060133
53988KBKB BKB20190611071510706/11/19 07:15:31  5-MIN KBKB 111315Z AUTO VRB04KT 10SM CLR 21/13 A3011 120 61 900 VRB/04 RMK AO2 T02110133
53988KBKB BKB20190611072010706/11/19 07:20:31  5-MIN KBKB 111320Z AUTO VRB03KT 10SM CLR 21/13 A3010 130 61 900 VRB/03 RMK AO2 T02110133
53988KBKB BKB20190611072510706/11/19 07:25:31  5-MIN KBKB 111325Z AUTO VRB04KT 10SM CLR 21/13 A3010 130 61 900 VRB/04 RMK AO2 T02110133
53988KBKB BKB20190611073010706/11/19 07:30:31  5-MIN KBKB 111330Z AUTO VRB03KT 10SM CLR 21/13 A3010 130 61 900 VRB/03 RMK AO2 T02110133
53988KBKB BKB20190611073510706/11/19 07:35:31  5-MIN KBKB 111335Z AUTO VRB04KT 10SM CLR 21/13 A3011 120 58 900 VRB/04 RMK AO2 T02110128
53988KBKB BKB20190611074010706/11/19 07:40:31  5-MIN KBKB 111340Z AUTO VRB04KT 10SM CLR 21/14 A3011 130 63 900 VRB/04 RMK AO2 T02110139
53988KBKB BKB20190611074510706/11/19 07:45:31  5-MIN KBKB 111345Z AUTO 03004KT 10SM CLR 21/13 A3011 130 61 900 030/04 RMK AO2 T02110133
53988KBKB BKB20190611075011406/11/19 07:50:31  5-MIN KBKB 111350Z AUTO VRB04KT 10SM CLR 21/13 A3011 130 61 900 VRB/04 RMK AO2 SLP221 T02110133
53988KBKB BKB20190611075510806/11/19 07:55:31  5-MIN KBKB 111355Z AUTO 03004KT 10SM CLR 22/14 A3011 130 61 1000 030/04 RMK AO2 T02170139
53988KBKB BKB20190611080010506/11/19 08:00:31  5-MIN KBKB 111400Z AUTO VRB03KT 10SM CLR 22/13 A3011 130 56 1000 VRB/03 RMK  T02720150
53988KBKB BKB20190611133510806/11/19 13:35:31  5-MIN KBKB 111935Z AUTO 00000KT 10SM CLR 27/14 A3002 210 45 1600 000/00 RMK AO2 T02670139
53988KBKB BKB20190611134010806/11/19 13:40:31  5-MIN KBKB 111940Z AUTO VRB05KT 10SM CLR 27/14 A3002 210 46 1600 VRB/05 RMK AO2 T02670144
53988KBKB BKB20190611134510806/11/19 13:45:31  5-MIN KBKB 111945Z AUTO VRB04KT 10SM CLR 27/14 A3002 210 46 1600 VRB/04 RMK AO2 T02670144
53988KBKB BKB20190611135011506/11/19 13:50:31  5-MIN KBKB 111950Z AUTO VRB03KT 10SM CLR 27/15 A3002 210 46 1700 VRB/03 RMK AO2 SLP191 T02720150
53988KBKB BKB20190611135510806/11/19 13:55:31  5-MIN KBKB 111955Z AUTO VRB05KT 10SM CLR 28/14 A3002 210 43 1800 VRB/05 RMK AO2 T02780144
53988KBKB BKB20190611140010806/11/19 14:00:31  5-MIN KBKB 112000Z AUTO VRB03KT 10SM CLR 28/14 A3002 210 42 1800 VRB/03 RMK AO2 T02780139
53988KBKB BKB20190611140510806/11/19 14:05:31  5-MIN KBKB 112005Z AUTO VRB03KT 10SM CLR 28/14 A3002 210 42 1800 VRB/03 RMK AO2 T02830144
53988KBKB BKB20190611141010806/11/19 14:10:31  5-MIN KBKB 112010Z AUTO VRB03KT 10SM CLR 27/14 A3002 210 43 1700 VRB/03 RMK AO2 T02720139
53988KBKB BKB20190611141510806/11/19 14:15:31  5-MIN KBKB 112015Z AUTO VRB03KT 10SM CLR 27/14 A3002 210 45 1600 VRB/03 RMK AO2 T02670139
53988KBKB BKB20190611142010806/11/19 14:20:31  5-MIN KBKB 112020Z AUTO 02004KT 10SM CLR 27/14 A3002 210 45 1700 020/04 RMK AO2 T02720144
53988KBKB BKB20190611142510806/11/19 14:25:31  5-MIN KBKB 112025Z AUTO VRB04KT 10SM CLR 27/13 A3001 210 43 1600 VRB/04 RMK AO2 T02670133
53988KBKB BKB20190611143010806/11/19 14:30:31  5-MIN KBKB 112030Z AUTO VRB03KT 10SM CLR 27/14 A3001 210 45 1700 VRB/03 RMK AO2 T02670139
53988KBKB BKB20190611143510806/11/19 14:35:31  5-MIN KBKB 112035Z AUTO 05004KT 10SM CLR 27/13 A3001 210 43 1700 040/04 RMK AO2 T02670133
53988KBKB BKB20190611144010806/11/19 14:40:31  5-MIN KBKB 112040Z AUTO VRB04KT 10SM CLR 27/14 A3001 210 45 1700 VRB/04 RMK AO2 T02670139
53988KBKB BKB20190611144510806/11/19 14:45:31  5-MIN KBKB 112045Z AUTO VRB03KT 10SM CLR 27/13 A3001 220 43 1700 VRB/03 RMK AO2 T02670133
53988KBKB BKB20190611145012106/11/19 14:50:31  5-MIN KBKB 112050Z AUTO VRB03KT 10SM CLR 27/13 A3001 220 43 1700 VRB/03 RMK AO2 SLP187 T02670133 57013
53988KBKB BKB20190611145510806/11/19 14:55:31  5-MIN KBKB 112055Z AUTO VRB03KT 10SM CLR 27/13 A3000 220 43 1700 VRB/03 RMK AO2 T02670133
53988KBKB BKB20190611150010806/11/19 15:00:31  5-MIN KBKB 112100Z AUTO 00000KT 10SM CLR 26/13 A3000 220 44 1600 000/00 RMK AO2 T02610133
53988KBKB BKB20190611150510806/11/19 15:05:31  5-MIN KBKB 112105Z AUTO 00000KT 10SM CLR 26/14 A3000 220 46 1600 000/00 RMK AO2 T02610139
53988KBKB BKB20190611151010806/11/19 15:10:31  5-MIN KBKB 112110Z AUTO VRB03KT 10SM CLR 27/14 A3000 220 46 1700 VRB/03 RMK AO2 T02670144
53988KBKB BKB20190611151518306/11/19 15:15:31  5-MIN KBKB 112115Z AUTO 02003KT 10SM CLR 27/14 A3000 230 45 1700 020/03 RMK AO2 T02720144020Z AUTO 00000KT 10SM CLR 25/13 A2998 240 46 1500 000/00 RMK AO2 T02500128
53988KBKB BKB20190611161010806/11/19 16:10:31  5-MIN KBKB 112210Z AUTO VRB03KT 10SM CLR 28/13 A2998 240 40 1800 VRB/03 RMK AO2 T02780133
53988KBKB BKB20190611161510806/11/19 16:15:31  5-MIN KBKB 112215Z AUTO VRB05KT 10SM CLR 28/14 A2998 240 42 1800 VRB/05 RMK AO2 T02780139
53988KBKB BKB20190611162010806/11/19 16:20:31  5-MIN KBKB 112220Z AUTO VRB03KT 10SM CLR 28/13 A2998 250 40 1800 VRB/03 RMK AO2 T02780133
53988KBKB BKB20190611162510806/11/19 16:25:31  5-MIN KBKB 112225Z AUTO VRB05KT 10SM CLR 28/13 A2997 250 40 1800 VRB/05 RMK AO2 T02780133
53988KBKB BKB20190611163010806/11/19 16:30:31  5-MIN KBKB 112230Z AUTO VRB03KT 10SM CLR 27/13 A2997 250 42 1800 VRB/03 RMK AO2 T02720133
53988KBKB BKB20190611163510806/11/19 16:35:31  5-MIN KBKB 112235Z AUTO 35004KT 10SM CLR 27/13 A2997 250 42 1800 350/04 RMK AO2 T02720133
53988KBKB BKB20190611164010806/11/19 16:40:31  5-MIN KBKB 112240Z AUTO VRB04KT 10SM CLR 27/13 A2997 250 40 1800 VRB/04 RMK AO2 T02720128
53988KBKB BKB20190611164510806/11/19 16:45:31  5-MIN KBKB 112245Z AUTO 02005KT 10SM CLR 27/13 A2997 250 40 1800 020/05 RMK AO2 T02720128
53988KBKB BKB20190611165011506/11/19 16:50:31  5-MIN KBKB 112250Z AUTO VRB04KT 10SM CLR 27/13 A2996 260 40 1800 VRB/04 RMK AO2 SLP173 T02720128
53988KBKB BKB20190611165510806/11/19 16:55:31  5-MIN KBKB 112255Z AUTO VRB04KT 10SM CLR 27/13 A2997 260 40 1800 VRB/04 RMK AO2 T02720128
53988KBKB BKB20190611170010806/11/19 17:00:31  5-MIN KBKB 112300Z AUTO VRB03KT 10SM CLR 27/12 A2997 260 39 1800 VRB/03 RMK AO2 T02720122
53988KBKB BKB20190611170510806/11/19 17:05:31  5-MIN KBKB 112305Z AUTO VRB06KT 10SM CLR 27/12 A2997 250 39 1800 VRB/06 RMK AO2 T02720122
53988KBKB BKB20190611171010806/11/19 17:10:31  5-MIN KBKB 112310Z AUTO VRB03KT 10SM CLR 27/12 A2997 260 39 1800 VRB/03 RMK AO2 T02720122
53988KBKB BKB20190611171510806/11/19 17:15:31  5-MIN KBKB 112315Z AUTO VRB04KT 10SM CLR 27/12 A2996 260 39 1800 VRB/04 RMK AO2 T02720122
53988KBKB BKB20190611172010806/11/19 17:20:31  5-MIN KBKB 112320Z AUTO VRB06KT 10SM CLR 27/12 A2996 260 38 1700 VRB/06 RMK AO2 T02670117
53988KBKB BKB20190611172510806/11/19 17:25:31  5-MIN KBKB 112325Z AUTO VRB04KT 10SM CLR 27/12 A2997 260 38 1700 VRB/04 RMK AO2 T02670117
53988KBKB BKB20190611173010806/11/19 17:30:31  5-MIN KBKB 112330Z AUTO VRB03KT 10SM CLR 27/12 A2997 250 40 1700 VRB/03 RMK AO2 T02670122
53988KBKB BKB20190611173510806/11/19 17:35:31  5-MIN KBKB 112335Z AUTO VRB06KT 10SM CLR 27/12 A2997 250 38 1700 VRB/06 RMK AO2 T02670117
53988KBKB BKB20190611174010806/11/19 17:40:31  5-MIN KBKB 112340Z AUTO 01006KT 10SM CLR 26/11 A2997 250 38 1600 010/06 RMK AO2 T02610111
53988KBKB BKB20190611174510806/11/19 17:45:31  5-MIN KBKB 112345Z AUTO VRB03KT 10SM CLR 26/11 A2997 250 38 1600 VRB/03 RMK AO2 T02610111
53988KBKB BKB20190611175013306/11/19 17:50:31  5-MIN KBKB 112350Z AUTO VRB03KT 10SM CLR 26/12 A2997 250 41 1600 VRB/03 RMK AO2 SLP176 T02560117 10283 20256 56018
53988KBKB BKB20190611175510806/11/19 17:55:31  5-MIN KBKB 112355Z AUTO VRB03KT 10SM CLR 26/12 A2997 250 43 1600 VRB/03 RMK AO2 T02560122
53988KBKB BKB20190611180010806/11/19 18:00:31  5-MIN KBKB 120000Z AUTO 00000KT 10SM CLR 26/12 A2997 250 43 1600 000/00 RMK AO2 T02560122
53988KBKB BKB20190611180510806/11/19 18:05:31  5-MIN KBKB 120005Z AUTO VRB03KT 10SM CLR 25/12 A2997 250 44 1500 VRB/03 RMK AO2 T02500122
53988KBKB BKB20190611181010806/11/19 18:10:31  5-MIN KBKB 120010Z AUTO 00000KT 10SM CLR 25/12 A2997 250 44 1500 000/00 RMK AO2 T02500122
53988KBKB BKB20190611181510806/11/19 18:15:31  5-MIN KBKB 120015Z AUTO 00000KT 10SM CLR 25/13 A2998 250 46 1500 000/00 RMK AO2 T02500128
53988KBKB BKB20190611182010806/11/19 18:20:31  5-MIN KBKB 120020Z AUTO 00000KT 10SM CLR 25/13 A2998 240 46 1500 000/00 RMK AO2 T02500128
53988KBKB BKB20190611182510806/11/19 18:25:31  5-MIN KBKB 120025Z AUTO 00000KT 10SM CLR 24/13 A2998 240 47 1400 000/00 RMK AO2 T02440128
53988KBKB BKB20190611183010806/11/19 18:30:31  5-MIN KBKB 120030Z AUTO 00000KT 10SM CLR 24/13 A2998 240 51 1400 000/00 RMK AO2 T02390133
53988KBKB BKB20190611183510806/11/19 18:35:31  5-MIN KBKB 120035Z AUTO 00000KT 10SM CLR 23/13 A2998 240 53 1300 000/00 RMK AO2 T02330133
53988KBKB BKB20190611184010806/11/19 18:40:31  5-MIN KBKB 120040Z AUTO 00000KT 10SM CLR 23/14 A2997 250 55 1300 000/00 RMK AO2 T02330139
53988KBKB BKB20190611184510806/11/19 18:45:31  5-MIN KBKB 120045Z AUTO 00000KT 10SM CLR 23/14 A2997 250 57 1300 000/00 RMK AO2 T02280139
53988KBKB BKB20190611185011506/11/19 18:50:31  5-MIN KBKB 120050Z AUTO 00000KT 10SM CLR 22/14 A2998 250 61 1200 000/00 RMK AO2 SLP176 T02220144
53988KBKB BKB20190611185510806/11/19 18:55:31  5-MIN KBKB 120055Z AUTO 00000KT 10SM CLR 22/14 A2997 250 61 1200 000/00 RMK AO2 T02220144
53988KBKB BKB20190611190010806/11/19 19:00:31  5-MIN KBKB 120100Z AUTO 00000KT 10SM CLR 22/14 A2997 250 63 1100 000/00 RMK AO2 T02170144
53988KBKB BKB20190611190510806/11/19 19:05:31  5-MIN KBKB 120105Z AUTO 00000KT 10SM CLR 22/14 A2997 250 63 1100 000/00 RMK AO2 T02170144
53988KBKB BKB20190611191010806/11/19 19:10:31  5-MIN KBKB 120110Z AUTO 00000KT 10SM CLR 21/14 A2997 260 67 1000 000/00 RMK AO2 T02060144
53988KBKB BKB20190611191510806/11/19 19:15:31  5-MIN KBKB 120115Z AUTO 00000KT 10SM CLR 21/14 A2997 260 67 1000 000/00 RMK AO2 T02060144
53988KBKB BKB20190611192010806/11/19 19:20:31  5-MIN KBKB 120120Z AUTO 00000KT 10SM CLR 21/14 A2997 250 67 1000 000/00 RMK AO2 T02060144
53988KBKB BKB20190611192510806/11/19 19:25:31  5-MIN KBKB 120125Z AUTO 00000KT 10SM CLR 21/15 A2997 250 70 1000 000/00 RMK AO2 T02060150
53988KBKB BKB20190611193010706/11/19 19:30:31  5-MIN KBKB 120130Z AUTO 00000KT 10SM CLR 20/16 A2997 250 75 900 000/00 RMK AO2 T02000156
53988KBKB BKB20190611193510706/11/19 19:35:31  5-MIN KBKB 120135Z AUTO 00000KT 10SM CLR 20/15 A2997 250 72 900 000/00 RMK AO2 T02000150
53988KBKB BKB20190611194010706/11/19 19:40:31  5-MIN KBKB 120140Z AUTO 00000KT 10SM CLR 19/15 A2997 250 75 900 000/00 RMK AO2 T01940150
53988KBKB BKB20190611194510706/11/19 19:45:31  5-MIN KBKB 120145Z AUTO 00000KT 10SM CLR 19/15 A2997 250 75 900 000/00 RMK AO2 T01940150
53988KBKB BKB20190611195011406/11/19 19:50:31  5-MIN KBKB 120150Z AUTO 00000KT 10SM CLR 19/15 A2997 250 75 900 000/00 RMK AO2 SLP177 T01940150
53988KBKB BKB20190611195510706/11/19 19:55:31  5-MIN KBKB 120155Z AUTO 00000KT 10SM CLR 19/15 A2997 250 75 900 000/00 RMK AO2 T01940150
53988KBKB BKB20190611200010706/11/19 20:00:31  5-MIN KBKB 120200Z AUTO 00000KT 10SM CLR 19/15 A2997 250 75 900 000/00 RMK AO2 T01940150
53988KBKB BKB20190611200510706/11/19 20:05:31  5-MIN KBKB 120205Z AUTO 00000KT 10SM CLR 19/15 A2997 250 78 800 000/00 RMK AO2 T01890150
53988KBKB BKB20190611201010706/11/19 20:10:31  5-MIN KBKB 120210Z AUTO 00000KT 10SM CLR 19/15 A2997 250 75 900 000/00 RMK AO2 T01940150
53988KBKB BKB20190611201510706/11/19 20:15:31  5-MIN KBKB 120215Z AUTO 00000KT 10SM CLR 19/15 A2997 250 78 800 000/00 RMK AO2 T01890150
53988KBKB BKB20190611202010706/11/19 20:20:31  5-MIN KBKB 120220Z AUTO 00000KT 10SM CLR 19/15 A2997 260 78 800 000/00 RMK AO2 T01890150
53988KBKB BKB20190611202510706/11/19 20:25:31  5-MIN KBKB 120225Z AUTO 00000KT 10SM CLR 19/15 A2997 250 78 800 000/00 RMK AO2 T01890150
53988KBKB BKB20190611203010706/11/19 20:30:31  5-MIN KBKB 120230Z AUTO 00000KT 10SM CLR 19/15 A2997 250 78 800 000/00 RMK AO2 T01890150
53988KBKB BKB20190611203510706/11/19 20:35:31  5-MIN KBKB 120235Z AUTO 00000KT 10SM CLR 19/16 A2997 250 81 800 000/00 RMK AO2 T01890156
53988KBKB BKB20190611204010706/11/19 20:40:31  5-MIN KBKB 120240Z AUTO 00000KT 10SM CLR 19/16 A2998 250 81 800 000/00 RMK AO2 T01890156
53988KBKB BKB20190611204510706/11/19 20:45:31  5-MIN KBKB 120245Z AUTO 00000KT 10SM CLR 19/16 A2998 250 84 800 000/00 RMK AO2 T01890161
53988KBKB BKB20190611205012006/11/19 20:50:31  5-MIN KBKB 120250Z AUTO 00000KT 10SM CLR 19/16 A2998 240 84 800 000/00 RMK AO2 SLP177 T01890161 55010
53988KBKB BKB20190611205510706/11/19 20:55:31  5-MIN KBKB 120255Z AUTO 00000KT 10SM CLR 19/17 A2998 240 87 800 000/00 RMK AO2 T01890167
53988KBKB BKB20190611210010706/11/19 21:00:31  5-MIN KBKB 120300Z AUTO 00000KT 10SM CLR 19/16 A2998 240 84 800 000/00 RMK AO2 T01890161
53988KBKB BKB20190611210510706/11/19 21:05:31  5-MIN KBKB 120305Z AUTO 00000KT 10SM CLR 19/17 A2999 240 87 800 000/00 RMK AO2 T01890167
53988KBKB BKB20190611211010706/11/19 21:10:31  5-MIN KBKB 120310Z AUTO 00000KT 10SM CLR 19/17 A2999 230 87 800 000/00 RMK AO2 T01890167
53988KBKB BKB20190611211510706/11/19 21:15:31  5-MIN KBKB 120315Z AUTO 00000KT 10SM CLR 19/16 A2999 230 84 800 000/00 RMK AO2 T01890161
53988KBKB BKB20190611212010706/11/19 21:20:31  5-MIN KBKB 120320Z AUTO 00000KT 10SM CLR 19/17 A2999 230 87 800 000/00 RMK AO2 T01890167
53988KBKB BKB20190611212510706/11/19 21:25:31  5-MIN KBKB 120325Z AUTO 00000KT 10SM CLR 19/17 A2999 230 87 800 000/00 RMK AO2 T01890167
53988KBKB BKB20190611213010706/11/19 21:30:31  5-MIN KBKB 120330Z AUTO 00000KT 10SM CLR 19/16 A2999 230 84 800 000/00 RMK AO2 T01890161
53988KBKB BKB20190611213510706/11/19 21:35:31  5-MIN KBKB 120335Z AUTO 00000KT 10SM CLR 19/16 A2999 240 84 800 000/00 RMK AO2 T01890161
53988KBKB BKB20190611214010706/11/19 21:40:31  5-MIN KBKB 120340Z AUTO 00000KT 10SM CLR 19/16 A2999 240 84 800 000/00 RMK AO2 T01890161
53988KBKB BKB20190611214510706/11/19 21:45:31  5-MIN KBKB 120345Z AUTO 00000KT 10SM CLR 19/16 A2999 240 84 800 000/00 RMK AO2 T01890161
53988KBKB BKB20190611215011406/11/19 21:50:31  5-MIN KBKB 120350Z AUTO 00000KT 10SM CLR 19/16 A2999 240 84 800 000/00 RMK AO2 SLP181 T01890161
53988KBKB BKB20190611215510706/11/19 21:55:31  5-MIN KBKB 120355Z AUTO 00000KT 10SM CLR 19/16 A2999 230 81 800 000/00 RMK AO2 T01890156
53988KBKB BKB20190611220010706/11/19 22:00:31  5-MIN KBKB 120400Z AUTO 00000KT 10SM CLR 19/16 A2999 230 84 800 000/00 RMK AO2 T01890161
53988KBKB BKB20190611220510706/11/19 22:05:31  5-MIN KBKB 120405Z AUTO 00000KT 10SM CLR 19/16 A2999 230 84 800 000/00 RMK AO2 T01890161
53988KBKB BKB20190611221010706/11/19 22:10:31  5-MIN KBKB 120410Z AUTO 00000KT 10SM CLR 19/16 A2999 240 84 800 000/00 RMK AO2 T01890161
53988KBKB BKB20190611221510706/11/19 22:15:31  5-MIN KBKB 120415Z AUTO 00000KT 10SM CLR 19/16 A2999 230 84 800 000/00 RMK AO2 T01890161
53988KBKB BKB20190611222010706/11/19 22:20:31  5-MIN KBKB 120420Z AUTO 00000KT 10SM CLR 19/16 A2999 230 84 800 000/00 RMK AO2 T01890161
53988KBKB BKB20190611222510706/11/19 22:25:31  5-MIN KBKB 120425Z AUTO 00000KT 10SM CLR 19/16 A2999 230 81 800 000/00 RMK AO2 T01940161
53988KBKB BKB20190611223010706/11/19 22:30:31  5-MIN KBKB 120430Z AUTO 00000KT 10SM CLR 19/16 A2999 230 81 800 000/00 RMK AO2 T01940161
53988KBKB BKB20190611223510706/11/19 22:35:31  5-MIN KBKB 120435Z AUTO 00000KT 10SM CLR 19/17 A2999 230 84 800 000/00 RMK AO2 T01940167
53988KBKB BKB20190611224010706/11/19 22:40:31  5-MIN KBKB 120440Z AUTO 00000KT 10SM CLR 19/16 A2999 240 84 800 000/00 RMK AO2 T01890161
53988KBKB BKB20190611224510706/11/19 22:45:31  5-MIN KBKB 120445Z AUTO 00000KT 10SM CLR 19/17 A2999 240 87 800 000/00 RMK AO2 T01890167
53988KBKB BKB20190611225011406/11/19 22:50:31  5-MIN KBKB 120450Z AUTO 00000KT 10SM CLR 19/16 A2998 240 81 900 000/00 RMK AO2 SLP180 T01940161
53988KBKB BKB20190611225515506/11/19 22:55:31  5-MIN KBKB 120455Z AUTO 00000KT 10SM CLR 19/16 A2998 240 78 900 000/00 RMK M CLR 21/13 A2996 260 63 1000 000/00 RMK AO2 SLP170 T02060133
53988KBKB BKB20190612005510806/12/19 00:55:31  5-MIN KBKB 120655Z AUTO 00000KT 10SM CLR 21/13 A2996 260 60 1000 000/00 RMK AO2 T02060128
53988KBKB BKB20190612010010706/12/19 01:00:31  5-MIN KBKB 120700Z AUTO 00000KT 10SM CLR 20/14 A2997 260 67 900 000/00 RMK AO2 T02000139
53988KBKB BKB20190612010510706/12/19 01:05:31  5-MIN KBKB 120705Z AUTO 00000KT 10SM CLR 20/14 A2997 250 67 900 000/00 RMK AO2 T02000139
53988KBKB BKB20190612011010706/12/19 01:10:31  5-MIN KBKB 120710Z AUTO 00000KT 10SM CLR 20/15 A2997 260 72 900 000/00 RMK AO2 T02000150
53988KBKB BKB20190612011510706/12/19 01:15:31  5-MIN KBKB 120715Z AUTO 02004KT 10SM CLR 20/13 A2996 260 65 900 020/04 RMK AO2 T02000133
53988KBKB BKB20190612011517106/12/19 01:15:31  5-MIN KBKB 120715Z AUTO 02004KT 10SM CLR 20/13 A2996 260 65 900 020/04 RMK AO2 T0200013306/12/19 01:20R 21/13 A2996 260 60 1000 000/00 RMK AO2 T02060128
53988KBKB BKB20190612012010706/12/19 01:20:31  5-MIN KBKB 120720Z AUTO 00000KT 10SM CLR 19/14 A2996 260 70 900 000/00 RMK AO2 T01940139
53988KBKB BKB20190612012510806/12/19 01:25:31  5-MIN KBKB 120725Z AUTO 00000KT 10SM CLR 21/13 A2997 250 60 1000 000/00 RMK AO2 T02060128
53988KBKB BKB20190612012517106/12/19 01:25:31  5-MIN KBKB 120725Z AUTO 00000KT 10SM CLR 21/13 A2997 250 60 1000 000/00 RMK AO2 T0206012806/12/110SM CLR 20/14 A2997 250 67 900 000/00 RMK AO2 T02000139
53988KBKB BKB20190612013010806/12/19 01:30:31  5-MIN KBKB 120730Z AUTO 00000KT 10SM CLR 21/13 A2997 250 63 1000 000/00 RMK AO2 T02060133
53988KBKB BKB20190612013017106/12/19 01:30:31  5-MIN KBKB 120730Z AUTO 00000KT 10SM CL6/12/19 03:50:31  5-MIN KBKB 120950Z AUTO 00000KT 10SM CLR 18/15 A2997 260 81 700 000/00 RMK AO2 SLP173 T01830150
53988KBKB BKB20190612013516906/12/19 01:35:31  5-MIN KBKB 120735Z AUTO 00000KT 10SM CLR 19/14 A2997 260 72 900 000/00 RMK AO2 T0194014406/12/19 01:40:31  3 A2996 260 65 900 020/04 RMK AO2 T02000133
53988KBKB BKB20190612030510706/12/19 03:05:31  5-MIN KBKB 120905Z AUTO 00000KT 10SM CLR 18/15 A2997 250 81 700 000/00 RMK AO2 T01830150
53988KBKB BKB20190612031010706/12/19 03:10:31  5-MIN KBKB 120910Z AUTO 00000KT 10SM CLR 18/15 A2997 250 81 700 000/00 RMK AO2 T01830150
53988KBKB BKB20190612031510706/12/19 03:15:31  5-MIN KBKB 120915Z AUTO 00000KT 10SM CLR 18/15 A2997 260 81 700 000/00 RMK AO2 T01830150
53988KBKB BKB20190612032010706/12/19 03:20:31  5-MIN KBKB 120920Z AUTO 00000KT 10SM CLR 18/16 A2997 260 84 700 000/00 RMK AO2 T01830156
53988KBKB BKB20190612032510706/12/19 03:25:31  5-MIN KBKB 120925Z AUTO 00000KT 10SM CLR 18/15 A2997 250 81 700 000/00 RMK AO2 T01830150
53988KBKB BKB20190612033010706/12/19 03:30:31  5-MIN KBKB 120930Z AUTO 00000KT 10SM CLR 18/16 A2997 250 84 700 000/00 RMK AO2 T01830156
53988KBKB BKB20190612033510706/12/19 03:35:31  5-MIN KBKB 120935Z AUTO 00000KT 10SM CLR 18/15 A2997 250 81 700 000/00 RMK AO2 T01830150
53988KBKB BKB20190612034010706/12/19 03:40:31  5-MIN KBKB 120940Z AUTO 00000KT 10SM CLR 18/15 A2997 260 81 700 000/00 RMK AO2 T01830150
53988KBKB BKB20190612034510706/12/19 03:45:31  5-MIN KBKB 120945Z AUTO 00000KT 10SM CLR 18/15 A2997 250 81 700 000/00 RMK AO2 T01830150
53988KBKB BKB20190612035011406/12/19 03:50:31  5-MIN KBKB 120950Z AUTO 00000KT 10SM CLR 18/15 A2997 260 81 700 000/00 RMK AO2 SLP173 T01830150
53988KBKB BKB20190612035510706/12/19 03:55:31  5-MIN KBKB 120955Z AUTO 00000KT 10SM CLR 18/14 A2996 260 81 700 000/00 RMK AO2 T01780144
53988KBKB BKB20190612040010706/12/19 04:00:31  5-MIN KBKB 121000Z AUTO 00000KT 10SM CLR 18/15 A2996 260 83 700 000/00 RMK AO2 T01780150
53988KBKB BKB20190612040510706/12/19 04:05:31  5-MIN KBKB 121005Z AUTO 00000KT 10SM CLR 18/14 A2996 260 81 700 000/00 RMK AO2 T01780144
53988KBKB BKB20190612041010706/12/19 04:10:31  5-MIN KBKB 121010Z AUTO 00000KT 10SM CLR 18/14 A2996 260 81 700 000/00 RMK AO2 T01780144
53988KBKB BKB20190612041510706/12/19 04:15:31  5-MIN KBKB 121015Z AUTO 00000KT 10SM CLR 18/14 A2996 260 81 700 000/00 RMK AO2 T01780144
53988KBKB BKB20190612042010706/12/19 04:20:31  5-MIN KBKB 121020Z AUTO 00000KT 10SM CLR 17/14 A2996 270 83 600 000/00 RMK AO2 T01720144
53988KBKB BKB20190612042510706/12/19 04:25:31  5-MIN KBKB 121025Z AUTO 00000KT 10SM CLR 17/14 A2995 270 83 600 000/00 RMK AO2 T01720144
53988KBKB BKB20190612043010706/12/19 04:30:31  5-MIN KBKB 121030Z AUTO 00000KT 10SM CLR 17/14 A2996 260 83 600 000/00 RMK AO2 T01720144
53988KBKB BKB20190612043510706/12/19 04:35:31  5-MIN KBKB 121035Z AUTO 00000KT 10SM CLR 17/15 A2996 270 87 600 000/00 RMK AO2 T01720150
53988KBKB BKB20190612044010706/12/19 04:40:31  5-MIN KBKB 121040Z AUTO 00000KT 10SM CLR 17/14 A2995 270 83 600 000/00 RMK AO2 T01720144
53988KBKB BKB20190612044510706/12/19 04:45:31  5-MIN KBKB 121045Z AUTO 00000KT 10SM CLR 17/14 A2995 270 83 600 000/00 RMK AO2 T01720144
53988KBKB BKB20190612045011406/12/19 04:50:31  5-MIN KBKB 121050Z AUTO 00000KT 10SM CLR 17/14 A2995 270 86 600 000/00 RMK AO2 SLP168 T01670144
53988KBKB BKB20190612045510706/12/19 04:55:31  5-MIN KBKB 121055Z AUTO 00000KT 10SM CLR 17/14 A2995 270 83 600 000/00 RMK AO2 T01720144
53988KBKB BKB20190612050010706/12/19 05:00:31  5-MIN KBKB 121100Z AUTO 00000KT 10SM CLR 17/14 A2995 270 86 600 000/00 RMK AO2 T01670144
53988KBKB BKB20190612050510706/12/19 05:05:31  5-MIN KBKB 121105Z AUTO 00000KT 10SM CLR 17/14 A2994 280 86 600 000/00 RMK AO2 T01670144
53988KBKB BKB20190612051010706/12/19 05:10:31  5-MIN KBKB 121110Z AUTO 00000KT 10SM CLR 17/14 A2994 280 86 600 000/00 RMK AO2 T01670144
53988KBKB BKB20190612051510706/12/19 05:15:31  5-MIN KBKB 121115Z AUTO 00000KT 10SM CLR 17/14 A2994 280 86 600 000/00 RMK AO2 T01670144
53988KBKB BKB20190612052010706/12/19 05:20:31  5-MIN KBKB 121120Z AUTO 00000KT 10SM CLR 16/14 A2994 280 90 500 000/00 RMK AO2 T01610144
53988KBKB BKB20190612052510706/12/19 05:25:31  5-MIN KBKB 121125Z AUTO 00000KT 10SM CLR 16/14 A2994 280 90 500 000/00 RMK AO2 T01610144
53988KBKB BKB20190612053010706/12/19 05:30:31  5-MIN KBKB 121130Z AUTO 00000KT 10SM CLR 16/14 A2994 280 90 500 000/00 RMK AO2 T01610144
53988KBKB BKB20190612053510706/12/19 05:35:31  5-MIN KBKB 121135Z AUTO 00000KT 10SM CLR 17/14 A2994 280 86 600 000/00 RMK AO2 T01670144
53988KBKB BKB20190612054010706/12/19 05:40:31  5-MIN KBKB 121140Z AUTO 00000KT 10SM CLR 17/14 A2994 280 83 600 000/00 RMK AO2 T01670139
53988KBKB BKB20190612054510706/12/19 05:45:31  5-MIN KBKB 121145Z AUTO 00000KT 10SM CLR 17/14 A2993 280 86 600 000/00 RMK AO2 T01670144
53988KBKB BKB20190612055013206/12/19 05:50:31  5-MIN KBKB 121150Z AUTO 00000KT 10SM CLR 17/14 A2993 290 86 600 000/00 RMK AO2 SLP162 T01670144 10211 20161 53001
53988KBKB BKB20190612055506306/12/19 05:55:31  5-MIN KBKB 121155Z AUTO M M M M /M RMK AO2 $
53988KBKB BKB20190612060010006/12/19 06:00:31  5-MIN KBKB 121200Z AUTO 00000KT 17/15 A2994 280 90 600 000/00 RMK AO2 T01670150 $
53988KBKB BKB20190612060510506/12/19 06:05:31  5-MIN KBKB 121205Z AUTO 00000KT 10SM 17/16 A2994 280 90 600 000/00 RMK AO2 T01720156 $
53988KBKB BKB20190612061010506/12/19 06:10:31  5-MIN KBKB 121210Z AUTO 00000KT 10SM 17/16 A2994 280 90 600 000/00 RMK AO2 T01720156 $
53988KBKB BKB20190612061510506/12/19 06:15:31  5-MIN KBKB 121215Z AUTO 00000KT 10SM 17/16 A2995 270 90 600 000/00 RMK AO2 T01720156 $
53988KBKB BKB20190612062010506/12/19 06:20:31  5-MIN KBKB 121220Z AUTO 00000KT 10SM 18/16 A2995 270 87 800 000/00 RMK AO2 T01830161 $
53988KBKB BKB20190612062510906/12/19 06:25:31  5-MIN KBKB 121225Z AUTO 00000KT 10SM CLR 19/16 A2995 270 84 800 000/00 RMK AO2 T01890161 $
53988KBKB BKB20190612063010906/12/19 06:30:31  5-MIN KBKB 121230Z AUTO 00000KT 10SM CLR 19/16 A2994 280 84 800 000/00 RMK AO2 T01890161 $
53988KBKB BKB20190612063510906/12/19 06:35:31  5-MIN KBKB 121235Z AUTO 00000KT 10SM CLR 19/16 A2994 280 81 900 000/00 RMK AO2 T01940161 $
53988KBKB BKB20190612064011006/12/19 06:40:31  5-MIN KBKB 121240Z AUTO 00000KT 10SM CLR 20/16 A2994 280 78 1000 000/00 RMK AO2 T02000161 $
53988KBKB BKB20190612064511006/12/19 06:45:31  5-MIN KBKB 121245Z AUTO 00000KT 10SM CLR 21/16 A2994 280 75 1000 000/00 RMK AO2 T02060161 $
53988KBKB BKB20190612065011706/12/19 06:50:31  5-MIN KBKB 121250Z AUTO 00000KT 10SM CLR 21/15 A2994 280 68 1100 000/00 RMK AO2 SLP165 T02110150 $
53988KBKB BKB20190612065511006/12/19 06:55:31  5-MIN KBKB 121255Z AUTO 00000KT 10SM CLR 22/15 A2995 270 65 1200 000/00 RMK AO2 T02170150 $
53988KBKB BKB20190612070011006/12/19 07:00:31  5-MIN KBKB 121300Z AUTO 00000KT 10SM CLR 22/15 A2995 270 63 1200 000/00 RMK AO2 T02220150 $
53988KBKB BKB20190612070511006/12/19 07:05:31  5-MIN KBKB 121305Z AUTO 00000KT 10SM CLR 23/14 A2995 270 59 1300 000/00 RMK AO2 T02280144 $
53988KBKB BKB20190612071011706/12/19 07:10:31  5-MIN KBKB 121310Z AUTO 00000KT 10SM CLR 23/14 A2996 260 57 1300 000/00 RMK AO2 PRESRR T02280139 $
53988KBKB BKB20190612071511006/12/19 07:15:31  5-MIN KBKB 121315Z AUTO 00000KT 10SM CLR 23/13 A2997 260 55 1300 000/00 RMK AO2 T02280133 $
53988KBKB BKB20190612072011006/12/19 07:20:31  5-MIN KBKB 121320Z AUTO 00000KT 10SM CLR 23/13 A2997 250 51 1300 000/00 RMK AO2 T02330128 $
53988KBKB BKB20190612072511006/12/19 07:25:31  5-MIN KBKB 121325Z AUTO 00000KT 10SM CLR 23/14 A2997 250 57 1300 000/00 RMK AO2 T02330144 $
53988KBKB BKB20190612073011006/12/19 07:30:31  5-MIN KBKB 121330Z AUTO 00000KT 10SM CLR 23/13 A2997 250 53 1300 000/00 RMK AO2 T02330133 $
53988KBKB BKB20190612073511006/12/19 07:35:31  5-MIN KBKB 121335Z AUTO 00000KT 10SM CLR 23/13 A2997 250 51 1300 000/00 RMK AO2 T02330128 $
53988KBKB BKB20190612074011006/12/19 07:40:31  5-MIN KBKB 121340Z AUTO 00000KT 10SM CLR 24/13 A2997 250 49 1400 000/00 RMK AO2 T02390128 $
53988KBKB BKB20190612074511006/12/19 07:45:31  5-MIN KBKB 121345Z AUTO 00000KT 10SM CLR 24/13 A2997 250 49 1400 000/00 RMK AO2 T02390128 $
53988KBKB BKB20190612075011706/12/19 07:50:31  5-MIN KBKB 121350Z AUTO 00000KT 10SM CLR 24/13 A2997 260 47 1400 000/00 RMK AO2 SLP173 T02440128 $
53988KBKB BKB20190612075511006/12/19 07:55:31  5-MIN KBKB 121355Z AUTO 00000KT 10SM CLR 24/12 A2996 260 46 1500 000/00 RMK AO2 T02440122 $
53988KBKB BKB20190612080011006/12/19 08:00:31  5-MIN KBKB 121400Z AUTO 00000KT 10SM CLR 25/12 A2996 260 43 1500 000/00 RMK AO2 T02500117 $
53988KBKB BKB20190612080511006/12/19 08:05:31  5-MIN KBKB 121405Z AUTO 00000KT 10SM CLR 25/12 A2997 260 43 1500 000/00 RMK AO2 T02500117 $
53988KBKB BKB20190612081014906/12/19 08:10:31  5-MIN KBKB 121410Z AUTO VRB03KT 10SM CLR 25/12 A2998 250 43 1500RB03KT 10SM CLR 28/13 A2998 240 40 1800 VRB/03 RMK AO2 T02780133 $
53988KBKB BKB20190612102011006/12/19 10:20:31  5-MIN KBKB 121620Z AUTO 00000KT 10SM CLR 27/12 A2998 240 40 1700 000/00 RMK AO2 T02670122 $
53988KBKB BKB20190612102511006/12/19 10:25:31  5-MIN KBKB 121625Z AUTO VRB03KT 10SM CLR 28/13 A2998 240 40 1800 VRB/03 RMK AO2 T02780133 $
53988KBKB BKB20190612103011006/12/19 10:30:31  5-MIN KBKB 121630Z AUTO 00000KT 10SM CLR 28/13 A2998 240 39 1800 000/00 RMK AO2 T02780128 $
53988KBKB BKB20190612103511006/12/19 10:35:31  5-MIN KBKB 121635Z AUTO 00000KT 10SM CLR 28/13 A2998 240 39 1900 000/00 RMK AO2 T02830133 $
53988KBKB BKB20190612103516406/12/19 10:35:31  5-MIN KBKB 121635Z AUTO 00000KT 10SM CLR 28/13 A2998 240 39 1900 000/00 RMK AO2 KT 10SM FEW110 27/13 A2998 240 40 1700 000/00 RMK AO2 T02720128 $
53988KBKB BKB20190612104011006/12/19 10:40:31  5-MIN KBKB 121640Z AUTO VRB05KT 10SM CLR 28/13 A2998 240 39 1800 VRB/05 RMK AO2 T02780128 $
53988KBKB BKB20190612104511006/12/19 10:45:31  5-MIN KBKB 121645Z AUTO VRB03KT 10SM CLR 28/13 A2998 250 39 1800 VRB/03 RMK AO2 T02780128 $
53988KBKB BKB20190612104516206/12/19 10:45:31  5-MIN KBKB 121645Z AUTO VRB03KT 10SM CLR 28/13 A2998 250 39 1800 VRB/03 RMK AO2 T02780128 $0 28/13 A2998 240 40 1800 VRB/03 RMK AO2 T02780133 $
53988KBKB BKB20190612105011706/12/19 10:50:31  5-MIN KBKB 121650Z AUTO VRB03KT 10SM CLR 28/13 A2998 250 39 1900 VRB/03 RMK AO2 SLP177 T02830133 $
53988KBKB BKB20190612105511006/12/19 10:55:31  5-MIN KBKB 121655Z AUTO VRB03KT 10SM CLR 28/13 A2997 250 37 1900 VRB/03 RMK AO2 T02830128 $
53988KBKB BKB20190612105515506/12/19 10:55:31  5-MIN KBKB 121655Z AUTO VRB03KT 10SM CLR 28/13 A2997 250 37 1900 VRB/03 RMK AO2 T02830128 $ A2998 240 39 1900 000/00 RMK AO2 T02830133 $
53988KBKB BKB20190612110012406/12/19 11:00:31  5-MIN KBKB 121700Z AUTO VRB03KT 10SM CLR 28/12 A2997 260 36 18 A2993 290 29 2200 M /M RMK AO2 T03060111 $
53988KBKB BKB20190612132011006/12/19 13:20:31  5-MIN KBKB 121920Z AUTO VRB04KT 10SM CLR 31/12 A2993 290 30 2200 VRB/04 RMK AO2 T03060117 $
53988KBKB BKB20190612132511006/12/19 13:25:31  5-MIN KBKB 121925Z AUTO VRB05KT 10SM CLR 30/12 A2993 290 33 2100 VRB/05 RMK AO2 T03000122 $
53988KBKB BKB20190612133011006/12/19 13:30:31  5-MIN KBKB 121930Z AUTO 00000KT 10SM CLR 30/12 A2993 290 33 2100 000/00 RMK AO2 T03000122 $
53988KBKB BKB20190612133511006/12/19 13:35:31  5-MIN KBKB 121935Z AUTO 00000KT 10SM CLR 30/12 A2993 290 31 2100 000/00 RMK AO2 T03000117 $
53988KBKB BKB20190612134010806/12/19 13:40:31  5-MIN KBKB 121940Z AUTO VRB04KT 10SM CLR 31/13 A2993 290 33 2200 VRB/04 RMK AO2 T03060128
53988KBKB BKB20190612134510806/12/19 13:45:31  5-MIN KBKB 121945Z AUTO VRB03KT 10SM CLR 31/12 A2993 290 30 2200 VRB/03 RMK AO2 T03060117
53988KBKB BKB20190612135011506/12/19 13:50:31  5-MIN KBKB 121950Z AUTO 00000KT 10SM CLR 31/11 A2993 290 29 2200 000/00 RMK AO2 SLP158 T03060111
53988KBKB BKB20190612135016606/12/19 13:50:31  5-MIN KBKB 121950Z AUTO 00000KT 10SM CLR 31/11 A2993 290 29 2200 000/00 RMK AO2 SLP158 T0306011106/12/1A2993 290 33 2100 000/00 RMK AO2 T03000122 $
53988KBKB BKB20190612135510806/12/19 13:55:31  5-MIN KBKB 121955Z AUTO VRB03KT 10SM CLR 30/12 A2992 300 31 2100 VRB/03 RMK AO2 T03000117
53988KBKB BKB20190612140009206/12/19 14:00:31  5-MIN KBKB 122000ZSM CLR 31/13 A2992 300 32 2300 VRB/03 RMK AO2 T03110128
53988KBKB BKB20190612140510806/12/19 14:05:31  5-MIN KBKB 122005Z AUTO VRB04KT 10SM CLR 31/12 A2992 300 32 2200 VRB/04 RMK AO2 T03060122
53988KBKB BKB20190612141010806/12/19 14:10:31  5-MIN KBKB 122010Z AUTO VRB03KT 10SM CLR 31/13 A2992 300 33 2200 VRB/03 RMK AO2 T03110133
53988KBKB BKB20190612141510806/12/19 14:15:31  5-MIN KBKB 122015Z AUTO VRB04KT 10SM CLR 31/13 A2992 300 33 2200 VRB/04 RMK AO2 T03110133
53988KBKB BKB20190612142010806/12/19 14:20:31  5-MIN KBKB 122020Z AUTO VRB04KT 10SM CLR 32/13 A2992 300 32 2300 VRB/04 RMK AO2 T03170133
53988KBKB BKB20190612142510806/12/19 14:25:31  5-MIN KBKB 122025Z AUTO VRB03KT 10SM CLR 31/13 A2992 300 32 2300 VRB/03 RMK AO2 T03110128
53988KBKB BKB20190612143010806/12/19 14:30:31  5-MIN KBKB 122030Z AUTO VRB04KT 10SM CLR 31/13 A2992 300 32 2200 VRB/04 RMK AO2 T03110128
53988KBKB BKB20190612143510806/12/19 14:35:31  5-MIN KBKB 122035Z AUTO 00000KT 10SM CLR 31/12 A2992 300 31 2300 000/00 RMK AO2 T03110122
53988KBKB BKB20190612144010806/12/19 14:40:31  5-MIN KBKB 122040Z AUTO VRB03KT 10SM CLR 31/12 A2992 300 31 2300 VRB/03 RMK AO2 T03110122
53988KBKB BKB20190612144510806/12/19 14:45:31  5-MIN KBKB 122045Z AUTO VRB03KT 10SM CLR 31/13 A2992 300 32 2300 VRB/03 RMK AO2 T03110128
53988KBKB BKB20190612145012106/12/19 14:50:31  5-MIN KBKB 122050Z AUTO VRB03KT 10SM CLR 31/13 A2992 300 32 2300 VRB/03 RMK AO2 SLP155 T03110128 58016
53988KBKB BKB20190612145510806/12/19 14:55:31  5-MIN KBKB 122055Z AUTO VRB03KT 10SM CLR 31/13 A2991 310 32 2300 VRB/03 RMK AO2 T03110128
53988KBKB BKB20190612150010806/12/19 15:00:31  5-MIN KBKB 122100Z AUTO VRB03KT 10SM CLR 31/13 A2991 310 33 2300 VRB/03 RMK AO2 T03110133
53988KBKB BKB20190612150510806/12/19 15:05:31  5-MIN KBKB 122105Z AUTO VRB04KT 10SM CLR 31/13 A2991 310 32 2300 VRB/04 RMK AO2 T03110128
53988KBKB BKB20190612151010806/12/19 15:10:31  5-MIN KBKB 122110Z AUTO VRB04KT 10SM CLR 32/13 A2992 300 32 2300 VRB/04 RMK AO2 T03170133
53988KBKB BKB20190612151509806/12/19 15:15:31  5-MIN KBKB 122115Z AUTO 10SM CLR 32/12 A2992 300 30 2300 M /M RMK AO2 T03170122
53988KBKB BKB20190612152010806/12/19 15:20:31  5-MIN KBKB 122120Z AUTO 09003KT 10SM CLR 32/12 A2992 300 30 2300 090/03 RMK AO2 T03170122
53988KBKB BKB20190612152510806/12/19 15:25:31  5-MIN KBKB 122125Z AUTO VRB04KT 10SM CLR 32/13 A2991 300 31 2300 VRB/04 RMK AO2 T03170128
53988KBKB BKB20190612153010806/12/19 15:30:31  5-MIN KBKB 122130Z AUTO 00000KT 10SM CLR 32/13 A2991 310 31 2300 000/00 RMK AO2 T03170128
53988KBKB BKB20190612153510806/12/19 15:35:31  5-MIN KBKB 122135Z AUTO VRB04KT 10SM CLR 32/12 A2991 310 30 2300 VRB/04 RMK AO2 T03170122
53988KBKB BKB20190612154010806/12/19 15:40:31  5-MIN KBKB 122140Z AUTO 00000KT 10SM CLR 32/13 A2991 310 31 2300 000/00 RMK AO2 T03170128
53988KBKB BKB20190612154510806/12/19 15:45:31  5-MIN KBKB 122145Z AUTO VRB03KT 10SM CLR 32/13 A2991 300 31 2300 VRB/03 RMK AO2 T03170128
53988KBKB BKB20190612155011506/12/19 15:50:31  5-MIN KBKB 122150Z AUTO VRB03KT 10SM CLR 31/12 A2991 310 29 2300 VRB/03 RMK AO2 SLP154 T03110117
53988KBKB BKB20190612155510806/12/19 15:55:31  5-MIN KBKB 122155Z AUTO 00000KT 10SM CLR 32/12 A2991 310 30 2300 000/00 RMK AO2 T03170122
53988KBKB BKB20190612160010806/12/19 16:00:31  5-MIN KBKB 122200Z AUTO VRB03KT 10SM CLR 31/12 A2991 310 31 2300 VRB/03 RMK AO2 T03110122
53988KBKB BKB20190612160510806/12/19 16:05:31  5-MIN KBKB 122205Z AUTO VRB03KT 10SM CLR 31/13 A2991 310 32 2300 VRB/03 RMK AO2 T03110128
53988KBKB BKB20190612161015206/12/19 16:10:31  5-MIN KBKB 122210Z AUTO 00000KT 10SM CLR 31/13 A2991 310 32 2300 000/00 RMK AO2 T0311012806/12/19 10 43 2000 000/00 RMK AO2 T02830150
53988KBKB BKB20190612180510806/12/19 18:05:31  5-MIN KBKB 130005Z AUTO 00000KT 10SM CLR 28/15 A2990 310 43 2000 000/00 RMK AO2 T02830150
53988KBKB BKB20190612181010806/12/19 18:10:31  5-MIN KBKB 130010Z AUTO 00000KT 10SM CLR 28/14 A2991 310 42 2000 000/00 RMK AO2 T02830144
53988KBKB BKB20190612181510806/12/19 18:15:31  5-MIN KBKB 130015Z AUTO 00000KT 10SM CLR 28/15 A2991 310 45 1900 000/00 RMK AO2 T02780150
53988KBKB BKB20190612182010806/12/19 18:20:31  5-MIN KBKB 130020Z AUTO 00000KT 10SM CLR 28/14 A2991 310 43 1900 000/00 RMK AO2 T02780144
53988KBKB BKB20190612182510806/12/19 18:25:31  5-MIN KBKB 130025Z AUTO 00000KT 10SM CLR 27/15 A2991 310 46 1800 000/00 RMK AO2 T02720150
53988KBKB BKB20190612183007506/12/19 18:30:31  5-MIN KBKB 130030Z AUTO 00000KT 10SM CLR 27/16 A2991 310
53988KBKB BKB20190612183010806/12/19 18:30:31  5-MIN KBKB 130030Z AUTO 00000KT 10SM CLR 27/16 A2991 310 48 1800 000/00 RMK AO2 T02720156
53988KBKB BKB20190612183510806/12/19 18:35:31  5-MIN KBKB 130035Z AUTO 00000KT 10SM CLR 27/16 A2991 300 48 1800 000/00 RMK AO2 T02720156
53988KBKB BKB20190612183517206/12/19 18:35:31  5-MIN KBKB 130035Z AUTO 00000KT 10SM CLR 27/16 A2991 300:15:31  5-MIN KBKB 130015Z AUTO 00000KT 10SM CLR 28/15 A2991 310 45 1900 000/00 RMK AO2 T02780150
53988KBKB BKB20190612184010806/12/19 18:40:31  5-MIN KBKB 130040Z AUTO 00000KT 10SM CLR 27/16 A2992 300 48 1800 000/00 RMK AO2 T02720156
53988KBKB BKB20190612184507806/12/19 18:45:31  5-MIN KBKB 130045Z AUTO 00000KT 10S000/00 RMK AO2 T01890161
53988KBKB BKB20190612184510806/12/19 18:45:31  5-MIN KBKB 130045Z AUTO 00000KT 10SM CLR 27/16 A2992 300 52 1800 000/00 RMK AO2 T02670161
53988KBKB BKB20190612185011506/12/19 18:50:31  5-MIN KBKB 130050Z AUTO 00000KT 10SM CLR 26/16 A2992 300 53 1700 000/00 RMK AO2 SLP157 T02610161
53988KBKB BKB20190612185510806/12/19 18:55:31  5-MIN KBKB 130055Z AUTO 00000KT 10SM CLR 26/17 A2992 300 55 1700 000/00 RMK AO2 T02610167
53988KBKB BKB20190612190010806/12/19 19:00:31  5-MIN KBKB 130100Z AUTO 00000KT 10SM CLR 26/17 A2992 300 59 1600 000/00 RMK AO2 T02560172
53988KBKB BKB20190612190510806/12/19 19:05:31  5-MIN KBKB 130105Z AUTO 00000KT 10SM CLR 25/17 A2992 300 61 1600 000/00 RMK AO2 T02500172
53988KBKB BKB20190612191010806/12/19 19:10:31  5-MIN KBKB 130110Z AUTO 00000KT 10SM CLR 25/17 A2992 300 59 1600 000/00 RMK AO2 T02500167
53988KBKB BKB20190612191510806/12/19 19:15:31  5-MIN KBKB 130115Z AUTO 00000KT 10SM CLR 25/17 A2992 290 59 1600 000/00 RMK AO2 T02500167
53988KBKB BKB20190612192010806/12/19 19:20:31  5-MIN KBKB 130120Z AUTO 00000KT 10SM CLR 24/16 A2993 290 57 1500 000/00 RMK AO2 T02440156
53988KBKB BKB20190612192510806/12/19 19:25:31  5-MIN KBKB 130125Z AUTO 00000KT 10SM CLR 24/16 A2993 290 57 1500 000/00 RMK AO2 T02440156
53988KBKB BKB20190612193010806/12/19 19:30:31  5-MIN KBKB 130130Z AUTO 00000KT 10SM CLR 24/16 A2993 290 57 1500 000/00 RMK AO2 T02440156
53988KBKB BKB20190612193510806/12/19 19:35:31  5-MIN KBKB 130135Z AUTO 00000KT 10SM CLR 24/16 A2993 290 57 1500 000/00 RMK AO2 T02440156
53988KBKB BKB20190612194010806/12/19 19:40:31  5-MIN KBKB 130140Z AUTO 00000KT 10SM CLR 24/16 A2993 290 61 1400 000/00 RMK AO2 T02390161
53988KBKB BKB20190612194510806/12/19 19:45:31  5-MIN KBKB 130145Z AUTO 00000KT 10SM CLR 23/16 A2993 290 63 1400 000/00 RMK AO2 T02330161
53988KBKB BKB20190612195011506/12/19 19:50:31  5-MIN KBKB 130150Z AUTO 00000KT 10SM CLR 23/16 A2994 280 63 1400 000/00 RMK AO2 SLP163 T02330161
53988KBKB BKB20190612195510806/12/19 19:55:31  5-MIN KBKB 130155Z AUTO 00000KT 10SM CLR 23/16 A2994 280 63 1400 000/00 RMK AO2 T02330161
53988KBKB BKB20190612200010806/12/19 20:00:31  5-MIN KBKB 130200Z AUTO 00000KT 10SM CLR 23/15 A2994 280 59 1400 000/00 RMK AO2 T02330150
53988KBKB BKB20190612200510806/12/19 20:05:31  5-MIN KBKB 130205Z AUTO 00000KT 10SM CLR 23/15 A2994 280 59 1400 000/00 RMK AO2 T02330150
53988KBKB BKB20190612201019706/12/19 20:10:31  5-MIN KBKB 130210Z AUTO 00000KT 10SM CLR 23/15 A2994 280 59 1300 000/00 RMK AO2 T0233015006/12/19 20:15:45Z AUTO 00000KT 10SM CLR 21/16 A2997 260 75 1000 000/00 RMK AO2 T02060161
53988KBKB BKB20190612215021906/12/19 21:50:31  5-MIN KBKB 130350Z AUTO 00000KT 10SM CLR 20/16 A2997 250 78 900 000/00 R00000KT 10SM CLR 19/16 A2998 240 81 900 000/00 RMK AO2 T0194016106/12/19 22:20:31  /16 A2997 250 78 900 000/00 RMK AO2 T02000161
53988KBKB BKB20190612220010706/12/19 22:00:31  5-MIN KBKB 130400Z AUTO 00000KT 10SM CLR 20/17 A2998 250 81 900 000/00 RMK AO2 T02000167
53988KBKB BKB20190612220510706/12/19 22:05:31  5-MIN KBKB 130405Z AUTO 00000KT 10SM CLR 20/17 A2998 250 81 900 000/00 RMK AO2 T02000167
53988KBKB BKB20190612221010706/12/19 22:10:31  5-MIN KBKB 130410Z AUTO 00000KT 10SM CLR 19/16 A2998 250 81 900 000/00 RMK AO2 T01940161
53988KBKB BKB20190612221510706/12/19 22:15:31  5-MIN KBKB 130415Z AUTO 00000KT 10SM CLR 19/16 A2998 240 81 900 000/00 RMK AO2 T01940161
53988KBKB BKB20190612222010706/12/19 22:20:31  5-MIN KBKB 130420Z AUTO 00000KT 10SM CLR 19/16 A2998 240 81 900 000/00 RMK AO2 T01940161
53988KBKB BKB20190612222510706/12/19 22:25:31  5-MIN KBKB 130425Z AUTO 00000KT 10SM CLR 19/16 A2998 240 81 900 000/00 RMK AO2 T01940161
53988KBKB BKB20190612223010706/12/19 22:30:31  5-MIN KBKB 130430Z AUTO 00000KT 10SM CLR 19/16 A2998 240 81 900 000/00 RMK AO2 T01940161
53988KBKB BKB20190612223510706/12/19 22:35:31  5-MIN KBKB 130435Z AUTO 00000KT 10SM CLR 19/16 A2999 240 81 900 000/00 RMK AO2 T01940161
53988KBKB BKB20190612223517106/12/19 22:35:31  5-MIN KBKB 130435Z AUTO 00000KT 10SM CLR 19/16 A2999 240 81 900 000/00 RMK AO2 T0194016106/12/19 22:4CLR 19/16 A2998 240 81 900 000/00 RMK AO2 T01940161
53988KBKB BKB20190612224010706/12/19 22:40:31  5-MIN KBKB 130440Z AUTO 00000KT 10SM CLR 19/16 A2999 240 87 700 000/00 RMK AO2 T01830161
53988KBKB BKB20190612234010706/12/19 23:40:31  5-MIN KBKB 130540Z AUTO 00000KT 10SM CLR 19/16 A2998 240 84 800 000/00 RMK AO2 T01890161
53988KBKB BKB20190612234510706/12/19 23:45:31  5-MIN KBKB 130545Z AUTO 00000KT 10SM CLR 19/16 A2998 240 84 800 000/00 RMK AO2 T01890161
53988KBKB BKB20190612235014206/12/19 23:50:31  5-MIN KBKB 130550Z AUTO 00000KT 10SM CLR 19/16 A2998 240 84 800 000/00 RMK AO2 SLP179 T01890161 10289 20189 403170161 51015
53988KBKB BKB20190612235511006/12/19 23:55:31  5-MIN KBKB 130555Z AUTO 00000KT 10SM FEW065 19/16 A2998 240 84 800 000/00 RMK AO2 T01890161
53988KBKB BKB20190613000011006/13/19 00:00:31  5-MIN KBKB 130600Z AUTO 00000KT 10SM FEW065 19/16 A2998 240 84 800 000/00 RMK AO2 T01890161
53988KBKB BKB20190613000511006/13/19 00:05:31  5-MIN KBKB 130605Z AUTO 00000KT 10SM FEW065 19/17 A2998 240 87 800 000/00 RMK AO2 T01890167
53988KBKB BKB20190613000513206/13/19 00:05:31  5-MIN KBKB 130605Z AUTO 00000KT 10SM FEW065 19/17 A2998 240 87 800 000/00 RMK AO2 T0189016706/13/19 00:10:31  5-M
53988KBKB BKB20190613001011006/13/19 00:10:31  5-MIN KBKB 130610Z AUTO 00000KT 10SM FEW065 19/17 A2999 240 90 800 000/00 RMK AO2 T01890172
53988KBKB BKB20190613001511006/13/19 00:15:31  5-MIN KBKB 130615Z AUTO 00000KT 10SM FEW065 19/17 A2998 240 87 800 000/00 RMK AO2 T01890167
53988KBKB BKB20190613001518406/13/19 00:15:31  5-MIN KBKB 130615Z AUTO 00000KT 10SM FEW065 19/17 A2998 240 87 800 000/00 RMK AO2 T0189016706/13/19 0 10SM CLR 18/16 A2998 240 87 700 000/00 RMK AO2 SLP178 T01830161
53988KBKB BKB20190613013010706/13/19 01:30:31  5-MIN KBKB 130730Z AUTO 00000KT 10SM CLR 18/16 A2998 250 87 700 000/00 RMK AO2 T01830161
53988KBKB BKB20190613013510706/13/19 01:35:31  5-MIN KBKB 130735Z AUTO 00000KT 10SM CLR 18/16 A2998 240 87 700 000/00 RMK AO2 T01830161
53988KBKB BKB20190613014010706/13/19 01:40:31  5-MIN KBKB 130740Z AUTO 00000KT 10SM CLR 18/16 A2998 240 87 700 000/00 RMK AO2 T01830161
53988KBKB BKB20190613014510706/13/19 01:45:31  5-MIN KBKB 130745Z AUTO 00000KT 10SM CLR 18/16 A2998 240 87 700 000/00 RMK AO2 T01830161
53988KBKB BKB20190613015011406/13/19 01:50:31  5-MIN KBKB 130750Z AUTO 00000KT 10SM CLR 18/16 A2998 240 87 700 000/00 RMK AO2 SLP178 T01830161
53988KBKB BKB20190613015510706/13/19 01:55:31  5-MIN KBKB 130755Z AUTO 00000KT 10SM CLR 18/16 A2998 240 87 700 000/00 RMK AO2 T01830161
53988KBKB BKB20190613015516806/13/19 01:55:31  5-MIN KBKB 130755Z AUTO 00000KT 10SM CLR 18/16 A2998 235:31  5-MIN KBKB 130735Z AUTO 00000KT 10SM CLR 18/16 A2998 240 87 700 000/00 RMK AO2 T01830161
53988KBKB BKB20190613020010706/13/19 02:00:31  5-MIN KBKB 130800Z AUTO 00000KT 10SM CLR 18/16 A2998 240 87 700 000/00 RMK AO2 T01830161
53988KBKB BKB20190613020014006/13/19 02:00:31  5-MIN KBKB 130800Z AUTO 00000KT 10SM CLR 18/16 A2998 240 87 700 000/00 RMK AO2 T0183016106/13/19 02:050 RMK AO2 T01890167
53988KBKB BKB20190613020510706/13/19 02:05:31  5-MIN KBKB 130805Z AUTO 00000KT 10SM CLR 18/17 A2998 240 87 700 000/00 RMK AO2 T01830161
53988KBKB BKB20190613042010706/13/19 04:20:31  5-MIN KBKB 131020Z AUTO 00000KT 10SM CLR 19/17 A3000 220 87 800 000/00 RMK AO2 T01890167
53988KBKB BKB20190613042510706/13/19 04:25:31  5-MIN KBKB 131025Z AUTO 00000KT 10SM CLR 19/17 A3000 220 87 800 000/00 RMK AO2 T01890167
53988KBKB BKB20190613043010706/13/19 04:30:31  5-MIN KBKB 131030Z AUTO 00000KT 10SM CLR 19/17 A3001 220 87 800 000/00 RMK AO2 T01890167
53988KBKB BKB20190613043510706/13/19 04:35:31  5-MIN KBKB 131035Z AUTO 00000KT 10SM CLR 18/17 A3001 220 90 700 000/00 RMK AO2 T01830167
53988KBKB BKB20190613044010706/13/19 04:40:31  5-MIN KBKB 131040Z AUTO 00000KT 10SM CLR 18/17 A3001 220 90 700 000/00 RMK AO2 T01830167
53988KBKB BKB20190613044510706/13/19 04:45:31  5-MIN KBKB 131045Z AUTO 00000KT 10SM CLR 18/17 A3001 210 90 700 000/00 RMK AO2 T01830167
53988KBKB BKB20190613044517106/13/19 04:45:31  5-MIN KBKB 131045Z AUTO 00000KT 10SM CLR 18/17 A3001 210 90 700 000/00 RMK AO2 T0183016700000KT 10SM CLR 19/17 A3000 220 87 800 000/00 RMK AO2 T01890167
53988KBKB BKB20190613045011406/13/19 04:50:31  5-MIN KBKB 131050Z AUTO 00000KT 10SM CLR 18/17 A3001 210 90 700 000/00 RMK AO2 SLP188 T01830167
53988KBKB BKB20190613045510706/13/19 04:55:31  5-MIN KBKB 131055Z AUTO 00000KT 10SM CLR 18/17 A3001 210 90 700 000/00 RMK AO2 T01830167
53988KBKB BKB20190613045516406/13/19 04:55:31  5-MIN KBKB 131055Z AUTO 00000KT 10SM CLR 18/17 A3001 210 90 700 000/00 RMK AO2 T01830167010SM CLR 18/17 A3001 220 90 700 000/00 RMK AO2 T01830167
53988KBKB BKB20190613050009706/13/19 05:00:31  5-MIN KBKB 131100Z AUTO 00000KT 10SM CLR 18/17 A3001 210 90  RMK AO2 T01830167
53988KBKB BKB20190613050010706/13/19 05:00:31  5-MIN KBKB 131100Z AUTO 00000KT 10SM CLR 18/17 A3001 210 90 700 000/00 RMK AO2 T01830167
53988KBKB BKB20190613050510706/13/19 05:05:31  5-MIN KBKB 131105Z AUTO 00000KT 10SM CLR 19/17 A3002 210 87 800 000/00 RMK AO2 T01890167
53988KBKB BKB20190613051011006/13/19 05:10:31  5-MIN KBKB 131110Z AUTO 00000KT 10SM FEW065 18/17 A3002 210 90 700 000/00 RMK AO2 T01830167
53988KBKB BKB20190613051511006/13/19 05:15:31  5-MIN KBKB 131115Z AUTO 00000KT 10SM FEW065 18/17 A3002 210 90 700 000/00 RMK AO2 T01830167
53988KBKB BKB20190613052011006/13/19 05:20:31  5-MIN KBKB 131120Z AUTO 00000KT 10SM FEW065 18/17 A3002 210 90 700 000/00 RMK AO2 T01830167
53988KBKB BKB20190613052511006/13/19 05:25:31  5-MIN KBKB 131125Z AUTO 00000KT 10SM FEW065 18/17 A3002 210 90 700 000/00 RMK AO2 T01830167
53988KBKB BKB20190613053011006/13/19 05:30:31  5-MIN KBKB 131130Z AUTO 00000KT 10SM FEW065 18/17 A3002 210 90 700 000/00 RMK AO2 T01830167
53988KBKB BKB20190613053510706/13/19 05:35:31  5-MIN KBKB 131135Z AUTO 00000KT 10SM CLR 18/17 A3002 210 90 700 000/00 RMK AO2 T01830167
53988KBKB BKB20190613054010706/13/19 05:40:31  5-MIN KBKB 131140Z AUTO 00000KT 10SM CLR 18/17 A3002 210 90 700 000/00 RMK AO2 T01830167
53988KBKB BKB20190613054510706/13/19 05:45:31  5-MIN KBKB 131145Z AUTO 00000KT 10SM CLR 18/17 A3002 210 90 700 000/00 RMK AO2 T01830167
53988KBKB BKB20190613055013206/13/19 05:50:31  5-MIN KBKB 131150Z AUTO 00000KT 10SM CLR 18/17 A3002 210 90 700 000/00 RMK AO2 SLP192 T01830167 10194 20178 53000
53988KBKB BKB20190613055510706/13/19 05:55:31  5-MIN KBKB 131155Z AUTO 00000KT 10SM CLR 18/17 A3002 200 90 700 000/00 RMK AO2 T01830167
53988KBKB BKB20190613060010706/13/19 06:00:31  5-MIN KBKB 131200Z AUTO 00000KT 10SM CLR 19/17 A3003 200 90 700 000/00 RMK AO2 T01890172
53988KBKB BKB20190613060510706/13/19 06:05:31  5-MIN KBKB 131205Z AUTO 00000KT 10SM CLR 19/17 A3003 200 90 700 000/00 RMK AO2 T01890172
53988KBKB BKB20190613061010706/13/19 06:10:31  5-MIN KBKB 131210Z AUTO 00000KT 10SM CLR 19/17 A3003 200 87 800 000/00 RMK AO2 T01940172
53988KBKB BKB20190613061510706/13/19 06:15:31  5-MIN KBKB 131215Z AUTO 00000KT 10SM CLR 19/17 A3003 200 87 800 000/00 RMK AO2 T01940172
53988KBKB BKB20190613062010706/13/19 06:20:31  5-MIN KBKB 131220Z AUTO 00000KT 10SM CLR 20/18 A3003 190 87 900 000/00 RMK AO2 T02000178
53988KBKB BKB20190613062510706/13/19 06:25:31  5-MIN KBKB 131225Z AUTO 00000KT 10SM CLR 21/18 A3003 190 84 900 000/00 RMK AO2 T02060178
53988KBKB BKB20190613063010806/13/19 06:30:31  5-MIN KBKB 131230Z AUTO 00000KT 10SM CLR 22/17 A3003 190 75 1100 000/00 RMK AO2 T02170172
53988KBKB BKB20190613063510806/13/19 06:35:31  5-MIN KBKB 131235Z AUTO VRB03KT 10SM CLR 22/17 A3003 190 73 1100 VRB/03 RMK AO2 T02220172
53988KBKB BKB20190613064010806/13/19 06:40:31  5-MIN KBKB 131240Z AUTO 00000KT 10SM CLR 23/17 A3004 190 70 1200 000/00 RMK AO2 T02280172
53988KBKB BKB20190613064510806/13/19 06:45:31  5-MIN KBKB 131245Z AUTO 00000KT 10SM CLR 23/17 A3004 190 70 1200 000/00 RMK AO2 T02280172
53988KBKB BKB20190613065011506/13/19 06:50:31  5-MIN KBKB 131250Z AUTO 00000KT 10SM CLR 23/18 A3004 190 73 1200 000/00 RMK AO2 SLP198 T02280178
53988KBKB BKB20190613065510806/13/19 06:55:31  5-MIN KBKB 131255Z AUTO 00000KT 10SM CLR 23/17 A3004 190 68 1200 000/00 RMK AO2 T02330172
53988KBKB BKB20190613070010806/13/19 07:00:31  5-MIN KBKB 131300Z AUTO VRB03KT 10SM CLR 23/17 A3004 190 68 1200 VRB/03 RMK AO2 T02330172
53988KBKB BKB20190613070509806/13/19 07:05:31  5-MIN KBKB 131305Z AUTO 10SM CLR 24/17 A3004 190 66 1300 M /M RMK AO2 T02390172
53988KBKB BKB20190613071010806/13/19 07:10:31  5-MIN KBKB 131310Z AUTO VRB03KT 10SM CLR 24/17 A3004 180 66 1300 VRB/03 RMK AO2 T02390172
53988KBKB BKB20190613071510806/13/19 07:15:31  5-MIN KBKB 131315Z AUTO VRB05KT 10SM CLR 24/17 A3004 180 66 1300 VRB/05 RMK AO2 T02390172
53988KBKB BKB20190613072010806/13/19 07:20:31  5-MIN KBKB 131320Z AUTO 00000KT 10SM CLR 24/17 A3004 180 61 1400 000/00 RMK AO2 T02440167
53988KBKB BKB20190613072509806/13/19 07:25:31  5-MIN KBKB 131325Z AUTO 10SM CLR 24/17 A3005 180 63 1400 M /M RMK AO2 T02440172
53988KBKB BKB20190613073010806/13/19 07:30:31  5-MIN KBKB 131330Z AUTO VRB03KT 10SM CLR 24/17 A3005 180 61 1400 VRB/03 RMK AO2 T02440167
53988KBKB BKB20190613073510806/13/19 07:35:31  5-MIN KBKB 131335Z AUTO VRB05KT 10SM CLR 25/17 A3005 180 59 1400 VRB/05 RMK AO2 T02500167
53988KBKB BKB20190613074010806/13/19 07:40:31  5-MIN KBKB 131340Z AUTO VRB03KT 10SM CLR 25/17 A3005 180 61 1400 VRB/03 RMK AO2 T02500172
53988KBKB BKB20190613074510806/13/19 07:45:31  5-MIN KBKB 131345Z AUTO 02006KT 10SM CLR 25/17 A3005 180 59 1400 020/06 RMK AO2 T02500167
53988KBKB BKB20190613075011506/13/19 07:50:31  5-MIN KBKB 131350Z AUTO VRB03KT 10SM CLR 25/16 A3005 180 57 1400 VRB/03 RMK AO2 SLP202 T02500161
53988KBKB BKB20190613075510806/13/19 07:55:31  5-MIN KBKB 131355Z AUTO VRB04KT 10SM CLR 26/17 A3005 180 57 1500 VRB/04 RMK AO2 T02560167
53988KBKB BKB20190613080010806/13/19 08:00:31  5-MIN KBKB 131400Z AUTO VRB04KT 10SM CLR 26/17 A3006 170 57 1500 VRB/04 RMK AO2 T02560167
53988KBKB BKB20190613080510806/13/19 08:05:31  5-MIN KBKB 131405Z AUTO VRB05KT 10SM CLR 26/16 A3006 170 55 1500 VRB/05 RMK AO2 T02560161
53988KBKB BKB20190613081010806/13/19 08:10:31  5-MIN KBKB 131410Z AUTO VRB05KT 10SM CLR 26/16 A3006 170 55 1500 VRB/05 RMK AO2 T02560161
53988KBKB BKB20190613081510806/13/19 08:15:31  5-MIN KBKB 131415Z AUTO VRB06KT 10SM CLR 26/16 A3006 170 55 1500 VRB/06 RMK AO2 T02560161
53988KBKB BKB20190613082010806/13/19 08:20:31  5-MIN KBKB 131420Z AUTO VRB03KT 10SM CLR 26/17 A3006 170 55 1500 VRB/03 RMK AO2 T02610167
53988KBKB BKB20190613082510806/13/19 08:25:31  5-MIN KBKB 131425Z AUTO VRB03KT 10SM CLR 27/17 A3006 170 55 1600 VRB/03 RMK AO2 T02670172
53988KBKB BKB20190613083010806/13/19 08:30:31  5-MIN KBKB 131430Z AUTO VRB05KT 10SM CLR 27/17 A3006 170 55 1600 VRB/05 RMK AO2 T02670172
53988KBKB BKB20190613083510806/13/19 08:35:31  5-MIN KBKB 131435Z AUTO VRB04KT 10SM CLR 26/17 A3006 170 55 1500 VRB/04 RMK AO2 T02610167
53988KBKB BKB20190613084010806/13/19 08:40:31  5-MIN KBKB 131440Z AUTO VRB05KT 10SM CLR 27/17 A3006 170 53 1600 VRB/05 RMK AO2 T02670167
53988KBKB BKB20190613084510806/13/19 08:45:31  5-MIN KBKB 131445Z AUTO VRB05KT 10SM CLR 26/16 A3006 170 53 1500 VRB/05 RMK AO2 T02610161
53988KBKB BKB20190613085012106/13/19 08:50:31  5-MIN KBKB 131450Z AUTO VRB03KT 10SM CLR 26/16 A3006 170 53 1500 VRB/03 RMK AO2 SLP206 T02610161 51014
53988KBKB BKB20190613085510806/13/19 08:55:31  5-MIN KBKB 131455Z AUTO VRB04KT 10SM CLR 27/16 A3006 170 52 1600 VRB/04 RMK AO2 T02670161
53988KBKB BKB20190613090010806/13/19 09:00:31  5-MIN KBKB 131500Z AUTO VRB03KT 10SM CLR 27/17 A3006 170 52 1700 VRB/03 RMK AO2 T02720167
53988KBKB BKB20190613090510806/13/19 09:05:31  5-MIN KBKB 131505Z AUTO VRB05KT 10SM CLR 27/16 A3006 170 50 1700 VRB/05 RMK AO2 T02720161
53988KBKB BKB20190613091010806/13/19 09:10:31  5-MIN KBKB 131510Z AUTO VRB04KT 10SM CLR 27/16 A3006 170 50 1700 VRB/04 RMK AO2 T02720161
53988KBKB BKB20190613091510806/13/19 09:15:31  5-MIN KBKB 131515Z AUTO VRB04KT 10SM CLR 28/16 A3006 170 48 1700 VRB/04 RMK AO2 T02780161
53988KBKB BKB20190613092010806/13/19 09:20:31  5-MIN KBKB 131520Z AUTO VRB06KT 10SM CLR 27/16 A3006 170 50 1700 VRB/06 RMK AO2 T02720161
53988KBKB BKB20190613092510806/13/19 09:25:31  5-MIN KBKB 131525Z AUTO VRB04KT 10SM CLR 28/16 A3006 170 46 1700 VRB/04 RMK AO2 T02780156
53988KBKB BKB20190613093010806/13/19 09:30:31  5-MIN KBKB 131530Z AUTO VRB05KT 10SM CLR 28/16 A3006 160 46 1700 VRB/05 RMK AO2 T02780156
53988KBKB BKB20190613093510806/13/19 09:35:31  5-MIN KBKB 131535Z AUTO VRB04KT 10SM CLR 28/16 A3006 170 46 1700 VRB/04 RMK AO2 T02780156
53988KBKB BKB20190613094010806/13/19 09:40:31  5-MIN KBKB 131540Z AUTO VRB04KT 10SM CLR 28/16 A3006 170 46 1700 VRB/04 RMK AO2 T02780156
53988KBKB BKB20190613094510806/13/19 09:45:31  5-MIN KBKB 131545Z AUTO VRB03KT 10SM CLR 28/16 A3006 160 48 1700 VRB/03 RMK AO2 T02780161
53988KBKB BKB20190613095011506/13/19 09:50:31  5-MIN KBKB 131550Z AUTO VRB04KT 10SM CLR 28/16 A3007 160 47 1800 VRB/04 RMK AO2 SLP207 T02830161
53988KBKB BKB20190613095510806/13/19 09:55:31  5-MIN KBKB 131555Z AUTO VRB04KT 10SM CLR 28/16 A3007 160 47 1800 VRB/04 RMK AO2 T02830161
53988KBKB BKB20190613100010806/13/19 10:00:31  5-MIN KBKB 131600Z AUTO VRB03KT 10SM CLR 28/16 A3007 160 45 1800 VRB/03 RMK AO2 T02830156
53988KBKB BKB20190613100510806/13/19 10:05:31  5-MIN KBKB 131605Z AUTO VRB03KT 10SM CLR 28/16 A3007 160 47 1800 VRB/03 RMK AO2 T02830161
53988KBKB BKB20190613101010806/13/19 10:10:31  5-MIN KBKB 131610Z AUTO 00000KT 10SM CLR 29/16 A3007 160 45 1800 000/00 RMK AO2 T02890161
53988KBKB BKB20190613101510806/13/19 10:15:31  5-MIN KBKB 131615Z AUTO VRB05KT 10SM CLR 29/16 A3007 160 44 1900 VRB/05 RMK AO2 T02940161
53988KBKB BKB20190613102010806/13/19 10:20:31  5-MIN KBKB 131620Z AUTO VRB03KT 10SM CLR 28/15 A3007 160 43 1800 VRB/03 RMK AO2 T02830150
53988KBKB BKB20190613102510806/13/19 10:25:31  5-MIN KBKB 131625Z AUTO VRB05KT 10SM CLR 28/15 A3007 160 43 1800 VRB/05 RMK AO2 T02830150
53988KBKB BKB20190613103010806/13/19 10:30:31  5-MIN KBKB 131630Z AUTO 00000KT 10SM CLR 28/15 A3007 160 43 1800 000/00 RMK AO2 T02830150
53988KBKB BKB20190613103510806/13/19 10:35:31  5-MIN KBKB 131635Z AUTO VRB03KT 10SM CLR 29/16 A3007 160 42 1900 VRB/03 RMK AO2 T02940156
53988KBKB BKB20190613104010806/13/19 10:40:31  5-MIN KBKB 131640Z AUTO 34005KT 10SM CLR 29/15 A3007 160 42 1800 340/05 RMK AO2 T02890150
53988KBKB BKB20190613104510306/13/19 10:45:31  5-MIN KBKB 131645Z AUTO VRB03KT 10S 31/12 A3005 180 32 2000 VRB/04 RMK AO2 T03060122
53988KBKB BKB20190613130010806/13/19 13:00:31  5-MIN KBKB 131900Z AUTO VRB04KT 10SM CLR 31/12 A3005 180 32 2000 VRB/04 RMK AO2 T03060122
53988KBKB BKB20190613130510806/13/19 13:05:31  5-MIN KBKB 131905Z AUTO VRB06KT 10SM CLR 31/13 A3005 180 32 2100 VRB/06 RMK AO2 T03110128
53988KBKB BKB20190613131010806/13/19 13:10:31  5-MIN KBKB 131910Z AUTO VRB04KT 10SM CLR 31/13 A3004 180 32 2100 VRB/04 RMK AO2 T03110128
53988KBKB BKB20190613131511106/13/19 13:15:31  5-MIN KBKB 131915Z AUTO 00000KT 10SM SCT075 31/13 A3004 190 33 2000 000/00 RMK AO2 T03060128
53988KBKB BKB20190613131517006/13/19 13:15:31  5-MIN KBKB 131915Z AUTO 00000KT 10SM SCT075 31/13 A3004 190 33 2000 000/00 RMK AO2 TO VRB04KT 10SM CLR 30/12 A3005 180 31 2000 VRB/04 RMK AO2 T03000117
53988KBKB BKB20190613132011106/13/19 13:20:31  5-MIN KBKB 131920Z AUTO VRB03KT 10SM SCT075 30/12 A3004 190 33 2000 VRB/03 RMK AO2 T03000122
53988KBKB BKB20190613132013206/13/19 13:20:31  5-MIN KBKB 131920Z AUTO VRB03KT 10SM SCT075 30/12 A3004 190 33 2000 VRBA3002 200 30 2100 VRB/03 RMK AO2 T03060117
53988KBKB BKB20190613132511106/13/19 13:25:31  5-MIN KBKB 131925Z AUTO VRB03KT 10SM SCT075 31/13 A3004 190 32 2100 VRB/03 RMK AO2 T03110128
53988KBKB BKB20190613132516406/13/19 13:25:31  5-MIN KBKB 131925Z AUTO VRB03KT 10SM SCT075 31/13 A3004 190 32 2100 VRB/03 RMK AO2 T031100SM CLR 31/13 A3005 180 32 2100 VRB/06 RMK AO2 T03110128
53988KBKB BKB20190613133011106/13/19 13:30:31  5-MIN KBKB 131930Z AUTO VRB03KT 10SM FEW075 31/12 A3004 190 32 2100 VRB/03 RMK AO2 T03060122
53988KBKB BKB20190613133516106/13/19 13:35:31  5-MIN KBKB 131935Z AUTO VRB06KT 10SM FEW075 31/11 A3004 190 29 2100  AUTO 00000KT 10SM SCT075 31/13 A3004 190 33 2000 000/00 RMK AO2 T03060128
53988KBKB BKB20190613154011106/13/19 15:40:31  5-MIN KBKB 132140Z AUTO 00000KT 10SM SCT080 31/12 A3002 210 31 2100 000/00 RMK AO2 T03110122
53988KBKB BKB20190613154511106/13/19 15:45:31  5-MIN KBKB 132145Z AUTO VRB04KT 10SM SCT080 32/12 A3002 210 30 2200 VRB/04 RMK AO2 T03170122
53988KBKB BKB20190613155011806/13/19 15:50:31  5-MIN KBKB 132150Z AUTO VRB04KT 10SM FEW080 31/12 A3002 210 31 2100 VRB/04 RMK AO2 SLP190 T03110122
53988KBKB BKB20190613155511106/13/19 15:55:31  5-MIN KBKB 132155Z AUTO VRB05KT 10SM FEW080 31/11 A3002 210 28 2100 VRB/05 RMK AO2 T03110111
53988KBKB BKB20190613160011106/13/19 16:00:31  5-MIN KBKB 132200Z AUTO VRB04KT 10SM FEW080 31/11 A3002 210 28 2100 VRB/04 RMK AO2 T03110111
53988KBKB BKB20190613160510806/13/19 16:05:31  5-MIN KBKB 132205Z AUTO 31004KT 10SM CLR 31/11 A3001 210 28 2100 300/04 RMK AO2 T03110111
53988KBKB BKB20190613160515606/13/19 16:05:31  5-MIN KBKB 132205Z AUTO 31004KT 10SM CLR 31/11 A300KBKB 132145Z AUTO VRB04KT 10SM SCT080 32/12 A3002 210 30 2200 VRB/04 RMK AO2 T03170122
53988KBKB BKB20190613161010806/13/19 16:10:31  5-MIN KBKB 132210Z AUTO VRB04KT 10SM CLR 31/12 A3002 210 31 2100 VRB/04 RMK AO2 T03110122
53988KBKB BKB20190613161505606/13/19 16:15:31  5-MIN KBKB 132215Z AUTLP190 T03110122
53988KBKB BKB20190613161510806/13/19 16:15:31  5-MIN KBKB 132215Z AUTO VRB04KT 10SM CLR 31/12 A3001 210 31 2100 VRB/04 RMK AO2 T03110122
53988KBKB BKB20190613162010806/13/19 16:20:31  5-MIN KBKB 132220Z AUTO 36004KT 10SM CLR 31/12 A3002 210 29 2100 360/04 RMK AO2 T03110117
53988KBKB BKB20190613162509806/13/19 16:25:31  5-MIN KBKB 132225Z AUTO 10SM CLR 31/12 A3001 210 29 2100 M /M RMK AO2 T03110117
53988KBKB BKB20190613163010806/13/19 16:30:31  5-MIN KBKB 132230Z AUTO 00000KT 10SM CLR 31/12 A3001 210 31 2100 000/00 RMK AO2 T03110122
53988KBKB BKB20190613163510806/13/19 16:35:31  5-MIN KBKB 132235Z AUTO VRB04KT 10SM CLR 31/12 A3001 210 30 2100 VRB/04 RMK AO2 T03060117
53988KBKB BKB20190613164010806/13/19 16:40:31  5-MIN KBKB 132240Z AUTO 00000KT 10SM CLR 31/12 A3001 220 32 2100 000/00 RMK AO2 T03060122
53988KBKB BKB20190613164510806/13/19 16:45:31  5-MIN KBKB 132245Z AUTO VRB03KT 10SM CLR 31/12 A3001 220 32 2100 VRB/03 RMK AO2 T03060122
53988KBKB BKB20190613165011506/13/19 16:50:31  5-MIN KBKB 132250Z AUTO VRB03KT 10SM CLR 31/13 A3001 220 33 2100 VRB/03 RMK AO2 SLP188 T03060128
53988KBKB BKB20190613165510806/13/19 16:55:31  5-MIN KBKB 132255Z AUTO VRB04KT 10SM CLR 31/13 A3001 220 33 2100 VRB/04 RMK AO2 T03060128
53988KBKB BKB20190613170010806/13/19 17:00:31  5-MIN KBKB 132300Z AUTO VRB03KT 10SM CLR 31/13 A3001 220 34 2100 VRB/03 RMK AO2 T03060133
53988KBKB BKB20190613170510806/13/19 17:05:31  5-MIN KBKB 132305Z AUTO VRB04KT 10SM CLR 30/13 A3001 220 35 2000 VRB/04 RMK AO2 T03000133
53988KBKB BKB20190613171010806/13/19 17:10:31  5-MIN KBKB 132310Z AUTO VRB04KT 10SM CLR 30/13 A3001 220 34 2000 VRB/04 RMK AO2 T03000128
53988KBKB BKB20190613171510806/13/19 17:15:31  5-MIN KBKB 132315Z AUTO VRB03KT 10SM CLR 29/12 A3001 220 34 2000 VRB/03 RMK AO2 T02940122
53988KBKB BKB20190613172010806/13/19 17:20:31  5-MIN KBKB 132320Z AUTO VRB03KT 10SM CLR 29/13 A3001 220 35 2000 VRB/03 RMK AO2 T02940128
53988KBKB BKB20190613172510806/13/19 17:25:31  5-MIN KBKB 132325Z AUTO 00000KT 10SM CLR 30/13 A3001 220 34 2000 000/00 RMK AO2 T03000128
53988KBKB BKB20190613173010806/13/19 17:30:31  5-MIN KBKB 132330Z AUTO 00000KT 10SM CLR 30/13 A3001 220 34 2000 000/00 RMK AO2 T03000128
53988KBKB BKB20190613173510806/13/19 17:35:31  5-MIN KBKB 132335Z AUTO VRB03KT 10SM CLR 29/13 A3001 220 36 2000 VRB/03 RMK AO2 T02940133
53988KBKB BKB20190613174010806/13/19 17:40:31  5-MIN KBKB 132340Z AUTO VRB03KT 10SM CLR 29/13 A3001 220 35 2000 VRB/03 RMK AO2 T02940128
53988KBKB BKB20190613174509806/13/19 17:45:31  5-MIN KBKB 132345Z AUTO 10SM CLR 29/12 A3001 220 34 2000 M /M RMK AO2 T02940122
53988KBKB BKB20190613175013306/13/19 17:50:31  5-MIN KBKB 132350Z AUTO 02003KT 10SM CLR 29/12 A3001 220 35 1900 010/03 RMK AO2 SLP188 T02890122 10317 20289 58012
53988KBKB BKB20190613175510806/13/19 17:55:31  5-MIN KBKB 132355Z AUTO 00000KT 10SM CLR 29/13 A3001 220 36 1900 000/00 RMK AO2 T02890128
53988KBKB BKB20190613180010806/13/19 18:00:31  5-MIN KBKB 140000Z AUTO 00000KT 10SM CLR 29/13 A3001 220 36 1900 000/00 RMK AO2 T02890128
53988KBKB BKB20190613180510806/13/19 18:05:31  5-MIN KBKB 140005Z AUTO VRB03KT 10SM CLR 28/13 A3001 220 37 1800 VRB/03 RMK AO2 T02830128
53988KBKB BKB20190613181010806/13/19 18:10:31  5-MIN KBKB 140010Z AUTO 00000KT 10SM CLR 28/13 A3001 220 37 1800 000/00 RMK AO2 T02830128
53988KBKB BKB20190613181510806/13/19 18:15:31  5-MIN KBKB 140015Z AUTO 00000KT 10SM CLR 28/12 A3001 220 36 1800 000/00 RMK AO2 T02830122
53988KBKB BKB20190613182010806/13/19 18:20:31  5-MIN KBKB 140020Z AUTO 00000KT 10SM CLR 28/13 A3001 210 39 1800 000/00 RMK AO2 T02780128
53988KBKB BKB20190613182510806/13/19 18:25:31  5-MIN KBKB 140025Z AUTO 00000KT 10SM CLR 28/13 A3001 210 39 1800 000/00 RMK AO2 T02780128
53988KBKB BKB20190613183010806/13/19 18:30:31  5-MIN KBKB 140030Z AUTO 00000KT 10SM CLR 27/13 A3001 210 40 1700 000/00 RMK AO2 T02720128
53988KBKB BKB20190613183510806/13/19 18:35:31  5-MIN KBKB 140035Z AUTO 00000KT 10SM CLR 27/13 A3001 210 41 1600 000/00 RMK AO2 T02670128
53988KBKB BKB20190613184010806/13/19 18:40:31  5-MIN KBKB 140040Z AUTO 00000KT 10SM CLR 26/13 A3002 210 44 1600 000/00 RMK AO2 T02610133
53988KBKB BKB20190613184510806/13/19 18:45:31  5-MIN KBKB 140045Z AUTO 00000KT 10SM CLR 26/13 A3002 210 44 1600 000/00 RMK AO2 T02610133
53988KBKB BKB20190613185011506/13/19 18:50:31  5-MIN KBKB 140050Z AUTO 00000KT 10SM CLR 26/14 A3002 210 48 1500 000/00 RMK AO2 SLP190 T02560139
53988KBKB BKB20190613185510806/13/19 18:55:31  5-MIN KBKB 140055Z AUTO 00000KT 10SM CLR 25/14 A3002 210 51 1500 000/00 RMK AO2 T02500144
53988KBKB BKB20190613190010806/13/19 19:00:31  5-MIN KBKB 140100Z AUTO 00000KT 10SM CLR 25/14 A3002 210 49 1500 000/00 RMK AO2 T02500139
53988KBKB BKB20190613190510806/13/19 19:05:31  5-MIN KBKB 140105Z AUTO 00000KT 10SM CLR 24/14 A3002 210 51 1400 000/00 RMK AO2 T02440139
53988KBKB BKB20190613191010806/13/19 19:10:31  5-MIN KBKB 140110Z AUTO 00000KT 10SM CLR 24/14 A3002 210 51 1400 000/00 RMK AO2 T02440139
53988KBKB BKB20190613191510806/13/19 19:15:31  5-MIN KBKB 140115Z AUTO 00000KT 10SM CLR 24/14 A3002 210 51 1400 000/00 RMK AO2 T02440139
53988KBKB BKB20190613192010806/13/19 19:20:31  5-MIN KBKB 140120Z AUTO 00000KT 10SM CLR 24/14 A3002 210 53 1300 000/00 RMK AO2 T02390139
53988KBKB BKB20190613192510806/13/19 19:25:31  5-MIN KBKB 140125Z AUTO 00000KT 10SM CLR 24/15 A3002 210 57 1300 000/00 RMK AO2 T02390150
53988KBKB BKB20190613193014706/13/19 19:30:31  5-MIN KBKB 140130Z AUTO 00000KT 10SM CLR 23/15 A3002 210 59 1300 000/00 RMK AO2 T02330150 75 900 000/00 RMK AO2 SLP203 T02060161
53988KBKB BKB20190613214010706/13/19 21:40:31  5-MIN KBKB 140340Z AUTO 00000KT 10SM CLR 21/14 A3005 180 67 900 000/00 RMK AO2 T02060144
53988KBKB BKB20190613214510706/13/19 21:45:31  5-MIN KBKB 140345Z AUTO 00000KT 10SM CLR 21/16 A3005 180 73 900 000/00 RMK AO2 T02060156
53988KBKB BKB20190613215011406/13/19 21:50:31  5-MIN KBKB 140350Z AUTO 00000KT 10SM CLR 21/16 A3005 180 75 900 000/00 RMK AO2 SLP203 T02060161
53988KBKB BKB20190613215510706/13/19 21:55:31  5-MIN KBKB 140355Z AUTO 00000KT 10SM CLR 21/16 A3005 180 73 900 000/00 RMK AO2 T02060156
53988KBKB BKB20190613215516406/13/19 21:55:31  5-MIN KBKB 140355Z AUTO 00000KT 10SM CLR 21/16 A3005 180 73 900 000/00 RMK AO2 T02060156 10SM CLR 21/15 A3005 180 70 900 000/00 RMK AO2 T02060150
53988KBKB BKB20190613220010706/13/19 22:00:31  5-MIN KBKB 140400Z AUTO 00000KT 10SM CLR 20/16 A3005 170 78 800 000/00 RMK AO2 T02000161
53988KBKB BKB20190613220510706/13/19 22:05:31  5-MIN KBKB 140405Z AUTO 00000KT 10SM CLR 20/16 A3006 170 78 800 000/00 RMK AO2 T02000161
53988KBKB BKB20190613220516406/13/19 22:05:31  5-MIN KBKB 140405Z AUTO 00000KT 10SM CLR 20/16 A3006 170 78 800 000/00 RMK AO2 T02000161 10SM CLR 21/16 A3005 180 73 900 000/00 RMK AO2 T02060156
53988KBKB BKB20190613221010706/13/19 22:10:31  5-MIN KBKB 140410Z AUTO 00000KT 10SM CLR 20/16 A3005 170 78 800 000/00 RMK AO2 T02000161
53988KBKB BKB20190613221506606/13/19 22:15:31  5-MIN KBKB 140415Z AUTO 00000KT 10SM CLR2060161
53988KBKB BKB20190613221510706/13/19 22:15:31  5-MIN KBKB 140415Z AUTO 00000KT 10SM CLR 20/16 A3005 170 78 800 000/00 RMK AO2 T02000161
53988KBKB BKB20190613222010706/13/19 22:20:31  5-MIN KBKB 140420Z AUTO 00000KT 10SM CLR 20/17 A3006 170 81 800 000/00 RMK AO2 T02000167
53988KBKB BKB20190613222518506/13/19 22:25:31  5-MIN KBKB 140425Z AUTO 00000KT 10SM CLR 20/16 A3005 1/19 22:05:31  5-MIN KBKB 140405Z AUTO 00000KT 10SM CLR 20/16 A3006 170 78 800 000/00 R0 000/00 RMK AO2 T01780150
53988KBKB BKB20190614005011406/14/19 00:50:31  5-MIN KBKB 140650Z AUTO 00000KT 10SM CLR 18/15 A3005 180 83 600 000/00 RMK AO2 SLP202 T01780150
53988KBKB BKB20190614005510706/14/19 00:55:31  5-MIN KBKB 140655Z AUTO 00000KT 10SM CLR 18/15 A3005 180 83 600 000/00 RMK AO2 T01780150
53988KBKB BKB20190614010010706/14/19 01:00:31  5-MIN KBKB 140700Z AUTO 00000KT 10SM CLR 18/15 A3005 180 83 600 000/00 RMK AO2 T01780150
53988KBKB BKB20190614010510706/14/19 01:05:31  5-MIN KBKB 140705Z AUTO 00000KT 10SM CLR 18/16 A3005 180 87 600 000/00 RMK AO2 T01780156
53988KBKB BKB20190614010516806/14/19 01:05:31  5-MIN KBKB 140705Z AUTO 00000KT 10SM CLR 18/16 A19 00:45:31  5-MIN KBKB 140645Z AUTO 00000KT 10SM CLR 18/15 A3005 180 83 600 000/00 RMK AO2 T01780150
53988KBKB BKB20190614011010706/14/19 01:10:31  5-MIN KBKB 140710Z AUTO 00000KT 10SM CLR 18/15 A3005 180 83 600 000/00 RMK AO2 T01780150
53988KBKB BKB20190614011510706/14/19 01:15:31  5-MIN KBKB 140715Z AUTO 00000KT 10SM CLR 18/16 A3005 180 83 600 000/00 RMK AO2 T01780150
53988KBKB BKB20190614011510706/14/19 01:15:31  5-MIN KBKB 140715Z AUTO 00000KT 10SM CLR 18/16 A3005 180 87 600 000/00 RMK AO2 T01780156
53988KBKB BKB20190614012010706/14/19 01:20:31  5-MIN KBKB 140720Z AUTO 00000KT 10SM CLR 18/16 A3005 180 87 600 000/00 RMK AO2 T01780156
53988KBKB BKB20190614012515906/14/19 01:25:31  5-MIN KBKB 140725Z AUTO 00000KT 10SM CLR 18/16 A3005 180 87 600 000/00 RMK AO2 T0178015606/14/19 0 A3006 170 90 400 000/00 RMK AO2 T01670150
53988KBKB BKB20190614033010706/14/19 03:30:31  5-MIN KBKB 140930Z AUTO 00000KT 10SM CLR 17/15 A3007 160 90 400 000/00 RMK AO2 T01670150
53988KBKB BKB20190614033510706/14/19 03:35:31  5-MIN KBKB 140935Z AUTO 00000KT 10SM CLR 17/15 A3006 170 90 400 000/00 RMK AO2 T01670150
53988KBKB BKB20190614034010706/14/19 03:40:31  5-MIN KBKB 140940Z AUTO 00000KT 10SM CLR 17/15 A3006 170 90 400 000/00 RMK AO2 T01670150
53988KBKB BKB20190614034510706/14/19 03:45:31  5-MIN KBKB 140945Z AUTO 00000KT 10SM CLR 17/15 A3006 170 90 400 000/00 RMK AO2 T01670150
53988KBKB BKB20190614035011406/14/19 03:50:31  5-MIN KBKB 140950Z AUTO 00000KT 10SM CLR 17/15 A3006 170 90 400 000/00 RMK AO2 SLP207 T01670150
53988KBKB BKB20190614035510706/14/19 03:55:31  5-MIN KBKB 140955Z AUTO 00000KT 10SM CLR 17/15 A3006 170 90 400 000/00 RMK AO2 T01670150
53988KBKB BKB20190614040010706/14/19 04:00:31  5-MIN KBKB 141000Z AUTO 00000KT 10SM CLR 17/15 A3006 170 90 400 000/00 RMK AO2 T01670150
53988KBKB BKB20190614154508506/14/19 15:45:31  5-MIN KBKB 142145Z AUTO M M M M /M RMK AO2 PWINO FZRANO TSNO PNO $
53988KBKB BKB20190614155009106/14/19 15:50:31  5-MIN KBKB 142150Z AUTO M M M M /M RMK AO2 SLPNO PWINO FZRANO TSNO PNO $
53988KBKB BKB20190614155508506/14/19 15:55:31  5-MIN KBKB 142155Z AUTO M M M M /M RMK AO2 PWINO FZRANO TSNO PNO $
53988KBKB BKB20190614160008506/14/19 16:00:31  5-MIN KBKB 142200Z AUTO M M M M /M RMK AO2 PWINO FZRANO TSNO PNO $
53988KBKB BKB20190614160508506/14/19 16:05:31  5-MIN KBKB 142205Z AUTO M M M M /M RMK AO2 PWINO FZRANO TSNO PNO $
53988KBKB BKB20190614161008506/14/19 16:10:31  5-MIN KBKB 142210Z AUTO M M M M /M RMK AO2 PWINO FZRANO TSNO PNO $
53988KBKB BKB20190614161508506/14/19 16:15:31  5-MIN KBKB 142215Z AUTO M M M M /M RMK AO2 PWINO FZRANO TSNO PNO $
53988KBKB BKB20190614162008506/14/19 16:20:31  5-MIN KBKB 142220Z AUTO M M M M /M RMK AO2 PWINO FZRANO TSNO PNO $
53988KBKB BKB20190614162508506/14/19 16:25:31  5-MIN KBKB 142225Z AUTO M M M M /M RMK AO2 PWINO FZRANO TSNO PNO $
53988KBKB BKB20190614163008506/14/19 16:30:31  5-MIN KBKB 142230Z AUTO M M M M /M RMK AO2 PWINO FZRANO TSNO PNO $
53988KBKB BKB20190614163508506/14/19 16:35:31  5-MIN KBKB 142235Z AUTO M M M M /M RMK AO2 PWINO FZRANO TSNO PNO $
53988KBKB BKB20190614164008506/14/19 16:40:31  5-MIN KBKB 142240Z AUTO M M M M /M RMK AO2 PWINO FZRANO TSNO PNO $
53988KBKB BKB20190614164508506/14/19 16:45:31  5-MIN KBKB 142245Z AUTO M M M M /M RMK AO2 PWINO FZRANO TSNO PNO $
53988KBKB BKB20190614165009106/14/19 16:50:31  5-MIN KBKB 142250Z AUTO M M M M /M RMK AO2 SLPNO PWINO FZRANO TSNO PNO $
53988KBKB BKB20190614165508506/14/19 16:55:31  5-MIN KBKB 142255Z AUTO M M M M /M RMK AO2 PWINO FZRANO TSNO PNO $
53988KBKB BKB20190614170008506/14/19 17:00:31  5-MIN KBKB 142300Z AUTO M M M M /M RMK AO2 PWINO FZRANO TSNO PNO $
53988KBKB BKB20190614170508506/14/19 17:05:31  5-MIN KBKB 142305Z AUTO M M M M /M RMK AO2 PWINO FZRANO TSNO PNO $
53988KBKB BKB20190614171008506/14/19 17:10:31  5-MIN KBKB 142310Z AUTO M M M M /M RMK AO2 PWINO FZRANO TSNO PNO $
53988KBKB BKB20190614171508506/14/19 17:15:31  5-MIN KBKB 142315Z AUTO M M M M /M RMK AO2 PWINO FZRANO TSNO PNO $
53988KBKB BKB20190614172008506/14/19 17:20:31  5-MIN KBKB 142320Z AUTO M M M M /M RMK AO2 PWINO FZRANO TSNO PNO $
53988KBKB BKB20190614172508506/14/19 17:25:31  5-MIN KBKB 142325Z AUTO M M M M /M RMK AO2 PWINO FZRANO TSNO PNO $
53988KBKB BKB20190614173011706/14/19 17:30:31  5-MIN KBKB 142330Z AUTO M M M M /M RMK AO2 PWINO FAO2 PWINO FZRANO TSNO PNO $06/14/19 17:50:31NO $
53988KBKB BKB20190614180508506/14/19 18:05:31  5-MIN KBKB 150005Z AUTO M M M M /M RMK AO2 PWINO FZRANO TSNO PNO $
53988KBKB BKB20190614181007906/14/19 18:10:31  5-MIN KBKB 150010Z AUTO VRB03KT A2995 M M M VRB/03 RMK AO2 $
53988KBKB BKB20190614181510106/14/19 18:15:31  5-MIN KBKB 150015Z AUTO 00000KT 29/19 A2995 270 54 2000 000/00 RMK AO2 T02890189 $
53988KBKB BKB20190614182010606/14/19 18:20:31  5-MIN KBKB 150020Z AUTO VRB04KT 10SM 28/19 A2995 270 56 1900 VRB/04 RMK AO2 T02830189 $
53988KBKB BKB20190614182510606/14/19 18:25:31  5-MIN KBKB 150025Z AUTO VRB03KT 10SM 28/19 A2995 270 56 1900 VRB/03 RMK AO2 T02830189 $
53988KBKB BKB20190614183010606/14/19 18:30:31  5-MIN KBKB 150030Z AUTO VRB03KT 10SM 28/19 A2996 270 56 1900 VRB/03 RMK AO2 T02830189 $
53988KBKB BKB20190614183510606/14/19 18:35:31  5-MIN KBKB 150035Z AUTO 00000KT 10SM 28/19 A2996 260 56 1900 000/00 RMK AO2 T02830189 $
53988KBKB BKB20190614184011306/14/19 18:40:31  5-MIN KBKB 150040Z AUTO VRB03KT 10SM SCT050 28/19 A2996 260 60 1800 VRB/03 RMK AO2 T02780194 $
53988KBKB BKB20190614184511306/14/19 18:45:31  5-MIN KBKB 150045Z AUTO VRB03KT 10SM FEW050 28/19 A2996 260 60 1800 VRB/03 RMK AO2 T02780194 $
53988KBKB BKB20190614185011906/14/19 18:50:31  5-MIN KBKB 150050Z AUTO VRB03KT 10SM FEW050 27/19 A2996 270 62 1800 VRB/03 RMK AO2 SLPNO T02720194 $
53988KBKB BKB20190614185511306/14/19 18:55:31  5-MIN KBKB 150055Z AUTO 00000KT 10SM FEW050 27/19 A2996 270 62 1800 000/00 RMK AO2 T02720194 $
53988KBKB BKB20190614190011306/14/19 19:00:31  5-MIN KBKB 150100Z AUTO 00000KT 10SM FEW050 27/19 A2996 260 62 1800 000/00 RMK AO2 T02720194 $
53988KBKB BKB20190614190511006/14/19 19:05:31  5-MIN KBKB 150105Z AUTO 00000KT 10SM CLR 27/19 A2996 270 64 1700 000/00 RMK AO2 T02670194 $
53988KBKB BKB20190614191016606/14/19 19:10:31  5-MIN KBKB 150110Z AUTO 00000KT 10SM CLR 27/19 A2996 270 64 1700 000/00 RMK AO2 T0000KT 10SM CLR 26/19 A2996 260 66 1600 000/00 RMK AO2 T02610194 $
53988KBKB BKB20190614194011006/14/19 19:40:31  5-MIN KBKB 150140Z AUTO VRB03KT 10SM CLR 26/19 A2996 260 66 1600 VRB/03 RMK AO2 T02610194 $
53988KBKB BKB20190614194511006/14/19 19:45:31  5-MIN KBKB 150145Z AUTO 00000KT 10SM CLR 26/19 A2996 260 68 1600 000/00 RMK AO2 T02560194 $
53988KBKB BKB20190614195011606/14/19 19:50:31  5-MIN KBKB 150150Z AUTO 00000KT 10SM CLR 26/19 A2996 260 66 1600 000/00 RMK AO2 SLPNO T02610194 $
53988KBKB BKB20190614195511006/14/19 19:55:31  5-MIN KBKB 150155Z AUTO 00000KT 10SM CLR 26/19 A2996 260 68 1600 000/00 RMK AO2 T02560194 $
53988KBKB BKB20190614200011006/14/19 20:00:31  5-MIN KBKB 150200Z AUTO 00000KT 10SM CLR 25/19 A2996 260 71 1500 000/00 RMK AO2 T02500194 $
53988KBKB BKB20190614200511006/14/19 20:05:31  5-MIN KBKB 150205Z AUTO 00000KT 10SM CLR 26/19 A2997 260 68 1600 000/00 RMK AO2 T02560194 $
53988KBKB BKB20190614201011006/14/19 20:10:31  5-MIN KBKB 150210Z AUTO 00000KT 10SM CLR 26/19 A2997 260 68 1600 000/00 RMK AO2 T02560194 $
53988KBKB BKB20190614201511006/14/19 20:15:31  5-MIN KBKB 150215Z AUTO 00000KT 10SM CLR 25/19 A2997 260 71 1500 000/00 RMK AO2 T02500194 $
53988KBKB BKB20190614202011006/14/19 20:20:31  5-MIN KBKB 150220Z AUTO 00000KT 10SM CLR 25/20 A2997 260 73 1500 000/00 RMK AO2 T02500200 $
53988KBKB BKB20190614202511006/14/19 20:25:31  5-MIN KBKB 150225Z AUTO 00000KT 10SM CLR 24/20 A2997 260 76 1400 000/00 RMK AO2 T02440200 $
53988KBKB BKB20190614203011006/14/19 20:30:31  5-MIN KBKB 150230Z AUTO 00000KT 10SM CLR 24/20 A2997 260 76 1400 000/00 RMK AO2 T02440200 $
53988KBKB BKB20190614203511006/14/19 20:35:31  5-MIN KBKB 150235Z AUTO 00000KT 10SM CLR 25/20 A2997 250 73 1500 000/00 RMK AO2 T02500200 $
53988KBKB BKB20190614204011006/14/19 20:40:31  5-MIN KBKB 150240Z AUTO 00000KT 10SM CLR 24/20 A2997 250 76 1400 000/00 RMK AO2 T02440200 $
53988KBKB BKB20190614204516006/14/19 20:45:31  5-MIN KBKB 150245Z AUTO 00000KT 10SM CL 22:05:31  5-MIN KBKB 150405Z AUTO 00000KT 10SM CLR 24/20 A2999 240 78 1400 000/00 RMK AO2 T02390200 $
53988KBKB BKB20190614221011006/14/19 22:10:31  5-MIN KBKB 150410Z AUTO 00000KT 10SM CLR 24/20 A2999 240 78 1400 000/00 RMK AO2 T02390200 $
53988KBKB BKB20190614221511006/14/19 22:15:31  5-MIN KBKB 150415Z AUTO 00000KT 10SM CLR 24/20 A2999 240 78 1400 000/00 RMK AO2 T02390200 $
53988KBKB BKB20190614222011006/14/19 22:20:31  5-MIN KBKB 150420Z AUTO 00000KT 10SM CLR 23/20 A2998 240 81 1300 000/00 RMK AO2 T02330200 $
53988KBKB BKB20190614222511006/14/19 22:25:31  5-MIN KBKB 150425Z AUTO 00000KT 10SM CLR 23/20 A2998 240 81 1300 000/00 RMK AO2 T02330200 $
53988KBKB BKB20190614223011006/14/19 22:30:31  5-MIN KBKB 150430Z AUTO 00000KT 10SM CLR 24/20 A2998 240 78 1400 000/00 RMK AO2 T02390200 $
53988KBKB BKB20190614223511006/14/19 22:35:31  5-MIN KBKB 150435Z AUTO 00000KT 10SM CLR 24/20 A2998 240 78 1400 000/00 RMK AO2 T02390200 $
53988KBKB BKB20190614224011006/14/19 22:40:31  5-MIN KBKB 150440Z AUTO 00000KT 10SM CLR 23/20 A2998 240 81 1300 000/00 RMK AO2 T02330200 $
53988KBKB BKB20190614224511006/14/19 22:45:31  5-MIN KBKB 150445Z AUTO 00000KT 10SM CLR 23/20 A2998 240 81 1300 000/00 RMK AO2 T02330200 $
53988KBKB BKB20190614225011606/14/19 22:50:31  5-MIN KBKB 150450Z AUTO 00000KT 10SM CLR 23/21 A2998 240 84 1300 000/00 RMK AO2 SLPNO T02330206 $
53988KBKB BKB20190614225511006/14/19 22:55:31  5-MIN KBKB 150455Z AUTO 00000KT 10SM CLR 23/21 A2998 240 84 1300 000/00 RMK AO2 T02330206 $
53988KBKB BKB20190614230011006/14/19 23:00:31  5-MIN KBKB 150500Z AUTO 00000KT 10SM CLR 23/21 A2998 250 84 1300 000/00 RMK AO2 T02330206 $
53988KBKB BKB20190614230511006/14/19 23:05:31  5-MIN KBKB 150505Z AUTO 00000KT 10SM CLR 23/21 A2998 250 84 1300 000/00 RMK AO2 T02330206 $
53988KBKB BKB20190614231011006/14/19 23:10:31  5-MIN KBKB 150510Z AUTO 00000KT 10SM CLR 23/21 A2998 250 84 1300 000/00 RMK AO2 T02330206 $
53988KBKB BKB20190614231511006/14/19 23:15:31  5-MIN KBKB 150515Z AUTO 00000KT 10SM CLR 23/21 A2998 250 84 1300 000/00 RMK AO2 T02330206 $
53988KBKB BKB20190614232011006/14/19 23:20:31  5-MIN KBKB 150520Z AUTO 00000KT 10SM CLR 23/21 A2998 250 84 1300 000/00 RMK AO2 T02330206 $
53988KBKB BKB20190614232511006/14/19 23:25:31  5-MIN KBKB 150525Z AUTO 00000KT 10SM CLR 23/21 A2998 240 84 1300 000/00 RMK AO2 T02330206 $
53988KBKB BKB20190614233011006/14/19 23:30:31  5-MIN KBKB 150530Z AUTO 00000KT 10SM CLR 23/21 A2998 250 84 1300 000/00 RMK AO2 T02330206 $
53988KBKB BKB20190614233511006/14/19 23:35:31  5-MIN KBKB 150535Z AUTO 00000KT 10SM CLR 23/21 A2998 250 84 1300 000/00 RMK AO2 T02330206 $
53988KBKB BKB20190614234011006/14/19 23:40:31  5-MIN KBKB 150540Z AUTO 00000KT 10SM CLR 23/21 A2997 250 84 1300 000/00 RMK AO2 T02330206 $
53988KBKB BKB20190614234511006/14/19 23:45:31  5-MIN KBKB 150545Z AUTO VRB03KT 10SM CLR 23/21 A2997 250 84 1300 VRB/03 RMK AO2 T02330206 $
53988KBKB BKB20190614235014406/14/19 23:50:31  5-MIN KBKB 150550Z AUTO 00000KT 10SM CLR 23/21 A2997 250 84 1300 000/00 RMK AO2 SLPNO 6//// T02330206 10289 20233 402890233 $
53988KBKB BKB20190614235511006/14/19 23:55:31  5-MIN KBKB 150555Z AUTO 00000KT 10SM CLR 23/21 A2997 250 84 1300 000/00 RMK AO2 T02330206 $
53988KBKB BKB20190615000011006/15/19 00:00:31  5-MIN KBKB 150600Z AUTO 00000KT 10SM CLR 23/21 A2997 250 84 1300 000/00 RMK AO2 T02330206 $
53988KBKB BKB20190615000511006/15/19 00:05:31  5-MIN KBKB 150605Z AUTO VRB04KT 10SM CLR 23/21 A2997 250 84 1300 VRB/04 RMK AO2 T02330206 $
53988KBKB BKB20190615001011006/15/19 00:10:31  5-MIN KBKB 150610Z AUTO 00000KT 10SM CLR 23/21 A2997 250 84 1300 000/00 RMK AO2 T02330206 $
53988KBKB BKB20190615001511006/15/19 00:15:31  5-MIN KBKB 150615Z AUTO VRB03KT 10SM CLR 23/21 A2997 250 87 1300 VRB/03 RMK AO2 T02280206 $
53988KBKB BKB20190615002011006/15/19 00:20:31  5-MIN KBKB 150620Z AUTO VRB03KT 10SM CLR 23/21 A2997 260 87 1300 VRB/03 RMK AO2 T02280206 $
53988KBKB BKB20190615002511006/15/19 00:25:31  5-MIN KBKB 150625Z AUTO VRB03KT 10SM CLR 23/21 A2996 260 84 1300 VRB/03 RMK AO2 T02330206 $
53988KBKB BKB20190615003011006/15/19 00:30:31  5-MIN KBKB 150630Z AUTO VRB03KT 10SM CLR 23/21 A2996 260 84 1300 VRB/03 RMK AO2 T02330206 $
53988KBKB BKB20190615003511006/15/19 00:35:31  5-MIN KBKB 150635Z AUTO VRB04KT 10SM CLR 23/21 A2996 260 87 1300 VRB/04 RMK AO2 T02280206 $
53988KBKB BKB20190615004011006/15/19 00:40:31  5-MIN KBKB 150640Z AUTO 00000KT 10SM CLR 23/21 A2996 260 84 1300 000/00 RMK AO2 T02330206 $
53988KBKB BKB20190615004511006/15/19 00:45:31  5-MIN KBKB 150645Z AUTO 00000KT 10SM CLR 23/21 A2996 260 87 1300 000/00 RMK AO2 T02280206 $
53988KBKB BKB20190615005011606/15/19 00:50:31  5-MIN KBKB 150650Z AUTO 00000KT 10SM CLR 23/21 A2996 260 87 1300 000/00 RMK AO2 SLPNO T02280206 $
53988KBKB BKB20190615005508206/15/19 00:55:31  5-MIN KBKB 150655Z AUTO 00000KT 10SM CLR 23/21 A2996 260 87 130
53988KBKB BKB20190615011011006/15/19 01:10:31  5-MIN KBKB 150710Z AUTO 00000KT 10SM CLR 23/21 A2996 260 87 1300 000/00 RMK AO2 T02280206 $
53988KBKB BKB20190615011511006/15/19 01:15:31  5-MIN KBKB 150715Z AUTO 00000KT 10SM CLR 23/21 A2996 260 87 1300 000/00 RMK AO2 T02280206 $
53988KBKB BKB20190615012019206/15/19 01:20:31  5-MIN KBKB 150720Z AUTO 00000KT 10SM CLR 23/21 A2996 260 87 1300 000/00 RMK AO2 T02280206 $06/15/19 01:25:31 00KT 10SM CLR 22/21 A2995 270 90 1200 000/00 RMK AO2 T02220206 $
53988KBKB BKB20190615014011006/15/19 01:40:31  5-MIN KBKB 150740Z AUTO 00000KT 10SM CLR 22/21 A2995 270 90 1200 000/00 RMK AO2 T02220206 $
53988KBKB BKB20190615014511006/15/19 01:45:31  5-MIN KBKB 150745Z AUTO 00000KT 10SM CLR 22/21 A2995 270 90 1200 000/00 RMK AO2 T02220206 $
53988KBKB BKB20190615015011606/15/19 01:50:31  5-MIN KBKB 150750Z AUTO 00000KT 10SM CLR 22/21 A2995 270 90 1200 000/00 RMK AO2 SLPNO T02220206 $
53988KBKB BKB20190615015511006/15/19 01:55:31  5-MIN KBKB 150755Z AUTO 00000KT 10SM CLR 22/21 A2995 270 90 1200 000/00 RMK AO2 T02220206 $
53988KBKB BKB20190615020011006/15/19 02:00:31  5-MIN KBKB 150800Z AUTO 00000KT 10SM CLR 22/21 A2995 270 90 1200 000/00 RMK AO2 T02220206 $
53988KBKB BKB20190615020511006/15/19 02:05:31  5-MIN KBKB 150805Z AUTO 00000KT 10SM CLR 22/21 A2995 270 90 1200 000/00 RMK AO2 T02220206 $
53988KBKB BKB20190615021011006/15/19 02:10:31  5-MIN KBKB 150810Z AUTO 00000KT 10SM CLR 22/21 A2995 270 90 1200 000/00 RMK AO2 T02220206 $
53988KBKB BKB20190615021511006/15/19 02:15:31  5-MIN KBKB 150815Z AUTO 00000KT 10SM CLR 22/21 A2995 270 90 1200 000/00 RMK AO2 T02220206 $
53988KBKB BKB20190615022011006/15/19 02:20:31  5-MIN KBKB 150820Z AUTO 00000KT 10SM CLR 22/21 A2995 270 90 1200 000/00 RMK AO2 T02220206 $
53988KBKB BKB20190615022511006/15/19 02:25:31  5-MIN KBKB 150825Z AUTO 00000KT 10SM CLR 22/21 A2995 270 90 1200 000/00 RMK AO2 T02220206 $
53988KBKB BKB20190615023011006/15/19 02:30:31  5-MIN KBKB 150830Z AUTO 00000KT 10SM CLR 23/21 A2995 270 87 1300 000/00 RMK AO2 T02280206 $
53988KBKB BKB20190615023511006/15/19 02:35:31  5-MIN KBKB 150835Z AUTO 00000KT 10SM CLR 22/21 A2995 270 90 1200 000/00 RMK AO2 T02220206 $
53988KBKB BKB20190615024011006/15/19 02:40:31  5-MIN KBKB 150840Z AUTO 00000KT 10SM CLR 22/21 A2995 270 90 1200 000/00 RMK AO2 T02220206 $
53988KBKB BKB20190615024511006/15/19 02:45:31  5-MIN KBKB 150845Z AUTO 00000KT 10SM CLR 22/21 A2995 270 90 1200 000/00 RMK AO2 T02220206 $
53988KBKB BKB20190615024511006/15/19 02:45:31  5-MIN KBKB 150845Z AUTO 00000KT 10SM CLR 22/21 A2995 270 90 1200 130/03 RMK AO2 T02220206 $
53988KBKB BKB20190615025012206/15/19 02:50:31  5-MIN KBKB 150850Z AUTO 00000KT 10SM CLR 22/21 A2995 270 90 1200 000/00 RMK AO2 SLPNO T02220206 58001 $
53988KBKB BKB20190615025511006/15/19 02:55:31  5-MIN KBKB 150855Z AUTO 00000KT 10SM CLR 22/21 A2995 270 90 1200 000/00 RMK AO2 T02220206 $
53988KBKB BKB20190615030011006/15/19 03:00:31  5-MIN KBKB 150900Z AUTO 00000KT 10SM CLR 22/21 A2995 270 93 1200 000/00 RMK AO2 T02220211 $
53988KBKB BKB20190615030511006/15/19 03:05:31  5-MIN KBKB 150905Z AUTO 00000KT 10SM CLR 22/21 A2995 270 90 1200 000/00 RMK AO2 T02220206 $
53988KBKB BKB20190615031011006/15/19 03:10:31  5-MIN KBKB 150910Z AUTO 14003KT 10SM CLR 22/21 A2995 270 90 1200 130/03 RMK AO2 T02220206 $
53988KBKB BKB20190615031511006/15/19 03:15:31  5-MIN KBKB 150915Z AUTO 00000KT 10SM CLR 22/21 A2995 270 90 1200 000/00 RMK AO2 T02220206 $
53988KBKB BKB20190615032011006/15/19 03:20:31  5-MIN KBKB 150920Z AUTO 00000KT 10SM CLR 22/21 A2996 270 90 1200 000/00 RMK AO2 T02220206 $
53988KBKB BKB20190615032511006/15/19 03:25:31  5-MIN KBKB 150925Z AUTO VRB03KT 10SM CLR 22/21 A2995 270 93 1200 VRB/03 RMK AO2 T02220211 $
53988KBKB BKB20190615033011006/15/19 03:30:31  5-MIN KBKB 150930Z AUTO 00000KT 10SM CLR 22/21 A2995 270 90 1200 000/00 RMK AO2 T02220206 $
53988KBKB BKB20190615033511006/15/19 03:35:31  5-MIN KBKB 150935Z AUTO 00000KT 10SM CLR 22/21 A2996 270 93 1200 000/00 RMK AO2 T02220211 $
53988KBKB BKB20190615034011006/15/19 03:40:31  5-MIN KBKB 150940Z AUTO 00000KT 10SM CLR 22/21 A2996 260 93 1200 000/00 RMK AO2 T02220211 $
53988KBKB BKB20190615034511006/15/19 03:45:31  5-MIN KBKB 150945Z AUTO 00000KT 10SM CLR 22/21 A2996 270 93 1200 000/00 RMK AO2 T02220211 $
53988KBKB BKB20190615035011606/15/19 03:50:31  5-MIN KBKB 150950Z AUTO 00000KT 10SM CLR 22/21 A2995 270 93 1200 000/00 RMK AO2 SLPNO T02220211 $
53988KBKB BKB20190615035511006/15/19 03:55:31  5-MIN KBKB 150955Z AUTO 00000KT 10SM CLR 22/21 A2996 270 93 1200 000/00 RMK AO2 T02220211 $
53988KBKB BKB20190615040010906/15/19 04:00:31  5-MIN KBKB 151000Z AUTO 00000KT 9SM CLR 22/21 A2996 260 93 1200 000/00 RMK AO2 T02220211 $
53988KBKB BKB20190615040510906/15/19 04:05:31  5-MIN KBKB 151005Z AUTO 00000KT 9SM CLR 22/21 A2996 260 93 1200 000/00 RMK AO2 T02220211 $
53988KBKB BKB20190615041010906/15/19 04:10:31  5-MIN KBKB 151010Z AUTO 00000KT 9SM CLR 22/21 A2996 260 93 1200 000/00 RMK AO2 T02220211 $
53988KBKB BKB20190615041510906/15/19 04:15:31  5-MIN KBKB 151015Z AUTO 00000KT 9SM CLR 22/21 A2996 260 93 1200 000/00 RMK AO2 T02220211 $
53988KBKB BKB20190615042013106/15/19 04:20:31  5-MIN KBKB 151020Z AUTO 00000KT 10SM CLR 23/21 A2996 260 90 /22 A2997 250 250 93 1300 000/00 RMK AO2 T02280217 $
53988KBKB BKB20190615053511206/15/19 05:35:31  5-MIN KBKB 151135Z AUTO 00000KT 5SM BR CLR 23/22 A2997 250 93 1300 000/00 RMK AO2 T02280217 $
53988KBKB BKB20190615054011206/15/19 05:40:31  5-MIN KBKB 151140Z AUTO 00000KT 6SM BR CLR 23/22 A2997 250 97 1300 000/00 RMK AO2 T02280222 $
53988KBKB BKB20190615054510906/15/19 05:45:31  5-MIN KBKB 151145Z AUTO 00000KT 7SM CLR 23/22 A2998 250 93 1300 000/00 RMK AO2 T02330222 $
53988KBKB BKB20190615055013906/15/19 05:50:31  5-MIN KBKB 151150Z AUTO 00000KT 8SM CLR 23/22 A2998 250 93 1300 000/00 RMK AO2 SLPNO 7//// T02330222 10233 20217 55007 $
53988KBKB BKB20190615055510906/15/19 05:55:31  5-MIN KBKB 151155Z AUTO VRB03KT 8SM CLR 23/22 A2998 250 93 1300 VRB/03 RMK AO2 T02330222 $
53988KBKB BKB20190615060010906/15/19 06:00:31  5-MIN KBKB 151200Z AUTO 00000KT 9SM CLR 23/22 A2998 250 93 1300 000/00 RMK AO2 T02330222 $
53988KBKB BKB20190615060510906/15/19 06:05:31  5-MIN KBKB 151205Z AUTO 00000KT 9SM CLR 23/22 A2998 250 93 1300 000/00 RMK AO2 T02330222 $
53988KBKB BKB20190615061011006/15/19 06:10:31  5-MIN KBKB 151210Z AUTO 00000KT 10SM CLR 23/22 A2997 250 93 1300 000/00 RMK AO2 T02330222 $
53988KBKB BKB20190615061511006/15/19 06:15:31  5-MIN KBKB 151215Z AUTO VRB03KT 10SM CLR 24/22 A2998 250 90 1400 VRB/03 RMK AO2 T02390222 $
53988KBKB BKB20190615062011306/15/19 06:20:31  5-MIN KBKB 151220Z AUTO 00000KT 10SM FEW005 24/23 A2998 250 93 1400 000/00 RMK AO2 T02390228 $
53988KBKB BKB20190615062511306/15/19 06:25:31  5-MIN KBKB 151225Z AUTO VRB04KT 10SM FEW005 24/23 A2998 250 90 1400 VRB/04 RMK AO2 T02440228 $
53988KBKB BKB20190615063011306/15/19 06:30:31  5-MIN KBKB 151230Z AUTO VRB03KT 10SM FEW005 24/23 A2998 240 90 1400 VRB/03 RMK AO2 T02440228 $
53988KBKB BKB20190615063510006/15/19 06:35:31  5-MIN KBKB 151235Z AUTO VRB03KT 10SM FEW005 24/23 A2998 240 90 14 AO2 T02890233 $
53988KBKB BKB20190615092012706/15/19 09:20:31  5-MIN KBKB 151520Z AUTO VRB04KT 10SM FEW021 SCT026 BKN045 28/23 A2999 230 74 1900 VRB/04 RMK AO2 T02830233 $
53988KBKB BKB20190615092512706/15/19 09:25:31  5-MIN KBKB 151525Z AUTO VRB04KT 10SM FEW021 FEW025 SCT034 29/23 A2999 230 71 1900 VRB/04 RMK AO2 T02890233 $
53988KBKB BKB20190615093012006/15/19 09:30:31  5-MIN KBKB 151530Z AUTO VRB04KT 10SM FEW020 SCT025 29/23 A2999 230 71 1900 VRB/04 RMK AO2 T02890233 $
53988KBKB BKB20190615093512706/15/19 09:35:31  5-MIN KBKB 151535Z AUTO VRB04KT 10SM SCT025 BKN033 BKN043 29/23 A2999 230 71 1900 VRB/04 RMK AO2 T02890233 $
53988KBKB BKB20190615094011306/15/19 09:40:31  5-MIN KBKB 151540Z AUTO 21006KT 10SM SCT025 30/23 A2999 230 67 2000 200/06 RMK AO2 T03000233 $
53988KBKB BKB20190615094512006/15/19 09:45:31  5-MIN KBKB 151545Z AUTO VRB04KT 10SM BKN025 BKN040 31/23 A2999 230 65 2100 VRB/04 RMK AO2 T03060233 $
53988KBKB BKB20190615095012706/15/19 09:50:31  5-MIN KBKB 151550Z AUTO VRB04KT 10SM SCT026 BKN034 31/23 A2999 230 65 2100 VRB/04 RMK AO2 SLP180 T03060233 $
53988KBKB BKB20190615095512006/15/19 09:55:31  5-MIN KBKB 151555Z AUTO VRB05KT 10SM SCT026 SCT040 31/23 A2999 230 62 2100 VRB/05 RMK AO2 T03060228 $
53988KBKB BKB20190615100018406/15/19 10:00:31  5-MIN KBKB 151600Z AUTO VRB05KT 10SM SCT028 SCT038 BKN050 31/23 A2999 230 62 2100 VRB/05 RMK AO2 T03060228 $SCT050 31/23 A2999 240 60 2200 VRB/05 RMK AO2 T03110228 $
53988KBKB BKB20190615103012006/15/19 10:30:31  5-MIN KBKB 151630Z AUTO VRB03KT 10SM FEW032 SCT042 32/23 A2998 240 59 2300 VRB/03 RMK AO2 T03220233 $
53988KBKB BKB20190615103512706/15/19 10:35:31  5-MIN KBKB 151635Z AUTO VRB06KT 10SM SCT034 SCT043 SCT055 32/23 A2999 240 58 2200 VRB/06 RMK AO2 T03170228 $
53988KBKB BKB20190615104011706/15/19 10:40:31  5-MIN KBKB 151640Z AUTO 10SM FEW034 SCT042 SCT050 32/23 A2998 240 57 2300 M /M RMK AO2 T03220228 $
53988KBKB BKB20190615104511306/15/19 10:45:31  5-MIN KBKB 151645Z AUTO VRB05KT 10SM SCT037 32/23 A2998 240 57 2300 VRB/05 RMK AO2 T03220228 $
53988KBKB BKB20190615105012006/15/19 10:50:31  5-MIN KBKB 151650Z AUTO VRB04KT 10SM FEW037 32/23 A2998 240 57 2300 VRB/04 RMK AO2 SLP177 T03220228 $
53988KBKB BKB20190615105512006/15/19 10:55:31  5-MIN KBKB 151655Z AUTO VRB05KT 10SM FEW037 SCT055 33/23 A2998 240 55 2400 VRB/05 RMK AO2 T03280228 $
53988KBKB BKB20190615110012006/15/19 11:00:31  5-MIN KBKB 151700Z AUTO VRB06KT 10SM FEW037 FEW055 33/23 A2998 240 55 2400 VRB/06 RMK AO2 T03280228 $
53988KBKB BKB20190615110511306/15/19 11:05:31  5-MIN KBKB 151705Z AUTO VRB05KT 10SM FEW037 32/23 A2998 240 57 2300 VRB/05 RMK AO2 T03220228 $
53988KBKB BKB20190615111011306/15/19 11:10:31  5-MIN KBKB 151710Z AUTO VRB04KT 10SM SCT037 32/23 A2997 250 57 2300 VRB/04 RMK AO2 T03220228 $
53988KBKB BKB20190615111512006/15/19 11:15:31  5-MIN KBKB 151715Z AUTO VRB04KT 10SM FEW037 SCT044 32/23 A2997 250 57 2300 VRB/04 RMK AO2 T03220228 $
53988KBKB BKB20190615112012006/15/19 11:20:31  5-MIN KBKB 151720Z AUTO VRB06KT 10SM FEW039 SCT055 33/23 A2997 250 57 2400 VRB/06 RMK AO2 T03280233 $
53988KBKB BKB20190615112510606/15/19 11:25:31  5-MIN KBKB 151725Z AUTO VRB04KT 10SM SCT037 SCT055 0 57 2400 VRB/06 RMK AO2 T03280233 $
53988KBKB BKB20190615115014506/15/19 11:50:31  5-MIN KBKB 151750Z AUTO VRB06KT 10SM SCT037 SCT055 33/23 A2996 260 53 2400 VRB/06 RMK AO2 SLP171 T03330228 10333 20233 50006 $
53988KBKB BKB20190615115512006/15/19 11:55:31  5-MIN KBKB 151755Z AUTO VRB05KT 10SM FEW036 SCT060 33/22 A2996 260 53 2400 VRB/05 RMK AO2 T03280222 $
53988KBKB BKB20190615120011006/15/19 12:00:31  5-MIN KBKB 151800Z AUTO 10SM FEW034 FEW060 33/23 A2995 270 53 2500 M /M RMK AO2 T03330228 $
53988KBKB BKB20190615120512006/15/19 12:05:31  5-MIN KBKB 151805Z AUTO VRB03KT 10SM FEW037 FEW050 33/23 A2995 270 53 2500 VRB/03 RMK AO2 T03330228 $
53988KBKB BKB20190615121011306/15/19 12:10:31  5-MIN KBKB 151810Z AUTO 16005KT 10SM FEW035 33/23 A2995 270 53 2500 160/05 RMK AO2 T03330228 $
53988KBKB BKB20190615121511306/15/19 12:15:31  5-MIN KBKB 151815Z AUTO VRB05KT 10SM FEW037 33/23 A2995 270 55 2400 VRB/05 RMK AO2 T03280228 $
53988KBKB BKB20190615122011306/15/19 12:20:31  5-MIN KBKB 151820Z AUTO VRB05KT 10SM SCT037 33/23 A2994 280 55 2400 VRB/05 RMK AO2 T03280228 $
53988KBKB BKB20190615122511006/15/19 12:25:31  5-MIN KBKB 151825Z AUTO 10SM SCT039 SCT048 33/23 A2994 280 53 2500 M /M RMK AO2 T03330228 $
53988KBKB BKB20190615123012006/15/19 12:30:31  5-MIN KBKB 151830Z AUTO 20003KT 10SM SCT039 BKN048 33/23 A2994 280 55 2400 190/03 RMK AO2 T03280228 $
53988KBKB BKB20190615123512006/15/19 12:35:31  5-MIN KBKB 151835Z AUTO VRB05KT 10SM SCT039 BKN048 33/23 A2994 280 57 2400 VRB/05 RMK AO2 T03280233 $
53988KBKB BKB20190615124012006/15/19 12:40:31  5-MIN KBKB 151840Z AUTO VRB05KT 10SM SCT039 BKN048 33/23 A2994 280 53 2500 VRB/05 RMK AO2 T03330228 $
53988KBKB BKB20190615124512006/15/19 12:45:31  5-MIN KBKB 151845Z AUTO VRB04KT 10SM SCT041 BKN048 33/22 A2994 280 51 2500 VRB/04 RMK AO2 T03330222 $
53988KBKB BKB20190615125009606/15/19 12:50:31  5-MIN KBKB 151850Z AUTO VRB04KT  A2993 290 50 2600 VRB/04 RMK AO2 T03440228 $
53988KBKB BKB20190615131511306/15/19 13:15:31  5-MIN KBKB 151915Z AUTO VRB04KT 10SM SCT041 34/23 A2993 290 51 2500 VRB/04 RMK AO2 T03390228 $
53988KBKB BKB20190615132011306/15/19 13:20:31  5-MIN KBKB 151920Z AUTO VRB05KT 10SM SCT041 32/22 A2993 290 56 2300 VRB/05 RMK AO2 T03170222 $
53988KBKB BKB20190615132512006/15/19 13:25:31  5-MIN KBKB 151925Z AUTO VRB04KT 10SM FEW041 SCT050 31/22 A2993 290 58 2200 VRB/04 RMK AO2 T03110222 $
53988KBKB BKB20190615133012706/15/19 13:30:31  5-MIN KBKB 151930Z AUTO VRB03KT 10SM FEW039 SCT050 SCT070 31/22 A2993 290 60 2200 VRB/03 RMK AO2 T03060222 $
53988KBKB BKB20190615133513606/15/19 13:35:31  5-MIN KBKB 151935Z AUTO VRB04KT 10SM TS FEW039 SCT050 SCT070 31/22 A2993 290 60 2200 VRB/04 RMK AO2 TSB33 T03060222 $
53988KBKB BKB20190615134011906/15/19 13:40:31  5-MIN KBKB 151940Z AUTO 10SM TS FEW039 FEW050 31/23 A2993 290 62 2200 M /M RMK AO2 TSB33 T03060228 $
53988KBKB BKB20190615134513606/15/19 13:45:31  5-MIN KBKB 151945Z AUTO 20008KT 10SM TS FEW029 SCT041 BKN110 29/23 A2993 280 67 2000 200/08 RMK AO2 TSB33 T02940228 $
53988KBKB BKB20190615135015606/15/19 13:50:31  5-MIN KBKB 151950Z AUTO 21005KT 4SM TSRA FEW034 SCT050 BKN070 27/23 A2995 270 76 1800 210/05 RMK AO2 RAB48 TSB33 SLP166 P0003 T02720228 $
53988KBKB BKB20190615135514406/15/19 13:55:31  5-MIN KBKB 151955Z AUTO VRB05KT 2 1/2SM TSRA BR FEW034 SCT070 BKN100 25/23 A2995 270 87 1500 VRB/05 RMK AO2 P0000 T02500228 $
53988KBKB BKB20190615140014106/15/19 14:00:31  5-MIN KBKB 152000Z AUTO VRB03KT 4SM -TSRA BR FEW033 FEW070 BKN110 25/23 A2994 280 90 1500 VRB/03 RMK AO2 P0001 T02500233 $
53988KBKB BKB20190615140517806/15/19 14:05:31  5-MIN KBKB 152005Z AUTO VRB03KT 4SM -TSRA BR FEW033 FEW070 BKN110 25/23 A2994 280 90 1500 VRB/03 RMK AO2 P0001 T02500233 $06/15/19 1421 TSE23 P0002 T02500233 $
53988KBKB BKB20190615143013106/15/19 14:30:31  5-MIN KBKB 152030Z AUTO 00000KT 10SM SCT110 26/24 A2994 280 90 1600 000/00 RMK AO2 RAE21 TSE23 P0002 T02560239 $
53988KBKB BKB20190616114011306/16/19 11:40:31  5-MIN KBKB 161740Z AUTO VRB06KT 10SM FEW045 31/21 A2992 300 53 2200 VRB/06 RMK AO2 T03110206 $
53988KBKB BKB20190616114511306/16/19 11:45:31  5-MIN KBKB 161745Z AUTO VRB05KT 10SM FEW045 32/21 A2992 300 51 2400 VRB/05 RMK AO2 T03220211 $
53988KBKB BKB20190616115014506/16/19 11:50:31  5-MIN KBKB 161750Z AUTO VRB04KT 10SM FEW047 SCT055 33/22 A2992 300 51 2400 VRB/04 RMK AO2 SLP156 T03280217 10328 20244 53006 $
53988KBKB BKB20190616115512006/16/19 11:55:31  5-MIN KBKB 161755Z AUTO VRB06KT 10SM FEW047 FEW055 32/21 A2992 300 49 2400 VRB/06 RMK AO2 T03220206 $
53988KBKB BKB20190616120011306/16/19 12:00:31  5-MIN KBKB 161800Z AUTO VRB04KT 10SM FEW046 32/21 A2992 300 49 2400 VRB/04 RMK AO2 T03220206 $
53988KBKB BKB20190616120511306/16/19 12:05:31  5-MIN KBKB 161805Z AUTO VRB03KT 10SM FEW049 33/21 A2992 300 49 2400 VRB/03 RMK AO2 T03280211 $
53988KBKB BKB20190616121011306/16/19 12:10:31  5-MIN KBKB 161810Z AUTO VRB03KT 10SM FEW047 33/21 A2992 300 49 2400 VRB/03 RMK AO2 T03280211 $
53988KBKB BKB20190616121511306/16/19 12:15:31  5-MIN KBKB 161815Z AUTO VRB04KT 10SM FEW047 33/21 A2992 300 49 2400 VRB/04 RMK AO2 T03280211 $
53988KBKB BKB20190616122011306/16/19 12:20:31  5-MIN KBKB 161820Z AUTO VRB04KT 10SM FEW047 33/21 A2992 300 48 2400 VRB/04 RMK AO2 T03280206 $
53988KBKB BKB20190616122511306/16/19 12:25:31  5-MIN KBKB 161825Z AUTO VRB06KT 10SM FEW047 33/21 A2992 300 48 2400 VRB/06 RMK AO2 T03280206 $
53988KBKB BKB20190616123011306/16/19 12:30:31  5-MIN KBKB 161830Z AUTO VRB06KT 10SM FEW047 33/21 A2992 300 48 2400 VRB/06 RMK AO2 T03280206 $
53988KBKB BKB20190616123512006/16/19 12:35:31  5-MIN KBKB 161835Z AUTO VRB04KT 10SM FEW047 FEW055 33/21 A2992 300 48 2400 VRB/04 RMK AO2 T03280206 $
53988KBKB BKB20190616124012006/16/19 12:40:31  5-MIN KBKB 161840Z AUTO VRB04KT 10SM FEW048 SCT060 33/21 A2992 300 48 2400 VRB/04 RMK AO2 T03280206 $
53988KBKB BKB20190616124512006/16/19 12:45:31  5-MIN KBKB 161845Z AUTO VRB04KT 10SM SCT050 SCT060 32/21 A2992 300 49 2400 VRB/04 RMK AO2 T03220206 $
53988KBKB BKB20190616125012006/16/19 12:50:31  5-MIN KBKB 161850Z AUTO VRB06KT 10SM SCT050 33/21 A2992 300 49 2400 VRB/06 RMK AO2 SLP156 T03280211 $
53988KBKB BKB20190616125512006/16/19 12:55:31  5-MIN KBKB 161855Z AUTO VRB04KT 10SM FEW050 SCT060 33/21 A2992 300 49 2400 VRB/04 RMK AO2 T03280211 $
53988KBKB BKB20190616130011706/16/19 13:00:31  5-MIN KBKB 161900Z AUTO 10SM SCT050 BKN060 32/21 A2995 270 51 2300 M /M RMK AO2 PRESRR T03220211 $
53988KBKB BKB20190616130513306/16/19 13:05:31  5-MIN KBKB 161905Z AUTO 01009G19KT 10SM FEW030 BKN050 27/19 A2995 270 64 1700 010/09G19 RMK AO2 PRESRR T02670194 $
53988KBKB BKB20190616131015906/16/19 13:10:31  5-MIN KBKB 161910Z AUTO VRB03G19KT 1 3/4SM +RA FEW017 SCT033 BKN050 23/19 A2996 260 76 1300 VRB/03G19 RMK AO2 RAB08 PRESRR P0009 T02330189 $
53988KBKB BKB20190616131515606/16/19 13:15:31  5-MIN KBKB 161915Z AUTO 03006KT 1 1/4SM -RA BR FEW017 BKN032 BKN049 22/19 A2998 240 87 1100 020/06 RMK AO2 RAB08 PRESRR P0011 T02170194 $
53988KBKB BKB20190616132015306/16/19 13:20:31  5-MIN KBKB 161920Z AUTO 01005KT 2SM -TSRA BR FEW019 BKN032 OVC049 22/19 A2997 250 87 1100 360/05 RMK AO2 RAB08 TSB16 P0012 T02170194 $
53988KBKB BKB20190616132516806/16/19 13:25:31  5-MIN KBKB 161925Z AUTO 01007KT 310V070 4SM TSRA BR SCT017 BKN030 OVC049 22/21 A2998 250 90 1200 360/07 310V070 RMK AO2 RAB08 TSB16 P0014 T02220206 $
53988KBKB BKB20190616133016906/16/19 13:30:31  5-MIN KBKB 161930Z AUTO 01008KT 330V040 5SM -TSRA BR SCT014 BKN030 OVC036 21/19 A2998 250 90 1100 360/08 330V040 RMK AO2 RAB08 TSB16 P0014 T02110194 $
53988KBKB BKB20190616133516706/16/19 13:35:31  5-MIN KBKB 161935Z AUTO 01007KT 200V050 10SM -TSRA FEW011 BKN030 OVC036 21/19 A2998 240 90 1000 360/07 200V050 RMK AO2 RAB08 TSB16 P0014 T02110194 $
53988KBKB BKB20190616134019706/16/19 13:40:31  5-MIN KBKB 161940Z AUTO 36009G18KT 10SM -TSRA FEW011 SCT019KB 162030Z AUTO 00000KT 10SM -RA FEW019 BKN048 OVC060 21/19 A3000 220 93 1000 000/00 RMK AO2 TSB09E24 P0010 T02060194 $
53988KBKB BKB20190616143514506/16/19 14:35:31  5-MIN KBKB 162035Z AUTO VRB04KT 8SM -RA FEW026 BKN046 OVC055 21/19 A3000 220 93 1000 VRB/04 RMK AO2 TSB09E24 P0011 T02060194 $
53988KBKB BKB20190616144014706/16/19 14:40:31  5-MIN KBKB 162040Z AUTO 00000KT 4SM RA BR FEW034 BKN046 OVC055 21/19 A3000 220 93 1000 000/00 RMK AO2 TSB09E24 P0012 T02060194 $
53988KBKB BKB20190616144515206/16/19 14:45:31  5-MIN KBKB 162045Z AUTO 00000KT 1 1/2SM +RA BR FEW034 BKN046 OVC060 21/19 A3001 210 93 1000 000/00 RMK AO2 TSB09E24 P0016 T02060194 $
53988KBKB BKB20190616145016606/16/19 14:50:31  5-MIN KBKB 162050Z AUTO VRB03KT 1SM RA BR FEW033 BKN046 OVC055 21/19 A3001 220 93 1000 VRB/03 RMK AO2 TSB09E24 SLP188 P0019 60037 T02060194 58014 $
53988KBKB BKB20190616145513206/16/19 14:55:31  5-MIN KBKB 162055Z AUTO VRB04KT 2SM -RA BR FEW033 OVC046 21/19 A3000 220 93 1000 VRB/04 RMK AO2 P0000 T02060194 $
53988KBKB BKB20190616150013606/16/19 15:00:31  5-MIN KBKB 162100Z AUTO VRB03KT 9SM -RA FEW034 BKN046 OVC070 21/19 A3000 220 90 1000 VRB/03 RMK AO2 P0000 T02110194 $
53988KBKB BKB20190616150513906/16/19 15:05:31  5-MIN KBKB 162105Z AUTO 00000KT 10SM FEW032 BKN046 OVC065 21/20 A3000 220 93 1000 000/00 RMK AO2 RAE05 P0000 T02110200 $
53988KBKB BKB20190616151013006/16/19 15:10:31  5-MIN KBKB 162110Z AUTO VRB04KT 10SM -RA SCT046 OVC060 21/19 A3000 220 93 1000 VRB/04 RMK AO2 P0000 T02060194 $
53988KBKB BKB20190616151513706/16/19 15:15:31  5-MIN KBKB 162115Z AUTO VRB03KT 10SM -RA FEW046 BKN060 OVC070 21/19 A3000 220 90 1000 VRB/03 RMK AO2 P0000 T02110194 $
53988KBKB BKB20190616152013006/16/19 15:20:31  5-MIN KBKB 162120Z AUTO VRB03KT 10SM -RA BKN055 OVC070 21/19 A3000 220 93 1000 VRB/03 RMK AO2 P0000 T02060194 $
53988KBKB BKB20190616152512306/16/19 15:25:31  5-MIN KBKB 162125Z AUTO VRB03KT 10SM -RA OVC060 21/19 A3001 220 93 1000 VRB/03 RMK AO2 P0000 T02060194 $
53988KBKB BKB20190616153012306/16/19 15:30:31  5-MIN KBKB 162130Z AUTO VRB05KT 10SM -RA OVC060 21/19 A3000 220 93 1000 VRB/05 RMK AO2 P0000 T02060194 $
53988KBKB BKB20190616153513006/16/19 15:35:31  5-MIN KBKB 162135Z AUTO VRB03KT 10SM -RA BKN055 OVC070 21/19 A3000 220 93 1000 VRB/03 RMK AO2 P0000 T02060194 $
53988KBKB BKB20190616154013006/16/19 15:40:31  5-MIN KBKB 162140Z AUTO VRB04KT 10SM -RA BKN055 OVC070 21/19 A3000 230 93 1000 VRB/04 RMK AO2 P0000 T02060194 $
53988KBKB BKB20190616154513006/16/19 15:45:31  5-MIN KBKB 162145Z AUTO VRB04KT 10SM -RA OVC060 21/19 A2998 240 93 1000 VRB/04 RMK AO2 PRESFR P0000 T02060194 $
53988KBKB BKB20190616155013606/16/19 15:50:31  5-MIN KBKB 162150Z AUTO VRB03KT 10SM -RA OVC055 21/19 OVC100 21/19 A2996 260 90 1000 VRB/03 RMK AO2 P0001 T02060189 $
53988KBKB BKB20190616170013806/16/19 17:00:31  5-MIN KBKB 162300Z AUTO 00000KT 3SM RA BR SCT038 BKN075 OVC100 21/19 A2995 270 90 1000 000/00 RMK AO2 P0003 T02060189 $
53988KBKB BKB20190616170513906/16/19 17:05:31  5-MIN KBKB 162305Z AUTO 00000KT 3SM -RA BR SCT040 BKN070 OVC100 20/19 A2995 270 93 1000 000/00 RMK AO2 P0003 T02000189 $
53988KBKB BKB20190616171013606/16/19 17:10:31  5-MIN KBKB 162310Z AUTO VRB03KT 7SM -RA SCT045 BKN070 OVC100 20/19 A2996 270 93 1000 VRB/03 RMK AO2 P0003 T02000189 $
53988KBKB BKB20190616171513706/16/19 17:15:31  5-MIN KBKB 162315Z AUTO 00000KT 10SM -RA SCT043 BKN070 OVC110 21/19 A2995 270 90 1000 000/00 RMK AO2 P0004 T02060189 $
53988KBKB BKB20190616172013706/16/19 17:20:31  5-MIN KBKB 162320Z AUTO 00000KT 10SM -RA SCT043 BKN075 OVC100 21/19 A2995 270 90 1000 000/00 RMK AO2 P0004 T02060189 $
53988KBKB BKB20190616172513606/16/19 17:25:31  5-MIN KBKB 162325Z AUTO VRB03KT 9SM -RA SCT045 BKN055 OVC100 21/19 A2995 270 90 1000 VRB/03 RMK AO2 P0004 T02060189 $
53988KBKB BKB20190616173013606/16/19 17:30:31  5-MIN KBKB 162330Z AUTO 00000KT 9SM -RA SCT042 BKN060 OVC110 21/19 A2995 270 90 1000 000/00 RMK AO2 P0005 T02060189 $
53988KBKB BKB20190616173519906/16/19 17:35:31  5-MIN KBKB 162335Z AUTO 00000KT 10SM -RA SCT042 BKN07519 20:35:31  5-MIN KBKB 170235Z AUTO 00000KT 10SM FEW120 20/19 A2994 280 97 1000 000/00 RMK AO2 RAE06 PRESRR P0000 T02000194 $
53988KBKB BKB20190616204012506/16/19 20:40:31  5-MIN KBKB 170240Z AUTO 00000KT 10SM SCT120 20/19 A2994 280 97 1000 000/00 RMK AO2 RAE06 P0000 T02000194 $
53988KBKB BKB20190616204512506/16/19 20:45:31  5-MIN KBKB 170245Z AUTO 00000KT 10SM BKN120 21/19 A2995 280 93 1000 000/00 RMK AO2 RAE06 P0000 T02060194 $
53988KBKB BKB20190616205014406/16/19 20:50:31  5-MIN KBKB 170250Z AUTO 00000KT 10SM BKN120 20/19 A2995 270 97 1000 000/00 RMK AO2 RAE06 SLP168 P0000 60001 T02000194 56018 $
53988KBKB BKB20190616205512006/16/19 20:55:31  5-MIN KBKB 170255Z AUTO 00000KT 10SM FEW095 BKN120 21/19 A2996 260 93 1000 000/00 RMK AO2 T02060194 $
53988KBKB BKB20190616210013106/16/19 21:00:31  5-MIN KBKB 170300Z AUTO 00000KT 10SM -RA BKN110 21/19 A2996 260 93 1000 000/00 RMK AO2 RAB0256 P0000 T02060194 $
53988KBKB BKB20190616210513006/16/19 21:05:31  5-MIN KBKB 170305Z AUTO 00000KT 8SM -RA OVC110 21/19 A2996 260 93 1000 000/00 RMK AO2 RAB0256 P0001 T02060194 $
53988KBKB BKB20190616211013706/16/19 21:10:31  5-MIN KBKB 170310Z AUTO 00000KT 7SM -RA BKN100 OVC120 21/19 A2996 260 93 1000 000/00 RMK AO2 RAB0256 P0001 T02060194 $
53988KBKB BKB20190616211513006/16/19 21:15:31  5-MIN KBKB 170315Z AUTO 00000KT 7SM -RA OVC100 21/19 A2996 260 93 1000 000/00 RMK AO2 RAB0256 P0002 T02060194 $
53988KBKB BKB20190616212013006/16/19 21:20:31  5-MIN KBKB 170320Z AUTO 34003KT 8SM -RA BKN100 21/19 A2997 250 93 1000 340/03 RMK AO2 RAB0256 P0002 T02060194 $
53988KBKB BKB20190616212514306/16/19 21:25:31  5-MIN KBKB 170325Z AUTO VRB03KT 7SM -RA FEW005 SCT090 OVC100 20/19 A2997 250 97 900 VRB/03 RMK AO2 RAB0256 P0003 T02000194 $
53988KBKB BKB20190616213013606/16/19 21:30:31  5-MIN KBKB 170330Z AUTO 00000KT 7SM -RA FEW005 BKN110 20/19 A2996 260 97 900 000/00 RMK AO2 RAB0256 P0003 T02000194 $
53988KBKB BKB20190616213020006/16/19 21:30:31  5-MIN KBKB 170330Z AUTO 00000KT 7SM -RA FEW005 BKN110 20/19 A2996 260 97 900 000/00 RMK AO2 RARA FEW005 BKN120 20/19 A2997 250 97 900 000/00 RMK AO2 RAB0256 SLP174 P0003 T02000194 $
53988KBKB BKB20190616213514406/16/19 21:35:31  5-MIN KBKB 170335Z AUTO 33003KT 10SM -RA FEW005 SCT100 BKN120 20/19 A2997 250 97 900 330/03 RMK AO2 RAB0256 P0003 T02000194 $
53988KBKB BKB20190616214013706/16/19 21:40:31  5-MIN KBKB 170340Z AUTO 00000KT 10SM -RA FEW005 BKN110 20/19 A2997 250 97 900 000/00 RMK AO2 RAB0256 P0003 T02000194 $
53988KBKB BKB20190616214513706/16/19 21:45:31  5-MIN KBKB 170345Z AUTO 00000KT 10SM -RA FEW005 BKN110 20/19 A2996 260 97 900 000/00 RMK AO2 RAB0256 P0003 T02000194 $
53988KBKB BKB20190616215014406/16/19 21:50:31  5-MIN KBKB 170350Z AUTO 00000KT 10SM -RA FEW005 BKN120 20/19 A2997 250 97 900 000/00 RMK AO2 RAB0256 SLP174 P0003 T02000194 $
53988KBKB BKB20190616215511206/16/19 21:55:31  5-MIN KBKB 170355Z AUTO 00000KT 10SM BKN120 20/19 A2997 250 97 900 000/00 RMK AO2 T02000194 $
53988KBKB BKB20190616220011206/16/19 22:00:31  5-MIN KBKB 170400Z AUTO 00000KT 10SM BKN110 20/19 A2997 250 97 900 000/00 RMK AO2 T02000194 $
53988KBKB BKB20190616220511106/16/19 22:05:31  5-MIN KBKB 170405Z AUTO 00000KT 9SM BKN110 20/19 A2996 260 97 900 000/00 RMK AO2 T02000194 $
53988KBKB BKB20190616221012706/16/19 22:10:31  5-MIN KBKB 170410Z AUTO 00000KT 9SM -RA BKN110 20/19 A2997 250 97 900 000/00 RMK AO2 RAB08 P0000 T02000194 $
53988KBKB BKB20190616221512806/16/19 22:15:31  5-MIN KBKB 170415Z AUTO 00000KT 10SM -RA BKN110 20/19 A2997 250 97 900 000/00 RMK AO2 RAB08 P0000 T02000194 $
53988KBKB BKB20190616222012806/16/19 22:20:31  5-MIN KBKB 170420Z AUTO 00000KT 10SM -RA BKN110 20/19 A2997 250 97 900 000/00 RMK AO2 RAB08 P0000 T02000194 $
53988KBKB BKB20190616222512806/16/19 22:25:31  5-MIN KBKB 170425Z AUTO 00000KT 10SM -RA SCT110 20/19 A2997 250 97 900 000/00 RMK AO2 RAB08 P0000 T02000194 $
53988KBKB BKB20190616223012806/16/19 22:30:31  5-MIN KBKB 170430Z AUTO 00000KT 10SM -RA BKN110 20/19 A2997 250 97 900 000/00 RMK AO2 RAB08 P0000 T02000194 $
53988KBKB BKB20190616223512806/16/19 22:35:31  5-MIN KBKB 170435Z AUTO 00000KT 10SM -RA BKN110 20/19 A2997 260 97 900 000/00 RMK AO2 RAB08 P0000 T02000194 $
53988KBKB BKB20190616224013506/16/19 22:40:31  5-MIN KBKB 170440Z AUTO 00000KT 10SM -RA SCT095 BKN120 20/19 A2997 260 97 900 000/00 RMK AO2 RAB08 P0000 T02000194 $
53988KBKB BKB20190616224514206/16/19 22:45:31  5-MIN KBKB 170445Z AUTO 00000KT 10SM -RA FEW001 SCT100 BKN120 20/19 A2997 250 97 900 000/00 RMK AO2 RAB08 P0000 T02000194 $
53988KBKB BKB20190616225014906/16/19 22:50:31  5-MIN KBKB 170450Z AUTO 00000KT 10SM -RA FEW001 SCT100 BKN120 20/19 A2997 250 97 900 000/00 RMK AO2 RAB08 SLP174 P0000 T02000194 $
53988KBKB BKB20190616225015406/16/19 22:50:31  5-MIN KBKB 170450Z AUTO 00000KT 10SM -RA FEW001 SCT100 BKN120 20/19 A2997 250 97 900 000/98 250 97 900 000/00 RMK AO2 P0002 T02000194 $
53988KBKB BKB20190616225512906/16/19 22:55:31  5-MIN KBKB 170455Z AUTO 00000KT 10SM -RA FEW100 BKN120 20/19 A2997 250 97 900 000/00 RMK AO2 P0000 T02000194 $
53988KBKB BKB20190616230012806/16/19 23:00:31  5-MIN KBKB 170500Z AUTO 00000KT 8SM -RA FEW095 SCT120 20/19 A2997 250 97 900 000/00 RMK AO2 P0000 T02000194 $
53988KBKB BKB20190616230512106/16/19 23:05:31  5-MIN KBKB 170505Z AUTO 00000KT 8SM -RA SCT110 20/19 A2997 250 97 900 000/00 RMK AO2 P0001 T02000194 $
53988KBKB BKB20190616231012106/16/19 23:10:31  5-MIN KBKB 170510Z AUTO 00000KT 9SM -RA BKN120 20/19 A2997 250 97 900 000/00 RMK AO2 P0001 T02000194 $
53988KBKB BKB20190616231512106/16/19 23:15:31  5-MIN KBKB 170515Z AUTO 00000KT 9SM -RA BKN120 20/19 A2997 250 97 900 000/00 RMK AO2 P0001 T02000194 $
53988KBKB BKB20190616232012106/16/19 23:20:31  5-MIN KBKB 170520Z AUTO 00000KT 8SM -RA BKN120 20/19 A2997 250 97 900 000/00 RMK AO2 P0001 T02000194 $
53988KBKB BKB20190616232512806/16/19 23:25:31  5-MIN KBKB 170525Z AUTO 00000KT 8SM -RA FEW033 BKN120 20/19 A2997 250 97 900 000/00 RMK AO2 P0001 T02000194 $
53988KBKB BKB20190616233012806/16/19 23:30:31  5-MIN KBKB 170530Z AUTO 00000KT 7SM -RA FEW033 BKN120 20/19 A2998 250 97 900 000/00 RMK AO2 P0002 T02000194 $
53988KBKB BKB20190616233513806/16/19 23:35:31  5-MIN KBKB 170535Z AUTO 00000KT 5SM -RA BR FEW033 SCT070 BKN110 20/19 A2997 250 97 900 000/00 RMK AO2 P0003 T02000194 $
53988KBKB BKB20190616234013806/16/19 23:40:31  5-MIN KBKB 170540Z AUTO 00000KT 5SM -RA BR FEW033 SCT050 BKN110 20/19 A2997 250 97 900 000/00 RMK AO2 P0004 T02000194 $
53988KBKB BKB20190616234513806/16/19 23:45:31  5-MIN KBKB 170545Z AUTO 00000KT 5SM -RA BR FEW027 BKN100 OVC120 20/19 A2996 260 97 900 000/00 RMK AO2 P0004 T02000194 $
53988KBKB BKB20190616235017906/16/19 23:50:31  5-MIN KBKB 170550Z AUTO 00000KT 6SM -RA BR FEW029 BKN100 OVC120 20/19 A2996 260 97 900 000/00 RMK AO2 SLP170 P0005 60009 T02000194 10211 20200 403330200 53003 $
53988KBKB BKB20190616235513906/16/19 23:55:31  5-MIN KBKB 170555Z AUTO 00000KT 6SM -RA BR FEW029 SCT070 OVC110 20/19 A2996 260 97 1000 000/00 RMK AO2 P0000 T02000194 $
53988KBKB BKB20190617000013906/17/19 00:00:31  5-MIN KBKB 170600Z AUTO 00000KT 6SM -RA BR FEW037 SCT065 BKN095 20/19 A2996 270 97 1000 000/00 RMK AO2 P0000 T02000194 $
53988KBKB BKB20190617000513106/17/19 00:05:31  5-MIN KBKB 170605Z AUTO 00000KT 5SM RA BR FEW070 BKN100 20/19 A2995 270 97 1000 000/00 RMK AO2 P0001 T02000194 $
53988KBKB BKB20190617001013106/17/19 00:10:31  5-MIN KBKB 170610Z AUTO 00000KT 4SM RA BR FEW070 BKN100 20/19 A2994 280 97 1000 000/00 RMK AO2 P0003 T02000194 $
53988KBKB BKB20190617001513806/17/19 00:15:31  5-MIN KBKB 170615Z AUTO 00000KT 4SM RA BR FEW065 BKN100 OVC110 20/19 A2994 280 97 1000 000/00 RMK AO2 P0005 T02000194 $
53988KBKB BKB20190617002013806/17/19 00:20:31  5-MIN KBKB 170620Z AUTO 00000KT 4SM RA BR FEW065 BKN100 OVC110 20/19 A2993 290 97 1000 000/00 RMK AO2 P0007 T02000194 $
53988KBKB BKB20190617002513806/17/19 00:25:31  5-MIN KBKB 170625Z AUTO VRB03KT 4SM RA BR SCT080 BKN100 BKN110 20/19 A2993 290 97 1000 VRB/03 RMK AO2 P0008 T02000194 $
53988KBKB BKB20190617003013806/17/19 00:30:31  5-MIN KBKB 170630Z AUTO VRB04KT 5SM RA BR FEW070 BKN085 OVC110 20/19 A2992 290 97 1000 VRB/04 RMK AO2 P0009 T02000194 $
53988KBKB BKB20190617003513906/17/19 00:35:31  5-MIN KBKB 170635Z AUTO VRB03KT 5SM -RA BR FEW048 SCT070 OVC090 20/19 A2993 290 97 1000 VRB/03 RMK AO2 P0010 T02000194 $
53988KBKB BKB20190617004013606/17/19 00:40:31  5-MIN KBKB 170640Z AUTO VRB03KT 7SM -RA FEW048 BKN080 BKN095 20/19 A2992 300 97 1000 VRB/03 RMK AO2 P0010 T02000194 $
53988KBKB BKB20190617004513706/17/19 00:45:31  5-MIN KBKB 170645Z AUTO 00000KT 10SM -RA FEW044 SCT080 BKN095 20/19 A2991 310 97 1000 000/00 RMK AO2 P0010 T02000194 $
53988KBKB BKB20190617005015106/17/19 00:50:31  5-MIN KBKB 170650Z AUTO 00000KT 10SM -RA FEW044 SCT080 BKN110 20/19 A2990 320 97 1000 000/00 RMK AO2 PRESFR SLP150 P0010 T02000194 $
53988KBKB BKB20190617005513706/17/19 00:55:31  5-MIN KBKB 170655Z AUTO 00000KT 10SM -RA FEW044 SCT090 BKN110 20/19 A2990 310 97 1000 000/00 RMK AO2 P0000 T02000194 $
53988KBKB BKB20190617010013706/17/19 01:00:31  5-MIN KBKB 170700Z AUTO 00000KT 10SM -RA FEW045 FEW090 SCT110 20/19 A2990 320 97 1000 000/00 RMK AO2 P0000 T02000194 $
53988KBKB BKB20190617010514106/17/19 01:05:31  5-MIN KBKB 170705Z AUTO 05:31  5-MIN KBKB 170905Z AUTO 00000KT 10SM CLR 20/19 A2988 330 93 1000 000/00 RMK AO2 T02000189 $
53988KBKB BKB20190617030511006/17/19 03:05:31  5-MIN KBKB 170905Z AUTO 00000KT 10SM CLR 20/19 A2988 330 93 1000 000/00 RMK AO2 T02000189 $
53988KBKB BKB20190617031011006/17/19 03:10:31  5-MIN KBKB 170910Z AUTO VRB03KT 10SM CLR 20/19 A2989 330 93 1000 VRB/03 RMK AO2 T02000189 $
53988KBKB BKB20190617031511006/17/19 03:15:31  5-MIN KBKB 170915Z AUTO 00000KT 10SM CLR 20/19 A2989 320 93 1000 000/00 RMK AO2 T02000189 $
53988KBKB BKB20190617032011006/17/19 03:20:31  5-MIN KBKB 170920Z AUTO VRB04KT 10SM CLR 20/19 A2989 320 93 1000 VRB/04 RMK AO2 T02000189 $
53988KBKB BKB20190617032016406/17/19 03:20:31  5-MIN KBKB 170920Z AUTO VRB04KT 10SM CLR 20/19 A2989 320 93 1000 VRB/04 RMK AO2 T03KT 10SM CLR 20/19 A2988 330 93 1000 VRB/03 RMK AO2 T02000189 $
53988KBKB BKB20190617032512906/17/19 03:25:31  5-MIN KBKB 170925Z AUTO VRB03KT 10SM -RA FEW047 20/19 A2989 320 93 1000 VRB/03 RMK AO2 RAB21 P0000 T02000189 $
53988KBKB BKB20190617033013606/17/19 03:30:31  5-MIN KBKB 170930Z AUTO VRB03KT 10SM -RA FEW047 SCT120 20/19 A2989 320 93 1000 VRB/03 RMK AO2 RAB21 P0000 T02000189 $
53988KBKB BKB20190617033014506/17/19 03:30:31  5-MIN KBKB 170930Z AUTO VRB03KT 10SM -RA FEW047 SCT120 20/19 A2989 320 93 1020/19 A2989 330 93 1000 VRB/03 RMK AO2 T02000189 $
53988KBKB BKB20190617033514306/17/19 03:35:31  5-MIN KBKB 170935Z AUTO VRB04KT 10SM -RA FEW047 SCT085 BKN110 20/19 A2989 320 93 1000 VRB/04 RMK AO2 RAB21 P0000 T02000189 $
53988KBKB BKB20190617033518806/17/19 03:35:31  5-MIN KBKB 170935Z AUTO VRB04KT 10SM -RA FEW047 SCT085 BKN110 20/19 A2989 320 93 1000 V71445Z AUTO VRB04KT 10SM FEW019 25/21 A2990 310 79 1600 VRB/04 RMK AO2 T02500211 $
53988KBKB BKB20190617034008806/17/19 03:40:31  5-MIN KBKB 170940Z AUTO 000009 320 93 1000 VRB/04 RMK AO2 T02000189 $
53988KBKB BKB20190617085012606/17/19 08:50:31  5-MIN KBKB 171450Z AUTO 00000KT 10SM FEW019 25/21 A2990 310 79 1600 000/00 RMK AO2 SLP152 T02500211 58005 $
53988KBKB BKB20190617085511306/17/19 08:55:31  5-MIN KBKB 171455Z AUTO VRB04KT 10SM FEW019 25/21 A2990 310 79 1600 VRB/04 RMK AO2 T02500211 $
53988KBKB BKB20190617090011306/17/19 09:00:31  5-MIN KBKB 171500Z AUTO 00000KT 10SM FEW018 25/21 A2990 320 79 1600 000/00 RMK AO2 T02500211 $
53988KBKB BKB20190617094511306/17/19 09:45:31  5-MIN KBKB 171545Z AUTO 00000KT 10SM FEW019 26/22 A2991 300 76 1700 000/00 RMK AO2 T02610217 $
53988KBKB BKB20190617095012006/17/19 09:50:31  5-MIN KBKB 171550Z AUTO VRB03KT 10SM FEW021 26/22 A2992 300 76 1700 VRB/03 RMK AO2 SLP156 T02610217 $
53988KBKB BKB20190617095512006/17/19 09:55:31  5-MIN KBKB 171555Z AUTO 00000KT 10SM SCT019 SCT025 26/22 A2992 300 76 1700 000/00 RMK AO2 T02610217 $
53988KBKB BKB20190617100011106/17/19 10:00:31  5-MIN KBKB 171600Z AUTO 00000KT 10SM BKN019 26/22 A2992 300 76 1700 000/00 RMK AO2 T02610217
53988KBKB BKB20190617100511106/17/19 10:05:31  5-MIN KBKB 171605Z AUTO 00000KT 10SM BKN021 26/22 A2992 300 76 1700 000/00 RMK AO2 T02610217
53988KBKB BKB20190617101011106/17/19 10:10:31  5-MIN KBKB 171610Z AUTO 00000KT 10SM BKN019 26/22 A2992 300 76 1700 000/00 RMK AO2 T02610217
53988KBKB BKB20190617101511106/17/19 10:15:31  5-MIN KBKB 171615Z AUTO VRB03KT 10SM BKN019 26/22 A2993 290 76 1700 VRB/03 RMK AO2 T02610217
53988KBKB BKB20190617102011806/17/19 10:20:31  5-MIN KBKB 171620Z AUTO 00000KT 10SM BKN019 BKN024 26/22 A2993 290 79 1700 000/00 RMK AO2 T02610222
53988KBKB BKB20190617102511106/17/19 10:25:31  5-MIN KBKB 171625Z AUTO VRB03KT 10SM BKN019 26/22 A2993 290 76 1700 VRB/03 RMK AO2 T02610217
53988KBKB BKB20190617103011106/17/19 10:30:31  5-MIN KBKB 171630Z AUTO VRB03KT 10SM BKN019 26/22 A2993 290 76 1700 VRB/03 RMK AO2 T02610217
53988KBKB BKB20190617103511106/17/19 10:35:31  5-MIN KBKB 171635Z AUTO VRB04KT 10SM OVC019 26/22 A2993 290 76 1700 VRB/04 RMK AO2 T02610217
53988KBKB BKB20190617104011106/17/19 10:40:31  5-MIN KBKB 171640Z AUTO VRB04KT 10SM OVC019 27/22 A2993 290 73 1700 VRB/04 RMK AO2 T02670217
53988KBKB BKB20190617104511106/17/19 10:45:31  5-MIN KBKB 171645Z AUTO VRB05KT 10SM OVC019 26/22 A2993 290 76 1700 VRB/05 RMK AO2 T02610217
53988KBKB BKB20190617105011806/17/19 10:50:31  5-MIN KBKB 171650Z AUTO 00000KT 10SM BKN019 27/22 A2993 290 73 1700 000/00 RMK AO2 SLP162 T02670217
53988KBKB BKB20190617105511106/17/19 10:55:31  5-MIN KBKB 171655Z AUTO 00000KT 10SM BKN021 27/22 A2993 290 74 1800 000/00 RMK AO2 T02720222
53988KBKB BKB20190617110011806/17/19 11:00:31  5-MIN KBKB 171700Z AUTO VRB03KT 10SM BKN021 BKN027 27/22 A2993 290 71 1800 VRB/03 RMK AO2 T02720217
53988KBKB BKB20190617110511806/17/19 11:05:31  5-MIN KBKB 171705Z AUTO VRB04KT 10SM BKN021 BKN027 27/22 A2993 290 74 1800 VRB/04 RMK AO2 T02720222
53988KBKB BKB20190617111011806/17/19 11:10:31  5-MIN KBKB 171710Z AUTO 00000KT 10SM BKN021 BKN027 28/22 A2993 290 71 1900 000/00 RMK AO2 T02780222
53988KBKB BKB20190617111512506/17/19 11:15:31  5-MIN KBKB 171715Z AUTO VRB05KT 10SM BKN020 BKN026 BKN035 28/23 A2993 290 71 1900 VRB/05 RMK AO2 T02830228
53988KBKB BKB20190617112012506/17/19 11:20:31  5-MIN KBKB 171720Z AUTO VRB05KT 10SM SCT020 BKN030 BKN035 28/22 A2993 290 71 1900 VRB/05 RMK AO2 T02780222
53988KBKB BKB20190617112512506/17/19 11:25:31  5-MIN KBKB 171725Z AUTO VRB03KT 10SM SCT020 BKN028 BKN035 28/22 A2993 290 71 1900 VRB/03 RMK AO2 T02780222
53988KBKB BKB20190617113012506/17/19 11:30:31  5-MIN KBKB 171730Z AUTO VRB05KT 10SM FEW020 SCT024 BKN032 28/22 A2993 290 66 1900 VRB/05 RMK AO2 T02830217
53988KBKB BKB20190617113512506/17/19 11:35:31  5-MIN KBKB 171735Z AUTO VRB03KT 10SM FEW022 BKN030 BKN035 28/22 A2993 290 69 1900 VRB/03 RMK AO2 T02780217
53988KBKB BKB20190617114012506/17/19 11:40:31  5-MIN KBKB 171740Z AUTO VRB03KT 10SM FEW022 SCT030 BKN035 28/22 A2993 290 69 1900 VRB/03 RMK AO2 T02830222
53988KBKB BKB20190617114510506/17/19 11:45:31  5-MIN KBKB 171745Z AUTO VRB04KT 10SM SCT027 BK992 300 69 1900 VRB/04 RMK AO2 T02830222
53988KBKB BKB20190617120011806/17/19 12:00:31  5-MIN KBKB 171800Z AUTO 00000KT 10SM SCT026 SCT035 29/22 A2992 300 64 2100 000/00 RMK AO2 T02940222
53988KBKB BKB20190617120511806/17/19 12:05:31  5-MIN KBKB 171805Z AUTO VRB04KT 10SM SCT027 BKN035 29/22 A2992 300 67 2000 VRB/04 RMK AO2 T02890222
53988KBKB BKB20190617121010806/17/19 12:10:31  5-MIN KBKB 171810Z AUTO 10SM BKN027 BKN035 28/22 A2992 300 66 1900 M /M RMK AO2 T02830217
53988KBKB BKB20190617121511806/17/19 12:15:31  5-MIN KBKB 171815Z AUTO VRB03KT 10SM BKN027 BKN037 28/22 A2992 300 66 1900 VRB/03 RMK AO2 T02830217
53988KBKB BKB20190617122011806/17/19 12:20:31  5-MIN KBKB 171820Z AUTO VRB04KT 10SM BKN027 BKN035 29/22 A2992 300 67 2000 VRB/04 RMK AO2 T02890222
53988KBKB BKB20190617122511806/17/19 12:25:31  5-MIN KBKB 171825Z AUTO VRB03KT 10SM SCT027 BKN035 29/22 A2991 310 64 2100 VRB/03 RMK AO2 T02940222
53988KBKB BKB20190617123011806/17/19 12:30:31  5-MIN KBKB 171830Z AUTO VRB05KT 10SM BKN027 BKN035 29/22 A2991 310 64 2000 VRB/05 RMK AO2 T02890217
53988KBKB BKB20190617123511806/17/19 12:35:31  5-MIN KBKB 171835Z AUTO VRB04KT 10SM SCT027 BKN035 29/22 A2990 310 64 2100 VRB/04 RMK AO2 T02940222
53988KBKB BKB20190617124011806/17/19 12:40:31  5-MIN KBKB 171840Z AUTO VRB03KT 10SM SCT027 BKN035 29/22 A2990 310 64 2100 VRB/03 RMK AO2 T02940222
53988KBKB BKB20190617124512506/17/19 12:45:31  5-MIN KBKB 171845Z AUTO VRB05KT 10SM SCT028 SCT035 SCT048 30/22 A2990 320 62 2100 VRB/05 RMK AO2 T03000222
53988KBKB BKB20190617125012506/17/19 12:50:31  5-MIN KBKB 171850Z AUTO VRB05KT 10SM FEW028 SCT041 30/22 A2990 320 62 2100 VRB/05 RMK AO2 SLP150 T03000222
53988KBKB BKB20190617125511806/17/19 12:55:31  5-MIN KBKB 171855Z AUTO 00000KT 10SM SCT028 SCT041 29/22 A2990 320 64 2100 000/00 RMK AO2 T02940222
53988KBKB BKB20190617130011806/17/19 13:00:31  5-MIN KBKB 171900Z AUTO VRB04KT 10SM SCT028 BKN037 29/22 A2990 320 64 2100 VRB/04 RMK AO2 T02940222
53988KBKB BKB20190617130517306/17/19 13:05:31  5-MIN KBKB 171905Z AUTO VRB03KT 10SM SCT029 BKN039 29/22 A2990 320 64 2100 VRB/03 RMK AO2 T02940222BKN050 29/22 A2989 320 64 2100 VRB/03 RMK AO2 T02940222
53988KBKB BKB20190617132511806/17/19 13:25:31  5-MIN KBKB 171925Z AUTO VRB05KT 10SM BKN030 BKN050 30/22 A2989 330 62 2200 VRB/05 RMK AO2 T03000222
53988KBKB BKB20190617133011806/17/19 13:30:31  5-MIN KBKB 171930Z AUTO VRB04KT 10SM SCT030 BKN050 30/22 A2989 330 62 2200 VRB/04 RMK AO2 T03000222
53988KBKB BKB20190617133512506/17/19 13:35:31  5-MIN KBKB 171935Z AUTO 23004KT 10SM SCT030 SCT040 BKN050 29/22 A2989 330 62 2100 230/04 RMK AO2 T02940217
53988KBKB BKB20190617134012506/17/19 13:40:31  5-MIN KBKB 171940Z AUTO VRB03KT 10SM FEW030 SCT040 BKN050 29/22 A2989 330 62 2100 VRB/03 RMK AO2 T02940217
53988KBKB BKB20190617134511806/17/19 13:45:31  5-MIN KBKB 171945Z AUTO VRB04KT 10SM FEW030 SCT050 29/22 A2988 330 62 2100 VRB/04 RMK AO2 T02940217
53988KBKB BKB20190617135012506/17/19 13:50:31  5-MIN KBKB 171950Z AUTO VRB03KT 10SM FEW030 FEW055 29/22 A2988 330 64 2100 VRB/03 RMK AO2 SLP144 T02940222
53988KBKB BKB20190617135511806/17/19 13:55:31  5-MIN KBKB 171955Z AUTO VRB03KT 10SM FEW030 SCT055 30/22 A2988 330 62 2200 VRB/03 RMK AO2 T03000222
53988KBKB BKB20190617140011106/17/19 14:00:31  5-MIN KBKB 172000Z AUTO VRB03KT 10SM FEW030 29/22 A2988 330 62 2100 VRB/03 RMK AO2 T02940217
53988KBKB BKB20190617140510806/17/19 14:05:31  5-MIN KBKB 172005Z AUTO VRB05KT 10SM FEW031 FEW120 29/22 58 2300 VRB/04 RMK AO2 T03060217
53988KBKB BKB20190617153010806/17/19 15:30:31  5-MIN KBKB 172130Z AUTO 00000KT 10SM CLR 30/21 A2985 370 58 2200 000/00 RMK AO2 T03000211
53988KBKB BKB20190617153510806/17/19 15:35:31  5-MIN KBKB 172135Z AUTO VRB04KT 10SM CLR 30/21 A2985 370 58 2200 VRB/04 RMK AO2 T03000211
53988KBKB BKB20190617154010806/17/19 15:40:31  5-MIN KBKB 172140Z AUTO 00000KT 10SM CLR 29/21 A2984 370 60 2200 000/00 RMK AO2 T02940211
53988KBKB BKB20190617154510806/17/19 15:45:31  5-MIN KBKB 172145Z AUTO 00000KT 10SM CLR 29/21 A2984 370 60 2200 000/00 RMK AO2 T02940211
53988KBKB BKB20190617155011506/17/19 15:50:31  5-MIN KBKB 172150Z AUTO VRB03KT 10SM CLR 29/22 A2984 370 62 2200 VRB/03 RMK AO2 SLP129 T02940217
53988KBKB BKB20190617155510806/17/19 15:55:31  5-MIN KBKB 172155Z AUTO 00000KT 10SM CLR 29/22 A2984 380 62 2200 000/00 RMK AO2 T02940217
53988KBKB BKB20190617160010806/17/19 16:00:31  5-MIN KBKB 172200Z AUTO 00000KT 10SM CLR 29/22 A2984 380 62 2200 000/00 RMK AO2 T02940217
53988KBKB BKB20190617160510806/17/19 16:05:31  5-MIN KBKB 172205Z AUTO 00000KT 10SM CLR 29/22 A2983 380 62 2200 000/00 RMK AO2 T02940217
53988KBKB BKB20190617161010806/17/19 16:10:31  5-MIN KBKB 172210Z AUTO 00000KT 10SM CLR 29/22 A2983 380 62 2200 000/00 RMK AO2 T02940217
53988KBKB BKB20190617161510806/17/19 16:15:31  5-MIN KBKB 172215Z AUTO 00000KT 10SM CLR 29/22 A2983 380 64 2200 000/00 RMK AO2 T02940222
53988KBKB BKB20190617162010806/17/19 16:20:31  5-MIN KBKB 172220Z AUTO 00000KT 10SM CLR 29/22 A2983 380 67 2100 000/00 RMK AO2 T02890222
53988KBKB BKB20190617162510806/17/19 16:25:31  5-MIN KBKB 172225Z AUTO 00000KT 10SM CLR 29/22 A2983 380 64 2200 000/00 RMK AO2 T02940222
53988KBKB BKB20190617163010806/17/19 16:30:31  5-MIN KBKB 172230Z AUTO 00000KT 10SM CLR 29/22 A2983 380 64 2100 000/00 RMK AO2 T02890217
53988KBKB BKB20190617185013406/17/19 18:50:31  5-MIN KBKB 180050Z AUTO 11003KT 10SM TS BKN021 BKN034 27/22 A2986 350 74 1900 110/03 RMK AO2 TSB42 SLP138 T02720222
53988KBKB BKB20190617185512106/17/19 18:55:31  5-MIN KBKB 180055Z AUTO 00000KT 10SM TS BKN023 OVC034 27/23 A2987 350 76 1900 000/00 RMK AO2 T02720228
53988KBKB BKB20190617190012606/17/19 19:00:31  5-MIN KBKB 180100Z AUTO VRB03KT 10SM BKN023 OVC034 27/22 A2987 350 76 1800 VRB/03 RMK AO2 TSE0058 T02670222
53988KBKB BKB20190617190512606/17/19 19:05:31  5-MIN KBKB 180105Z AUTO VRB03KT 10SM BKN023 OVC030 26/21 A2987 340 73 1700 VRB/03 RMK AO2 TSE0058 T02610211
53988KBKB BKB20190617191012606/17/19 19:10:31  5-MIN KBKB 180110Z AUTO 14004KT 10SM BKN023 OVC030 26/21 A2987 340 73 1700 140/04 RMK AO2 TSE0058 T02610211
53988KBKB BKB20190617191512506/17/19 19:15:31  5-MIN KBKB 180115Z AUTO 00000KT 10SM SCT023 OVC030 26/21320 93 1400 000/00 RMK AO2 RAE0258 P0000 T02330222
53988KBKB BKB20190617211512506/17/19 21:15:31  5-MIN KBKB 180315Z AUTO 00000KT 10SM BKN070 23/22 A2990 320 93 1400 000/00 RMK AO2 RAE0258 P0000 T02330222
53988KBKB BKB20190617212012506/17/19 21:20:31  5-MIN KBKB 180320Z AUTO 00000KT 10SM BKN070 23/22 A2990 320 93 1400 000/00 RMK AO2 RAE0258 P0000 T02330222
53988KBKB BKB20190617212512506/17/19 21:25:31  5-MIN KBKB 180325Z AUTO 00000KT 10SM BKN070 23/22 A2990 320 93 1400 000/00 RMK AO2 RAE0258 P0000 T02330222
53988KBKB BKB20190617213012506/17/19 21:30:31  5-MIN KBKB 180330Z AUTO 00000KT 10SM SCT070 23/22 A2990 320 93 1400 000/00 RMK AO2 RAE0258 P0000 T02330222
53988KBKB BKB20190617213512506/17/19 21:35:31  5-MIN KBKB 180335Z AUTO 00000KT 10SM FEW070 23/22 A2989 320 93 1400 000/00 RMK AO2 RAE0258 P0000 T02330222
53988KBKB BKB20190617214012506/17/19 21:40:31  5-MIN KBKB 180340Z AUTO 00000KT 10SM FEW070 23/22 A2989 320 97 1300 000/00 RMK AO2 RAE0258 P0000 T02280222
53988KBKB BKB20190619145511806/19/19 14:55:31  5-MIN KBKB 192055Z AUTO VRB04KT 10SM FEW041 34/23 A2979 420 53 2700 VRB/04 RMK AO2 SLP113 T03390233
53988KBKB BKB20190619150011806/19/19 15:00:31  5-MIN KBKB 192100Z AUTO VRB05KT 10SM FEW043 FEW050 34/23 A2979 420 51 2700 VRB/05 RMK AO2 T03390228
53988KBKB BKB20190619150511806/19/19 15:05:31  5-MIN KBKB 192105Z AUTO VRB03KT 10SM FEW043 SCT050 34/23 A2979 420 53 2700 VRB/03 RMK AO2 T03390233
53988KBKB BKB20190619151011806/19/19 15:10:31  5-MIN KBKB 192110Z AUTO VRB03KT 10SM SCT043 SCT055 34/23 A2979 420 51 2700 VRB/03 RMK AO2 T03390228
53988KBKB BKB20190619151511806/19/19 15:15:31  5-MIN KBKB 192115Z AUTO VRB05KT 10SM SCT043 BKN055 34/23 A2979 420 51 2700 VRB/05 RMK AO2 T03390228
53988KBKB BKB20190619152011806/19/19 15:20:31  5-MIN KBKB 192120Z AUTO VRB05KT 10SM SCT043 SCT055 34/23 A2978 430 51 2700 VRB/05 RMK AO2 T03390228
53988KBKB BKB20190619152513406/19/19 15:25:31  5-MIN KBKB 192125Z AUTO 23007KT 190V270 10SM FEW044 SCT055 34/23 A2978 430 51 2700 230/07 190V270 RMK AO2 T03390228
53988KBKB BKB20190619153011106/19/19 15:30:31  5-MIN KBKB 192130Z AUTO VRB06KT 10SM FEW044 34/22 A2978 430 50 2700 VRB/06 RMK AO2 T03390222
53988KBKB BKB20190619153511106/19/19 15:35:31  5-MIN KBKB 192135Z AUTO VRB05KT 10SM FEW044 33/22 A2978 430 51 2600 VRB/05 RMK AO2 T03330222
53988KBKB BKB20190619154011106/19/19 15:40:31  5-MIN KBKB 192140Z AUTO VRB04KT 10SM FEW046 34/22 A2978 430 50 2700 VRB/04 RMK AO2 T03390222
53988KBKB BKB20190619154511106/19/19 15:45:31  5-MIN KBKB 192145Z AUTO VRB05KT 10SM FEW048 34/22 A2978 430 50 2700 VRB/05 RMK AO2 T03390222
53988KBKB BKB20190619155011106/19/19 15:50:31  5-MIN KBKB 192150Z AUTO VRB04KT 10SM FEW048 34/22 A2978 430 50 2700 VRB/04 RMK AO2 T03390222
53988KBKB BKB20190619155511806/19/19 15:55:31  5-MIN KBKB 192155Z AUTO VRB04KT 10SM FEW049 33/23 A2978 430 53 2700 VRB/04 RMK AO2 SLP107 T03330228
53988KBKB BKB20190619160010106/19/19 16:00:31  5-MIN KBKB 192200Z AUTO 10SM FEW049 33/23 A2978 430 53 2700 M /M RMK AO2 T03330228
53988KBKB BKB20190619160511106/19/19 16:05:31  5-MIN KBKB 192205Z AUTO 20005KT 10SM FEW049 33/23 A2978 430 55 2600 190/05 RMK AO2 T03280228
53988KBKB BKB20190619161011106/19/19 16:10:31  5-MIN KBKB 192210Z AUTO VRB04KT 10SM FEW049 33/23 A2977 430 53 2700 VRB/04 RMK AO2 T03330228
53988KBKB BKB20190619161512706/19/19 16:15:31  5-MIN KBKB 192215Z AUTO 21007KT 170V260 10SM FEW044 33/23 A2977 430 53 2700 210/07 170V260 RMK AO2 T03330228
53988KBKB BKB20190619162011106/19/19 16:20:31  5-MIN KBKB 192220Z AUTO VRB05KT 10SM SCT042 33/23 A2977 440 53 2700 VRB/05 RMK AO2 T03330228
53988KBKB BKB20190619162511106/19/19 16:25:31  5-MIN KBKB 192225Z AUTO VRB05KT 10SM BKN042 34/23 A2977 440 53 2700 VRB/05 RMK AO2 T03390233
53988KBKB BKB20190619163011106/19/19 16:30:31  5-MIN KBKB 192230Z AUTO VRB06KT 10SM BKN042 34/23 A2977 440 53 2700 VRB/06 RMK AO2 T03390233
53988KBKB BKB20190619163511106/19/19 16:35:31  5-MIN KBKB 192235Z AUTO VRB06KT 10SM BKN044 33/23 A2977 440 55 2700 VRB/06 RMK AO2 T03330233
53988KBKB BKB20190619164011106/19/19 16:40:31  5-MIN KBKB 192240Z AUTO VRB05KT 10SM BKN044 33/23 A2976 440 55 2700 VRB/05 RMK AO2 T03330233
53988KBKB BKB20190619164511106/19/19 16:45:31  5-MIN KBKB 192245Z AUTO 00000KT 10SM BKN044 33/23 A2976 440 55 2700 000/00 RMK AO2 T03330233
53988KBKB BKB20190619165011106/19/19 16:50:31  5-MIN KBKB 192250Z AUTO VRB04KT 10SM BKN044 34/24 A2976 440 55 2700 VRB/04 RMK AO2 T03390239
53988KBKB BKB20190619165511806/19/19 16:55:31  5-MIN KBKB 192255Z AUTO VRB06KT 10SM SCT044 33/23 A2976 450 53 2700 VRB/06 RMK AO2 SLP102 T03330228
53988KBKB BKB20190619170011106/19/19 17:00:31  5-MIN KBKB 192300Z AUTO VRB05KT 10SM SCT044 33/23 A2976 450 57 2600 VRB/05 RMK AO2 T03280233
53988KBKB BKB20190619170511106/19/19 17:05:31  5-MIN KBKB 192305Z AUTO VRB05KT 10SM FEW044 33/23 A2976 450 55 2600 VRB/05 RMK AO2 T03280228
53988KBKB BKB20190619171010106/19/19 17:10:31  5-MIN KBKB 192310Z AUTO 10SM FEW044 32/23 A2976 450 57 2600 M /M RMK AO2 T03220228
53988KBKB BKB20190619171511106/19/19 17:15:31  5-MIN KBKB 192315Z AUTO VRB05KT 10SM FEW042 32/22 A2976 450 56 2500 VRB/05 RMK AO2 T03170222
53988KBKB BKB20190619172011106/19/19 17:20:31  5-MIN KBKB 192320Z AUTO VRB05KT 10SM FEW042 32/22 A2975 450 56 2500 VRB/05 RMK AO2 T03170222
53988KBKB BKB20190619172511106/19/19 17:25:31  5-MIN KBKB 192325Z AUTO VRB04KT 10SM FEW042 32/23 A2975 450 58 2500 VRB/04 RMK AO2 T03170228
53988KBKB BKB20190619173011106/19/19 17:30:31  5-MIN KBKB 192330Z AUTO VRB05KT 10SM FEW042 32/23 A2975 460 58 2500 VRB/05 RMK AO2 T03170228
53988KBKB BKB20190619173511106/19/19 17:35:31  5-MIN KBKB 192335Z AUTO VRB04KT 10SM FEW042 32/23 A2975 460 58 2500 VRB/04 RMK AO2 T03170228
53988KBKB BKB20190619174010806/19/19 17:40:31  5-MIN KBKB 192340Z AUTO VRB05KT 10SM CLR 32/23 A2974 460 58 2500 VRB/05 RMK AO2 T03170228
53988KBKB BKB20190619174511106/19/19 17:45:31  5-MIN KBKB 192345Z AUTO VRB04KT 10SM FEW040 32/23 A2974 460 58 2500 VRB/04 RMK AO2 T03170228
53988KBKB BKB20190619175011106/19/19 17:50:31  5-MIN KBKB 192350Z AUTO VRB04KT 10SM FEW040 32/23 A2974 460 58 2500 VRB/04 RMK AO2 T03170228
53988KBKB BKB20190619175513306/19/19 17:55:31  5-MIN KBKB 192355Z AUTO VRB05KT 10SM CLR 31/23 A2974 460 60 2400 VRB/05 RMK AO2 SLP096 T03110228 10344 20311 56021
53988KBKB BKB20190619180010806/19/19 18:00:31  5-MIN KBKB 200000Z AUTO VRB03KT 10SM CLR 31/23 A2974 460 60 2500 VRB/03 RMK AO2 T03110228
53988KBKB BKB20190619180510806/19/19 18:05:31  5-MIN KBKB 200005Z AUTO VRB03KT 10SM CLR 31/23 A2974 460 60 2500 VRB/03 RMK AO2 T03110228
53988KBKB BKB20190619181011106/19/19 18:10:31  5-MIN KBKB 200010Z AUTO VRB04KT 10SM FEW040 31/23 A2974 460 62 2400 VRB/04 RMK AO2 T03060228
53988KBKB BKB20190619181510806/19/19 18:15:31  5-MIN KBKB 200015Z AUTO 20005KT 10SM CLR 31/23 A2975 460 62 2400 200/05 RMK AO2 T03060228
53988KBKB BKB20190619182010806/19/19 18:20:31  5-MIN KBKB 200020Z AUTO VRB03KT 10SM CLR 30/23 A2975 460 65 2300 VRB/03 RMK AO2 T03000228
53988KBKB BKB20190619182510806/19/19 18:25:31  5-MIN KBKB 200025Z AUTO VRB04KT 10SM CLR 30/23 A2975 460 65 2300 VRB/04 RMK AO2 T03000228
53988KBKB BKB20190619183010806/19/19 18:30:31  5-MIN KBKB 200030Z AUTO VRB05KT 10SM CLR 30/23 A2975 460 65 2300 VRB/05 RMK AO2 T03000228
53988KBKB BKB20190619183510806/19/19 18:35:31  5-MIN KBKB 200035Z AUTO VRB04KT 10SM CLR 30/22 A2975 460 62 2300 VRB/04 RMK AO2 T03000222
53988KBKB BKB20190619184010806/19/19 18:40:31  5-MIN KBKB 200040Z AUTO VRB06KT 10SM CLR 30/23 A2975 460 65 2300 VRB/06 RMK AO2 T03000228
53988KBKB BKB20190619184509806/19/19 18:45:31  5-MIN KBKB 200045Z AUTO 10SM CLR 29/23 A2975 460 67 2300 M /M RMK AO2 T02940228
53988KBKB BKB20190619185010806/19/19 18:50:31  5-MIN KBKB 200050Z AUTO VRB04KT 10SM CLR 29/23 A2975 460 67 2300 VRB/04 RMK AO2 T02940228
53988KBKB BKB20190619185511506/19/19 18:55:31  5-MIN KBKB 200055Z AUTO VRB04KT 10SM CLR 29/23 A2975 460 67 2300 VRB/04 RMK AO2 SLP098 T02940228
53988KBKB BKB20190619190010806/19/19 19:00:31  5-MIN KBKB 200100Z AUTO VRB04KT 10SM CLR 29/23 A2975 460 67 2300 VRB/04 RMK AO2 T02940228
53988KBKB BKB20190619190510806/19/19 19:05:31  5-MIN KBKB 200105Z AUTO VRB03KT 10SM CLR 29/23 A2975 460 69 2200 VRB/03 RMK AO2 T02890228
53988KBKB BKB20190619191010806/19/19 19:10:31  5-MIN KBKB 200110Z AUTO VRB04KT 10SM CLR 29/23 A2975 460 71 2200 VRB/04 RMK AO2 T02890233
53988KBKB BKB20190619191510806/19/19 19:15:31  5-MIN KBKB 200115Z AUTO VRB03KT 10SM CLR 29/23 A2975 450 71 2200 VRB/03 RMK AO2 T02890233
53988KBKB BKB20190619192010806/19/19 19:20:31  5-MIN KBKB 200120Z AUTO VRB03KT 10SM CLR 28/23 A2975 450 74 2100 VRB/03 RMK AO2 T02830233
53988KBKB BKB20190619192509806/19/19 19:25:31  5-MIN KBKB 200125Z AUTO 10SM CLR 28/23 A2975 460 74 2100 M /M RMK AO2 T02830233
53988KBKB BKB20190619193010806/19/19 19:30:31  5-MIN KBKB 200130Z AUTO VRB05KT 10SM CLR 28/23 A2975 450 74 2100 VRB/05 RMK AO2 T02830233
53988KBKB BKB20190619193510806/19/19 19:35:31  5-MIN KBKB 200135Z AUTO VRB04KT 10SM CLR 28/23 A2975 460 74 2100 VRB/04 RMK AO2 T02830233
53988KBKB BKB20190619194010806/19/19 19:40:31  5-MIN KBKB 200140Z AUTO VRB04KT 10SM CLR 28/23 A2975 460 74 2100 VRB/04 RMK AO2 T02830233
53988KBKB BKB20190619194510806/19/19 19:45:31  5-MIN KBKB 200145Z AUTO VRB04KT 10SM CLR 28/23 A2975 460 76 2100 VRB/04 RMK AO2 T02780233
53988KBKB BKB20190619195010806/19/19 19:50:31  5-MIN KBKB 200150Z AUTO VRB05KT 10SM CLR 28/23 A2974 460 76 2100 VRB/05 RMK AO2 T02780233
53988KBKB BKB20190619195511506/19/19 19:55:31  5-MIN KBKB 200155Z AUTO VRB03KT 10SM CLR 28/23 A2974 460 76 2100 VRB/03 RMK AO2 SLP097 T02780233
53988KBKB BKB20190619200010806/19/19 20:00:31  5-MIN KBKB 200200Z AUTO VRB04KT 10SM CLR 28/23 A2974 460 76 2100 VRB/04 RMK AO2 T02780233
53988KBKB BKB20190619200511606/19/19 20:05:31  5-MIN KBKB 200205Z TO 00000KT 10SM FEW019 BKN025 26/24 A2981 400 90 1800 000/00 RMK AO2 T02560239
53988KBKB BKB20190620001011806/20/19 00:10:31  5-MIN KBKB 200610Z AUTO 00000KT 10SM FEW019 BKN025 26/24 A2981 400 90 1800 000/00 RMK AO2 T02560239
53988KBKB BKB20190620001511806/20/19 00:15:31  5-MIN KBKB 200615Z AUTO 00000KT 10SM FEW019 BKN025 26/24 A2981 400 90 1800 000/00 RMK AO2 T02560239
53988KBKB BKB20190620002011806/20/19 00:20:31  5-MIN KBKB 200620Z AUTO VRB03KT 10SM FEW019 BKN025 26/24 A2982 390 90 1700 VRB/03 RMK AO2 T02560239
53988KBKB BKB20190620002511806/20/19 00:25:31  5-MIN KBKB 200625Z AUTO 00000KT 10SM FEW019 BKN025 26/24 A2982 390 90 1700 000/00 RMK AO2 T02560239
53988KBKB BKB20190620002514006/20/19 00:25:31  5-MIN KBKB 200625Z AUTO 00000KT 10SM FEW019 BKN025 26/24 A2982 390 90 17026/24 A2981 400 90 1800 200/03 RMK AO2 T02560239
53988KBKB BKB20190620003011806/20/19 00:30:31  5-MIN KBKB 200630Z AUTO VRB03KT 10SM FEW019 BKN025 26/24 A2983 380 90 1700 VRB/03 RMK AO2 T02560239
53988KBKB BKB20190620003512506/20/19 00:35:31  5-MIN KBKB 200635Z AUTO 00000KT 10SM SCT019 BKN025 26/24 A2984 380 90 1700 000/00 RMK AO2 PRESRR T02560239
53988KBKB BKB20190620003514006/20/19 00:35:31  5-MIN KBKB 200635Z AUTO 00000KT 10SM SCT019 BKN025 26/24 A2984 380BKN025 26/24 A2981 400 90 1800 000/00 RMK AO2 T02560239
53988KBKB BKB20190620004011806/20/19 00:40:31  5-MIN KBKB 200640Z AUTO 00000KT 10SM SCT017 BKN025 26/24 A2984 380 90 1700 000/00 RMK AO2 T02560239
53988KBKB BKB20190620004511806/20/19 00:45:31  5-MIN KBKB 200645Z AUTO 00000KT 10SM FEW017 BKN025 26/24 A2984 380 90 1700 000/00 RMK AO2 T02560239
53988KBKB BKB20190620004513506/20/19 00:45:31  5-MIN KBKB 200645Z AUTO 00000KT 10SM FEW017 BKN0210SM FEW019 BKN025 26/24 A2982 390 90 1700 000/00 RMK AO2 T02560239
53988KBKB BKB20190620005011806/20/19 00:50:31  5-MIN KBKB 200650Z AUTO 21004KT 10SM FEW017 BKN025 26/24 A2984 370 90 1700 200/04 RMK AO2 T02560239
53988KBKB BKB20190620005013306/20/19 00:50:31  5-MIN KBKB 200650Z AUTO 21004KT 10SM FEW017 BKN025 26/24 A2984 370 90 1700 200/04 RMK AO2 T0256023906/20/19 560239
53988KBKB BKB20190620005512506/20/19 00:55:31  5-MIN KBKB 200655Z AUTO VRB03KT 10SM SCT016 BKN027 26/24 A2985 370 90 1700 VRB/03 RMK AO2 SLP130 T02560239
53988KBKB BKB20190620010011806/20/19 01:00:31  5-MIN KBKB 200700Z AUTO VRB03KT 10SM SCT016 BKN027 26/24 A2985 360 90 1700 VRB/03 RMK AO2 T02560239
53988KBKB BKB20190620010013506/20/19 01:00:31  5-MIN KBKB 200700Z AUTO VRB03KT 10SM SCT016 BKN027 26/24 A2985 360 90 1700A2984 380 90 1700 000/00 RMK AO2 T02560239
53988KBKB BKB20190620010023406/20/19 01:00:31  5-MIN KBKB 200700Z AUTO VRB03KT 10SM SCT016 BKN027 26/24 A2985 360 90 1700 VRB/03 RMK AO2 T0256023900840Z AUTO VRB04KT 8SM -RA FEW013 SCT018 BKN037 21/20 A2987 350 93 1200 VRB/04 RMK AO2 RAB19 PRESFR P0006 T02110200
53988KBKB BKB20190620010513206/20/19 01:05:31  5-MIN KBKB 200705Z AUTO 00000KT 10SM FEW013 SCT018 BKN027 26/24 A2986 350 90 1700 000/00 RMK AO2 PRESRR T02560239
53988KBKB BKB20190620011012106/20/19 01:10:31  5-MIN KBKB 200710Z AUTO 00000KT 10SM FEW016 BKN02N025 26/24 A2984 370 90 1700 200/04 RMK AO2 T02560239
53988KBKB BKB20190620024514706/20/19 02:45:31  5-MIN KBKB 200845Z AUTO VRB06KT 10SM FEW013 FEW018 SCT039 21/20 A2986 350 93 1200 VRB/06 RMK AO2 RAB19E45 PRESFR P0006 T02110200
53988KBKB BKB20190620025014006/20/19 02:50:31  5-MIN KBKB 200850Z AUTO 09006KT 10SM FEW016 SCT039 21/19 A2984 380 90 1200 080/06 RMK AO2 RAB19E45 PRESFR P0006 T02110194
53988KBKB BKB20190620144010806/20/19 14:40:31  5-MIN KBKB 202040Z AUTO VRB04KT 10SM CLR 33/24 A2983 380 61 2500 VRB/04 RMK AO2 T03280244
53988KBKB BKB20190620144510806/20/19 14:45:31  5-MIN KBKB 202045Z AUTO VRB04KT 10SM CLR 33/24 A2983 380 61 2500 VRB/04 RMK AO2 T03280244
53988KBKB BKB20190620145009806/20/19 14:50:31  5-MIN KBKB 202050Z AUTO 10SM CLR 33/24 A2983 380 61 2500 M /M RMK AO2 T03280244
53988KBKB BKB20190620145512106/20/19 14:55:31  5-MIN KBKB 202055Z AUTO VRB03KT 10SM CLR 33/24 A2983 380 61 2500 VRB/03 RMK AO2 SLP127 T03280244 53002
53988KBKB BKB20190620150010806/20/19 15:00:31  5-MIN KBKB 202100Z AUTO VRB04KT 10SM CLR 33/25 A2983 380 61 2600 VRB/04 RMK AO2 T03330250
53988KBKB BKB20190620150510806/20/19 15:05:31  5-MIN KBKB 202105Z AUTO VRB04KT 10SM CLR 33/24 A2983 380 61 2500 VRB/04 RMK AO2 T03280244
53988KBKB BKB20190620151010806/20/19 15:10:31  5-MIN KBKB 202110Z AUTO 00000KT 10SM CLR 33/25 A2983 380 61 2600 000/00 RMK AO2 T03330250
53988KBKB BKB20190620151511106/20/19 15:15:31  5-MIN KBKB 202115Z AUTO VRB03KT 10SM FEW038 33/24 A2983 380 61 2500 VRB/03 RMK AO2 T03280244
53988KBKB BKB20190620152010806/20/19 15:20:31  5-MIN KBKB 202120Z AUTO VRB04KT 10SM CLR 33/25 A2983 380 63 2500 VRB/04 RMK AO2 T03280250
53988KBKB BKB20190620152510806/20/19 15:25:31  5-MIN KBKB 202125Z AUTO VRB03KT 10SM CLR 33/24 A2983 380 61 2500 VRB/03 RMK AO2 T03280244
53988KBKB BKB20190620153010806/20/19 15:30:31  5-MIN KBKB 202130Z AUTO VRB03KT 10SM CLR 33/25 A2983 380 63 2500 VRB/03 RMK AO2 T03280250
53988KBKB BKB20190620153511806/20/19 15:35:31  5-MIN KBKB 202135Z AUTO VRB04KT 10SM FEW036 SCT044 33/25 A2983 380 63 2500 VRB/04 RMK AO2 T03280250
53988KBKB BKB20190620154011806/20/19 15:40:31  5-MIN KBKB 202140Z AUTO 00000KT 10SM FEW036 SCT044 33/25 A2983 380 63 2500 000/00 RMK AO2 T03280250
53988KBKB BKB20190620154511806/20/19 15:45:31  5-MIN KBKB 202145Z AUTO 00000KT 10SM FEW037 FEW045 33/25 A2983 380 63 2500 000/00 RMK AO2 T03280250
53988KBKB BKB20190620155011106/20/19 15:50:31  5-MIN KBKB 202150Z AUTO 00000KT 10SM FEW037 FEW045 33/25380 63 2500 VRB/03 RMK AO2 T03280250
53988KBKB BKB20190620162010806/20/19 16:20:31  5-MIN KBKB 202220Z AUTO VRB05KT 10SM CLR 32/25 A2983 380 65 2500 VRB/05 RMK AO2 T03220250
53988KBKB BKB20190620162511106/20/19 16:25:31  5-MIN KBKB 202225Z AUTO VRB03KT 10SM FEW038 32/25 A2983 380 65 2500 VRB/03 RMK AO2 T03220250
53988KBKB BKB20190620163014406/20/19 16:30:31  5-MIN KBKB 202230Z AUTO VRB04KT 10SM FEW038 33/25 A2983 390 63 2500 VRB/04 RMK AO2 T03280250 63 2500 VRB/04 RMK AO2 T03280250
53988KBKB BKB20190620172510806/20/19 17:25:31  5-MIN KBKB 202325Z AUTO VRB04KT 10SM CLR 32/25 A2982 390 65 2500 VRB/04 RMK AO2 T03220250
53988KBKB BKB20190620173010806/20/19 17:30:31  5-MIN KBKB 202330Z AUTO VRB05KT 10SM CLR 33/25 A2983 390 63 2500 VRB/05 RMK AO2 T03280250
53988KBKB BKB20190620173510806/20/19 17:35:31  5-MIN KBKB 202335Z AUTO VRB05KT 10SM CLR 32/24 A2982 390 63 2500 VRB/05 RMK AO2 T03220244
53988KBKB BKB20190620174010806/20/19 17:40:31  5-MIN KBKB 202340Z AUTO VRB06KT 10SM CLR 32/24 A2983 390 63 2500 VRB/06 RMK AO2 T03220244
53988KBKB BKB20190620174510806/20/19 17:45:31  5-MIN KBKB 202345Z AUTO VRB03KT 10SM CLR 32/24 A2983 390 65 2400 VRB/03 RMK AO2 T03170244
53988KBKB BKB20190620175011106/20/19 17:50:31  5-MIN KBKB 202350Z AUTO VRB05KT 10SM FEW032 32/24 A2983 390 65 2400 VRB/05 RMK AO2 T03170244
53988KBKB BKB20190620175513606/20/19 17:55:31  5-MIN KBKB 202355Z AUTO VRB04KT 10SM FEW032 32/24 A2983 390 65 2400 VRB/04 RMK AO2 SLP125 T03170244 10344 20317 58003
53988KBKB BKB20190620180011106/20/19 18:00:31  5-MIN KBKB 210000Z AUTO VRB05KT 10SM FEW032 32/24 A2983 390 65 2400 VRB/05 RMK AO2 T03170244
53988KBKB BKB20190620180511106/20/19 18:05:31  5-MIN KBKB 210005Z AUTO VRB03KT 10SM FEW032 31/24 A2983 390 67 2400 VRB/03 RMK AO2 T03110244
53988KBKB BKB20190620181011106/20/19 18:10:31  5-MIN KBKB 210010Z AUTO VRB03KT 10SM FEW032 31/25 A2983 390 69 2400 VRB/03 RMK AO2 T03110250
53988KBKB BKB20190620181511106/20/19 18:15:31  5-MIN KBKB 210015Z AUTO VRB04KT 10SM FEW032 31/24 A2983 390 67 2400 VRB/04 RMK AO2 T03110244
53988KBKB BKB20190620182010806/20/19 18:20:31  5-MIN KBKB 210020Z AUTO 00000KT 10SM CLR 31/24 A2983 380 69 2300 000/00 RMK AO2 T03060244
53988KBKB BKB20190620182516206/20/19 18:25:31  5-MIN KBKB 210025Z AUTO VRB03KT 10SM FEW031 31/24 A1  5-MIN KBKB 210050Z AUTO 00000KT 10SM CLR 29/24 A2983 380 74 2200 000/00 RMK AO2 T02940244
53988KBKB BKB20190620185511506/20/19 18:55:31  5-MIN KBKB 210055Z AUTO 00000KT 10SM CLR 29/24 A2983 380 74 2200 000/00 RMK AO2 SLP128 T02940244
53988KBKB BKB20190620190010806/20/19 19:00:31  5-MIN KBKB 210100Z AUTO VRB03KT 10SM CLR 29/24 A2983 380 74 2200 VRB/03 RMK AO2 T02940244
53988KBKB BKB20190620190510806/20/19 19:05:31  5-MIN KBKB 210105Z AUTO 00000KT 10SM CLR 29/24 A2984 380 74 2200 000/00 RMK AO2 T02940244
53988KBKB BKB20190620191010806/20/19 19:10:31  5-MIN KBKB 210110Z AUTO VRB03KT 10SM CLR 29/24 A2984 380 74 2200 VRB/03 RMK AO2 T02940244
53988KBKB BKB20190620191510806/20/19 19:15:31  5-MIN KBKB 210115Z AUTO VRB03KT 10SM CLR 29/24 A2984 370 74 2200 VRB/03 RMK AO2 T02940244
53988KBKB BKB20190620192010806/20/19 19:20:31  5-MIN KBKB 210120Z AUTO VRB03KT 10SM CLR 29/24 A2984 370 76 2100 VRB/03 RMK AO2 T02890244
53988KBKB BKB20190620192510806/20/19 19:25:31  5-MIN KBKB 210125Z AUTO 00000KT 10SM CLR 29/24 A2984 370 76 2100 000/00 RMK AO2 T02890244
53988KBKB BKB20190620193010806/20/19 19:30:31  5-MIN KBKB 210130Z AUTO 00000KT 10SM CLR 29/24 A2984 370 76 2100 000/00 RMK AO2 T02890244
53988KBKB BKB20190620193510806/20/19 19:35:31  5-MIN KBKB 210135Z AUTO 00000KT 10SM CLR 28/24 A2984 370 79 2000 000/00 RMK AO2 T02830244
53988KBKB BKB20190620194017206/20/19 19:40:31  5-MIN KBKB 210140Z AUTO 00000KT 10SM CLR 28/24 A2984:15:31  5-MIN KBKB 210815Z AUTO VRB03KT 7SM OVC004 26/25 A2988 330 93 1700 VRB/03 RMK AO2 T02610250 $
53988KBKB BKB20190621022011206/21/19 02:20:31  5-MIN KBKB 210820Z AUTO 00000KT 7SM OVC004 26/25 A2988 330 93 1700 000/00 RMK AO2 T02610250 $
53988KBKB BKB20190621022511206/21/19 02:25:31  5-MIN KBKB 210825Z AUTO VRB04KT 7SM OVC004 26/25 A2988 330 93 1700 VRB/04 RMK AO2 T02610250 $
53988KBKB BKB20190621023011206/21/19 02:30:31  5-MIN KBKB 210830Z AUTO VRB04KT 7SM OVC004 26/25 A2988 330 93 1700 VRB/04 RMK AO2 T02610250 $
53988KBKB BKB20190621023511206/21/19 02:35:31  5-MIN KBKB 210835Z AUTO VRB03KT 7SM OVC004 26/25 A2988 330 93 1700 VRB/03 RMK AO2 T02610250 $
53988KBKB BKB20190621110511306/21/19 11:05:31  5-MIN KBKB 211705Z AUTO VRB04KT 10SM FEW033 33/25 A2994 280 63 2400 VRB/04 RMK AO2 T03280250 $
53988KBKB BKB20190621111011006/21/19 11:10:31  5-MIN KBKB 211710Z AUTO 10SM FEW032 FEW045 33/25 A2994 280 61 2500 M /M RMK AO2 T03330250 $
53988KBKB BKB20190621111512006/21/19 11:15:31  5-MIN KBKB 211715Z AUTO VRB06KT 10SM FEW032 SCT044 33/26 A2994 280 63 2500 VRB/06 RMK AO2 T03330256 $
53988KBKB BKB20190621112012706/21/19 11:20:31  5-MIN KBKB 211720Z AUTO VRB04KT 10SM FEW032 SCT044 SCT055 33/26 A2994 280 65 2400 VRB/04 RMK AO2 T03280256 $
53988KBKB BKB20190621112512706/21/19 11:25:31  5-MIN KBKB 211725Z AUTO VRB05KT 10SM FEW032 SCT044 BKN055 33/26 A2994 280 63 2500 VRB/05 RMK AO2 T03330256 $
53988KBKB BKB20190621113012706/21/19 11:30:31  5-MIN KBKB 211730Z AUTO VRB03KT 10SM FEW031 SCT042 SCT055 34/26 A2994 280 61 2500 VRB/03 RMK AO2 T03390256 $
53988KBKB BKB20190621113512006/21/19 11:35:31  5-MIN KBKB 211735Z AUTO VRB05KT 10SM FEW042 FEW055 34/26 A2994 280 61 2500 VRB/05 RMK AO2 T03390256 $
53988KBKB BKB20190621114012706/21/19 11:40:31  5-MIN KBKB 211740Z AUTO VRB04KT 10SM FEW031 SCT044 SCT055 33/26 A2994 280 65 2400 VRB/04 RMK AO2 T03280256 $
53988KBKB BKB20190621114512706/21/19 11:45:31  5-MIN KBKB 211745Z AUTO VRB05KT 10SM FEW031 SCT044 BKN060 33/26 A2994 280 63 2500 VRB/05 RMK AO2 T03330256 $
53988KBKB BKB20190621115012006/21/19 11:50:31  5-MIN KBKB 211750Z AUTO VRB06KT 10SM FEW033 SCT044 34/25 A2994 280 59 2500 VRB/06 RMK AO2 T03390250 $
53988KBKB BKB20190621115514506/21/19 11:55:31  5-MIN KBKB 211755Z AUTO VRB06KT 10SM FEW033 FEW044 34/25 A2993 290 59 2500 VRB/06 RMK AO2 SLP160 T03390250 10339 20267 50009 $
53988KBKB BKB20190621120011006/21/19 12:00:31  5-MIN KBKB 211800Z AUTO 10SM FEW033 SCT042 34/25 A2993 290 59 2500 M /M RMK AO2 T03390250 $
53988KBKB BKB20190621120512706/21/19 12:05:31  5-MIN KBKB 211805Z AUTO VRB05KT 10SM SCT035 SCT042 BKN050 34/24 A2993 280 57 2500 VRB/05 RMK AO2 T03390244 $
53988KBKB BKB20190621121012006/21/19 12:10:31  5-MIN KBKB 211810Z AUTO VRB06KT 10SM SCT035 SCT050 34/24 A2993 290 57 2500 VRB/06 RMK AO2 T03390244 $
53988KBKB BKB20190621121511306/21/19 12:15:31  5-MIN KBKB 211815Z AUTO VRB04KT 10SM FEW037 34/25 A2993 290 57 2600 VRB/04 RMK AO2 T03440250 $
53988KBKB BKB20190621122012006/21/19 12:20:31  5-MIN KBKB 211820Z AUTO VRB05KT 10SM SCT037 SCT050 33/24 A2993 290 59 2500 VRB/05 RMK AO2 T03330244 $
53988KBKB BKB20190621122512006/21/19 12:25:31  5-MIN KBKB 211825Z AUTO VRB04KT 10SM SCT037 SCT050 34/25 A2993 290 59 2500 VRB/04 RMK AO2 T03390250 $
53988KBKB BKB20190621123011306/21/19 12:30:31  5-MIN KBKB 211830Z AUTO VRB04KT 10SM FEW037 34/25 A2993 290 57 2600 VRB/04 RMK AO2 T03440250 $
53988KBKB BKB20190621123512006/21/19 12:35:31  5-MIN KBKB 211835Z AUTO VRB06KT 10SM FEW035 FEW055 34/25 A2993 290 59 2500 VRB/06 RMK AO2 T03390250 $
53988KBKB BKB20190621124012006/21/19 12:40:31  5-MIN KBKB 211840Z AUTO VRB04KT 10SM FEW035 SCT055 33/25 A2993 290 61 2500 VRB/04 RMK AO2 T03330250 $
53988KBKB BKB20190621124512006/21/19 12:45:31  5-MIN KBKB 211845Z AUTO VRB04KT 10SM FEW037 SCT055 34/26 A2993 290 59 2600 VRB/04 RMK AO2 T03440256 $
53988KBKB BKB20190621125013606/21/19 12:50:31  5-MIN KBKB 211850Z AUTO 20007KT 150V230 10SM FEW035 SCT055 33/24 A2993 290 61 2400 200/07 150V230 RMK AO2 T03280244 $
53988KBKB BKB20190621125512006/21/19 12:55:31  5-MIN KBKB 211855Z AUTO VRB05KT 10SM SCT055 33/24 A2993 290 59 2400 VRB/05 RMK AO2 SLP160 T03280239 $
53988KBKB BKB20190621130011306/21/19 13:00:31  5-MIN KBKB 211900Z AUTO VRB05KT 10SM FEW055 33/24 A2993 290 57 2500 VRB/05 RMK AO2 T03330239 $
53988KBKB BKB20190621130512906/21/19 13:05:31  5-MIN KBKB 211905Z AUTO 20007KT 130V220 10SM FEW055 34/24 A2993 290 55 2500 190/07 130V220 RMK AO2 T03390239 $
53988KBKB BKB20190621131012706/21/19 13:10:31  5-MIN KBKB 211910Z AUTO VRB03KT 10SM FEW038 SCT049 SCT055 34/24 A2993 290 55 2500 VRB/03 RMK AO2 T03390239 $
53988KBKB BKB20190621131512006/21/19 13:15:31  5-MIN KBKB 211915Z AUTO VRB06KT 10SM SCT041 SCT055 33/24 A2993 290 57 2500 VRB/06 RMK AO2 T03330239 $
53988KBKB BKB20190621132012006/21/19 13:20:31  5-MIN KBKB 211920Z AUTO VRB06KT 10SM FEW043 SCT055 33/24 A2993 290 57 2500 VRB/06 RMK AO2 T03330239 $
53988KBKB BKB20190621132511006/21/19 13:25:31  5-MIN KBKB 211925Z AUTO 10SM FEW043 FEW060 34/24 A2993 290 57 2500 M /M RMK AO2 T03390244 $
53988KBKB BKB20190621133012906/21/19 13:30:31  5-MIN KBKB 211930Z AUTO 17007KT 130V240 10SM FEW041 34/24 A2993 290 57 2500 170/07 130V240 RMK AO2 T03390244 $
53988KBKB BKB20190621133512906/21/19 13:35:31  5-MIN KBKB 211935Z AUTO 17008KT 120V230 10SM SCT041 34/24 A2993 290 57 2500 170/08 120V230 RMK AO2 T03390244 $
53988KBKB BKB20190621134012906/21/19 13:40:31  5-MIN KBKB 211940Z AUTO 15007KT 090V190 10SM FEW039 33/24 A2993 290 57 2500 150/07 090V190 RMK AO2 T03330239 $
53988KBKB BKB20190621134511306/21/19 13:45:31  5-MIN KBKB 211945Z AUTO VRB05KT 10SM SCT039 33/24 A2993 290 59 2400 VRB/05 RMK AO2 T03280239 $
53988KBKB BKB20190621135011306/21/19 13:50:31  5-MIN KBKB 211950Z AUTO VRB05KT 10SM BKN041 33/24 A2993 290 57 2500 VRB/05 RMK AO2 T03330239 $
53988KBKB BKB20190621135512706/21/19 13:55:31  5-MIN KBKB 211955Z AUTO VRB05KT 10SM BKN039 BKN048 34/24 A2993 290 57 2500 VRB/05 RMK AO2 SLP159 T03390244 $
53988KBKB BKB20190621140013606/21/19 14:00:31  5-MIN KBKB 212000Z AUTO 16008KT 110V240 10SM SCT039 BKN048 34/24 A2993 290 55 2500 160/08 110V240 RMK AO2 T03390239 $
53988KBKB BKB20190621140511306/21/19 14:05:31  5-MIN KBKB 212005Z AUTO VRB06KT 10SM SCT039 33/24 A2993 290 57 2500 VRB/06 RMK AO2 T03330239 $
53988KBKB BKB20190621141011306/21/19 14:10:31  5-MIN KBKB 212010Z AUTO VRB06KT 10SM SCT041 33/23 A2993 290 57 2400 VRB/06 RMK AO2 T03280233 $
53988KBKB BKB20190621141511306/21/19 14:15:31  5-MIN KBKB 212015Z AUTO VRB06KT 10SM SCT041 33/23 A2993 290 57 2400 VRB/06 RMK AO2 T03280233 $
53988KBKB BKB20190621142011306/21/19 14:20:31  5-MIN KBKB 212020Z AUTO VRB06KT 10SM FEW041 33/23 A2993 290 55 2400 VRB/06 RMK AO2 T03280228 $
53988KBKB BKB20190621142511306/21/19 14:25:31  5-MIN KBKB 212025Z AUTO VRB05KT 10SM FEW041 33/23 A2993 290 55 2400 VRB/05 RMK AO2 T03280228 $
53988KBKB BKB20190621143011306/21/19 14:30:31  5-MIN KBKB 212030Z AUTO VRB03KT 10SM FEW041 33/23 A2993 290 55 2400 VRB/03 RMK AO2 T03280228 $
53988KBKB BKB20190621143511306/21/19 14:35:31  5-MIN KBKB 212035Z AUTO VRB04KT 10SM FEW041 33/23 A2993 290 55 2500 VRB/04 RMK AO2 T03330233 $
53988KBKB BKB20190621144011306/21/19 14:40:31  5-MIN KBKB 212040Z AUTO VRB05KT 10SM FEW041 33/23 A2993 290 55 2500 VRB/05 RMK AO2 T03330233 $
53988KBKB BKB20190621144511306/21/19 14:45:31  5-MIN KBKB 212045Z AUTO VRB06KT 10SM FEW043 33/24 A2993 290 57 2500 VRB/06 RMK AO2 T03330239 $
53988KBKB BKB20190621145019506/21/19 14:50:31  5-MIN KBKB 212050Z AUTO VRB03KT 10SM FEW045 34/24 A2993 290 55 2500 VRB/03 RMK AO2 T03390239 $ 61 2300 VRB/05 RMK AO2 T031709 32/24 A2992 300 61 2400 VRB/04 RMK AO2 T03220239 $
53988KBKB BKB20190621165011006/21/19 16:50:31  5-MIN KBKB 212250Z AUTO VRB04KT 10SM CLR 32/24 A2991 300 61 2400 VRB/04 RMK AO2 T03220239 $
53988KBKB BKB20190621165511706/21/19 16:55:31  5-MIN KBKB 212255Z AUTO VRB05KT 10SM CLR 32/24 A2991 300 61 2400 VRB/05 RMK AO2 SLP153 T03220239 $
53988KBKB BKB20190621170011006/21/19 17:00:31  5-MIN KBKB 212300Z AUTO 17005KT 10SM CLR 32/24 A2991 300 63 2300 170/05 RMK AO2 T03170239 $
53988KBKB BKB20190621170511006/21/19 17:05:31  5-MIN KBKB 212305Z AUTO VRB05KT 10SM CLR 32/23 A2991 310 61 2300 VRB/05 RMK AO2 T03170233 $
53988KBKB BKB20190621171011006/21/19 17:10:31  5-MIN KBKB 212310Z AUTO VRB03KT 10SM CLR 32/23 A2991 310 59 2400 VRB/03 RMK AO2 T03220233 $
53988KBKB BKB20190621171511006/21/19 17:15:31  5-MIN KBKB 212315Z AUTO VRB04KT 10SM CLR 32/23 A2991 300 61 2300 VRB/04 RMK AO2 T03170233 $
53988KBKB BKB20190621171516606/21/19 17:15:31  5-MIN KBKB 212315Z AUTO VRB04KT 10SM CLR 32/23 A299MIN KBKB 212255Z AUTO VRB05KT 10SM CLR 32/24 A2991 300 61 2400 VRB/05 RMK AO2 SLP153 T03220239 $
53988KBKB BKB20190621172011006/21/19 17:20:31  5-MIN KBKB 212320Z AUTO VRB05KT 10SM CLR 32/23 A2991 310 61 2300 VRB/05 RMK AO2 T03170233 $
53988KBKB BKB20190621172510006/21/19 17:25:31  5-MIN KBKB 212325Z AUTO 10SM CLR 32/23 A2991 300 59 2400 M /M RMK AO2 T03220233 $
53988KBKB BKB20190621172516606/21/19 17:25:31  5-MIN KBKB 212325Z AUTO 10SM CLR 32/23 A29919 17:05:31  5-MIN KBKB 212305Z AUTO VRB05KT 10SM CLR 32/23 A2991 310 61 2300 VRB/05 RMK AO2 T03170233 $
53988KBKB BKB20190621173011006/21/19 17:30:31  5-MIN KBKB 212330Z AUTO VRB03KT 10SM CLR 32/23 A2992 300 61 2300 VRB/03 RMK AO2 T03170233 $
53988KBKB BKB20190621173519306/21/19 17:35:31  5-MIN KBKB 212335Z AUTO VRB05KT 10SM CLR 31/23 A2992 19 17:15:31  5-MIN KBKB 212315Z AUTO VRB04KT 10SM CLR 32/23 A2991 300 61 2300 VRB/04 RMK AO2 T VRB/03 RMK AO2 T02830239 $
53988KBKB BKB20190621194511006/21/19 19:45:31  5-MIN KBKB 220145Z AUTO VRB04KT 10SM CLR 28/24 A2992 300 76 1900 VRB/04 RMK AO2 T02830239 $
53988KBKB BKB20190621195011006/21/19 19:50:31  5-MIN KBKB 220150Z AUTO VRB03KT 10SM CLR 28/24 A2992 300 76 1900 VRB/03 RMK AO2 T02830239 $
53988KBKB BKB20190621195511706/21/19 19:55:31  5-MIN KBKB 220155Z AUTO VRB03KT 10SM CLR 28/24 A2992 300 76 1900 VRB/03 RMK AO2 SLP156 T02830239 $
53988KBKB BKB20190621200011006/21/19 20:00:31  5-MIN KBKB 220200Z AUTO 00000KT 10SM CLR 28/24 A2992 300 79 1900 000/00 RMK AO2 T02830244 $
53988KBKB BKB20190621200015706/21/19 20:00:31  5-MIN KBKB 220200Z AUTO 00000KT 10SM CLR 28/24 A2992 300 79 1900 000/00 RMK AO2 T02830244 $06/21/19 20:05:31  0 000/00 RMK AO2 T02890239 $
53988KBKB BKB20190621200511006/21/19 20:05:31  5-MIN KBKB 220205Z AUTO VRB03KT 10SM CLR 28/24 A2992 300 79 1900 VRB/03 RMK AO2 T02830244 $
53988KBKB BKB20190621201011006/21/19 20:10:31  5-MIN KBKB 220210Z AUTO VRB03KT 10SM CLR 28/24 A2992 300 79 1900 VRB/03 RMK AO2 T02830244 $
53988KBKB BKB20190621201015106/21/19 20:10:31  5-MIN KBKB 220210Z AUTO VRB03KT 10SM CLR 28/24 A2992 30095 270 90 1800 000/00 RMK AO2 T02720256 $060 1800 000/00 RMK AO2 T02720256 $
53988KBKB BKB20190621201511006/21/19 20:15:31  5-MIN KBKB 220215Z AUTO 00000KT 10SM CLR 28/24 A2992 300 82 1900 000/00 RMK AO2 T02780244 $
53988KBKB BKB20190621202011006/21/19 20:20:31  5-MIN KBKB 220220Z AUTO VRB03KT 10SM CLR 28/24 A2992 290 79 1900 VRB/03 RMK AO2 T02830244 $
53988KBKB BKB20190621220511306/21/19 22:05:31  5-MIN KBKB 220405Z AUTO VRB03KT 10SM FEW029 27/25 A2995 270 87 1800 VRB/03 RMK AO2 T02720250 $
53988KBKB BKB20190621221011306/21/19 22:10:31  5-MIN KBKB 220410Z AUTO VRB04KT 10SM SCT029 27/25 A2995 270 87 1800 VRB/04 RMK AO2 T02720250 $
53988KBKB BKB20190621221511306/21/19 22:15:31  5-MIN KBKB 220415Z AUTO 00000KT 10SM BKN028 27/25 A2995 280 87 1800 000/00 RMK AO2 T02720250 $
53988KBKB BKB20190621222011306/21/19 22:20:31  5-MIN KBKB 220420Z AUTO VRB04KT 10SM BKN028 27/26 A2995 270 90 1800 VRB/04 RMK AO2 T02720256 $
53988KBKB BKB20190621222511306/21/19 22:25:31  5-MIN KBKB 220425Z AUTO 00000KT 10SM BKN028 27/26 A2995 270 90 1800 000/00 RMK AO2 T02720256 $
53988KBKB BKB20190621223011306/21/19 22:30:31  5-MIN KBKB 220430Z AUTO 00000KT 10SM BKN028 28/26 A2995 270 87 1800 000/00 RMK AO2 T02780256 $
53988KBKB BKB20190621223511306/21/19 22:35:31  5-MIN KBKB 220435Z AUTO VRB03KT 10SM BKN028 27/26 A2995 270 90 1800 VRB/03 RMK AO2 T02720256 $
53988KBKB BKB20190621224011306/21/19 22:40:31  5-MIN KBKB 220440Z AUTO 00000KT 10SM BKN026 27/26 A2994 280 90 1800 000/00 RMK AO2 T02720256 $
53988KBKB BKB20190621224512006/21/19 22:45:31  5-MIN KBKB 220445Z AUTO 00000KT 10SM FEW010 SCT026 27/26 A2995 270 90 1800 000/00 RMK AO2 T02720256 $
53988KBKB BKB20190621225011906/21/19 22:50:31  5-MIN KBKB 220450Z AUTO 00000KT 9SM FEW010 SCT024 27/26 A2995 270 90 1800 000/00 RMK AO2 T02720256 $
53988KBKB BKB20190621225510906/21/19 22:55:31  5-MIN KBKB 220455Z AUTO 00000KT 9SM SCT010 BKN022 27/26 A2995 270 90 1800 000/00 RMK AO2 $
53988KBKB BKB20190621225514206/21/19 22:55:31  5-MIN KBKB 220455Z AUTO 00000KT 9SM SCT010 BKN022 27/26 A2995 2SM BKN028 27/26 A2995 270 90 1800 VRB/03 RMK AO2 T02720256 $
53988KBKB BKB20190621230011906/21/19 23:00:31  5-MIN KBKB 220500Z AUTO 00000KT 9SM SCT009 BKN022 27/26 A2995 270 90 1800 000/00 RMK AO2 T02720256 $
53988KBKB BKB20190621230511906/21/19 23:05:31  5-MIN KBKB 220505Z AUTO VRB03KT 9SM BKN009 BKN022 27/26 A2995 280 90 1800 VRB/03 RMK AO2 T02720256 $
53988KBKB BKB20190621231012606/21/19 23:10:31  5-MIN KBKB 220510Z AUTO 00000KT 9SM BKN009 BKN016 OVC021 27/26 A2995 270 90 1800 000/00 RMK AO2 T02720256 $
53988KBKB BKB20190621231512606/21/19 23:15:31  5-MIN KBKB 220515Z AUTO VRB03KT 9SM BKN009 BKN015 OVC021 27/26 A2995 270 90 1800 VRB/03 RMK AO2 T02720256 $
53988KBKB BKB20190621232011906/21/19 23:20:31  5-MIN KBKB 220520Z AUTO VRB04KT 9SM BKN009 OVC015 27/26 A2995 270 90 1800 VRB/04 RMK AO2 T02720256 $
53988KBKB BKB20190621232511906/21/19 23:25:31  5-MIN KBKB 220525Z AUTO VRB04KT 9SM BKN009 OVC015 27/26 A2994 280 90 1800 VRB/04 RMK AO2 T02720256 $
53988KBKB BKB20190621233011906/21/19 23:30:31  5-MIN KBKB 220530Z AUTO 16003KT 9SM BKN009 OVC015 27/26 A2994 280 90 1800 160/03 RMK AO2 T02720256 $
53988KBKB BKB20190621233511906/21/19 23:35:31  5-MIN KBKB 220535Z AUTO 00000KT 9SM BKN009 OVC015 27/26 A2994 280 90 1800 000/00 RMK AO2 T02720256 $
53988KBKB BKB20190621234012606/21/19 23:40:31  5-MIN KBKB 220540Z AUTO 00000KT 9SM BKN008 BKN014 OVC019 27/26 A2994 280 90 1800 000/00 RMK AO2 T02720256 $
53988KBKB BKB20190621234511906/21/19 23:45:31  5-MIN KBKB 220545Z AUTO VRB03KT 8SM BKN008 OVC014 27/26 A2994 280 90 1800 VRB/03 RMK AO2 T02720256 $
53988KBKB BKB20190621235011906/21/19 23:50:31  5-MIN KBKB 220550Z AUTO VRB03KT 8SM BKN008 OVC013 27/26 A2994 280 90 1800 VRB/03 RMK AO2 T02720256 $
53988KBKB BKB20190621235514706/21/19 23:55:31  5-MIN KBKB 220555Z AUTO 00000KT 8SM OVC008 27/26 A2995 270 90 1800 000/00 RMK AO2 SLP164 T02720256 10311 20272 403440261 53006 $
53988KBKB BKB20190622000011206/22/19 00:00:31  5-MIN KBKB 220600Z AUTO 00000KT 8SM OVC008 27/26 A2994 280 90 1800 000/00 RMK AO2 T02720256 $
53988KBKB BKB20190622000511206/22/19 00:05:31  5-MIN KBKB 220605Z AUTO 00000KT 8SM OVC008 27/26 A2994 280 90 1800 000/00 RMK AO2 T02720256 $
53988KBKB BKB20190622001011206/22/19 00:10:31  5-MIN KBKB 220610Z AUTO VRB03KT 8SM OVC008 27/26 A2994 280 90 1800 VRB/03 RMK AO2 T02720256 $
53988KBKB BKB20190622001511206/22/19 00:15:31  5-MIN KBKB 220615Z AUTO 00000KT 8SM OVC008 27/26 A2994 280 90 1800 000/00 RMK AO2 T02720256 $
53988KBKB BKB20190622002012606/22/19 00:20:31  5-MIN KBKB 220620Z AUTO VRB04KT 8SM BKN008 BKN017 OVC027 27/26 A2994 280 90 1800 VRB/04 RMK AO2 T02720256 $
53988KBKB BKB20190622002512606/22/19 00:25:31  5-MIN KBKB 220625Z AUTO 00000KT 8SM BKN008 BKN017 OVC031 27/26 A2994 280 90 1800 000/00 RMK AO2 T02720256 $
53988KBKB BKB20190622003012606/22/19 00:30:31  5-MIN KBKB 220630Z AUTO VRB03KT 8SM SCT008 BKN011 OVC034 27/26 A2994 280 90 1800 VRB/03 RMK AO2 T02720256 $
53988KBKB BKB20190622003512606/22/19 00:35:31  5-MIN KBKB 220635Z AUTO 00000KT 8SM SCT008 BKN018 OVC034 27/26 A2994 280 90 1800 000/00 RMK AO2 T02720256 $
53988KBKB BKB20190622004012606/22/19 00:40:31  5-MIN KBKB 220640Z AUTO 00000KT 9SM SCT008 BKN014 OVC034 27/26 A2994 280 90 1800 000/00 RMK AO2 T02720256 $
53988KBKB BKB20190622004512606/22/19 00:45:31  5-MIN KBKB 220645Z AUTO 00000KT 9SM SCT008 BKN014 OVC026 27/26 A2995 270 90 1800 000/00 RMK AO2 T02720256 $
53988KBKB BKB20190622005012606/22/19 00:50:31  5-MIN KBKB 220650Z AUTO VRB03KT 8SM SCT008 BKN014 OVC025 27/26 A2995 270 90 1800 VRB/03 RMK AO2 T02720256 $
53988KBKB BKB20190622005513306/22/19 00:55:31  5-MIN KBKB 220655Z AUTO VRB03KT 8SM BKN010 BKN016 OVC023 27/26 A2995 270 90 1800 VRB/03 RMK AO2 SLP165 T02720256 $
53988KBKB BKB20190622010012606/22/19 01:00:31  5-MIN KBKB 220700Z AUTO 00000KT 9SM BKN010 BKN013 OVC022 27/26 A2995 280 90 1800 000/00 RMK AO2 T02720256 $
53988KBKB BKB20190622010511906/22/19 01:05:31  5-MIN KBKB 220705Z AUTO 00000KT 9SM SCT010 OVC015 27/26 A2994 280 90 1800 000/00 RMK AO2 T02720256 $
53988KBKB BKB20190622011011906/22/19 01:10:31  5-MIN KBKB 220710Z AUTO 00000KT 9SM SCT008 OVC015 27/26 A2994 280 90 1800 000/00 RMK AO2 T02720256 $
53988KBKB BKB20190622011511906/22/19 01:15:31  5-MIN KBKB 220715Z AUTO VRB04KT 9SM SCT008 OVC013 27/26 A2994 280 90 1800 VRB/04 RMK AO2 T02720256 $
53988KBKB BKB20190622012012606/22/19 01:20:31  5-MIN KBKB 220720Z AUTO 00000KT 9SM FEW008 BKN013 OVC019 27/26 A2994 280 90 1800 000/00 RMK AO2 T02720256 $
53988KBKB BKB20190622012513106/22/19 01:25:31  5-MIN KBKB 220725Z AUTO VRB04KT 9SM BKN010 OVC015 27/26 A2993 280 90 1800 VRB/04 RMK AO2 CIG 007V013 T02720256 $
53988KBKB BKB20190622013013106/22/19 01:30:31  5-MIN KBKB 220730Z AUTO 19003KT 9SM BKN010 OVC015 28/26 A2994 280 87 1900 190/03 RMK AO2 CIG 007V014 T02780256 $
53988KBKB BKB20190622013511906/22/19 01:35:31  5-MIN KBKB 220735Z AUTO VRB03KT 9SM SCT008 OVC013 28/26 A2994 280 87 1900 VRB/03 RMK AO2 T02780256 $
53988KBKB BKB20190622014011906/22/19 01:40:31  5-MIN KBKB 220740Z AUTO VRB04KT 9SM BKN010 OVC015 27/26 A2993 280 90 1800 VRB/04 RMK AO2 T02720256 $
53988KBKB BKB20190622014512006/22/19 01:45:31  5-MIN KBKB 220745Z AUTO VRB04KT 10SM BKN010 OVC015 27/26 A2993 290 90 1800 VRB/04 RMK AO2 T02720256 $
53988KBKB BKB20190622015012006/22/19 01:50:31  5-MIN KBKB 220750Z AUTO VRB04KT 10SM BKN010 OVC015 27/26 A2993 290 90 1800 VRB/04 RMK AO2 T02720256 $
53988KBKB BKB20190622015512006/22/19 01:55:31  5-MIN KBKB 220755Z AUTO VRB03KT 10SM OVC010 27/26 A2993 290 90 1800 VRB/03 RMK AO2 SLP160 T02720256 $
53988KBKB BKB20190622020012006/22/19 02:00:31  5-MIN KBKB 220800Z AUTO VRB04KT 10SM BKN010 OVC016 27/26 A2993 290 90 1800 VRB/04 RMK AO2 T02720256 $
53988KBKB BKB20190622020512006/22/19 02:05:31  5-MIN KBKB 220805Z AUTO VRB04KT 10SM BKN010 OVC016 27/26 A2993 290 90 1800 VRB/04 RMK AO2 T02720256 $
53988KBKB BKB20190622021013206/22/19 02:10:31  5-MIN KBKB 220810Z AUTO VRB03KT 10SM BKN010 OVC016 27/26 A2993 290 90 1800 VRB/03 RMK AO2 CIG 008V011 T02720256 $
53988KBKB BKB20190622021513106/22/19 02:15:31  5-MIN KBKB 220815Z AUTO VRB03KT 9SM BKN010 OVC016 27/26 A2993 290 90 1800 VRB/03 RMK AO2 CIG 007V011 T02720256 $
53988KBKB BKB20190622022013106/22/19 02:20:31  5-MIN KBKB 220820Z AUTO 00000KT 9SM BKN009 OVC016 27/26 A2993 290 90 1800 000/00 RMK AO2 CIG 007V011 T02720256 $
53988KBKB BKB20190622022512406/22/19 02:25:31  5-MIN KBKB 220825Z AUTO VRB03KT 9SM OVC009 27/26 A2993 290 90 1800 VRB/03 RMK AO2 CIG 007V012 T02720256 $
53988KBKB BKB20190622023012406/22/19 02:30:31  5-MIN KBKB 220830Z AUTO VRB04KT 9SM OVC009 27/26 A2993 290 90 1800 VRB/04 RMK AO2 CIG 007V012 T02720256 $
53988KBKB BKB20190622023512406/22/19 02:35:31  5-MIN KBKB 220835Z AUTO VRB03KT 9SM OVC009 27/26 A2993 290 90 1800 VRB/03 RMK AO2 CIG 007V012 T02720256 $
53988KBKB BKB20190622024012406/22/19 02:40:31  5-MIN KBKB 220840Z AUTO VRB03KT 9SM OVC009 27/26 A2993 290 90 1800 VRB/03 RMK AO2 CIG 007V013 T02720256 $
53988KBKB BKB20190622024511406/22/19 02:45:31  5-MIN KBKB 220845Z AUTO 9SM OVC009 27/26 A2993 290 90 1800 M /M RMK AO2 CIG 007V013 T02720256 $
53988KBKB BKB20190622025013106/22/19 02:50:31  5-MIN KBKB 220850Z AUTO VRB03KT 9SM BKN009 OVC012 27/26 A2993 290 90 1800 VRB/03 RMK AO2 CIG 007V010 T02720256 $
53988KBKB BKB20190622025513206/22/19 02:55:31  5-MIN KBKB 220855Z AUTO VRB04KT 9SM BKN009 OVC012 27/26 A2993 290 90 1800 VRB/04 RMK AO2 SLP159 T02720256 50004 $
53988KBKB BKB20190622030012406/22/19 03:00:31  5-MIN KBKB 220900Z AUTO VRB04KT 9SM OVC009 27/26 A2993 290 90 1800 VRB/04 RMK AO2 CIG 007V011 T02720256 $
53988KBKB BKB20190622030511206/22/19 03:05:31  5-MIN KBKB 220905Z AUTO VRB05KT 9SM OVC008 27/26 A2993 290 90 1800 VRB/05 RMK AO2 T02720256 $
53988KBKB BKB20190622031011206/22/19 03:10:31  5-MIN KBKB 220910Z AUTO 00000KT 9SM OVC008 27/26 A2993 290 90 1800 000/00 RMK AO2 T02720256 $
53988KBKB BKB20190622031513806/22/19 03:15:31  5-MIN KBKB 220915Z AUTO VRB04KT 9SM OVC008 27/26 A2993 290 90 1800 V 260 90 1700 VRB/03 RMK AO2 CIG 008V013 T02670250 $
53988KBKB BKB20190622052011206/22/19 05:20:31  5-MIN KBKB 221120Z AUTO 00000KT 9SM OVC012 27/25 A2996 260 90 1700 000/00 RMK AO2 T02670250 $
53988KBKB BKB20190622052512406/22/19 05:25:31  5-MIN KBKB 221125Z AUTO VRB03KT 8SM OVC010 27/25 A2997 260 90 1700 VRB/03 RMK AO2 CIG 008V013 T02670250 $
53988KBKB BKB20190622053012406/22/19 05:30:31  5-MIN KBKB 221130Z AUTO 00000KT 8SM OVC010 27/25 A2997 250 87 1800 000/00 RMK AO2 CIG 008V013 T02720250 $
53988KBKB BKB20190622053512406/22/19 05:35:31  5-MIN KBKB 221135Z AUTO 00000KT 8SM OVC010 27/25 A2997 250 87 1800 000/00 RMK AO2 CIG 007V013 T02720250 $
53988KBKB BKB20190622053513406/22/19 05:35:31  5-MIN KBKB 221135Z AUTO 00000KT 8SM OVC010 27/25 A2997 25 OVC012 27/25 A2996 260 90 1700 VRB/03 RMK AO2 T02670250 $
53988KBKB BKB20190622054012406/22/19 05:40:31  5-MIN KBKB 221140Z AUTO VRB03KT 8SM OVC010 27/25 A2997 250 87 1800 VRB/03 RMK AO2 CIG 007V013 T02720250 $
53988KBKB BKB20190622054022706/22/19 05:40:31  5-MIN KBKB 221140Z AUTO VRB03KT 8SM OVC010 27/25 A2997 250 87 1800 VRB/03 RMK AO2 CIG 007V013 T02720250 $06/22/19 05:45:-MIN 0000KT 10SM BKN013 BKN018 OVC029 29/25 A3002 210 79 1900 000/00 RMK AO2 T02890250 $
53988KBKB BKB20190622054512406/22/19 05:45:31  5-MIN KBKB 221145Z AUTO VRB03KT 8SM OVC010 27/25 A2997 260 90 1700 VRB/03 RMK AO2 CIG 008V013 T02670250 $
53988KBKB BKB20190622054512606/22/19 05:45:31  5-MIN KBKB 221145Z AUTO VRB03KT 8SM BKN010 BKN017 OVC023 27/25 A2998 250 87 1800 VRB/03 RMK AO2 T02720250 $
53988KBKB BKB20190622055012206/22/19 05:50:31  5-MIN KBKB 221150Z AUTO VRB03KT 8SM BKN008 BKN012 OVC019 27/25 A2998 250 87 1800 VRB/03 RM3 T02720250 $
53988KBKB BKB20190622075012706/22/19 07:50:31  5-MIN KBKB 221350Z AUTO VRB05KT 10SM BKN015 BKN021 OVC034 29/25 A3002 210 79 1900 VRB/05 RMK AO2 T02890250 $
53988KBKB BKB20190622075513406/22/19 07:55:31  5-MIN KBKB 221355Z AUTO VRB05KT 10SM BKN015 BKN023 OVC032 29/25 A3002 210 79 1900 VRB/05 RMK AO2 SLP189 T02890250 $
53988KBKB BKB20190622080012706/22/19 08:00:31  5-MIN KBKB 221400Z AUTO 20003KT 10SM BKN015 BKN024 OVC030 29/25 A3002 210 79 1900 200/03 RMK AO2 T02890250 $
53988KBKB BKB20190622080512706/22/19 08:05:31  5-MIN KBKB 221405Z AUTO VRB04KT 10SM BKN017 BKN024 OVC030 29/25 A3002 210 79 1900 VRB/04 RMK AO2 T02890250 $
53988KBKB BKB20190622081010806/22/19 08:10:31  5-MIN KBKB 221410Z AUTO VRB03KT 10SM BKN017 BKN022 OVC028 29/25 A3002 RMK AO2 T02890250 $
53988KBKB BKB20190622081012706/22/19 08:10:31  5-MIN KBKB 221410Z AUTO VRB03KT 10SM BKN017 BKN022 OVC028 29/25 A3002 210 76 2000 VRB/03 RMK AO2 T02940250 $
53988KBKB BKB20190622081512706/22/19 08:15:31  5-MIN KBKB 221415Z AUTO VRB06KT 10SM BKN017 BKN024 OVC030 29/25 A3002 210 76 2000 VRB/06 RMK AO2 T02940250 $
53988KBKB BKB20190622082009006/22/19 08:20:31  5-MIN KBKB 221420Z AUTO VRB05KT 10SM BKN017 BKN022 OVC034 30/25 LISTED.
53988KBKB BKB20190622082011706/22/19 08:20:31  5-MIN KBKB 221420Z AUTO VRB05KT 10SM BKN017 BKN022 25 A3002 210 79 1900 200/03 RMK AO2 T02890250 $
53988KBKB BKB20190623180511006/23/19 18:05:31  5-MIN KBKB 240005Z AUTO 00000KT 10SM CLR 28/26 A2984 370 85 2000 000/00 RMK AO2 T02830256 $
53988KBKB BKB20190623181011006/23/19 18:10:31  5-MIN KBKB 240010Z AUTO 00000KT 10SM CLR 28/26 A2984 370 85 2000 000/00 RMK AO2 T02830256 $
53988KBKB BKB20190623181511006/23/19 18:15:31  5-MIN KBKB 240015Z AUTO VRB03KT 10SM CLR 28/26 A2984 370 85 2000 VRB/03 RMK AO2 T02830256 $
53988KBKB BKB20190623182011006/23/19 18:20:31  5-MIN KBKB 240020Z AUTO 00000KT 10SM CLR 28/26 A2984 370 85 2000 000/00 RMK AO2 T02830256 $
53988KBKB BKB20190623182511006/23/19 18:25:31  5-MIN KBKB 240025Z AUTO 00000KT 10SM CLR 28/26 A2984 370 85 2000 000/00 RMK AO2 T02830256 $
53988KBKB BKB20190623183011006/23/19 18:30:31  5-MIN KBKB 240030Z AUTO VRB03KT 10SM CLR 28/26 A2985 370 85 2000 VRB/03 RMK AO2 T02830256 $
53988KBKB BKB20190623183511306/23/19 18:35:31  5-MIN KBKB 240035Z AUTO VRB03KT 10SM FEW029 28/26 A2984 370 85 2000 VRB/03 RMK AO2 T02830256 $
53988KBKB BKB20190623184011306/23/19 18:40:31  5-MIN KBKB 240040Z AUTO 00000KT 10SM FEW029 28/26 A2984 370 85 2000 000/00 RMK AO2 T02830256 $
53988KBKB BKB20190623184511006/23/19 18:45:31  5-MIN KBKB 240045Z AUTO VRB03KT 10SM CLR 28/26 A2985 370 85 2000 VRB/03 RMK AO2 T02830256 $
53988KBKB BKB20190623185011006/23/19 18:50:31  5-MIN KBKB 240050Z AUTO VRB03KT 10SM CLR 28/26 A2984 370 85 2000 VRB/03 RMK AO2 T02830256 $
53988KBKB BKB20190623185511706/23/19 18:55:31  5-MIN KBKB 240055Z AUTO VRB04KT 10SM CLR 28/26 A2984 370 85 2000 VRB/04 RMK AO2 SLP130 T02830256 $
53988KBKB BKB20190623190011006/23/19 19:00:31  5-MIN KBKB 240100Z AUTO VRB03KT 10SM CLR 28/25 A2984 370 82 2000 VRB/03 RMK AO2 T02830250 $
53988KBKB BKB20190623190511006/23/19 19:05:31  5-MIN KBKB 240105Z AUTO VRB03KT 10SM CLR 28/25 A2984 370 82 2000 VRB/03 RMK AO2 T02830250 $
53988KBKB BKB20190623191011006/23/19 19:10:31  5-MIN KBKB 240110Z AUTO VRB04KT 10SM CLR 28/25 A2984 370 82 2000 VRB/04 RMK AO2 T02830250 $
53988KBKB BKB20190623191511006/23/19 19:15:31  5-MIN KBKB 240115Z AUTO VRB03KT 10SM CLR 28/25 A2984 370 82 2000 VRB/03 RMK AO2 T02830250 $
53988KBKB BKB20190623192011006/23/19 19:20:31  5-MIN KBKB 240120Z AUTO VRB03KT 10SM CLR 28/25 A2983 380 82 2000 VRB/03 RMK AO2 T02830250 $
53988KBKB BKB20190623192511006/23/19 19:25:31  5-MIN KBKB 240125Z AUTO VRB04KT 10SM CLR 28/25 A2983 380 82 2000 VRB/04 RMK AO2 T02830250 $
53988KBKB BKB20190623193011306/23/19 19:30:31  5-MIN KBKB 240130Z AUTO VRB04KT 10SM FEW023 28/25 A2983 380 82 2000 VRB/04 RMK AO2 T02830250 $
53988KBKB BKB20190623193511306/23/19 19:35:31  5-MIN KBKB 240135Z AUTO 00000KT 10SM FEW023 28/25 A2983 380 84 2000 000/00 RMK AO2 T02780250 $
53988KBKB BKB20190623194011006/23/19 19:40:31  5-MIN KBKB 240140Z AUTO VRB03KT 10SM CLR 28/25 A2983 380 84 2000 VRB/03 RMK AO2 T02780250 $
53988KBKB BKB20190623194511006/23/19 19:45:31  5-MIN KBKB 240145Z AUTO VRB04KT 10SM CLR 28/25 A2982 390 84 2000 VRB/04 RMK AO2 T02780250 $
53988KBKB BKB20190623195011006/23/19 19:50:31  5-MIN KBKB 240150Z AUTO VRB04KT 10SM CLR 28/25 A2982 390 84 2000 VRB/04 RMK AO2 T02780250 $
53988KBKB BKB20190623195511706/23/19 19:55:31  5-MIN KBKB 240155Z AUTO VRB03KT 10SM CLR 28/25 A2982 390 84 2000 VRB/03 RMK AO2 SLP123 T02780250 $
53988KBKB BKB20190623200011006/23/19 20:00:31  5-MIN KBKB 240200Z AUTO VRB03KT 10SM CLR 28/25 A2982 390 84 2000 VRB/03 RMK AO2 T02780250 $
53988KBKB BKB20190623200511306/23/19 20:05:31  5-MIN KBKB 240205Z AUTO VRB03KT 10SM FEW022 28/25 A2983 380 84 2000 VRB/03 RMK AO2 T02780250 $
53988KBKB BKB20190623201012006/23/19 20:10:31  5-MIN KBKB 240210Z AUTO 00000KT 10SM FEW022 SCT034 28/25 A2983 380 84 2000 000/00 RMK AO2 T02780250 $
53988KBKB BKB20190623201512006/23/19 20:15:31  5-MIN KBKB 240215Z AUTO 00000KT 10SM FEW022 SCT034 28/25 A2983 380 84 2000 000/00 RMK AO2 T02780250 $
53988KBKB BKB20190623202012006/23/19 20:20:31  5-MIN KBKB 240220Z AUTO 17003KT 10SM FEW022 FEW035 28/25 A2983 380 84 2000 170/03 RMK AO2 T02780250 $
53988KBKB BKB20190623202512006/23/19 20:25:31  5-MIN KBKB 240225Z AUTO 00000KT 10SM FEW022 FEW035 28/25 A2984 380 84 2000 000/00 RMK AO2 T02780250 $
53988KBKB BKB20190623203011306/23/19 20:30:31  5-MIN KBKB 240230Z AUTO VRB03KT 10SM FEW035 27/25 A2984 370 87 1900 VRB/03 RMK AO2 T02720250 $
53988KBKB BKB20190623203511306/23/19 20:35:31  5-MIN KBKB 240235Z AUTO VRB03KT 10SM FEW035 27/25 A2984 370 87 1900 VRB/03 RMK AO2 T02720250 $
53988KBKB BKB20190623204012606/23/19 20:40:31  5-MIN KBKB 240240Z AUTO VRB03KT 10SM CLR 27/25 A2984 370 87 1900 VRB/03 RMK AO2 T02720250 $ AO2 T02780250 $
53988KBKB BKB20190623223012006/23/19 22:30:31  5-MIN KBKB 240430Z AUTO 00000KT 10SM BKN016 OVC022 27/25 A2988 340 87 1900 000/00 RMK AO2 T02720250 $
53988KBKB BKB20190623223512006/23/19 22:35:31  5-MIN KBKB 240435Z AUTO VRB03KT 10SM BKN016 OVC022 27/25 A2987 340 87 1900 VRB/03 RMK AO2 T02720250 $
53988KBKB BKB20190623224012006/23/19 22:40:31  5-MIN KBKB 240440Z AUTO VRB03KT 10SM BKN016 OVC022 27/25 A2987 340 87 1900 VRB/03 RMK AO2 T02720250 $
53988KBKB BKB20190623224511806/23/19 22:45:31  5-MIN KBKB 240445Z AUTO VRB04KT 10SM BKN016 OVC023 27/25 A2988 340 87 1900 V AO2 T02720250 $20250 $
53988KBKB BKB20190623224512006/23/19 22:45:31  5-MIN KBKB 240445Z AUTO VRB04KT 10SM BKN016 OVC023 27/25 A2988 340 87 1900 VRB/04 RMK AO2 T02720250 $
53988KBKB BKB20190623225012006/23/19 22:50:31  5-MIN KBKB 240450Z AUTO VRB04KT 10SM BKN016 OVC023 27/25 A2988 340 87 1900 VRB/04 RMK AO2 T02720250 $
53988KBKB BKB20190623225512706/23/19 22:55:31  5-MIN KBKB 240455Z AUTO 00000KT 10SM BKN016 OVC023 27/25 A2988 330 87 1900 000/00 RMK AO2 SLP142 T02720250 $
53988KBKB BKB20190623230012006/23/19 23:00:31  5-MIN KBKB 240500Z AUTO VRB03KT 10SM BKN016 OVC023 27/25 A2988 340 87 1900 VRB/03 RMK AO2 T02720250 $
53988KBKB BKB20190623230012706/23/19 23:00:31  5-MIN KBKB 240500Z AUTO VRB03KT 10SM BKN016 OVC023 27/25 A2988 340 87 1900 VRB/03 RMK AO2 T02720250 $06/23/1
53988KBKB BKB20190623230512006/23/19 23:05:31  5-MIN KBKB 240505Z AUTO VRB05KT 10SM BKN016 OVC023 27/25 A2988 340 87 1900 VRB/05 RMK AO2 T02720250 $
53988KBKB BKB20190623231012006/23/19 23:10:31  5-MIN KBKB 240510Z AUTO VRB04KT 10SM BKN016 OVC023 27/25 A2987 340 87 1900 VRB/04 RMK AO2 T02720250 $
53988KBKB BKB20190623231512006/23/19 23:15:31  5-MIN KBKB 240515Z AUTO VRB03KT 10SM SCT016 OVC023 27/25 A2988 340 87 1900 VRB/03 RMK AO2 T02720250 $
53988KBKB BKB20190623232011006/23/19 23:20:31  5-MIN KBKB 240520Z AUTO 10SM SCT016 OVC023 27/25 A2988 340 87 1900 M /M RMK AO2 T02720250 $
53988KBKB BKB20190623232511906/23/19 23:25:31  5-MIN KBKB 240525Z AUTO 00000KT 9SM FEW014 OVC023 27/25 A2988 340 90 1800 000/00 RMK AO2 T02670250 $
53988KBKB BKB20190623232514406/23/19 23:25:31  5-MIN KBKB 240525Z AUTO 00000KT 9SM FEW014 OVC023 27/25 A2988 340 90 1800 000/25 A2988 340 87 1900 VRB/05 RMK AO2 T02720250 $
53988KBKB BKB20190623233011906/23/19 23:30:31  5-MIN KBKB 240530Z AUTO VRB03KT 9SM SCT014 OVC024 27/25 A2988 340 87 1900 VRB/03 RMK AO2 T02720250 $
53988KBKB BKB20190623233511906/23/19 23:35:31  5-MIN KBKB 240535Z AUTO VRB03KT 9SM SCT015 OVC024 27/25 A2988 340 90 1800 VRB/03 RMK AO2 T02670250 $
53988KBKB BKB20190623234011906/23/19 23:40:31  5-MIN KBKB 240540Z AUTO VRB03KT 9SM BKN015 OVC024 27/25 A2988 340 87 1900 VRB/03 RMK AO2 T02720250 $
53988KBKB BKB20190623234511906/23/19 23:45:31  5-MIN KBKB 240545Z AUTO VRB03KT 9SM BKN015 OVC024 27/25 A2988 330 87 1900 VRB/03 RMK AO2 T02720250 $
53988KBKB BKB20190623235011906/23/19 23:50:31  5-MIN KBKB 240550Z AUTO 00000KT 9SM BKN014 OVC024 27/25 A2988 340 87 1900 000/00 RMK AO2 T02720250 $
53988KBKB BKB20190623235013706/23/19 23:50:31  5-MIN KBKB 240550Z AUTO 00000KT 9SM BKN014 OVC024 27/25 A298 OVC024 27/25 A2988 340 87 1900 VRB/03 RMK AO2 T02720250 $
53988KBKB BKB20190623235515406/23/19 23:55:31  5-MIN KBKB 240555Z AUTO VRB03KT 9SM BKN014 OVC024 27/25 A2988 330 90 1800 VRB/03 RMK AO2 SLP143 T02670250 10283 20267 403500267 53006 $
53988KBKB BKB20190624000011906/24/19 00:00:31  5-MIN KBKB 240600Z AUTO 00000KT 9SM BKN014 OVC026 27/25 A2988 330 87 1900 000/00 RMK AO2 T02720250 $
53988KBKB BKB20190624000511406/24/19 00:05:31  5-MIN KBKB 240605Z AUTO VRB04KT 9SM BKN015 OVC028 27/25 A298/03 RMK AO2 TSB16 P0051 T01890183 $
53988KBKB BKB20190624000519806/24/19 00:05:31  5-MIN KBKB 240605Z AUTO VRB04KT 9SM BKN015 OVC028 27/25 A2988 330 90 1800 VRB/04 RMK AO2 T02670250 $A2988 330 90 1800 VRB/03 RMK AO2 SLP143 T02670250 10283 20267 403500267 53006 $
53988KBKB BKB20190624023013606/24/19 02:30:31  5-MIN KBKB 240830Z AUTO VRB03KT 1 3/4SM +TSRA BR OVC036 19/18 A2995 270 97 800 VRB/03 RMK AO2 TSB16 P0047 T01890183 $
53988KBKB BKB20190624023513206/24/19 02:35:31  5-MIN KBKB 240835Z AUTO VRB03KT 2SM +TSRA BR OVC038 19/18 A2995 270 97 800 VRB/03 RMK AO2 TSB16 P0051 T01890183 $
53988KBKB BKB20190624024013606/24/19 02:40:31  5-MIN KBKB 240840Z AUTO VRB03KT 2 1/2SM +TSRA BR OVC038 19/18 A2996 260 97 800 VRB/03 RMK AO2 TSB16 P0056 T01890183 $
53988KBKB BKB20190624024022806/24/19 02:40:31  5-MIN KBKB 240840Z AUTO VRB03KT 2 1/2SM +TSRA BR OVC038 19/18 A2996 260 97 800 VRB/03 RMK AO2 TSB16 P0056 T01890183 $06/24/19 02:45:31  5-MI OVC034 19/18 A2995 270 97 800 000/00 RMK AO2 TSB16 P0039 T01890183 $
53988KBKB BKB20190624024513506/24/19 02:45:31  5-MIN KBKB 240845Z AUTO 00000KT 2 1/2SM TSRA BR OVC043 19/18 A2995 270 97 800 000/00 RMK AO2 TSB16 P0059 T01890183 $
53988KBKB BKB20190624025009306/24/19 02:50:31  5-MIN KBKB 240850Z AUTO 00000KT 3SM TSRA BR OVC045 19/18 A2994 280 97 83 $
53988KBKB BKB20190624025013106/24/19 02:50:31  5-MIN KBKB 240850Z AUTO 00000KT 3SM TSRA BR OVC045 19/18 A2994 280 97 800 000/00 RMK AO2 TSB16 P0061 T01890183 $
53988KBKB BKB20190624025513406/24/19 02:55:31  5-MIN KBKB 240855Z AUTO VRB03KT 2 1/2SM +RA BR BKN045 OVC070 19/18 A2996 270 97 800 VRB/03 RMK AO2 TSB16E51 P0065 $
53988KBKB BKB20190624025519506/24/19 02:55:31  5-MIN KBKB 240855Z AUTO VRB03KT 2 1/2SM +RA BR BKN045 OVC070 19/18 A2996 270 97 800 VRB/03 RMK AO2 TSB16E51 P0065 $19/18 A2996 260 97 800 VRB/03 RMK AO2 TSB16 P0056 T01890183 $
53988KBKB BKB20190624030013006/24/19 03:00:31  5-MIN KBKB 240900Z AUTO 10003KT 2SM RA BR BKN045 OVC070 19/18 A2995 270 97 800 090/03 RMK AO2 P0001 T01890183 $
53988KBKB BKB20190624030519606/24/19 03:05:31  5-MIN KBKB 240905Z AUTO VRB04KT 3SM RA BR BKN019 05:00:31  5-MIN KBKB 241100Z AUTO 00000KT 5SM RA BR FEW055 BKN080 OVC095 19/18 A2998 240 93 900 000/00 RMK AO2 P0000 T01940183 $
53988KBKB BKB20190624050513806/24/19 05:05:31  5-MIN KBKB 241105Z AUTO 00000KT 5SM -RA BR FEW055 SCT080 OVC100 19/18 A2998 250 97 800 000/00 RMK AO2 P0001 T01890183 $
53988KBKB BKB20190624051013806/24/19 05:10:31  5-MIN KBKB 241110Z AUTO VRB03KT 6SM -RA BR FEW060 SCT080 OVC100 19/18 A2997 250 93 900 VRB/03 RMK AO2 P0002 T01940183 $
53988KBKB BKB20190624051512806/24/19 05:15:31  5-MIN KBKB 241115Z AUTO 00000KT 8SM -RA FEW065 OVC095 19/18 A2998 250 97 800 000/00 RMK AO2 P0002 T01890183 $
53988KBKB BKB20190624052009406/24/19 05:20:31  5-MIN KBKB 241120Z AU9/18 A2998 240 93 900 000/00 RMK AO2 P0000 T01940183 $
53988KBKB BKB20190624052012806/24/19 05:20:31  5-MIN KBKB 241120Z AUTO 00000KT 9SM -RA FEW065 OVC095 19/18 A2998 240 97 800 000/00 RMK AO2 P0003 T01890183 $
53988KBKB BKB20190624052513106/24/19 05:25:31  5-MIN KBKB 241125Z AUTO 00000KT 6SM -RA BR BKN100 OVC120 19/18 A2999 240 93 900 000/00 RMK AO2 P0003 T01940183 $
53988KBKB BKB20190624052513806/24/19 05:25:31  5-MIN KBKB 241125Z AUTO 00000KT 6SM -RA BR BKN100 OVC120 OVC100 19/18 A2997 250 93 900 VRB/03 RMK AO2 P0002 T01940183 $
53988KBKB BKB20190624053013106/24/19 05:30:31  5-MIN KBKB 241130Z AUTO 00000KT 5SM -RA BR BKN100 OVC120 19/18 A2999 230 93 800 000/00 RMK AO2 P0004 T01940183 $
53988KBKB BKB20190624053510606/24/19 05:35:31  5-MIN KBKB 241135Z AUTO 00000KT 6SM -RA BR BKN095 OVC120 19/18 A2999 240002 T01890183 $
53988KBKB BKB20190624064512106/24/19 06:45:31  5-MIN KBKB 241245Z AUTO 00000KT 8SM -RA OVC070 19/19 A2998 250 97 900 000/00 RMK AO2 P0002 T01940189 $
53988KBKB BKB20190624065012106/24/19 06:50:31  5-MIN KBKB 241250Z AUTO 00000KT 9SM -RA OVC070 19/19 A2999 240 97 900 000/00 RMK AO2 P0002 T01940189 $
53988KBKB BKB20190624065512906/24/19 06:55:31  5-MIN KBKB 241255Z AUTO 00000KT 10SM -RA OVC070 19/19 A2999 230 97 800 000/00 RMK AO2 SLP181 P0003 T01940189 $
53988KBKB BKB20190624070012906/24/19 07:00:31  5-MIN KBKB 241300Z AUTO 00000KT 10SM -RA BKN070 OVC100 19/19 A2999 230 97 900 000/00 RMK AO2 P0000 T01940189 $
53988KBKB BKB20190624070512906/24/19 07:05:31  5-MIN KBKB 241305Z AUTO 00000KT 10SM -RA BKN075 OVC100 19/19 A2999 230 97 800 000/00 RMK AO2 P0000 T01940189 $
53988KBKB BKB20190624071012906/24/19 07:10:31  5-MIN KBKB 241310Z AUTO 00000KT 10SM -RA BKN070 OVC095 19/19 A3000 230 97 800 000/00 RMK AO2 P0000 T01940189 $
53988KBKB BKB20190624071512806/24/19 07:15:31  5-MIN KBKB 241315Z AUTO 00000KT 9SM -RA BKN075 OVC095 20/19 A3000 220 93 900 000/00 RMK AO2 P0000 T02000189 $
53988KBKB BKB20190624072012806/24/19 07:20:31  5-MIN KBKB 241320Z AUTO 00000KT 7SM -RA BKN075 OVC095 20/19 A3000 220 93 900 000/00 RMK AO2 P0001 T02000189 $
53988KBKB BKB20190624072512806/24/19 07:25:31  5-MIN KBKB 241325Z AUTO 00000KT 8SM -RA BKN075 OVC090 19/19 A3000 220 97 800 000/00 RMK AO2 P0001 T01940189 $
53988KBKB BKB20190624073012806/24/19 07:30:31  5-MIN KBKB 241330Z AUTO 00000KT 8SM -RA BKN080 OVC090 19/19 A3001 220 97 800 000/00 RMK AO2 P0001 T01940189 $
53988KBKB BKB20190624073513106/24/19 07:35:31  5-MIN KBKB 241335Z AUTO 15003KT 6SM -RA BR BKN080 OVC090 19/19 A3000 220 97 800 140/03 RMK AO2 P0002 T01940189 $
53988KBKB BKB20190624074012306/24/19 07:40:31  5-MIN KBKB 241340Z AUTO 00000KT 4SM RA BR OVC080 19/19 A3000 220 97 800 000/00 RMK AO2 P0003 T01940189 $
53988KBKB BKB20190624074513106/24/19 07:45:31  5-MIN KBKB 241345Z AUTO 00000KT 4SM -RA BR BKN080 OVC090 19/19 A3001 220 97 800 000/00 RMK AO2 P0003 T01940189 $
53988KBKB BKB20190624075014206/24/19 07:50:31  5-MIN KBKB 241350Z AUTO 15003 5-MIN KBKB 241505Z AUTO VRB04KT 10SM BKN110 20/19 A2997 250 93 900 VRB/04 RMK AO2 T02000189 $
53988KBKB BKB20190624091011306/24/19 09:10:31  5-MIN KBKB 241510Z AUTO VRB05KT 10SM BKN110 21/19 A2997 250 90 1000 VRB/05 RMK AO2 T02060189 $
53988KBKB BKB20190624091511306/24/19 09:15:31  5-MIN KBKB 241515Z AUTO VRB05KT 10SM OVC110 21/19 A2999 240 93 1000 VRB/05 RMK AO2 T02060194 $
53988KBKB BKB20190624092012006/24/19 09:20:31  5-MIN KBKB 241520Z AUTO 00000KT 10SM FEW007 OVC110 21/19 A2999 240 90 1000 000/00 RMK AO2 T02060189 $
53988KBKB BKB20190624092512006/24/19 09:25:31  5-MIN KBKB 241525Z AUTO VRB04KT 10SM FEW007 OVC110 21/19 A2998 240 93 1000 VRB/04 RMK AO2 T02060194 $
53988KBKB BKB20190624093013606/24/19 09:30:31  5-MIN KBKB 241530Z AUTO VRB06KT 10SM -RA FEW006 OVC110 21/19 A2997 250 93 1000 VRB/06 RMK AO2 RAB28 P0000 T02060194 $
53988KBKB BKB20190624093513606/24/19 09:35:31  5-MIN KBKB 241535Z AUTO VRB04KT 10SM -RA FEW006 OVC110 21/19 A2998 250 93 1000 VRB/04 RMK AO2 RAB28 P0000 T02060194 $
53988KBKB BKB20190624094014306/24/19 09:40:31  5-MIN KBKB 241540Z AUTO VRB04KT 10SM -RA FEW006 SCT095 OVC110 21/19 A2998 250 93 1000 VRB/04 RMK AO2 RAB28 P0000 T02060194 $
53988KBKB BKB20190624094514306/24/19 09:45:31  5-MIN KBKB 241545Z AUTO VRB05KT 10SM -RA FEW006 FEW090 BKN110 21/19 A2997 260 93 1000 VRB/05 RMK AO2 RAB28 P0000 T02060194 $
53988KBKB BKB20190624095012806/24/19 09:50:31  5-MIN KBKB 241550Z AUTO VRB05KT 10SM BKN110 21/19 A2996 260 93 1000 VRB/05 RMK AO2 RAB28E49 P0000 T02060194 $
53988KBKB BKB20190624095513506/24/19 09:55:31  5-MIN KBKB 241555Z AUTO VRB05KT 10SM BKN110 21/19 A2997 260 90 1100 VRB/05 RMK AO2 RAB28E49 SLP174 P0000 T02110194 $
53988KBKB BKB20190624100011306/24/19 10:00:31  5-MIN KBKB 241600Z AUTO VRB05KT 10SM BKN110 21/19 A2997 260 90 1100 VRB/05 RMK AO2 T02110194 $
53988KBKB BKB20190624100512006/24/19 10:05:31  5-MIN KBKB 241605Z AUTO VRB04KT 10SM FEW095 BKN110 21/19 A2996 260 90 1100 VRB/04 RMK AO2 T02110194 $
53988KBKB BKB20190624101011306/24/19 10:10:31  5-MIN KBKB 241610Z AUTO VRB04KT 10SM BKN110 21/19 A2996 260 90 1100 VRB/04 RMK AO2 T02110194 $
53988KBKB BKB20190624101511306/24/19 10:15:31  5-MIN KBKB 241615Z AUTO VRB04KT 10SM BKN110 21/19 A2996 270 90 1100 VRB/04 RMK AO2 T02110194 $
53988KBKB BKB20190624102012006/24/19 10:20:31  5-MIN KBKB 241620Z AUTO VRB03KT 10SM FEW100 BKN110 21/19 A2995 270 90 1100 VRB/03 RMK AO2 T02110194 $
53988KBKB BKB20190624102512006/24/19 10:25:31  5-MIN KBKB 241625Z AUTO VRB03KT 10SM FEW100 BKN110 21/19 A2995 270 90 1100 VRB/03 RMK AO2 T02110194 $
53988KBKB BKB20190624103013606/24/19 10:30:31  5-MIN KBKB 241630Z AUTO VRB03KT 10SM -RA SCT100 BKN120 21/19 A2994 280 90 1100 VRB/03 RMK AO2 RAB29 P0000 T02110194 $
53988KBKB BKB20190624103512906/24/19 10:35:31  5-MIN KBKB 241635Z AUTO VRB05KT 10SM -RA BKN110 21/19 A2994 280 90 1100 VRB/05 RMK AO2 RAB29 P0000 T02110194 $
53988KBKB BKB20190624104012806/24/19 10:40:31  5-MIN KBKB 241640Z AUTO VRB06KT 10SM BKN110 21/19 A2993 290 90 1100 VRB/06 RMK AO2 RAB29E39 P0000 T02110194 $
53988KBKB BKB20190624104514206/24/19 10:45:31  5-MIN KBKB 241645Z AUTO VRB04KT 10SM FEW090 BKN110 22/19 A2992 300 87 1200 VRB/04 RMK AO2 RAB29E39 PRESFR P0000 T02170194 $
53988KBKB BKB20190624105014206/24/19 10:50:31  5-MIN KBKB 241650Z AUTO 16004KT 10SM FEW090 BKN1AUTO VRB05KT 10SM SCT110 22/19 A2991 310 84 1300 VRB/05 RMK AO2 T02220194 $
53988KBKB BKB20190624110511306/24/19 11:05:31  5-MIN KBKB 241705Z AUTO VRB05KT 10SM SCT110 23/20 A2990 310 84 1300 VRB/05 RMK AO2 T02280200 $
53988KBKB BKB20190624111011306/24/19 11:10:31  5-MIN KBKB 241710Z AUTO VRB05KT 10SM FEW120 23/20 A2990 320 81 1400 VRB/05 RMK AO2 T02330200 $
53988KBKB BKB20190624111511306/24/19 11:15:31  5-MIN KBKB 241715Z AUTO VRB03KT 10SM FEW120 23/21 A2988 330 84 1400 VRB/03 RMK AO2 T02330206 $
53988KBKB BKB20190624112011306/24/19 11:20:31  5-MIN KBKB 241720Z AUTO 18005KT 10SM FEW110 23/20 A2989 320 81 1400 180/05 RMK AO2 T02330200 $
53988KBKB BKB20190624112511306/24/19 11:25:31  5-MIN KBKB 241725Z AUTO VRB06KT 10SM FEW110 23/20 A2989 330 81 1400 VRB/06 RMK AO2 T02330200 $
53988KBKB BKB20190624113011006/24/19 11:30:31  5-MIN KBKB 241730Z AUTO 18004KT 10SM CLR 24/20 A2989 320 78 1500 170/04 RMK AO2 T02390200 $
53988KBKB BKB20190624113511006/24/19 11:35:31  5-MIN KBKB 241735Z AUTO VRB04KT 10SM CLR 24/20 A2991 310 78 1500 VRB/04 RMK AO2 T02390200 $
53988KBKB BKB20190624114011006/24/19 11:40:31  5-MIN KBKB 241740Z AUTO VRB03KT 10SM CLR 24/20 A2991 310 78 1400 VRB/03 RMK AO2 T02390200 $
53988KBKB BKB20190624114511006/24/19 11:45:31  5-MIN KBKB 241745Z AUTO VRB03KT 10SM CLR 24/21 A2991 310 78 1500 VRB/03 RMK AO2 T02440206 $
53988KBKB BKB20190624115011006/24/19 11:50:31  5-MIN KBKB 241750Z AUTO 00000KT 10SM CLR 24/21 A2992 300 78 1500 000/00 RMK AO2 T02440206 $
53988KBKB BKB20190624115514106/24/19 11:55:31  5-MIN KBKB 241755Z AUTO VRB03KT 10SM CLR 25/21 A2992 300 76 1600 VRB/03 RMK AO2 SLP155 60008 T02500206 10250 20194 58002 $
53988KBKB BKB20190624120011006/24/19 12:00:31  5-MIN KBKB 241800Z AUTO VRB04KT 10SM CLR 25/21 A2992 300 76 1600 VRB/04 RMK AO2 T02500206 $
53988KBKB BKB20190624120513706/24/19 12:05:31  5-MIN KBKB 241805Z AUTO 10SM CLR 25/21 A2992 300 76 1600 M 10SM CLR 28/21 A2993 290 64 1900 VRB/04 RMK AO2 T02780206 $
53988KBKB BKB20190624133011006/24/19 13:30:31  5-MIN KBKB 241930Z AUTO VRB04KT 10SM CLR 28/21 A2993 290 64 1900 VRB/04 RMK AO2 T02780206 $
53988KBKB BKB20190624133511006/24/19 13:35:31  5-MIN KBKB 241935Z AUTO 00000KT 10SM CLR 28/21 A2993 290 64 1900 000/00 RMK AO2 T02780206 $
53988KBKB BKB20190624134011006/24/19 13:40:31  5-MIN KBKB 241940Z AUTO 14005KT 10SM CLR 28/21 A2993 290 64 1900 130/05 RMK AO2 T02780206 $
53988KBKB BKB20190624134511006/24/19 13:45:31  5-MIN KBKB 241945Z AUTO VRB03KT 10SM CLR 28/21 A2993 290 64 1900 VRB/03 RMK AO2 T02830211 $
53988KBKB BKB20190624135011006/24/19 13:50:31  5-MIN KBKB 241950Z AUTO VRB05KT 10SM CLR 28/21 A2993 290 64 1900 VRB/05 RMK AO2 T02780206 $
53988KBKB BKB20190624135511706/24/19 13:55:31  5-MIN KBKB 241955Z AUTO VRB03KT 10SM CLR 28/21 A2993 290 64 1900 VRB/03 RMK AO2 SLP161 T02780206 $
53988KBKB BKB20190624140011006/24/19 14:00:31  5-MIN KBKB 242000Z AUTO VRB03KT 10SM CLR 28/21 A2993 290 64 1900 VRB/03 RMK AO2 T02780206 $
53988KBKB BKB20190624140511006/24/19 14:05:31  5-MIN KBKB 242005Z AUTO VRB04KT 10SM CLR 28/21 A2993 290 64 1900 VRB/04 RMK AO2 T02780206 $
53988KBKB BKB20190624141011006/24/19 14:10:31  5-MIN KBKB 242010Z AUTO VRB04KT 10SM CLR 28/21 A2993 290 64 1900 VRB/04 RMK AO2 T02780206 $
53988KBKB BKB20190624141511006/24/19 14:15:31  5-MIN KBKB 242015Z AUTO VRB05KT 10SM CLR 28/21 A2993 290 64 1900 VRB/05 RMK AO2 T02830211 $
53988KBKB BKB20190624142011006/24/19 14:20:31  5-MIN KBKB 242020Z AUTO VRB03KT 10SM CLR 28/21 A2993 290 64 1900 VRB/03 RMK AO2 T02780206 $
53988KBKB BKB20190624142511006/24/19 14:25:31  5-MIN KBKB 242025Z AUTO VRB06KT 10SM CLR 28/21 A2993 290 66 1900 VRB/06 RMK AO2 T02780211 $
53988KBKB BKB20190624143011006/24/19 14:30:31  5-MIN KBKB 242030Z AUTO VRB05KT 10SM CLR 27/21 A2993 280 66 1800 VRB/05 RMK AO2 T02720206 $
53988KBKB BKB20190624143511006/24/19 14:35:31  5-MIN KBKB 242035Z AUTO VRB04KT 10SM CLR 27/21 A2993 290 66 1800 VRB/04 RMK AO2 T02720206 $
53988KBKB BKB20190624144011006/24/19 14:40:31  5-MIN KBKB 242040Z AUTO VRB04KT 10SM CLR 27/21 A2994 280 66 1800 VRB/04 RMK AO2 T02720206 $
53988KBKB BKB20190624144511006/24/19 14:45:31  5-MIN KBKB 242045Z AUTO 22003KT 10SM CLR 27/21 A2993 290 69 1800 210/03 RMK AO2 T02720211 $
53988KBKB BKB20190624145011006/24/19 14:50:31  5-MIN KBKB 242050Z AUTO VRB03KT 10SM CLR 28/21 A2993 290 66 1900 VRB/03 RMK AO2 T02780211 $
53988KBKB BKB20190624145513906/24/19 14:55:31  5-MIN KBKB 242055Z AUTO 21007KT 160V230 10SM CLR 29/21 A2993 290 62 2000 200/07 160V230 RMK AO2 SLP161 T02890211 55017 $
53988KBKB BKB20190624150011006/24/19 15:00:31  5-MIN KBKB 242100Z AUTO VRB03KT 10SM CLR 28/21 A2993 290 64 1900 VRB/03 RMK AO2 T02830211 $
53988KBKB BKB20190624150511006/24/19 15:05:31  5-MIN KBKB 242105Z AUTO 00000KT 10SM CLR 28/21 A2993 290 62 2000 210/06 RMK AO2 T02890211 $
53988KBKB BKB20190624152511006/24/19 15:25:31  5-MIN KBKB 242125Z AUTO VRB03KT 10SM CLR 29/21 A2992 300 60 2000 VRB/03 RMK AO2 T02890206 $
53988KBKB BKB20190624153011006/24/19 15:30:31  5-MIN KBKB 242130Z AUTO VRB04KT 10SM CLR 29/21 A2992 300 60 2000 VRB/04 RMK AO2 T02890206 $
53988KBKB BKB20190624153508406/24/19 15:35:31  5-MIN KBKB 242135Z AUTO VRB04KT 10SM C VRB/04 RMK AO2 T02890200 $
53988KBKB BKB20190624155011006/24/19 15:50:31  5-MIN KBKB 242150Z AUTO VRB04KT 10SM CLR 29/21 A2992 300 60 2000 VRB/04 RMK AO2 T02890206 $
53988KBKB BKB20190624155511706/24/19 15:55:31  5-MIN KBKB 242155Z AUTO 00000KT 10SM CLR 29/21 A2991 300 60 2000 000/00 RMK AO2 SLP156 T02890206 $
53988KBKB BKB20190624160011006/24/19 16:00:31  5-MIN KBKB 242200Z AUTO 00000KT 10SM CLR 29/21 A2991 300 58 2100 000/00 RMK AO2 T02940206 $
53988KBKB BKB20190624160511006/24/19 16:05:31  5-MIN KBKB 242205Z AUTO VRB03KT 10SM CLR 29/21 A2991 300 60 2000 VRB/03 RMK AO2 T02890206 $
53988KBKB BKB20190624161011006/24/19 16:10:31  5-MIN KBKB 242210Z AUTO VRB03KT 10SM CLR 28/21 A2992 300 64 1900 VRB/03 RMK AO2 T02830211 $
53988KBKB BKB20190624161511006/24/19 16:15:31  5-MIN KBKB 242215Z AUTO 00000KT 10SM CLR 28/21 A2992 300 66 1900 000/00 RMK AO2 T02780211 $
53988KBKB BKB20190624162011006/24/19 16:20:31  5-MIN KBKB 242220Z AUTO 00000KT 10SM CLR 28/21 A2992 300 64 1900 000/00 RMK AO2 T02780206 $
53988KBKB BKB20190624162511006/24/19 16:25:31  5-MIN KBKB 242225Z AUTO 00000KT 10SM CLR 28/22 A2992 300 69 1900 000/00 RMK AO2 T02780217 $
53988KBKB BKB20190624163011006/24/19 16:30:31  5-MIN KBKB 242230Z AUTO 00000KT 10SM CLR 28/21 A2992 300 66 1900 000/00 RMK AO2 T02780211 $
53988KBKB BKB20190624163517106/24/19 16:35:31  5-MIN KBKB 242235Z AUTO VRB03KT 10SM CLR 28/21 A2992 300 66 1900 VRB/03 RMK AO2 T02780211 $06/24/19 16:40:31A2992 300 69 1800 000/00 RMK AO2 T02720211 $
53988KBKB BKB20190624170511006/24/19 17:05:31  5-MIN KBKB 242305Z AUTO 00000KT 10SM CLR 27/21 A2992 300 69 1800 000/00 RMK AO2 T02720211 $
53988KBKB BKB20190624171011006/24/19 17:10:31  5-MIN KBKB 242310Z AUTO 00000KT 10SM CLR 27/22 A2992 300 71 1800 000/00 RMK AO2 T02720217 $
53988KBKB BKB20190624171511006/24/19 17:15:31  5-MIN KBKB 242315Z AUTO 00000KT 10SM CLR 27/22 A2991 300 71 1800 000/00 RMK AO2 T02720217 $
53988KBKB BKB20190624172011006/24/19 17:20:31  5-MIN KBKB 242320Z AUTO 00000KT 10SM CLR 27/22 A2991 300 73 1800 000/00 RMK AO2 T02670217 $
53988KBKB BKB20190624172511006/24/19 17:25:31  5-MIN KBKB 242325Z AUTO 00000KT 10SM CLR 27/22 A2992 300 73 1800 000/00 RMK AO2 T02670217 $
53988KBKB BKB20190624173011006/24/19 17:30:31  5-MIN KBKB 242330Z AUTO 00000KT 10SM CLR 27/22 A2992 300 76 1800 000/00 RMK AO2 T02670222 $
53988KBKB BKB20190624173511006/24/19 17:35:31  5-MIN KBKB 242335Z AUTO 00000KT 10SM CLR 27/23 A2991 300 79 1800 000/00 RMK AO2 T02670228 $
53988KBKB BKB20190624174011006/24/19 17:40:31  5-MIN KBKB 242340Z AUTO 00000KT 10SM CLR 26/22 A2992 300 79 1700 000/00 RMK AO2 T02610222 $
53988KBKB BKB20190624174511006/24/19 17:45:31  5-MIN KBKB 242345Z AUTO 00000KT 10SM CLR 26/23 A2991 300 81 1700 000/00 RMK AO2 T02610228 $
53988KBKB BKB20190624175011006/24/19 17:50:31  5-MIN KBKB 242350Z AUTO 00000KT 10SM CLR 26/23 A2991 310 84 1700 000/00 RMK AO2 T02610233 $
53988KBKB BKB20190624175513506/24/19 17:55:31  5-MIN KBKB 242355Z AUTO 00000KT 10SM CLR 26/23 A2991 310 81 1700 000/00 RMK AO2 SLP154 T02610228 10294 20250 50004 $
53988KBKB BKB20190624180011006/24/19 18:00:31  5-MIN KBKB 250000Z AUTO 00000KT 10SM CLR 26/23 A2991 310 81 1700 000/00 RMK AO2 T02610228 $
53988KBKB BKB20190624180511006/24/19 18:05:31  5-MIN KBKB 250005Z AUTO 00000KT 10SM CLR 26/23 A2991 310 81 1700 000/00 RMK AO2 T02610228 $
53988KBKB BKB20190624181007206/24/19 18:10:31  5-MIN KBKB 250010Z AUTO 00000KTE, 144 5MIN(S) LISTED.
53988KBKB BKB20190624181011006/24/19 18:10:31  5-MIN KBKB 250010Z AUTO 00000KT 10SM CLR 26/22 A2991 310 79 1700 000/00 RMK AO2 T02610222 $
53988KBKB BKB20190624181511006/24/19 18:15:31  5-MIN KBKB 250015Z AUTO 00000KT 10SM CLR 26/22 A2991 310 79 1700 000/00 RMK AO2 T02610222 $
53988KBKB BKB20190624182011006/24/19 18:20:31  5-MIN KBKB 250020Z AUTO 00000KT 10SM CLR 26/23 A2991 310 81 1700 000/00 RMK AO2 T02610228 $
53988KBKB BKB20190624182511006/24/19 18:25:31  5-MIN KBKB 250025Z AUTO 00000KT 10SM CLR 26/22 A2991 310 79 1700 000/00 RMK AO2 T02610222 $
53988KBKB BKB20190624183011006/24/19 18:30:31  5-MIN KBKB 250030Z AUTO 00000KT 10SM CLR 26/22 A2991 300 79 1700 000/00 RMK AO2 T02610222 $
53988KBKB BKB20190624183511006/24/19 18:35:31  5-MIN KBKB 250035Z AUTO 00000KT 10SM CLR 26/23 A2991 310 81 1700 000/00 RMK AO2 T02610228 $
53988KBKB BKB20190624184011006/24/19 18:40:31  5-MIN KBKB 250040Z AUTO 00000KT 10SM CLR 26/23 A2991 300 84 1600 000/00 RMK AO2 T02560228 $
53988KBKB BKB20190624184511006/24/19 18:45:31  5-MIN KBKB 250045Z AUTO 00000KT 10SM CLR 26/22 A2991 300 81 1600 000/00 RMK AO2 T02560222 $
53988KBKB BKB20190624185011006/24/19 18:50:31  5-MIN KBKB 250050Z AUTO 00000KT 10SM CLR 26/23 A2991 310 84 1600 000/00 RMK AO2 T02560228 $
53988KBKB BKB20190624185511706/24/19 18:55:31  5-MIN KBKB 250055Z AUTO 00000KT 10SM CLR 25/23 A2991 310 87 1600 000/00 RMK AO2 SLP155 T02500228 $
53988KBKB BKB20190624190011006/24/19 19:00:31  5-MIN KBKB 250100Z AUTO 00000KT 10SM CLR 25/23 A2991 310 87 1600 000/00 RMK AO2 T02500228 $
53988KBKB BKB20190624190511006/24/19 19:05:31  5-MIN KBKB 250105Z AUTO 00000KT 10SM CLR 25/23 A2991 310 87 1600 000/00 RMK AO2 T02500228 $
53988KBKB BKB20190624191011006/24/19 19:10:31  5-MIN KBKB 250110Z AUTO 00000KT 10SM CLR 25/23 A2991 310 87 1600 000/00 RMK AO2 T02500228 $
53988KBKB BKB20190624191511006/24/19 19:15:31  5-MIN KBKB 250115Z AUTO 00000KT 10SM CLR 24/22 A2991 310 87 1500 000/00 RMK AO2 T02440222 $
53988KBKB BKB20190624192011006/24/19 19:20:31  5-MIN KBKB 250120Z AUTO 00000KT 10SM CLR 24/22 A2991 310 87 1500 000/00 RMK AO2 T02440222 $
53988KBKB BKB20190624192511006/24/19 19:25:31  5-MIN KBKB 250125Z AUTO 00000KT 10SM CLR 24/22 A2991 310 87 1500 000/00 RMK AO2 T02440222 $
53988KBKB BKB20190624193011006/24/19 19:30:31  5-MIN KBKB 250130Z AUTO 00000KT 10SM CLR 24/22 A2991 310 87 1500 000/00 RMK AO2 T02440222 $
53988KBKB BKB20190624193511006/24/19 19:35:31  5-MIN KBKB 250135Z AUTO 00000KT 10SM CLR 24/22 A2991 310 90 1500 000/00 RMK AO2 T02390222 $
53988KBKB BKB20190624194011006/24/19 19:40:31  5-MIN KBKB 250140Z AUTO 00000KT 10SM CLR 24/22 A2991 310 90 1400 000/00 RMK AO2 T02390222 $
53988KBKB BKB20190624194511006/24/19 19:45:31  5-MIN KBKB 250145Z AUTO 00000KT 10SM CLR 24/22 A2991 310 90 1500 000/00 RMK AO2 T02390222 $
53988KBKB BKB20190624195011006/24/19 19:50:31  5-MIN KBKB 250150Z AUTO 00000KT 10SM CLR 24/22 A2991 310 90 1400 000/00 RMK AO2 T02390222 $
53988KBKB BKB20190624195511706/24/19 19:55:31  5-MIN KBKB 250155Z AUTO 00000KT 10SM CLR 24/22 A2991 310 90 1400 000/00 RMK AO2 SLP154 T02390222 $
53988KBKB BKB20190624200011006/24/19 20:00:31  5-MIN KBKB 250200Z AUTO 00000KT 10SM CLR 24/22 A2991 310 90 1500 000/00 RMK AO2 T02390222 $
53988KBKB BKB20190624200511006/24/19 20:05:31  5-MIN KBKB 250205Z AUTO 00000KT 10SM CLR 24/22 A2991 310 90 1500 000/00 RMK AO2 T02390222 $
53988KBKB BKB20190624201011006/24/19 20:10:31  5-MIN KBKB 250210Z AUTO 00000KT 10SM CLR 24/22 A2991 310 90 1500 000/00 RMK AO2 T02390222 $
53988KBKB BKB20190624201511006/24/19 20:15:31  5-MIN KBKB 250215Z AUTO 00000KT 10SM CLR 24/22 A2991 310 90 1400 000/00 RMK AO2 T02390222 $
53988KBKB BKB20190624202011006/24/19 20:20:31  5-MIN KBKB 250220Z AUTO 00000KT 10SM CLR 23/22 A2991 310 93 1400 000/00 RMK AO2 T02330222 $
53988KBKB BKB20190624202512306/24/19 20:25:31  5-MIN KBKB 250225Z AUTO 00000KT 10SM CLR 23/22 A2991 310 93 1400 000/00 RMK AO2 T02330222 $06/24280217 $
53988KBKB BKB20190624211511006/24/19 21:15:31  5-MIN KBKB 250315Z AUTO 00000KT 10SM CLR 23/22 A2992 300 93 1300 000/00 RMK AO2 T02280217 $
53988KBKB BKB20190624212011006/24/19 21:20:31  5-MIN KBKB 250320Z AUTO 00000KT 10SM CLR 23/22 A2992 300 93 1300 000/00 RMK AO2 T02280217 $
53988KBKB BKB20190624212511006/24/19 21:25:31  5-MIN KBKB 250325Z AUTO 00000KT 10SM CLR 23/22 A2992 300 93 1300 000/00 RMK AO2 T02280217 $
53988KBKB BKB20190624213011006/24/19 21:30:31  5-MIN KBKB 250330Z AUTO 00000KT 10SM CLR 23/22 A2992 300 93 1300 000/00 RMK AO2 T02280217 $
53988KBKB BKB20190624213511006/24/19 21:35:31  5-MIN KBKB 250335Z AUTO 00000KT 10SM CLR 23/22 A2992 300 93 1300 000/00 RMK AO2 T02280217 $
53988KBKB BKB20190624214011006/24/19 21:40:31  5-MIN KBKB 250340Z AUTO 00000KT 10SM CLR 23/22 A2992 300 93 1300 000/00 RMK AO2 T02280217 $
53988KBKB BKB20190624214511006/24/19 21:45:31  5-MIN KBKB 250345Z AUTO 00000KT 10SM CLR 23/22 A2992 290 93 1300 000/00 RMK AO2 T02280217 $
53988KBKB BKB20190624215011006/24/19 21:50:31  5-MIN KBKB 250350Z AUTO 00000KT 10SM CLR 23/22 A2993 290 93 1300 000/00 RMK AO2 T02280217 $
53988KBKB BKB20190624215511706/24/19 21:55:31  5-MIN KBKB 250355Z AUTO 00000KT 10SM CLR 23/22 A2993 290 93 1300 000/00 RMK AO2 SLP161 T02280217 $
53988KBKB BKB20190624220011006/24/19 22:00:31  5-MIN KBKB 250400Z AUTO 00000KT 10SM CLR 23/22 A2993 290 93 1300 000/00 RMK AO2 T02280217 $
53988KBKB BKB20190624220511006/24/19 22:05:31  5-MIN KBKB 250405Z AUTO 00000KT 10SM CLR 23/22 A2994 280 93 1300 000/00 RMK AO2 T02280217 $
53988KBKB BKB20190624221011006/24/19 22:10:31  5-MIN KBKB 250410Z AUTO 00000KT 10SM CLR 23/22 A2993 290 93 1300 000/00 RMK AO2 T02280217 $
53988KBKB BKB20190624221511006/24/19 22:15:31  5-MIN KBKB 250415Z AUTO 00000KT 10SM CLR 23/22 A2993 290 93 1300 000/00 RMK AO2 T02280217 $
53988KBKB BKB20190624222011006/24/19 22:20:31  5-MIN KBKB 250420Z AUTO 00000KT 10SM CLR 23/22 A2994 280 93 1300 000/00 RMK AO2 T02280217 $
53988KBKB BKB20190624222504406/24/19 22:25:31  5-MIN KBKB 250425Z AUT7 $
53988KBKB BKB20190624234511006/24/19 23:45:31  5-MIN KBKB 250545Z AUTO 00000KT 10SM CLR 23/22 A2997 260 93 1300 000/00 RMK AO2 T02280217 $
53988KBKB BKB20190624235011006/24/19 23:50:31  5-MIN KBKB 250550Z AUTO 00000KT 10SM CLR 23/22 A2996 260 93 1300 000/00 RMK AO2 T02280217 $
53988KBKB BKB20190624235514506/24/19 23:55:31  5-MIN KBKB 250555Z AUTO 00000KT 10SM CLR 23/22 A2997 260 93 1300 000/00 RMK AO2 SLP173 T02280217 10261 20222 402940189 53001 $
53988KBKB BKB20190625000011006/25/19 00:00:31  5-MIN KBKB 250600Z AUTO 00000KT 10SM CLR 23/22 A2996 260 93 1300 000/00 RMK AO2 T02280217 $
53988KBKB BKB20190625000511006/25/19 00:05:31  5-MIN KBKB 250605Z AUTO 00000KT 10SM CLR 23/21 A2996 260 90 1300 000/00 RMK AO2 T02280211 $
53988KBKB BKB20190625001011006/25/19 00:10:31  5-MIN KBKB 250610Z AUTO 00000KT 10SM CLR 23/21 A2997 250 90 1300 000/00 RMK AO2 T02280211 $
53988KBKB BKB20190625001511006/25/19 00:15:31  5-MIN KBKB 250615Z AUTO 00000KT 10SM CLR 23/21 A2997 250 90 1300 000/00 RMK AO2 T02280211 $
53988KBKB BKB20190625002011006/25/19 00:20:31  5-MIN KBKB 250620Z AUTO 00000KT 10SM CLR 23/22 A2996 260 93 1300 000/00 RMK AO2 T02280217 $
53988KBKB BKB20190625002511006/25/19 00:25:31  5-MIN KBKB 250625Z AUTO 00000KT 10SM CLR 23/21 A2996 260 90 1300 000/00 RMK AO2 T02280211 $
53988KBKB BKB20190625003011006/25/19 00:30:31  5-MIN KBKB 250630Z AUTO 00000KT 10SM CLR 23/21 A2995 270 90 1300 000/00 RMK AO2 T02280211 $
53988KBKB BKB20190625003511006/25/19 00:35:31  5-MIN KBKB 250635Z AUTO 00000KT 10SM CLR 22/21 A2995 270 93 1200 000/00 RMK AO2 T02220211 $
53988KBKB BKB20190625004011006/25/19 00:40:31  5-MIN KBKB 250640Z AUTO 00000KT 10SM CLR 22/21 A2995 270 93 1200 000/00 RMK AO2 T02220211 $
53988KBKB BKB20190625004511006/25/19 00:45:31  5-MIN KBKB 250645Z AUTO 00000KT 10SM CLR 22/21 A2996 260 93 1200 000/00 RMK AO2 T02220211 $
53988KBKB BKB20190625005011006/25/19 00:50:31  5-MIN KBKB 250650Z AUTO 00000KT 10SM CLR 22/21 A2995 270 93 1200 000/00 RMK AO2 T02220211 $
53988KBKB BKB20190625005511706/25/19 00:55:31  5-MIN KBKB 250655Z AUTO 00000KT 10SM CLR 22/21 A2995 270 93 1200 000/00 RMK AO2 SLP167 T02220211 $
53988KBKB BKB20190625010011006/25/19 01:00:31  5-MIN KBKB 250700Z AUTO 00000KT 10SM CLR 22/21 A2995 270 97 1200 000/00 RMK AO2 T02170211 $
53988KBKB BKB20190625010511006/25/19 01:05:31  5-MIN KBKB 250705Z AUTO 00000KT 10SM CLR 22/21 A2995 270 97 1200 000/00 RMK AO2 T02170211 $
53988KBKB BKB20190625011011006/25/19 01:10:31  5-MIN KBKB 250710Z AUTO 00000KT 10SM CLR 22/21 A2995 270 97 1200 000/00 RMK AO2 T02170211 $
53988KBKB BKB20190625011511006/25/19 01:15:31  5-MIN KBKB 250715Z AUTO 00000KT 10SM CLR 22/21 A2995 280 93 1200 000/00 RMK AO2 T02170206 $
53988KBKB BKB20190625012010906/25/19 01:20:31  5-MIN KBKB 250720Z AUTO 00000KT 8SM CLR 22/21 A2994 280 93 1200 000/00 RMK AO2 T02170206 $
53988KBKB BKB20190625012510906/25/19 01:25:31  5-MIN KBKB 250725Z AUTO 00000KT 7SM CLR 22/21 A2995 270 93 1200 000/00 RMK AO2 T02170206 $
53988KBKB BKB20190625013010906/25/19 01:30:31  5-MIN KBKB 250730Z AUTO 00000KT 7SM CLR 22/21 A2995 270 93 1200 000/00 RMK AO2 T02170206 $
53988KBKB BKB20190625013511006/25/19 01:35:31  5-MIN KBKB 250735Z AUTO 00000KT 10SM CLR 22/21 A2995 270 93 1200 000/00 RMK AO2 T02170206 $
53988KBKB BKB20190625014011006/25/19 01:40:31  5-MIN KBKB 250740Z AUTO 00000KT 10SM CLR 22/21 A2995 270 93 1200 000/00 RMK AO2 T02170206 $
53988KBKB BKB20190625014504506/25/19 01:45:31  5-MIN KBKB 250745Z AUTO1 $
53988KBKB BKB20190625030511006/25/19 03:05:31  5-MIN KBKB 250905Z AUTO 00000KT 10SM CLR 22/21 A2995 270 97 1200 000/00 RMK AO2 T02170211 $
53988KBKB BKB20190625031011006/25/19 03:10:31  5-MIN KBKB 250910Z AUTO 00000KT 10SM CLR 22/21 A2994 280 93 1200 000/00 RMK AO2 T02220211 $
53988KBKB BKB20190625031511006/25/19 03:15:31  5-MIN KBKB 250915Z AUTO 00000KT 10SM CLR 22/21 A2994 280 93 1200 000/00 RMK AO2 T02220211 $
53988KBKB BKB20190625032011006/25/19 03:20:31  5-MIN KBKB 250920Z AUTO 00000KT 10SM CLR 22/21 A2994 280 93 1200 000/00 RMK AO2 T02220211 $
53988KBKB BKB20190625032511006/25/19 03:25:31  5-MIN KBKB 250925Z AUTO 00000KT 10SM CLR 22/21 A2994 280 93 1200 000/00 RMK AO2 T02220211 $
53988KBKB BKB20190625033011006/25/19 03:30:31  5-MIN KBKB 250930Z AUTO 00000KT 10SM CLR 22/21 A2994 280 93 1200 000/00 RMK AO2 T02220211 $
53988KBKB BKB20190625033511006/25/19 03:35:31  5-MIN KBKB 250935Z AUTO 00000KT 10SM CLR 22/21 A2994 280 93 1200 000/00 RMK AO2 T02220211 $
53988KBKB BKB20190625034011006/25/19 03:40:31  5-MIN KBKB 250940Z AUTO 00000KT 10SM CLR 22/21 A2995 270 93 1200 000/00 RMK AO2 T02220211 $
53988KBKB BKB20190625034511006/25/19 03:45:31  5-MIN KBKB 250945Z AUTO 00000KT 10SM CLR 22/21 A2995 270 93 1200 000/00 RMK AO2 T02220211 $
53988KBKB BKB20190625035011306/25/19 03:50:31  5-MIN KBKB 250950Z AUTO 00000KT 10SM FEW120 22/21 A2995 270 93 1200 000/00 RMK AO2 T02220211 $
53988KBKB BKB20190625035512006/25/19 03:55:31  5-MIN KBKB 250955Z AUTO 00000KT 10SM SCT120 22/21 A2996 260 93 1200 000/00 RMK AO2 SLP169 T02220211 $
53988KBKB BKB20190625040012306/25/19 04:00:31  5-MIN KBKB 251000Z AUTO 00000KT 10SM -RA FEW120 22/21 A2996 260 93 1200 000/00 RMK AO2 P0000 T02220211 $
53988KBKB BKB20190625040512306/25/19 04:05:31  5-MIN KBKB 251005Z AUTO 00000KT 10SM -RA SCT120 22/21 A2996 260 93 1200 000/00 RMK AO2 P0000 T02220211 $
53988KBKB BKB20190625041013006/25/19 04:10:31  5-MIN KBKB 251010Z AUTO 00000KT 10SM -RA FEW100 SCT120 22/21 A2996 260 93 1200 000/00 RMK AO2 P0000 T02220211 $
53988KBKB BKB20190625041513006/25/19 04:15:31  5-MIN KBKB 251015Z AUTO 00000KT 10SM -RA FEW100 SCT120 22/21 A2997 260 93 1200 000/00 RMK AO2 P0000 T02220211 $
53988KBKB BKB20190625042012306/25/19 04:20:31  5-MIN KBKB 251020Z AUTO 00000KT 10SM -RA SCT110 22/22 A2997 250 97 1200 000/00 RMK AO2 P0000 T02220217 $
53988KBKB BKB20190625042512306/25/19 04:25:31  5-MIN KBKB 251025Z AUTO 00000KT 10SM -RA FEW120 22/22 A2997 250 97 1200 000/00 RMK AO2 P0000 T02220217 $
53988KBKB BKB20190625043012306/25/19 04:30:31  5-MIN KBKB 251030Z AUTO 00000KT 10SM -RA FEW120 22/22 A2997 260 97 1200 000/00 RMK AO2 P0000 T02220217 $
53988KBKB BKB20190625043512506/25/19 04:35:31  5-MIN KBKB 251035Z AUTO 00000KT 10SM FEW120 22/22 A2997 250 97 1200 000/00 RMK AO2 RAE31 P0000 T02220217 $
53988KBKB BKB20190625044012506/25/19 04:40:31  5-MIN KBKB 251040Z AUTO 00000KT 10SM FEW110 22/22 A2997 250 97 1200 000/00 RMK AO2 RAE31 P0000 T02220217 $
53988KBKB BKB20190625044512506/25/19 04:45:31  5-MIN KBKB 251045Z AUTO 00000KT 10SM FEW120 22/22 A2997 250 97 1200 000/00 RMK AO2 RAE31 P0000 T02220217 $
53988KBKB BKB20190625045012206/25/19 04:50:31  5-MIN KBKB 251050Z AUTO 00000KT 10SM CLR 22/22 A2998 250 97 1200 000/00 RMK AO2 RAE31 P0000 T02220217 $
53988KBKB BKB20190625045512906/25/19 04:55:31  5-MIN KBKB 251055Z AUTO 00000KT 10SM CLR 22/22 A2998 240 97 1200 000/00 RMK AO2 RAE31 SLP177 P0000 T02220217 $
53988KBKB BKB20190625050011006/25/19 05:00:31  5-MIN KBKB 251100Z AUTO 00000KT 10SM CLR 23/22 A2998 240 93 1200 000/00 RMK AO2 T02280217 $
53988KBKB BKB20190625050511006/25/19 05:05:31  5-MIN KBKB 251105Z AUTO 00000KT 10SM CLR 23/22 A2998 240 93 1200 000/00 RMK AO2 T02280217 $
53988KBKB BKB20190625051011006/25/19 05:10:31  5-MIN KBKB 251110Z AUTO 00000KT 10SM CLR 23/22 A2998 240 93 1200 000/00 RMK AO2 T02280217 $
53988KBKB BKB20190625051511006/25/19 05:15:31  5-MIN KBKB 251115Z AUTO 00000KT 10SM CLR 23/22 A2998 240 93 1200 000/00 RMK AO2 T02280217 $
53988KBKB BKB20190625051516806/25/19 05:15:31  5-MIN KBKB 251115Z AUTO 00000KT 10SM CLR /25/19 05:40:31  5-MIN KBKB 251140Z AUTO 00000KT 10SM CLR 23/22 A2999 240 93 1200 000/00 RMK AO2 T02280217 $
53988KBKB BKB20190625052011006/25/19 05:20:31  5-MIN KBKB 251120Z AUTO 00000KT 10SM CLR 23/22 A2998 240 93 1200 000/00 RMK AO2 T02280217 $
53988KBKB BKB20190625052511006/25/19 05:25:31  5-MIN KBKB 251125Z AUTO 00000KT 10SM CLR 23/22 A2998 240 93 1200 000/00 RMK AO2 T02280217 $
53988KBKB BKB20190625053011006/25/19 05:30:31  5-MIN KBKB 251130Z AUTO 00000KT 10SM CLR 23/22 A2998 240 93 1200 000/00 RMK AO2 T02280217 $
53988KBKB BKB20190625053511006/25/19 05:35:31  5-MIN KBKB 251135Z AUTO 00000KT 10SM CLR 23/22 A2999 240 93 1200 000/00 RMK AO2 T02280217 $
53988KBKB BKB20190625054011006/25/19 05:40:31  5-MIN KBKB 251140Z AUTO 00000KT 10SM CLR 23/22 A2999 240 93 1200 000/00 RMK AO2 T02280217 $
53988KBKB BKB20190625054510906/25/19 05:45:31  5-MIN KBKB 251145Z AUTO 00000KT 9SM CLR 23/22 A2999 240 93 1200 000/00 RMK AO2 T02280217 $
53988KBKB BKB20190625055011206/25/19 05:50:31  5-MIN KBKB 251150Z AUTO 00000KT 9SM FEW120 23/22 A2999 240 93 1200 000/00 RMK AO2 T02280217 $
53988KBKB BKB20190625055515006/25/19 05:55:31  5-MIN KBKB 251155Z AUTO 00000KT 10SM FEW110 23/22 A2999 240 93 1200 000/00 RMK AO2 SLP181 60000 70008 T02280217 10228 20217 56006 $
53988KBKB BKB20190625060011306/25/19 06:00:31  5-MIN KBKB 251200Z AUTO 00000KT 10SM SCT110 23/22 A2999 240 93 1200 000/00 RMK AO2 T02280217 $
53988KBKB BKB20190625060509506/25/19 06:05:31  5-MIN KBKB 251205Z AUTO23 A3001 220 90 1400 VRB/03 RMK AO2 P0000 T02440228 $
53988KBKB BKB20190625080012306/25/19 08:00:31  5-MIN KBKB 251400Z AUTO VRB04KT 10SM -RA BKN100 24/23 A3000 220 90 1400 VRB/04 RMK AO2 P0000 T02440228 $
53988KBKB BKB20190625080512306/25/19 08:05:31  5-MIN KBKB 251405Z AUTO VRB03KT 10SM -RA OVC100 24/23 A3001 220 93 1400 VRB/03 RMK AO2 P0000 T02440233 $
53988KBKB BKB20190625081012306/25/19 08:10:31  5-MIN KBKB 251410Z AUTO VRB03KT 10SM -RA OVC100 24/23 A3001 220 90 1400 VRB/03 RMK AO2 P0000 T02440228 $
53988KBKB BKB20190625081512306/25/19 08:15:31  5-MIN KBKB 251415Z AUTO 00000KT 10SM -RA OVC110 24/23 A3001 210 90 1400 000/00 RMK AO2 P0000 T02440228 $
53988KBKB BKB20190625081512706/25/19 08:15:31  5-MIN KBKB 251415Z AUTO 00000KT 10SM -RA OVC110 24/23 A3001 210 90 1400MK AO2 RAB46 SLP186 P0000 T02440228 $
53988KBKB BKB20190625082012306/25/19 08:20:31  5-MIN KBKB 251420Z AUTO 10003KT 10SM -RA OVC100 25/23 A3001 210 90 1500 090/03 RMK AO2 P0000 T02500233 $
53988KBKB BKB20190625082512306/25/19 08:25:31  5-MIN KBKB 251425Z AUTO 12003KT 10SM -RA OVC100 25/23 A3001 220 90 1500 120/03 RMK AO2 P0000 T02500233 $
53988KBKB BKB20190625082512706/25/19 08:25:31  5-MIN KBKB 251425Z AUTO 12003KT 10SM10SM -RA OVC100 24/23 A3001 220 93 1400 VRB/03 RMK AO2 P0000 T02440233 $
53988KBKB BKB20190625083011306/25/19 08:30:31  5-MIN KBKB 251430Z AUTO VR24/23 A3006 170 93 1300 VRB/05 RMK AO2 RAB03 TSB14 P0006 T02440233 $
53988KBKB BKB20190625083017306/25/19 08:30:31  5-MIN KBKB 251430Z AUTO VRB03KT 10SM -RA BKN110 25/23 A3000 220 90 1500 VRB/03 RMK AO2 P0000 T02500233 $A3001 210 90 1400 000/00 RMK AO2 P0000 T02440228 $
53988KBKB BKB20190625103014906/25/19 10:30:31  5-MIN KBKB 251630Z AUTO VRB04KT 1 1/2SM TSRA BR BKN007 BKN042 23/22 A3006 170 90 1200 VRB/04 RMK AO2 RAB03 TSB14 P0007 T02330217 $
53988KBKB BKB20190625103515306/25/19 10:35:31  5-MIN KBKB 251635Z AUTO VRB04KT 1SM +TSRA BR SCT007 BKN018 OVC044 23/22 A3005 180 93 1200 VRB/04 RMK AO2 RAB03 TSB14 P0014 T02280217 $
53988KBKB BKB20190625104015206/25/19 10:40:31  5-MIN KBKB 251640Z AUTO VRB05KT 1SM TSRA BR SCT007 BKN026 OVC080 23/22 A3006 170 93 1200 VRB/05 RMK AO2 RAB03 TSB14 P0015 T02280217 $
53988KBKB BKB20190625104019406/25/19 10:40:31  5-MIN KBKB 251640Z AUTO VRB05KT 1SM TSRA BR SCT007 BKN026 OVC080 23/22 A3006 17/4SM +TSRA BR BKN007 BKN044 24/23 A3006 170 93 1300 VRB/05 RMK AO2 RAB03 TSB14 P0006 T02440233 $
53988KBKB BKB20190625104515306/25/19 10:45:31  5-MIN KBKB 251645Z AUTO VRB04KT 3SM -TSRA BR FEW007 BKN033 OVC095 23/22 A3007 160 93 1100 VRB/04 RMK AO2 RAB03 TSB14 P0015 T02280217 $
53988KBKB BKB20190625104518706/25/19 10:45:31  5-MIN KBKB 251645Z AUTO VRB04KT 3SM -TSRA BR FEW007 BKN033 OVC095 23/22 A3007 160 93 1100 VRB/04 RMK AO2 RAB03 TSB14 P0015 T02280217 $ AO2 RAB03 TSB14 P0007 T02330217 $
53988KBKB BKB20190625105015006/25/19 10:50:31  5-MIN KBKB 251650Z AUTO VRB03KT 7SM -TSRA SCT021 SCT042 BKN075 22/21 A3007 160 93 1100 VRB/03 RMK AO2 RAB03 TSB14 P0015 T02220211 $
53988KBKB BKB20190625105517106/25/19 10:55:31  5-MIN KBKB 251655Z AUTO VRB05KT 9SM -TSRA FEW021 SCT042 O 00000KT 10SM -RA FEW070 BKN095 OVC120 22/21 A3008 150 93 1100 000/00 RMK AO2 P0006 T02220211 $
53988KBKB BKB20190625123512906/25/19 12:35:31  5-MIN KBKB 251835Z AUTO 00000KT 9SM -RA FEW070 OVC095 22/21 A3008 150 93 1000 000/00 RMK AO2 P0006 T02170206 $
53988KBKB BKB20190625124013706/25/19 12:40:31  5-MIN KBKB 251840Z AUTO 00000KT 10SM -RA FEW070 BKN095 OVC120 22/21 A3008 150 93 1100 000/00 RMK AO2 P0006 T02220211 $
53988KBKB BKB20190625124513006/25/19 12:45:31  5-MIN KBKB 251845Z AUTO 00000KT 10SM -RA FEW070 OVC110 22/21 A3007 160 93 1000 000/00 RMK AO2 P0006 T02170206 $
53988KBKB BKB20190625125010006/25/19 12:50:31  5-MIN KBKB 251850Z AUTO 00000KT 10SM -RA FEW070 OVC100 22/21 A2 P0006 T02170206 $
53988KBKB BKB20190625125013706/25/19 12:50:31  5-MIN KBKB 251850Z AUTO 00000KT 10SM -RA FEW070 OVC100 22/21 A3006 170 93 1100 000/00 RMK AO2 PRESFR P0006 T02220211 $
53988KBKB BKB20190625125515106/25/19 12:55:31  5-MIN KBKB 251855Z AUTO 00000KT 10SM -RA FEW070 SCT095 OVC110 23/21 A3005 180 90 1200 000/00 RMK AO2 PRESFR SLP202 P0006 T02280211 $
53988KBKB BKB20190625125522706/25/19 12:55:31  5-MIN KBKB 251855Z AUTO 00000KT 10SM -RA FEW070 SCT095 OVC110 23/21 A3005 180 90 1200 000/00 RMK AO2 PRESFR SLP202 P0006 T02280211 $06/70 BKN095 OVC120 22/21 A3008 150 93 1100 000/00 RMK AO2 P0006 T02220211 $
53988KBKB BKB20190625130013706/25/19 13:00:31  5-MIN KBKB 251900Z AUTO 00000KT 10SM -RA SCT090 OVC110 23/22 A3004 190 93 1200 000/00 RMK AO2 PRESFR P0000 T02280217 $
53988KBKB BKB20190625130512506/25/19 13:05:31  5-MIN KBKB 251905Z AUTO 00000KT 10SM OVC100 23/22 A3004 190 90 1200 000/00 RMK AO2 RAE04 P0000 T02330217 $
53988KBKB BKB20190625130513806/25/19 13:05:31  5-MIN KBKB 251905Z AUTO 00000KT 10SM OVC100 23/22 A3004 22/21 A3006 170 93 1100 000/00 RMK AO2 PRESFR P0006 T02220211 $
53988KBKB BKB20190625131009806/25/19 13:10:31  5-MIN KBKB 251910Z AUTO 00000KT 10 84 1500 000/00 RMK AO2 RAE07 P0000 T02560228
53988KBKB BKB20190625145012306/25/19 14:50:31  5-MIN KBKB 252050Z AUTO 00000KT 10SM SCT110 26/23 A3002 210 84 1500 000/00 RMK AO2 RAE07 P0000 T02560228
53988KBKB BKB20190625145514206/25/19 14:55:31  5-MIN KBKB 252055Z AUTO 00000KT 10SM SCT110 26/23 A3002 210 81 1600 000/00 RMK AO2 RAE07 SLP192 P0000 60006 T02610228 51038
53988KBKB BKB20190625150011106/25/19 15:00:31  5-MIN KBKB 252100Z AUTO 00000KT 10SM SCT110 26/23 A3002 200 84 1500 000/00 RMK AO2 T02560228
53988KBKB BKB20190625154511806/25/19 15:45:31  5-MIN KBKB 252145Z AUTO 00000KT 10SM FEW090 BKN120 26/23 A3004 190 87 1500 000/00 RMK AO2 T02560233
53988KBKB BKB20190625155011806/25/19 15:50:31  5-MIN KBKB 252150Z AUTO 00000KT 10SM FEW090 SCT120 26/23 A3004 190 87 1500 000/00 RMK AO2 T02560233
53988KBKB BKB20190625155512506/25/19 15:55:31  5-MIN KBKB 252155Z AUTO 00000KT 10SM FEW090 FEW120 26/23 A3004 190 87 1500 000/00 RMK AO2 SLP198 T02560233
53988KBKB BKB20190625160011106/25/19 16:00:31  5-MIN KBKB 252200Z AUTO 00000KT 10SM FEW120 26/23 A3004 190 87 1500 000/00 RMK AO2 T02560233
53988KBKB BKB20190625160511106/25/19 16:05:31  5-MIN KBKB 252205Z AUTO 00000KT 10SM FEW120 26/23 A3004 190 87 1500 000/00 RMK AO2 T02560233
53988KBKB BKB20190625161010806/25/19 16:10:31  5-MIN KBKB 252210Z AUTO 00000KT 10SM CLR 26/23 A3004 190 87 1500 000/00 RMK AO2 T02560233
53988KBKB BKB20190625161510806/25/19 16:15:31  5-MIN KBKB 252215Z AUTO 00000KT 10SM CLR 26/23 A3004 180 87 1500 000/00 RMK AO2 T02560233
53988KBKB BKB20190625162011106/25/19 16:20:31  5-MIN KBKB 252220Z AUTO VRB03KT 10SM FEW080 26/23 A3004 180 87 1500 VRB/03 RMK AO2 T02560233
53988KBKB BKB20190625162511106/25/19 16:25:31  5-MIN KBKB 252225Z AUTO 00000KT 10SM SCT080 26/23 A3004 180 87 1500 000/00 RMK AO2 T02560233
53988KBKB BKB20190625163011106/25/19 16:30:31  5-MIN KBKB 252230Z AUTO 00000KT 10SM SCT075 26/23 A3004 190 87 1500 000/00 RMK AO2 T02560233
53988KBKB BKB20190625163511106/25/19 16:35:31  5-MIN KBKB 252235Z AUTO 00000KT 10SM SCT075 26/23 A3005 180 87 1500 000/00 RMK AO2 T02560233
53988KBKB BKB20190625164011106/25/19 16:40:31  5-MIN KBKB 252240Z AUTO 00000KT 10SM SCT080 26/23 A3005 180 87 1500 000/00 RMK AO2 T02560233
53988KBKB BKB20190625164511806/25/19 16:45:31  5-MIN KBKB 252245Z AUTO 00000KT 10SM FEW044 BKN080 26/23 A3005 180 87 1500 000/00 RMK AO2 T02560233
53988KBKB BKB20190625165011806/25/19 16:50:31  5-MIN KBKB 252250Z AUTO 00000KT 10SM SCT044 BKN075 26/23 A3005 180 87 1500 000/00 RMK AO2 T02560233
53988KBKB BKB20190625165513206/25/19 16:55:31  5-MIN KBKB 252255Z AUTO VRB03KT 10SM SCT042 BKN055 BKN075 25/23 A3005 180 90 1400 VRB/03 RMK AO2 SLP203 T02500233
53988KBKB BKB20190625170010206/25/19 17:00:31  5-MIN KBKB 252300Z AUTO 1300000KT 10SM FEW008 B239 84 1100 VRB/04 RMK AO2 T02220194
53988KBKB BKB20190625211010806/25/19 21:10:31  5-MIN KBKB 260310Z AUTO VRB03KT 10SM CLR 22/19 A3008 150 84 1100 VRB/03 RMK AO2 T02220194
53988KBKB BKB20190625211510806/25/19 21:15:31  5-MIN KBKB 260315Z AUTO 00000KT 10SM CLR 22/20 A3009 140 87 1100 000/00 RMK AO2 T02220200
53988KBKB BKB20190625212010806/25/19 21:20:31  5-MIN KBKB 260320Z AUTO VRB03KT 10SM CLR 22/19 A3009 140 84 1100 VRB/03 RMK AO2 T02220194
53988KBKB BKB20190625212510806/25/19 21:25:31  5-MIN KBKB 260325Z AUTO VRB03KT 10SM CLR 22/19 A3009 140 84 1100 VRB/03 RMK AO2 T02220194
53988KBKB BKB20190625213010806/25/19 21:30:31  5-MIN KBKB 260330Z AUTO VRB04KT 10SM CLR 22/19 A3009 140 84 1100 VRB/04 RMK AO2 T02220194
53988KBKB BKB20190625213510806/25/19 21:35:31  5-MIN KBKB 260335Z AUTO 00000KT 10SM CLR 22/19 A3008 150 84 1100 000/00 RMK AO2 T02220194
53988KBKB BKB20190625214010806/25/19 21:40:31  5-MIN KBKB 260340Z AUTO 00000KT 10SM CLR 22/19 A3008 150 84 1100 000/00 RMK AO2 T02220194
53988KBKB BKB20190625214510806/25/19 21:45:31  5-MIN KBKB 260345Z AUTO 00000KT 10SM CLR 22/19 A3008 150 84 1100 000/00 RMK AO2 T02220194
53988KBKB BKB20190625215010806/25/19 21:50:31  5-MIN KBKB 260350Z AUTO VRB03KT 10SM CLR 22/19 A3008 150 84 1100 VRB/03 RMK AO2 T02220194
53988KBKB BKB20190625215511506/25/19 21:55:31  5-MIN KBKB 260355Z AUTO 00000KT 10SM CLR 22/19 A3008 150 84 1100 000/00 RMK AO2 SLP212 T02220194
53988KBKB BKB20190625220010806/25/19 22:00:31  5-MIN KBKB 260400Z AUTO 00000KT 10SM CLR 22/20 A3007 160 90 1000 000/00 RMK AO2 T02170200
53988KBKB BKB20190625220510806/25/19 22:05:31  5-MIN KBKB 260405Z AUTO 00000KT 10SM CLR 22/19 A3007 160 87 1000 000/00 RMK AO2 T02170194
53988KBKB BKB20190625221010806/25/19 22:10:31  5-MIN KBKB 260410Z AUTO 00000KT 10SM CLR 22/19 A3007 160 87 1000 000/00 RMK AO2 T02170194
53988KBKB BKB20190625221510806/25/19 22:15:31  5-MIN KBKB 260415Z AUTO 00000KT 10SM CLR 22/19 A3006 170 87 1000 000/00 RMK AO2 T02170194
53988KBKB BKB20190625222010806/25/19 22:20:31  5-MIN KBKB 260420Z AUTO 00000KT 10SM CLR 22/19 A3006 170 87 1000 000/00 RMK AO2 T02170194
53988KBKB BKB20190625222510806/25/19 22:25:31  5-MIN KBKB 260425Z AUTO 00000KT 10SM CLR 21/19 A3006 170 90 1000 000/00 RMK AO2 T02110194
53988KBKB BKB20190625223007806/25/19 22:30:31  5-MIN KBKB 260430Z AUTO 00000KT 10SM CLR 22/20 A3006 170194
53988KBKB BKB20190625224511106/25/19 22:45:31  5-MIN KBKB 260445Z AUTO 00000KT 10SM FEW120 22/19 A3005 180 87 1000 000/00 RMK AO2 T02170194
53988KBKB BKB20190625225011106/25/19 22:50:31  5-MIN KBKB 260450Z AUTO 12003KT 10SM FEW120 22/19 A3005 180 87 1000 110/03 RMK AO2 T02170194
53988KBKB BKB20190625225511506/25/19 22:55:31  5-MIN KBKB 260455Z AUTO 00000KT 10SM CLR 22/19 A3006 170 87 1000 000/00 RMK AO2 SLP204 T02170194
53988KBKB BKB20190625230010806/25/19 23:00:31  5-MIN KBKB 260500Z AUTO 00000KT 10SM CLR 22/19 A3006 170 87 1000 000/00 RMK AO2 T02170194
53988KBKB BKB20190625230510806/25/19 23:05:31  5-MIN KBKB 260505Z AUTO 00000KT 10SM CLR 22/19 A3005 170 87 1000 000/00 RMK AO2 T02170194
53988KBKB BKB20190625231010806/25/19 23:10:31  5-MIN KBKB 260510Z AUTO VRB03KT 10SM CLR 22/19 A3006 170 87 1000 VRB/03 RMK AO2 T02170194
53988KBKB BKB20190625231518206/25/19 23:15:31  5-MIN KBKB 260515Z AUTO 13004KT 10SM CLR 22/19 A3006 170 87 1000 120/04 RMK AO2 T0217260635Z AUTO 00000KT 10SM CLR 22/19 A3006 170 87 1000 000/00 RMK AO2 T02170194
53988KBKB BKB20190626004010806/26/19 00:40:31  5-MIN KBKB 260640Z AUTO 00000KT 10SM CLR 22/19 A3006 160 87 1000 000/00 RMK AO2 T02170194
53988KBKB BKB20190626004510806/26/19 00:45:31  5-MIN KBKB 260645Z AUTO 00000KT 10SM CLR 22/19 A3006 170 87 1000 000/00 RMK AO2 T02170194
53988KBKB BKB20190626005010806/26/19 00:50:31  5-MIN KBKB 260650Z AUTO 00000KT 10SM CLR 22/20 A3006 170 90 1000 000/00 RMK AO2 T02170200
53988KBKB BKB20190626005511506/26/19 00:55:31  5-MIN KBKB 260655Z AUTO 00000KT 10SM CLR 21/19 A3006 170 90 1000 000/00 RMK AO2 SLP206 T02110194
53988KBKB BKB20190626010010806/26/19 01:00:31  5-MIN KBKB 260700Z AUTO 00000KT 10SM CLR 21/19 A3006 170 90 1000 000/00 RMK AO2 T02110194
53988KBKB BKB20190626010510806/26/19 01:05:31  5-MIN KBKB 260705Z AUTO 00000KT 10SM CLR 21/19 A3006 170 90 1000 000/00 RMK AO2 T02110194
53988KBKB BKB20190626011010806/26/19 01:10:31  5-MIN KBKB 260710Z AUTO 00000KT 10SM CLR 22/19 A3006 170 87 1000 000/00 RMK AO2 T02170194
53988KBKB BKB20190626011510806/26/19 01:15:31  5-MIN KBKB 260715Z AUTO 00000KT 10SM CLR 22/19 A3006 170 87 1000 000/00 RMK AO2 T02170194
53988KBKB BKB20190626012010806/26/19 01:20:31  5-MIN KBKB 260720Z AUTO 00000KT 10SM CLR 21/19 A3006 170 90 1000 000/00 RMK AO2 T02110194
53988KBKB BKB20190626012510806/26/19 01:25:31  5-MIN KBKB 260725Z AUTO 00000KT 10SM CLR 21/19 A3006 170 90 1000 000/00 RMK AO2 T02110194
53988KBKB BKB20190626013010806/26/19 01:30:31  5-MIN KBKB 260730Z AUTO 00000KT 10SM CLR 21/19 A3007 160 90 1000 000/00 RMK AO2 T02110194
53988KBKB BKB20190626013510806/26/19 01:35:31  5-MIN KBKB 260735Z AUTO 00000KT 10SM CLR 21/19 A3006 170 90 1000 000/00 RMK AO2 T02110194
53988KBKB BKB20190626014010806/26/19 01:40:31  5-MIN KBKB 260740Z AUTO 00000KT 10SM CLR 21/19 A3006 170 90 1000 000/00 RMK AO2 T02110194
53988KBKB BKB20190626014516006/26/19 01:45:31  5-MIN KBKB 260745Z AUTO 00000KT 10SM CLR 21/ KBKB 260855Z AUTO 00000KT 10SM CLR 21/20 A3006 170 93 1000 000/00 RMK AO2 SLP205 T02110200 55003
53988KBKB BKB20190626030010806/26/19 03:00:31  5-MIN KBKB 260900Z AUTO 00000KT 10SM CLR 22/19 A3006 170 87 1000 000/00 RMK AO2 T02170194
53988KBKB BKB20190626030510806/26/19 03:05:31  5-MIN KBKB 260905Z AUTO 00000KT 10SM CLR 22/19 A3006 170 87 1000 000/00 RMK AO2 T02170194
53988KBKB BKB20190626031010806/26/19 03:10:31  5-MIN KBKB 260910Z AUTO 00000KT 10SM CLR 22/20 A3006 170 87 1000 VRB/03 RMK AO2 T02170194
53988KBKB BKB20190626033010806/26/19 03:30:31  5-MIN KBKB 260930Z AUTO 11003KT 10SM CLR 22/19 A3005 180 87 1000 100/03 RMK AO2 T02170194
53988KBKB BKB20190626033510806/26/19 03:35:31  5-MIN KBKB 260935Z AUTO 12003KT 10SM CLR 22/19 A3006 170 87 1000 120/03 RMK AO2 T02170194
53988KBKB BKB20190626034010806/26/19 03:40:31  5-MIN KBKB 260940Z AUTO VRB03KT 10SM CLR 22/19 A3005 170 87 1000 VRB/03 RMK AO2 T02170194
53988KBKB BKB20190626120511106/26/19 12:05:31  5-MIN KBKB 261805Z AUTO VRB05KT 10SM FEW029 31/24 A3014 100 65 2000 VRB/05 RMK AO2 T03110239
53988KBKB BKB20190626121011106/26/19 12:10:31  5-MIN KBKB 261810Z AUTO VRB05KT 10SM FEW029 32/24 A3014 100 63 2100 VRB/05 RMK AO2 T03170239
53988KBKB BKB20190626121511106/26/19 12:15:31  5-MIN KBKB 261815Z AUTO VRB06KT 10SM FEW029 31/23 A3013 100 63 2000 VRB/06 RMK AO2 T03110233
53988KBKB BKB20190626122011106/26/19 12:20:31  5-MIN KBKB 261820Z AUTO VRB03KT 10SM SCT028 32/24 A3013 100 63 2100 VRB/03 RMK AO2 T03170239
53988KBKB BKB20190626122511106/26/19 12:25:31  5-MIN KBKB 261825Z AUTO VRB06KT 10SM FEW028 31/23 A3013 100 63 2000 VRB/06 RMK AO2 T03110233
53988KBKB BKB20190626123011106/26/19 12:30:31  5-MIN KBKB 261830Z AUTO VRB05KT 10SM FEW028 32/24 A3013 100 63 2100 VRB/05 RMK AO2 T03170239
53988KBKB BKB20190626123511106/26/19 12:35:31  5-MIN KBKB 261835Z AUTO VRB05KT 10SM FEW028 32/24 A3013 100 63 2100 VRB/05 RMK AO2 T03170239
53988KBKB BKB20190626124011106/26/19 12:40:31  5-MIN KBKB 261840Z AUTO VRB03KT 10SM FEW030 32/24 A3013 100 63 2100 VRB/03 RMK AO2 T03170239
53988KBKB BKB20190626124511106/26/19 12:45:31  5-MIN KBKB 261845Z AUTO VRB03KT 10SM FEW030 32/24 A3013 110 63 2100 VRB/03 RMK AO2 T03170239
53988KBKB BKB20190626125011106/26/19 12:50:31  5-MIN KBKB 261850Z AUTO 00000KT 10SM FEW031 32/24 A3013 110 63 2100 000/00 RMK AO2 T03170239
53988KBKB BKB20190626125511806/26/19 12:55:31  5-MIN KBKB 261855Z AUTO VRB03KT 10SM SCT031 31/23 A3013 110 63 2000 VRB/03 RMK AO2 SLP226 T03110233
53988KBKB BKB20190626130011106/26/19 13:00:31  5-MIN KBKB 261900Z AUTO VRB03KT 10SM SCT031 31/24 A3012 110 65 2000 VRB/03 RMK AO2 T03110239
53988KBKB BKB20190626130511106/26/19 13:05:31  5-MIN KBKB 261905Z AUTO 16004KT 10SM FEW031 32/23 A3012 120 61 2100 160/04 RMK AO2 T03170233
53988KBKB BKB20190626131011106/26/19 13:10:31  5-MIN KBKB 261910Z AUTO VRB03KT 10SM SCT031 32/24 A3011 120 61 2200 VRB/03 RMK AO2 T03220239
53988KBKB BKB20190626131511806/26/19 13:15:31  5-MIN KBKB 261915Z AUTO VRB03KT 10SM SCT031 SCT039 32/23 A3011 120 61 2100 VRB/03 RMK AO2 T03170233
53988KBKB BKB20190626132011106/26/19 13:20:31  5-MIN KBKB 261920Z AUTO VRB06KT 10SM SCT031 32/23 A3011 130 59 2200 VRB/06 RMK AO2 T03220233
53988KBKB BKB20190626132511106/26/19 13:25:31  5-MIN KBKB 261925Z AUTO VRB04KT 10SM FEW034 32/23 A3011 130 59 2200 VRB/04 RMK AO2 T03220233
53988KBKB BKB20190626133011106/26/19 13:30:31  5-MIN KBKB 261930Z AUTO VRB04KT 10SM FEW034 32/23 A3011 130 61 2100 VRB/04 RMK AO2 T03170233
53988KBKB BKB20190626133511106/26/19 13:35:31  5-MIN KBKB 261935Z AUTO VRB04KT 10SM FEW032 32/24 A3010 130 61 2200 VRB/04 RMK AO2 T03220239
53988KBKB BKB20190626134011106/26/19 13:40:31  5-MIN KBKB 261940Z AUTO VRB06KT 10SM FEW032 32/24 A3010 130 61 2200 VRB/06 RMK AO2 T03220239
53988KBKB BKB20190626134511106/26/19 13:45:31  5-MIN KBKB 261945Z AUTO 13004KT 10SM FEW032 32/23 A3010 130 59 2200 130/04 RMK AO2 T03220233
53988KBKB BKB20190626135011106/26/19 13:50:31  5-MIN KBKB 261950Z AUTO VRB05KT 10SM FEW032 31/23 A3011 130 63 2000 VRB/05 RMK AO2 T03110233
53988KBKB BKB20190626135511806/26/19 13:55:31  5-MIN KBKB 261955Z AUTO VRB04KT 10SM FEW032 32/23 A3011 130 61 2100 VRB/04 RMK AO2 SLP220 T03170233
53988KBKB BKB20190626140011106/26/19 14:00:31  5-MIN KBKB 262000Z AUTO VRB04KT 10SM FEW035 33/24 A3011 120 59 2200 VRB/04 RMK AO2 T03280239
53988KBKB BKB20190626140511106/26/19 14:05:31  5-MIN KBKB 262005Z AUTO VRB04KT 10SM SCT035 32/23 A3011 130 59 2200 VRB/04 RMK AO2 T03220233
53988KBKB BKB20190626141011106/26/19 14:10:31  5-MIN KBKB 262010Z AUTO VRB05KT 10SM SCT035 32/23 A3011 120 61 2100 VRB/05 RMK AO2 T03170233
53988KBKB BKB20190626141511106/26/19 14:15:31  5-MIN KBKB 262015Z AUTO VRB04KT 10SM SCT035 33/23 A3011 120 57 2200 VRB/04 RMK AO2 T03280233
53988KBKB BKB20190626142011106/26/19 14:20:31  5-MIN KBKB 262020Z AUTO VRB04KT 10SM SCT035 33/24 A3011 120 59 2200 VRB/04 RMK AO2 T03280239
53988KBKB BKB20190626142511106/26/19 14:25:31  5-MIN KBKB 262025Z AUTO VRB04KT 10SM SCT035 33/24 A3011 120 59 2200 VRB/04 RMK AO2 T03280239
53988KBKB BKB20190626143011806/26/19 14:30:31  5-MIN KBKB 262030Z AUTO VRB05KT 10SM SCT035 BKN060 33/23 A3011 130 55 2200 VRB/05 RMK AO2 T03280228
53988KBKB BKB20190626143511806/26/19 14:35:31  5-MIN KBKB 262035Z AUTO 00000KT 10SM SCT034 SCT041 33/23 A3010 130 55 2300 000/00 RMK AO2 T03330233
53988KBKB BKB20190626144011806/26/19 14:40:31  5-MIN KBKB 262040Z AUTO VRB04KT 10SM SCT036 SCT043 33/24 A3010 130 57 2300 VRB/04 RMK AO2 T03330239
53988KBKB BKB20190626144510806/26/19 14:45:31  5-MIN KBKB 262045Z AUTO 10SM SCT036 BKN043 33/23 A3010 130 57 2200 M /M RMK AO2 T03280233
53988KBKB BKB20190626145011806/26/19 14:50:31  5-MIN KBKB 262050Z AUTO 14004KT 10SM BKN039 BKN060 32/23 A3010 130 59 2200 140/04 RMK AO2 T03220233
53988KBKB BKB20190626163011106/26/19 16:30:31  5-MIN KBKB 262230Z AUTO 00000KT 10SM FEW041 28/25 A3010 140 82 1700 000/00 RMK AO2 T02830250
53988KBKB BKB20190626163511106/26/19 16:35:31  5-MIN KBKB 262235Z AUTO 00000KT 10SM SCT041 28/24 A3010 130 79 1700 000/00 RMK AO2 T02830244
53988KBKB BKB20190626164011106/26/19 16:40:31  5-MIN KBKB 262240Z AUTO 00000KT 10SM SCT041 28/25 A3010 140 82 1700 000/00 RMK AO2 T02830250
53988KBKB BKB20190626164018506/26/19 16:40:31  5-MIN KBKB 262240Z AUTO 00000KT 10SM SCT041 28/25 A3010 140 82 1700 000/00 RMK AO2 T0283025006/26UTO 00000KT 10SM CLR 26/23 A3011 130 84 1400 000/00 RMK AO2 T02560228
53988KBKB BKB20190626164511106/26/19 16:45:31  5-MIN KBKB 262245Z AUTO 00000KT 10SM FEW043 28/25 A3010 140 84 1700 000/00 RMK AO2 T02780250
53988KBKB BKB20190626164516106/26/19 16:45:31  5-MIN KBKB 262245Z AUTO 00000KT 10SM FEW043 28/25 A3010 140 84 1700 000/00 O 00000KT 10SM CLR 28/25 A3010 140 82 1700 000/00 RMK AO2 T02830250
53988KBKB BKB20190626165011106/26/19 16:50:31  5-MIN KBKB 262250Z AUTO 00000KT 10SM FEW043 28/25 A3010 140 84 1700 000/00 RMK AO2 T02780250
53988KBKB BKB20190626165516106/26/19 16:55:31  5-MIN KBKB 262255Z AUTO 00000KT 10SM FEW043 28/24 A3009 140 82 1705Z AUTO 00000KT 10SM SCT041 28/24 A3010 130 79 1700 000/00 RMK AO2 T02830244
53988KBKB BKB20190626192510806/26/19 19:25:31  5-MIN KBKB 270125Z AUTO 00000KT 10SM CLR 26/23 A3011 130 84 1400 000/00 RMK AO2 T02560228
53988KBKB BKB20190626193010806/26/19 19:30:31  5-MIN KBKB 270130Z AUTO 00000KT 10SM CLR 26/23 A3010 130 87 1400 000/00 RMK AO2 T02560233
53988KBKB BKB20190626193013606/26/19 19:30:31  5-MIN KBKB 270130Z AUTO 00000KT 10SM CLR 26/23 A3010 130 87 1400 000/00 RMK AO2 T02560233000 000/00 RMK AO2 T02390222
53988KBKB BKB20190626193510806/26/19 19:35:31  5-MIN KBKB 270135Z AUTO 00000KT 10SM CLR 26/23 A3010 130 87 1400 000/00 RMK AO2 T02560233
53988KBKB BKB20190626194010806/26/19 19:40:31  5-MIN KBKB 270140Z AUTO 00000KT 10SM CLR 25/23 A3010 130 90 1400 000/00 RMK AO2 T02500233
53988KBKB BKB20190626194510806/26/19 19:45:31  5-MIN KBKB 270145Z AUTO 00000KT 10SM CLR 25/23 A3011 130 90 1400 000/00 RMK AO2 T02500233
53988KBKB BKB20190626195006206/26/19 19:50:31  5-MIN KBKB 270150Z 000/00 RMK AO2 T02560228
53988KBKB BKB20190626221010706/26/19 22:10:31  5-MIN KBKB 270410Z AUTO 00000KT 10SM CLR 24/22 A3016 80 90 1200 000/00 RMK AO2 T02390222
53988KBKB BKB20190626221510706/26/19 22:15:31  5-MIN KBKB 270415Z AUTO 00000KT 10SM CLR 24/22 A3016 80 90 1200 000/00 RMK AO2 T02390222
53988KBKB BKB20190626222006606/26/19 22:20:31  5-MIN KBKB 270420Z AUT 000/00 RMK AO2 T02330222
53988KBKB BKB20190626222010706/26/19 22:20:31  5-MIN KBKB 270420Z AUTO 00000KT 10SM CLR 24/22 A3016 80 87 1200 000/00 RMK AO2 T02440222
53988KBKB BKB20190626222510706/26/19 22:25:31  5-MIN KBKB 270425Z AUTO 00000KT 10SM CLR 24/22 A3016 80 87 1200 000/00 RMK AO2 T02440222
53988KBKB BKB20190626223006606/26/19 22:30:31  5-MIN KBKB 270430Z AUTO 00000KT 10SM  T02440222
53988KBKB BKB20190626223010706/26/19 22:30:31  5-MIN KBKB 270430Z AUTO 00000KT 10SM CLR 24/22 A3016 80 87 1200 000/00 RMK AO2 T02440222
53988KBKB BKB20190626223517106/26/19 22:35:31  5-MIN KBKB 270435Z AUTO 00000KT 10SM CLR 24/22 A3016 80 90 1200 000/00 RMK AO2 T0239022206/26/19 22:4CLR 24/22 A3016 80 90 1200 000/00 RMK AO2 T02390222
53988KBKB BKB20190626230510706/26/19 23:05:31  5-MIN KBKB 270505Z AUTO 00000KT 10SM CLR 24/22 A3015 80 90 1200 000/00 RMK AO2 T02390222
53988KBKB BKB20190626231010706/26/19 23:10:31  5-MIN KBKB 270510Z AUTO 00000KT 10SM CLR 24/22 A3015 80 90 1200 000/00 RMK AO2 T02390222
53988KBKB BKB20190626231510706/26/19 23:15:31  5-MIN KBKB 270515Z AUTO 00000KT 10SM CLR 24/22 A3015 80 90 1200 000/00 RMK AO2 T02390222
53988KBKB BKB20190626232010706/26/19 23:20:31  5-MIN KBKB 270520Z AUTO 00000KT 10SM CLR 24/22 A3015 80 90 1200 000/00 RMK AO2 T02390222
53988KBKB BKB20190626232510706/26/19 23:25:31  5-MIN KBKB 270525Z AUTO 00000KT 10SM CLR 24/22 A3015 90 90 1200 000/00 RMK AO2 T02390222
53988KBKB BKB20190626233010706/26/19 23:30:31  5-MIN KBKB 270530Z AUTO 00000KT 10SM CLR 23/22 A3015 90 93 1100 000/00 RMK AO2 T02330222
53988KBKB BKB20190626233510706/26/19 23:35:31  5-MIN KBKB 270535Z AUTO 00000KT 10SM CLR 23/22 A3015 90 90 1100 000/00 RMK AO2 T02330217
53988KBKB BKB20190626234010706/26/19 23:40:31  5-MIN KBKB 270540Z AUTO 00000KT 10SM CLR 23/22 A3015 90 90 1100 000/00 RMK AO2 T02330217
53988KBKB BKB20190626234510706/26/19 23:45:31  5-MIN KBKB 270545Z AUTO 00000KT 10SM CLR 23/22 A3015 90 90 1100 000/00 RMK AO2 T02330217
53988KBKB BKB20190626235010706/26/19 23:50:31  5-MIN KBKB 270550Z AUTO 00000KT 10SM CLR 23/22 A3015 90 93 1100 000/00 RMK AO2 T02330222
53988KBKB BKB20190626235514206/26/19 23:55:31  5-MIN KBKB 270555Z AUTO 00000KT 10SM CLR 23/22 A3015 90 93 1100 000/00 RMK AO2 SLP233 T02330222 10267 20233 403330211 53021
53988KBKB BKB20190627000010706/27/19 00:00:31  5-MIN KBKB 270600Z AUTO 00000KT 10SM CLR 23/22 A3015 90 93 1100 000/00 RMK AO2 T02330222
53988KBKB BKB20190627000510706/27/19 00:05:31  5-MIN KBKB 270605Z AUTO 00000KT 10SM CLR 23/22 A3014 90 93 1100 000/00 RMK AO2 T02330222
53988KBKB BKB20190627001010606/27/19 00:10:31  5-MIN KBKB 270610Z AUTO 00000KT 9SM CLR 23/22 A3014 90 93 1100 000/00 RMK AO2 T02280217
53988KBKB BKB20190627001510606/27/19 00:15:31  5-MIN KBKB 270615Z AUTO 00000KT 9SM CLR 23/22 A3014 90 93 1100 000/00 RMK AO2 T02280217
53988KBKB BKB20190627002010606/27/19 00:20:31  5-MIN KBKB 270620Z AUTO 00000KT 9SM CLR 23/22 A3014 90 93 1100 000/00 RMK AO2 T02280217
53988KBKB BKB20190627002510706/27/19 00:25:31  5-MIN KBKB 270625Z AUTO 00000KT 8SM CLR 23/22 A3014 100 93 1100 000/00 RMK AO2 T02280217
53988KBKB BKB20190627003010706/27/19 00:30:31  5-MIN KBKB 270630Z AUTO 00000KT 8SM CLR 23/22 A3014 100 93 1100 000/00 RMK AO2 T02280217
53988KBKB BKB20190627003510706/27/19 00:35:31  5-MIN KBKB 270635Z AUTO 00000KT 8SM CLR 23/22 A3014 100 93 1100 000/00 RMK AO2 T02280217
53988KBKB BKB20190627004010706/27/19 00:40:31  5-MIN KBKB 270640Z AUTO 00000KT 8SM CLR 23/22 A3013 100 93 1100 000/00 RMK AO2 T02280217
53988KBKB BKB20190627004510706/27/19 00:45:31  5-MIN KBKB 270645Z AUTO 00000KT 8SM CLR 23/22 A3013 100 93 1100 000/00 RMK AO2 T02280217
53988KBKB BKB20190627005010706/27/19 00:50:31  5-MIN KBKB 270650Z AUTO 00000KT 8SM CLR 23/22 A3013 110 93 1100 000/00 RMK AO2 T02280217
53988KBKB BKB20190627005511406/27/19 00:55:31  5-MIN KBKB 270655Z AUTO 00000KT 7SM CLR 22/22 A3013 110 97 1000 000/00 RMK AO2 SLP227 T02220217
53988KBKB BKB20190627010010706/27/19 01:00:31  5-MIN KBKB 270700Z AUTO 00000KT 7SM CLR 22/22 A3013 110 97 1000 000/00 RMK AO2 T02220217
53988KBKB BKB20190627010510706/27/19 01:05:31  5-MIN KBKB 270705Z AUTO 00000KT 7SM CLR 22/22 A3012 110 97 1000 000/00 RMK AO2 T02220217
53988KBKB BKB20190627011010706/27/19 01:10:31  5-MIN KBKB 270710Z AUTO 00000KT 7SM CLR 22/22 A3012 110 97 1000 000/00 RMK AO2 T02220217
53988KBKB BKB20190627014011006/27/19 01:40:31  5-MIN KBKB 270740Z AUTO 00000KT 6SM BR CLR 22/21 A3012 120 93 1000 000/00 RMK AO2 T02220211
53988KBKB BKB20190627014508406/27/19 01:45:31  5-MIN KBKB 270745Z AUTO 00000KT00 93 900 000/00 RMK AO2 T02170206
53988KBKB BKB20190627042510906/27/19 04:25:31  5-MIN KBKB 271025Z AUTO 00000KT 6SM BR CLR 22/21 A3013 100 93 900 000/00 RMK AO2 T02170206
53988KBKB BKB20190627043010906/27/19 04:30:31  5-MIN KBKB 271030Z AUTO 00000KT 6SM BR CLR 22/21 A3013 100 93 900 000/00 RMK AO2 T02170206
53988KBKB BKB20190627043510906/27/19 04:35:31  5-MIN KBKB 271035Z AUTO 00000KT 6SM BR CLR 22/21 A3013 100 93 900 000/00 RMK AO2 T02170206
53988KBKB BKB20190627044010906/27/19 04:40:31  5-MIN KBKB 271040Z AUTO 00000KT 6SM BR CLR 22/21 A3014 100 93 900 000/00 RMK AO2 T02170206
53988KBKB BKB20190627044510906/27/19 04:45:31  5-MIN KBKB 271045Z AUTO 00000KT 6SM BR CLR 22/21 A3014 100 93 900 000/00 RMK AO2 T02170206
53988KBKB BKB20190627045010906/27/19 04:50:31  5-MIN KBKB 271050Z AUTO 00000KT 6SM BR CLR 22/21 A3014 100 93 900 000/00 RMK AO2 T02170206
53988KBKB BKB20190627045511606/27/19 04:55:31  5-MIN KBKB 271055Z AUTO 00000KT 6SM BR CLR 22/21 A3014 100 93 900 000/00 RMK AO2 SLP232 T02170206
53988KBKB BKB20190627050010806/27/19 05:00:31  5-MIN KBKB 271100Z AUTO 00000KT 6SM BR CLR 22/21 A3014 90 93 900 000/00 RMK AO2 T02170206
53988KBKB BKB20190627050015806/27/19 05:00:31  5-MIN KBKB 271100Z AUTO 00000KT 6SM BR CLR 22/21 A3014 90 93 900 000/00 RMK AO2 T02170206LR 22/21 A3014 100 93 900 000/00 RMK AO2 T02170206
53988KBKB BKB20190627050510806/27/19 05:05:31  5-MIN KBKB 271105Z AUTO 00000KT 6SM BR CLR 22/21 A3015 90 93 900 000/00 RMK AO2 T02170206
53988KBKB BKB20190627051010806/27/19 05:10:31  5-MIN KBKB 271110Z AUTO 00000KT 6SM BR CLR 22/21 A3015 90 93 900 000/00 RMK AO2 T02170206
53988KBKB BKB20190627051016006/27/19 05:10:31  5-MIN KBKB 271110Z AUTO 00000KT 6SM BR CLR 22/21 A3015 90 93 900 000/00 RMK AO2 T0217020606/27/1921 A3014 100 93 900 000/00 RMK AO2 T02170206
53988KBKB BKB20190627051518306/27/19 05:15:31  5-MIN KBKB 271115Z AUTO 00000KT 6SM BR CLR 22/21 A3015 90 93 900 000/00 RMK AO2 T0217020606/27/19 05:20:0KT 10SM CLR 27/24 A3018 60 82 1500 000/00 RMK AO2 T02720239
53988KBKB BKB20190627074010706/27/19 07:40:31  5-MIN KBKB 271340Z AUTO 00000KT 10SM CLR 27/24 A3018 60 82 1500 000/00 RMK AO2 T02720239
53988KBKB BKB20190627074510706/27/19 07:45:31  5-MIN KBKB 271345Z AUTO 00000KT 10SM CLR 27/24 A3018 60 82 1500 000/00 RMK AO2 T02720239
53988KBKB BKB20190627075010706/27/19 07:50:31  5-MIN KBKB 271350Z AUTO 00000KT 10SM CLR 28/24 A3018 60 79 1600 000/00 RMK AO2 T02780239
53988KBKB BKB20190627075511406/27/19 07:55:31  5-MIN KBKB 271355Z AUTO 00000KT 10SM CLR 28/24 A3018 60 79 1600 000/00 RMK AO2 SLP245 T02780239
53988KBKB BKB20190627075517506/27/19 07:55:31  5-MIN KBKB 271355Z AUTO 00000KT 10SM CLR 28/24 A3018 60 9 07:35:31  5-MIN KBKB 271335Z AUTO 00000KT 10SM CLR 27/24 A3018 60 82 1500 000/00 RMK AO2 T02720239
53988KBKB BKB20190627080010706/27/19 08:00:31  5-MIN KBKB 271400Z AUTO 36003KT 10SM CLR 28/24 A3018 60 76 1600 360/03 RMK AO2 T02830239
53988KBKB BKB20190627080510706/27/19 08:05:31  5-MIN KBKB 271405Z AUTO 00000KT 10SM CLR 28/24 A3018 60 79 1600 000/00 RMK AO2 T02830244
53988KBKB BKB20190627080516806/27/19 08:05:31  5-MIN KBKB 271405Z AUTO 00000KT 10SM CLR 28/24 A3018 645:31  5-MIN KBKB 271345Z AUTO 00000KT 10SM CLR 27/24 A3018 60 82 1500 000/00 RMK AO2 T02720239
53988KBKB BKB20190627081010706/27/19 08:10:31  5-MIN KBKB 271410Z AUTO 05004KT 10SM CLR 28/24 A3018 60 76 1600 050/04 RMK AO2 T02830239
53988KBKB BKB20190627081018306/27/19 08:10:31  5-MIN KBKB 271410Z AUTO 05004KT 10SM CLR 28/24 A3018 60 76 1600 050/04 RMK AO2 T0283023906Z AUTO 06004KT 10SM FEW030 31/23 A3018 60 60 2000 050/04 RMK AO2 T03110228
53988KBKB BKB20190627081505906/27/19 08:15:31  5-MIN KBKB 271415Z AUTO 00000KT 10SM CL9
53988KBKB BKB20190627103511006/27/19 10:35:31  5-MIN KBKB 271635Z AUTO VRB03KT 10SM FEW030 31/23 A3017 60 60 2000 VRB/03 RMK AO2 T03110228
53988KBKB BKB20190627104011006/27/19 10:40:31  5-MIN KBKB 271640Z AUTO 00000KT 10SM FEW030 31/23 A3017 60 62 1900 000/00 RMK AO2 T03060228
53988KBKB BKB20190627104511006/27/19 10:45:31  5-MIN KBKB 271645Z AUTO 00000KT 10SM SCT030 31/23 A3017 60 60 2000 000/00 RMK AO2 T03110228
53988KBKB BKB20190627105011006/27/19 10:50:31  5-MIN KBKB 271650Z AUTO 00000KT 10SM BKN031 32/23 A3017 60 61 2000 000/00 RMK AO2 T03170233
53988KBKB BKB20190627105016606/27/19 10:50:31  5-MIN KBKB 271650Z AUTO 00000KT 10SM B6/27/19 10:30:31  5-MIN KBKB 271630Z AUTO 06004KT 10SM FEW030 31/23 A3018 60 60 2000 050/04 RMK AO2 T03110228
53988KBKB BKB20190627105511706/27/19 10:55:31  5-MIN KBKB 271655Z AUTO VRB04KT 10SM SCT031 31/23 A3017 70 63 2000 VRB/04 RMK AO2 SLP243 T03110233
53988KBKB BKB20190627110011006/27/19 11:00:31  5-MIN KBKB 271700Z AUTO VRB03KT 10SM BKN033 31/23 A3017 70 63 2000 VRB/03 RMK AO2 T03110233
53988KBKB BKB20190627110015906/27/19 11:00:31  5-MIN KBKB 271700Z AUTO VRB03KT 10SM BKN0330:31  5-MIN KBKB 271640Z AUTO 00000KT 10SM FEW030 31/23 A3017 60 62 1900 000/00 RMK AO2 T03060228
53988KBKB BKB20190627224010806/27/19 22:40:31  5-MIN KBKB 280440Z AUTO 00000KT 10SM CLR 22/21 A3011 120 93 1000 000/00 RMK AO2 T02170206
53988KBKB BKB20190627224510806/27/19 22:45:31  5-MIN KBKB 280445Z AUTO 00000KT 10SM CLR 22/21 A3011 120 93 1000 000/00 RMK AO2 T02170206
53988KBKB BKB20190627225010806/27/19 22:50:31  5-MIN KBKB 280450Z AUTO 00000KT 10SM CLR 22/21 A3012 120 93 1000 000/00 RMK AO2 T02170206
53988KBKB BKB20190627225511506/27/19 22:55:31  5-MIN KBKB 280455Z AUTO 00000KT 10SM CLR 22/21 A3012 110 93 1000 000/00 RMK AO2 SLP224 T02170206
53988KBKB BKB20190627230010606/27/19 23:00:31  5-MIN KBKB 280500Z AUTO 00000KT 9SM CLR 21/20 A3012 110 93 900 000/00 RMK AO2 T02110200
53988KBKB BKB20190627230510606/27/19 23:05:31  5-MIN KBKB 280505Z AUTO 00000KT 9SM CLR 21/20 A3012 110 93 900 000/00 RMK AO2 T02110200
53988KBKB BKB20190627231010706/27/19 23:10:31  5-MIN KBKB 280510Z AUTO 00000KT 10SM CLR 21/20 A3012 120 93 900 000/00 RMK AO2 T02110200
53988KBKB BKB20190627231510606/27/19 23:15:31  5-MIN KBKB 280515Z AUTO 00000KT 9SM CLR 21/20 A3012 120 93 900 000/00 RMK AO2 T02110200
53988KBKB BKB20190627232010606/27/19 23:20:31  5-MIN KBKB 280520Z AUTO 00000KT 8SM CLR 21/20 A3011 120 93 900 000/00 RMK AO2 T02110200
53988KBKB BKB20190627232510606/27/19 23:25:31  5-MIN KBKB 280525Z AUTO 00000KT 7SM CLR 21/20 A3011 120 93 900 000/00 RMK AO2 T02110200
53988KBKB BKB20190627233010606/27/19 23:30:31  5-MIN KBKB 280530Z AUTO 00000KT 7SM CLR 21/20 A3011 120 93 900 000/00 RMK AO2 T02110200
53988KBKB BKB20190627233510606/27/19 23:35:31  5-MIN KBKB 280535Z AUTO 00000KT 7SM CLR 21/20 A3011 120 93 900 000/00 RMK AO2 T02110200
53988KBKB BKB20190627234010606/27/19 23:40:31  5-MIN KBKB 280540Z AUTO 00000KT 8SM CLR 21/20 A3012 120 93 900 000/00 RMK AO2 T02110200
53988KBKB BKB20190627234510606/27/19 23:45:31  5-MIN KBKB 280545Z AUTO 00000KT 8SM CLR 21/20 A3012 110 93 900 000/00 RMK AO2 T02110200
53988KBKB BKB20190627235010606/27/19 23:50:31  5-MIN KBKB 280550Z AUTO 00000KT 8SM CLR 21/20 A3012 120 93 900 000/00 RMK AO2 T02110200
53988KBKB BKB20190627235514106/27/19 23:55:31  5-MIN KBKB 280555Z AUTO 00000KT 9SM CLR 21/20 A3011 120 93 900 000/00 RMK AO2 SLP223 T02110200 10250 20211 403390211 51011
53988KBKB BKB20190628000010606/28/19 00:00:31  5-MIN KBKB 280600Z AUTO 00000KT 9SM CLR 21/20 A3012 120 93 900 000/00 RMK AO2 T02110200
53988KBKB BKB20190628000510606/28/19 00:05:31  5-MIN KBKB 280605Z AUTO 00000KT 8SM CLR 21/20 A3012 120 93 900 000/00 RMK AO2 T02110200
53988KBKB BKB20190628001010606/28/19 00:10:31  5-MIN KBKB 280610Z AUTO 00000KT 8SM CLR 21/20 A3012 110 97 800 000/00 RMK AO2 T02060200
53988KBKB BKB20190628001510606/28/19 00:15:31  5-MIN KBKB 280615Z AUTO 00000KT 7SM CLR 21/20 A3012 120 97 800 000/00 RMK AO2 T02060200
53988KBKB BKB20190628002010906/28/19 00:20:31  5-MIN KBKB 280620Z AUTO 00000KT 6SM BR CLR 21/19 A3012 110 93 800 000/00 RMK AO2 T02060194
53988KBKB BKB20190628002510906/28/19 00:25:31  5-MIN KBKB 280625Z AUTO 00000KT 6SM BR CLR 21/19 A3012 110 93 800 000/00 RMK AO2 T02060194
53988KBKB BKB20190628003010906/28/19 00:30:31  5-MIN KBKB 280630Z AUTO 00000KT 6SM BR CLR 21/19 A3012 110 93 800 000/00 RMK AO2 T02060194
53988KBKB BKB20190628003510906/28/19 00:35:31  5-MIN KBKB 280635Z AUTO 00000KT 6SM BR CLR 21/19 A3012 110 93 800 000/00 RMK AO2 T02060194
53988KBKB BKB20190628004010906/28/19 00:40:31  5-MIN KBKB 280640Z AUTO 00000KT 6SM BR CLR 21/20 A3012 120 97 800 000/00 RMK AO2 T02060200
53988KBKB BKB20190628004513506/28/19 00:45:31  5-MIN KBKB 280645Z AUTO 00000KT 7SM CL80935Z AUTO 00000KT 6SM BR CLR 20/19 A3010 140 97 800 000/00 RMK AO2 T02000194
53988KBKB BKB20190628034010906/28/19 03:40:31  5-MIN KBKB 280940Z AUTO 00000KT 6SM BR CLR 20/19 A3010 140 97 800 000/00 RMK AO2 T02000194
53988KBKB BKB20190628034510906/28/19 03:45:31  5-MIN KBKB 280945Z AUTO 00000KT 6SM BR CLR 20/19 A3010 130 97 800 000/00 RMK AO2 T02000194
53988KBKB BKB20190628035016606/28/19 03:50:31  5-MIN KBKB 280950Z AUTO 00000KT 7SM CLR 20/19 A3010 130 93 800 000/00  281125Z AUTO 00000KT 7SM CLR 20/19 A3013 100 93 800 000/00 RMK AO2 T02000189
53988KBKB BKB20190628053010606/28/19 05:30:31  5-MIN KBKB 281130Z AUTO 00000KT 7SM CLR 20/19 A3014 100 93 700 000/00 RMK AO2 T02000189
53988KBKB BKB20190628053510606/28/19 05:35:31  5-MIN KBKB 281135Z AUTO 00000KT 7SM CLR 20/19 A3014 100 93 700 000/00 RMK AO2 T02000189
53988KBKB BKB20190628054012406/28/19 05:40:31  5-MIN KBKB 281140Z AUTO 00000KT 6SM BR CLR 20/19 A3014 100 93 700 000/00 RMK AO2 T02000 RMK AO2 T02110206
53988KBKB BKB20190628063010606/28/19 06:30:31  5-MIN KBKB 281230Z AUTO 00000KT 9SM CLR 22/21 A3014 100 93 900 000/00 RMK AO2 T02170206
53988KBKB BKB20190628063510806/28/19 06:35:31  5-MIN KBKB 281235Z AUTO 00000KT 10SM CLR 22/21 A3014 100 90 1000 000/00 RMK AO2 T02220206
53988KBKB BKB20190628064010806/28/19 06:40:31  5-MIN KBKB 281240Z AUTO 00000KT 10SM CLR 22/22 A3014 100 97 1000 000/00 RMK AO2 T02220217
53988KBKB BKB20190628064515506/28/19 06:45:31  5-MIN KBKB 281245Z AUTO 00000KT/28/19 08:30:31  5-MIN KBKB 281430Z AUTO 00000KT 10SM CLR 28/21 A3015 90 64 1700 000/00 RMK AO2 T02830211
53988KBKB BKB20190628083510706/28/19 08:35:31  5-MIN KBKB 281435Z AUTO 00000KT 10SM CLR 28/22 A3015 90 66 1700 000/00 RMK AO2 T02830217
53988KBKB BKB20190628084010706/28/19 08:40:31  5-MIN KBKB 281440Z AUTO 00000KT 10SM CLR 28/21 A3015 90 64 1700 000/00 RMK AO2 T02830211
53988KBKB BKB20190628084509006/28/19 08:45:31  5-MIN KBKB 281445Z AUTO 00000KT 10SM CLR 28/22 A30100 RMK AO2 T03060217
53988KBKB BKB20190628092510806/28/19 09:25:31  5-MIN KBKB 281525Z AUTO 00000KT 10SM CLR 29/21 A3014 100 62 1800 000/00 RMK AO2 T02890211
53988KBKB BKB20190628093010806/28/19 09:30:31  5-MIN KBKB 281530Z AUTO 00000KT 10SM CLR 30/21 A3014 100 58 1900 000/00 RMK AO2 T03000211
53988KBKB BKB20190628093510806/28/19 09:35:31  5-MIN KBKB 281535Z AUTO 00000KT 10SM CLR 29/21 A3014 100 60 1800 000/00 RMK AO2 T02940211
53988KBKB BKB20190628094010806/28/19 09:40:31  5-MIN KBKB 281540Z AUTO 00000KT 10SM CLR 29/21 A3014 100 60 1800 000/00 RMK AO2 T02940211
53988KBKB BKB20190628094510806/28/19 09:45:31  5-MIN KBKB 281545Z AUTO 00000KT 10SM CLR 29/21 A3013 100 60 1800 000/00 RMK AO2 T02940211
53988KBKB BKB20190628095010806/28/19 09:50:31  5-MIN KBKB 281550Z AUTO 00000KT 10SM CLR 30/21 A3013 100 58 1900 000/00 RMK AO2 T03000211
53988KBKB BKB20190628095511506/28/19 09:55:31  5-MIN KBKB 281555Z AUTO 00000KT 10SM CLR 30/21 A3013 110 58 1900 000/00 RMK AO2 SLP228 T03000211
53988KBKB BKB20190628100010806/28/19 10:00:31  5-MIN KBKB 281600Z AUTO 00000KT 10SM CLR 30/22 A3013 110 60 1900 000/00 RMK AO2 T03000217
53988KBKB BKB20190628100510806/28/19 10:05:31  5-MIN KBKB 281605Z AUTO 00000KT 10SM CLR 31/22 A3013 100 60 2000 000/00 RMK AO2 T03060222
53988KBKB BKB20190628101010806/28/19 10:10:31  5-MIN KBKB 281610Z AUTO 00000KT 10SM CLR 30/22 A3013 100 60 1900 000/00 RMK AO2 T03000217
53988KBKB BKB20190628101510806/28/19 10:15:31  5-MIN KBKB 281615Z AUTO 00000KT 10SM CLR 31/22 A3013 100 58 1900 000/00 RMK AO2 T03060217
53988KBKB BKB20190628102010806/28/19 10:20:31  5-MIN KBKB 281620Z AUTO 00000KT 10SM CLR 31/22 A3013 100 60 1900 000/00 RMK AO2 T03060222
53988KBKB BKB20190628102510806/28/19 10:25:31  5-MIN KBKB 281625Z AUTO 00000KT 10SM CLR 31/22 A3013 100 56 2000 000/00 RMK AO2 T03110217
53988KBKB BKB20190628103010806/28/19 10:30:31  5-MIN KBKB 281630Z AUTO VRB03KT 10SM CLR 31/22 A3013 100 56 2000 VRB/03 RMK AO2 T03110217
53988KBKB BKB20190628103510806/28/19 10:35:31  5-MIN KBKB 281635Z AUTO 00000KT 10SM CLR 32/22 A3013 100 56 2100 000/00 RMK AO2 T03170222
53988KBKB BKB20190628104010806/28/19 10:40:31  5-MIN KBKB 281640Z AUTO VRB03KT 10SM CLR 32/22 A3013 100 55 2100 VRB/03 RMK AO2 T03170217
53988KBKB BKB20190628104510806/28/19 10:45:31  5-MIN KBKB 281645Z AUTO VRB03KT 10SM CLR 32/22 A3014 100 56 2100 VRB/03 RMK AO2 T03170222
53988KBKB BKB20190628105010806/28/19 10:50:31  5-MIN KBKB 281650Z AUTO 00000KT 10SM CLR 32/22 A3013 100 55 2100 000/00 RMK AO2 T03170217
53988KBKB BKB20190628105511506/28/19 10:55:31  5-MIN KBKB 281655Z AUTO 00000KT 10SM CLR 31/22 A3013 100 56 2000 000/00 RMK AO2 SLP230 T03110217
53988KBKB BKB20190628110010806/28/19 11:00:31  5-MIN KBKB 281700Z AUTO VRB03KT 10SM CLR 32/22 A3013 100 56 2100 VRB/03 RMK AO2 T03170222
53988KBKB BKB20190628110510806/28/19 11:05:31  5-MIN KBKB 281705Z AUTO 00000KT 10SM CLR 31/22 A3013 100 58 2000 000/00 RMK AO2 T03110222
53988KBKB BKB20190628111010806/28/19 11:10:31  5-MIN KBKB 281710Z AUTO VRB03KT 10SM CLR 32/22 A3013 100 56 2100 VRB/03 RMK AO2 T03170222
53988KBKB BKB20190628111510806/28/19 11:15:31  5-MIN KBKB 281715Z AUTO 24004KT 10SM CLR 32/22 A3014 100 56 2100 240/04 RMK AO2 T03170222
53988KBKB BKB20190628112010806/28/19 11:20:31  5-MIN KBKB 281720Z AUTO 00000KT 10SM CLR 31/22 A3014 100 60 1900 000/00 RMK AO2 T03060222
53988KBKB BKB20190628112511106/28/19 11:25:31  5-MIN KBKB 281725Z AUTO VRB03KT 10SM FEW040 32/22 A3013 100 56 2100 VRB/03 RMK AO2 T03170222
53988KBKB BKB20190628113011106/28/19 11:30:31  5-MIN KBKB 281730Z AUTO 00000KT 10SM BKN038 32/22 A3013 100 56 2100 000/00 RMK AO2 T03170222
53988KBKB BKB20190628113511106/28/19 11:35:31  5-MIN KBKB 281735Z AUTO 00000KT 10SM BKN038 32/23 A3013 100 58 2100 000/00 RMK AO2 T03170228
53988KBKB BKB20190628114011106/28/19 11:40:31  5-MIN KBKB 281740Z AUTO VRB03KT 10SM SCT038 32/23 A3013 110 57 2100 VRB/03 RMK AO2 T03220228
53988KBKB BKB20190628114511106/28/19 11:45:31  5-MIN KBKB 281745Z AUTO VRB03KT 10SM SCT038 32/22 A3013 110 55 2100 VRB/03 RMK AO2 T03220222
53988KBKB BKB20190628115011106/28/19 11:50:31  5-MIN KBKB 281750Z AUTO 00000KT 10SM SCT039 32/22 A3012 110 56 2100 000/00 RMK AO2 T03170222
53988KBKB BKB20190628115513606/28/19 11:55:31  5-MIN KBKB 281755Z AUTO 00000KT 10SM FEW037 32/22 A3012 110 56 2100 000/00 RMK AO2 SLP225 T03170222 10322 20200 50001
53988KBKB BKB20190628120011106/28/19 12:00:31  5-MIN KBKB 281800Z AUTO VRB03KT 10SM SCT039 32/22 A3012 120 55 2100 VRB/03 RMK AO2 T03220222
53988KBKB BKB20190628120511106/28/19 12:05:31  5-MIN KBKB 281805Z AUTO 00000KT 10SM SCT039 32/22 A3011 120 55 2200 000/00 RMK AO2 T03220222
53988KBKB BKB20190628121011806/28/19 12:10:31  5-MIN KBKB 281810Z AUTO 00000KT 10SM SCT039 SCT050 33/22 A3011 120 53 2200 000/00 RMK AO2 T03280222
53988KBKB BKB20190628121511106/28/19 12:15:31  5-MIN KBKB 281815Z AUTO 00000KT 10SM SCT040 33/23 A3011 120 55 2200 000/00 RMK AO2 T03280228
53988KBKB BKB20190628122015306/28/19 12:20:31  5-MIN KBKB 281820Z AUTO 00000KT 10SM BKN040 32/22 A3011 130 56 2100 000/00 RMK AO2 T0317022206/28/19 12:25:33 RMK AO2 SLP212 T03330222
53988KBKB BKB20190628130011106/28/19 13:00:31  5-MIN KBKB 281900Z AUTO 34004KT 10SM FEW044 33/22 A3008 150 50 2300 330/04 RMK AO2 T03330217
53988KBKB BKB20190628130511106/28/19 13:05:31  5-MIN KBKB 281905Z AUTO VRB04KT 10SM FEW044 33/22 A3008 150 51 2300 VRB/04 RMK AO2 T03330222
53988KBKB BKB20190628131011106/28/19 13:10:31  5-MIN KBKB 281910Z AUTO 00000KT 10SM FEW046 33/22 A3008 150 50 2300 000/00 RMK AO2 T03330217
53988KBKB BKB20190628131511106/28/19 13:15:31  5-MIN KBKB 281915Z AUTO 00000KT 10SM FEW046 33/22 A3008 150 50 2300 000/00 RMK AO2 T03330217
53988KBKB BKB20190628132011106/28/19 13:20:31  5-MIN KBKB 281920Z AUTO 00000KT 10SM FEW046 34/22 A3008 150 48 2400 000/00 RMK AO2 T03390217
53988KBKB BKB20190628132509506/28/19 13:25:31  5-MIN KBKB 281925Z AUTO VR 90 900 VRB/03 RMK AO2 RAE24 TSE25 P0001 T02110194
53988KBKB BKB20190628184513106/28/19 18:45:31  5-MIN KBKB 290045Z AUTO 00000KT 10SM TS CLR 21/19 A3009 140 90 900 000/00 RMK AO2 RAE24 TSE25B42 P0001 T02110194
53988KBKB BKB20190628185013106/28/19 18:50:31  5-MIN KBKB 290050Z AUTO VRB03KT 10SM TS CLR 21/19 A3009 140 90 900 VRB/03 RMK AO2 RAE24 TSE25B42 P0001 T02110194
53988KBKB BKB20190628185513806/28/19 18:55:31  5-MIN KBKB 290055Z AUTO VRB03KT 10SM TS CLR 21/19 A3009 140 90 900 VRB/03 RMK AO2 RAE24 TSE25B42 SLP216 P0001 T02110194
53988KBKB BKB20190628190011506/28/19 19:00:31  5-MIN KBKB 290100Z AUTO VRB03KT 10SM CLR 21/19 A3008 150 90 900 VRB/03 RMK AO2 TSE0058 T02110194
53988KBKB BKB20190628190511506/28/19 19:05:31  5-MIN KBKB 290105Z AUTO 00000KT 10SM CLR 21/19 A3007 160 90 900 000/00 RMK AO2 TSE0058 T02110194
53988KBKB BKB20190628191011206/28/19 19:10:31  5-MIN KBKB 290110Z AUTO 00000KT 10SM CLR 21/20 A3007 160 93 900 000/00 RM00 RMK AO2 T02170206
53988KBKB BKB20190628202010706/28/19 20:20:31  5-MIN KBKB 290220Z AUTO 00000KT 8SM CLR 22/21 A3006 170 93 1000 000/00 RMK AO2 T02170206
53988KBKB BKB20190628202510706/28/19 20:25:31  5-MIN KBKB 290225Z AUTO 00000KT 8SM CLR 22/21 A3007 160 93 1000 000/00 RMK AO2 T02170206
53988KBKB BKB20190628203010706/28/19 20:30:31  5-MIN KBKB 290230Z AUTO 00000KT 8SM CLR 22/21 A3007 160 93 1000 000/00 RMK AO2 T02170206
53988KBKB BKB20190628203510706/28/19 20:35:31  5-MIN KBKB 290235Z AUTO 00000KT 9SM CLR 22/21 A3007 160 93 1000 000/00 RMK AO2 T02170206
53988KBKB BKB20190628204010806/28/19 20:40:31  5-MIN KBKB 290240Z AUTO 00000KT 10SM CLR 22/21 A3007 160 93 1000 000/00 RMK AO2 T02170206
53988KBKB BKB20190628204510806/28/19 20:45:31  5-MIN KBKB 290245Z AUTO 00000KT 10SM CLR 22/21 A3007 160 93 1000 000/00 RMK AO2 T02170206
53988KBKB BKB20190628205010806/28/19 20:50:31  5-MIN KBKB 290250Z AUTO 00000KT 10SM CLR 22/21 A3008 150 93 1000 000/00 RMK AO2 T02170206
53988KBKB BKB20190628205512706/28/19 20:55:31  5-MIN KBKB 290255Z AUTO 00000KT 10SM CLR 22/21 A3007 160 93 1000 000/00 RMK AO2 SLP209 60001 T02170206 53010
53988KBKB BKB20190628210010806/28/19 21:00:31  5-MIN KBKB 290300Z AUTO 00000KT 10SM CLR 22/21 A3007 160 93 1000 000/00 RMK AO2 T02170206
53988KBKB BKB20190628210510806/28/19 21:05:31  5-MIN KBKB 290305Z AUTO 00000KT 10SM CLR 22/21 A3008 160 93 1000 000/00 RMK AO2 T02170206
53988KBKB BKB20190628211007606/28/19 21:10:31  5-MIN KBKB 290310Z AUTO 00000K00 200/03 RMK AO2 T02170206
53988KBKB BKB20190629060513606/29/19 06:05:31  5-MIN KBKB 291205Z AUTO 00000KT 10SM FEW002 SCT075 BKN110 21/20 A3007 160 93 900 000/00 RMK AO2 RAE03 P0000 T02110200
53988KBKB BKB20190629061013606/29/19 06:10:31  5-MIN KBKB 291210Z AUTO 00000KT 10SM FEW001 SCT070 OVC110 21/20 A3008 150 97 900 000/00 RMK AO2 RAE03 P0000 T02060200
53988KBKB BKB20190629061513606/29/19 06:15:31  5-MIN KBKB 291215Z AUTO 00000KT 10SM FEW001 FEW011 OVC110 21/20 A3009 140 93 900 000/00 RMK AO2 RAE03 P0000 T02110200
53988KBKB BKB20190629062012906/29/19 06:20:31  5-MIN KBKB 291220Z AUTO 00000KT 10SM FEW001 OVC110 21/20 A3009 140 93 900 000/00 RMK AO2 RAE03 P0000 T02110200
53988KBKB BKB20190629062512206/29/19 06:25:31  5-MIN KBKB 291225Z AUTO 00000KT 10SM OVC110 21/20 A3009 140 93 900 000/00 RMK AO2 RAE03 P0000 T02110200
53988KBKB BKB20190629063012206/29/19 06:30:31  5-MIN KBKB 291230Z AUTO 00000KT 10SM OVC110 21/21 A3009 140 97 900 000/00 RMK AO2 RAE03 P0000 T02110206
53988KBKB BKB20190629063512206/29/19 06:35:31  5-MIN KBKB 291235Z AUTO 00000KT 10SM BKN110 21/21 A3009 140 97 900 000/00 RMK AO2 RAE03 P0000 T02110206
53988KBKB BKB20190629064013006/29/19 06:40:31  5-MIN KBKB 291240Z AUTO 00000KT 10SM FEW003 BKN110 22/21 A3010 140 93 1000 000/00 RMK AO2 RAE03 P0000 T02170206
53988KBKB BKB20190629064513006/29/19 06:45:31  5-MIN KBKB 291245Z AUTO 00000KT 10SM FEW003 BKN110 22/21 A3010 140 93 1000 000/00 RMK AO2 RAE03 P0000 T02170206
53988KBKB BKB20190629065013006/29/19 06:50:31  5-MIN KBKB 291250Z AUTO 00000KT 10SM SCT003 BKN110 22/21 A3010 140 93 1000 000/00 RMK AO2 RAE03 P0000 T02170206
53988KBKB BKB20190629065513706/29/19 06:55:31  5-MIN KBKB 291255Z AUTO 00000KT 10SM SCT003 BKN110 22/21 A3010 140 93 1000 000/00 RMK AO2 RAE03 SLP217 P0000 T02220211
53988KBKB BKB20190629070011806/29/19 07:00:31  5-MIN KBKB 291300Z AUTO 00000KT 10SM SCT003 SCT120 22/21 A3009 140 93 1000 000/00 RMK AO2 T02170206
53988KBKB BKB20190629070511106/29/19 07:05:31  5-MIN KBKB 291305Z AUTO VRB03KT 10SM SCT003 22/21 A3009 140 93 1000 VRB/03 RMK AO2 T02170206
53988KBKB BKB20190629071013006/29/19 07:10:31  5-MIN KBKB 291310Z AUTO VRB03KT 10SM BKN006 BKN120 22/21 A3009 140 93 1000 VRB/03 RMK AO2 CIG 003V011 T02170206
53988KBKB BKB20190629071512506/29/19 07:15:31  5-MIN KBKB 291315Z AUTO 00000KT 10SM SCT004 BKN009 BKN120 22/21 A3009 140 90 1100 000/00 RMK AO2 T02220206
53988KBKB BKB20190629072012506/29/19 07:20:31  5-MIN KBKB 291320Z AUTO 00000KT 10SM SCT006 BKN009 BKN120 22/21 A3009 140 90 1100 000/00 RMK AO2 T02220206
53988KBKB BKB20190629072511806/29/19 07:25:31  5-MIN KBKB 291325Z AUTO VRB03KT 10SM SCT006 BKN120 23/21 A3010 140 90 1100 VRB/03 RMK AO2 T02280211
53988KBKB BKB20190629073012506/29/19 07:30:31  5-MIN KBKB 291330Z AUTO 00000KT 10SM SCT006 SCT010 OVC120 23/21 A3010 130 87 1100 000/00 RMK AO2 T02280206
53988KBKB BKB20190629073512506/29/19 07:35:31  5-MIN KBKB 291335Z AUTO 00000KT 10SM FEW006 SCT010 OVC120 23/21 A3010 130 87 1100 000/00 RMK AO2 T02280206
53988KBKB BKB20190629074012506/29/19 07:40:31  5-MIN KBKB 291340Z AUTO 00000KT 10SM FEW006 SCT010 OVC120 23/21 A3010 130 87 1100 000/00 RMK AO2 T02280206
53988KBKB BKB20190629074512506/29/19 07:45:31  5-MIN KBKB 291345Z AUTO 00000KT 10SM FEW005 SCT010 OVC110 23/20 A3010 130 84 1100 000/00 RMK AO2 T02280200
53988KBKB BKB20190629075011806/29/19 07:50:31  5-MIN KBKB 291350Z AUTO 00000KT 10SM FEW010 OVC110 23/21 A3010 130 87 1100 000/00 RMK AO2 T02280206
53988KBKB BKB20190629075512506/29/19 07:55:31  5-MIN KBKB 291355Z AUTO VRB03KT 10SM SCT010 OVC110 23/21 A3011 130 84 1200 VRB/03 RMK AO2 SLP221 T02330206
53988KBKB BKB20190629080011806/29/19 08:00:31  5-MIN KBKB 291400Z AUTO VRB03KT 10SM FEW010 OVC100 23/21 A3011 120 87 1200 VRB/03 RMK AO2 T02330211
53988KBKB BKB20190629080511806/29/19 08:05:31  5-MIN KBKB 291405Z AUTO VRB03KT 10SM FEW010 OVC100 23/21 A3011 120 87 1100 VRB/03 RMK AO2 T02280206
53988KBKB BKB20190629081011806/29/19 08:10:31  5-MIN KBKB 291410Z AUTO 00000KT 10SM SCT008 OVC100 23/21 A3012 110 90 1100 000/00 RMK AO2 T02280211
53988KBKB BKB20190629081512506/29/19 08:15:31  5-MIN KBKB 291415Z AUTO VRB04KT 10SM FEW008 BKN011 OVC100 23/21 A3012 110 87 1100 VRB/04 RMK AO2 T02280206
53988KBKB BKB20190629082012506/29/19 08:20:31  5-MIN KBKB 291420Z AUTO VRB03KT 10SM FEW007 BKN011 OVC100 22/21 A3012 120 90 1000 VRB/03 RMK AO2 T02220206
53988KBKB BKB20190629082512506/29/19 08:25:31  5-MIN KBKB 291425Z AUTO VRB04KT 10SM SCT007 BKN014 OVC110 23/21 A3012 110 87 1100 VRB/04 RMK AO2 T02280206
53988KBKB BKB20190629083012506/29/19 08:30:31  5-MIN KBKB 291430Z AUTO 00000KT 10SM SCT007 BKN014 OVC110 22/21 A3012 110 90 1000 000/00 RMK AO2 T02220206
53988KBKB BKB20190629083513706/29/19 08:35:31  5-MIN KBKB 291435Z AUTO VRB03KT 10SM BKN007 BKN014 OVC100 22/21 A3012 120 90 1000 VRB/03 RMK AO2 CIG 006V011 T02220206
53988KBKB BKB20190629084012506/29/19 08:40:31  5-MIN KBKB 291440Z AUTO 00000KT 10SM SCT007 BKN014 OVC100 23/21 A3011 120 87 1100 000/00 RMK AO2 T02280206
53988KBKB BKB20190629084512506/29/19 08:45:31  5-MIN KBKB 291445Z AUTO VRB03KT 10SM SCT007 BKN014 OVC100 22/21 A3011 120 90 1000 VRB/03 RMK AO2 T02220206
53988KBKB BKB20190629085012506/29/19 08:50:31  5-MIN KBKB 291450Z AUTO 00000KT 10SM FEW007 SCT016 OVC100 23/21 A3011 120 87 1100 000/00 RMK AO2 T02280206
53988KBKB BKB20190629085514406/29/19 08:55:31  5-MIN KBKB 291455Z AUTO 00000KT 10SM FEW007 BKN085 OVC100 23/21 A3011 130 87 1100 000/00 RMK AO2 SLP221 60000 T02280206 58001
53988KBKB BKB20190629090012506/29/19 09:00:31  5-MIN KBKB 291500Z AUTO 00000KT 10SM FEW010 SCT070 OVC095 23/21 A3010 130 87 1100 000/00 RMK AO2 T02280206
53988KBKB BKB20190629090512506/29/19 09:05:31  5-MIN KBKB 291505Z AUTO 00000KT 10SM FEW008 BKN075 OVC100 23/21 A3010 130 87 1100 000/00 RMK AO2 T02280206
53988KBKB BKB20190629091014106/29/19 09:10:31  5-MIN KBKB 291510Z AUTO 00000KT 10SM -RA FEW060 FEW070 OVC090 23/21 A3010 130 87 1100 000/00 RMK AO2 RAB07 P0000 T02280206
53988KBKB BKB20190629091513406/29/19 09:15:31  5-MIN KBKB 291515Z AUTO 00000KT 10SM -RA FEW070 BKN090 23/21 A3010 130 84 1200 000/00 RMK AO2 RAB07 P0000 T02330206
53988KBKB BKB20190629092014006/29/19 09:20:31  5-MIN KBKB 291520Z AUTO VRB03KT 10SM FEW060 SCT075 BKN095 23/21 A3010 130 84 1200 VRB/03 RMK AO2 RAB07E16 P0000 T02330206
53988KBKB BKB20190629092520106/29/19 09:25:31  5-MIN KBKB 291525Z AUTO VRB03KT 10SM SCT060 BKN075 BKN090 23/21 A3010 140 87 1200 VRB/03 RMK AO2 RAB07E16 P0000 T0233021106/29/19 09:323/22 A3009 150 90 1200 VRB/04 RMK AO2 T02330217
53988KBKB BKB20190629115012506/29/19 11:50:31  5-MIN KBKB 291750Z AUTO 00000KT 10SM FEW043 BKN065 OVC080 23/21 A3009 150 87 1200 000/00 RMK AO2 T02330211
53988KBKB BKB20190629115526206/29/19 11:55:31  5-MIN KBKB 291755Z AUTO 00000KT 10SM SCT050 BKN065 OVC080 23/21 A3008 150 87 1200 000/00 RMK AO2 SLP213 60008 T02330211 10272 20206 5101206/29/19 12:00:3SM SCT045 BKN065 OVC075 23/22 A3009 140 90 1201 A3005 180 73 1500 000/00 RMK AO2 T02610211
53988KBKB BKB20190629134012506/29/19 13:40:31  5-MIN KBKB 291940Z AUTO 00000KT 10SM FEW049 FEW060 BKN100 26/22 A3005 180 76 1500 000/00 RMK AO2 T02610217
53988KBKB BKB20190629134511106/29/19 13:45:31  5-MIN KBKB 291945Z AUTO VRB03KT 10SM SCT100 26/22 A3005 180 76 1500 VRB/03 RMK AO2 T02610217
53988KBKB BKB20190629135013906/29/19 13:50:31  5-MIN KBKB 291950Z AUTO 00000KT 10SM FEW100 27/22 A3004 180 73 1600 000/00 RMK AO2 T0267021RMK AO2 RAB26 P0001 T02330217
53988KBKB BKB20190629154518606/29/19 15:45:31  5-MIN KBKB 292145Z AUTO 00000KT 6SM -RA BR FEW016 BKN041 OVC050 23/22 A3000 230 90 1300 000/00 RMK AO2 RAB26 P0001 T02330217 A2999 230 93 1400 000/00 RMK AO2 T02390228
53988KBKB BKB20190629155514006/29/19 15:55:31  5-MIN KBKB 292155Z AUTO 00000KT 7SM -RA FEW019 BKN050 OVC048 23/22 A3000 230 90 1300 000/00 RMK AO2 RAB26 P0000 T02330217
53988KBKB BKB20190629175514906/29/19 17:55:31  5-MIN KBKB 292355Z AUTO 00000KT 10SM SCT090 BKN110 24/23 A3000 230 93 1400 000/00 RMK AO2 SLP183 60001 T02390228 10283 20233 56021
53988KBKB BKB20190629180011806/29/19 18:00:31  5-MIN KBKB 300000Z AUTO 00000KT 10SM FEW090 BKN110 24/22 A3000 230 90 1300 000/00 RMK AO2 T02390222
53988KBKB BKB20190629183510806/29/19 18:35:31  5-MIN KBKB 300035Z AUTO 00000KT 10SM CLR 23/22 A2999 230 93 1200 000/00 RMK AO2 T02280217
53988KBKB BKB20190629184010806/29/19 18:40:31  5-MIN KBKB 300040Z AUTO 00000KT 10SM CLR 23/22 A2999 230 93 1200 000/00 RMK AO2 T02280217
53988KBKB BKB20190629184510806/29/19 18:45:31  5-MIN KBKB 300045Z AUTO 00000KT 10SM CLR 23/22 A2999 230 93 1200 000/00 RMK AO2 T02280217
53988KBKB BKB20190629185010806/29/19 18:50:31  5-MIN KBKB 300050Z AUTO 00000KT 10SM CLR 23/22 A2999 230 93 1200 000/00 RMK AO2 T02280217
53988KBKB BKB20190629185511406/29/19 18:55:31  5-MIN KBKB 300055Z AUTO 00000KT 9SM CLR 23/22 A3000 230 93 1200 000/00 RMK AO2 SLP183 T02280217
53988KBKB BKB20190629190010806/29/19 19:00:31  5-MIN KBKB 300100Z AUTO 00000KT 10SM CLR 23/21 A3000 230 90 1200 000/00 RMK AO2 T02280211
53988KBKB BKB20190629190510706/29/19 19:05:31  5-MIN KBKB 300105Z AUTO 00000KT 9SM CLR 22/21 A3000 230 93 1200 000/00 RMK AO2 T02220211
53988KBKB BKB20190629191010706/29/19 19:10:31  5-MIN KBKB 300110Z AUTO 00000KT 8SM CLR 22/21 A3000 220 93 1200 000/00 RMK AO2 T02220211
53988KBKB BKB20190629191510706/29/19 19:15:31  5-MIN KBKB 300115Z AUTO 00000KT 8SM CLR 22/21 A3000 220 93 1200 000/00 RMK AO2 T02220211
53988KBKB BKB20190629192010706/29/19 19:20:31  5-MIN KBKB 300120Z AUTO 00000KT 7SM CLR 22/21 A3000 220 93 1200 000/00 RMK AO2 T02220211
53988KBKB BKB20190629192510706/29/19 19:25:31  5-MIN KBKB 300125Z AUTO 00000KT 7SM CLR 22/21 A3000 220 93 1200 000/00 RMK AO2 T02220211
53988KBKB BKB20190629193010706/29/19 19:30:31  5-MIN KBKB 300130Z AUTO 00000KT 8SM CLR 22/21 A3000 220 93 1200 000/00 RMK AO2 T02220211
53988KBKB BKB20190629193510706/29/19 19:35:31  5-MIN KBKB 300135Z AUTO 00000KT 9SM CLR 22/21 A3000 220 97 1100 000/00 RMK AO2 T02170211
53988KBKB BKB20190629194010706/29/19 19:40:31  5-MIN KBKB 300140Z AUTO 00000KT 8SM CLR 22/21 A3000 220 93 1100 000/00 RMK AO2 T02170206
53988KBKB BKB20190629194510706/29/19 19:45:31  5-MIN KBKB 300145Z AUTO 00000KT 8SM CLR 22/21 A3000 220 93 1100 000/00 RMK AO2 T02170206
53988KBKB BKB20190629195011006/29/19 19:50:31  5-MIN KBKB 300150Z AUTO 00000KT 6SM BR CLR 22/21 A3000 220 93 1100 000/00 RMK AO2 T02170206
53988KBKB BKB20190629195511706/29/19 19:55:31  5-MIN KBKB 300155Z AUTO 00000KT 6SM BR CLR 22/21 A3000 220 93 1100 000/00 RMK AO2 SLP185 T02170206
53988KBKB BKB20190629200011006/29/19 20:00:31  5-MIN KBKB 300200Z AUTO 00000KT 6SM BR CLR 22/21 A3000 230 93 1100 000/00 RMK AO2 T02170206
53988KBKB BKB20190629200511006/29/19 20:05:31  5-MIN KBKB 300205Z AUTO 00000KT 6SM BR CLR 22/21 A3000 220 93 1100 000/00 RMK AO2 T02170206
53988KBKB BKB20190629201011006/29/19 20:10:31  5-MIN KBKB 300210Z AUTO 00000KT 6SM BR CLR 22/21 A3000 220 93 1100 000/00 RMK AO2 T02170206
53988KBKB BKB20190629201511006/29/19 20:15:31  5-MIN KBKB 300215Z AUTO 00000KT 6SM BR CLR 22/21 A3000 220 93 1100 000/00 RMK AO2 T02170206
53988KBKB BKB20190629202011006/29/19 20:20:31  5-MIN KBKB 300220Z AUTO 00000KT 6SM BR CLR 22/21 A3001 220 93 1100 000/00 RMK AO2 T02170206
53988KBKB BKB20190629202511006/29/19 20:25:31  5-MIN KBKB 300225Z AUTO 00000KT 6SM BR CLR 21/21 A3001 220 97 1000 000/00 RMK AO2 T02110206
53988KBKB BKB20190629203011006/29/19 20:30:31  5-MIN KBKB 300230Z AUTO 00000KT 6SM BR CLR 21/21 A3000 220 97 1000 000/00 RMK AO2 T02110206
53988KBKB BKB20190629203511006/29/19 20:35:31  5-MIN KBKB 300235Z AUTO 00000KT 6SM BR CLR 21/21 A3000 220 97 1000 000/00 RMK AO2 T02110206
53988KBKB BKB20190629204011006/29/19 20:40:31  5-MIN KBKB 300240Z AUTO 00000KT 6SM BR CLR 21/21 A3001 220 97 1000 000/00 RMK AO2 T02110206
53988KBKB BKB20190629204511006/29/19 20:45:31  5-MIN KBKB 300245Z AUTO 00000KT 6SM BR CLR 21/20 A3001 220 93 1000 000/00 RMK AO2 T02110200
53988KBKB BKB20190629205011006/29/19 20:50:31  5-MIN KBKB 300250Z AUTO 00000KT 6SM BR CLR 21/20 A3001 220 93 1000 000/00 RMK AO2 T02110200
53988KBKB BKB20190629205512306/29/19 20:55:31  5-MIN KBKB 300255Z AUTO 00000KT 6SM BR CLR 21/20 A3001 220 93 1000 000/00 RMK AO2 SLP188 T02110200 55008
53988KBKB BKB20190629210011006/29/19 21:00:31  5-MIN KBKB 300300Z AUTO 00000KT 6SM BR CLR 21/20 A3001 210 93 1000 000/00 RMK AO2 T02110200
53988KBKB BKB20190629210516406/29/19 21:05:31  5-MIN KBKB 300305Z AUTO 00000KT 5SM BR CLR 21/20 A3001 210 93 1000 000/00 RMK AO2 T02110200R CLR 21/20 A3002 210 93 1000 000/00 RMK AO2 T02110200
53988KBKB BKB20190629211511006/29/19 21:15:31  5-MIN KBKB 300315Z AUTO 00000KT 5SM BR CLR 21/20 A3002 210 93 1000 000/00 RMK AO2 T02110200
53988KBKB BKB20190629212010906/29/19 21:20:31  5-MIN KBKB 300320Z AUTO 00000KT 5SM BR CLR 21/20 A3002 210 97 900 000/00 RMK AO2 T02060200
53988KBKB BKB20190629212510906/29/19 21:25:31  5-MIN KBKB 300325Z AUTO 00000KT 5SM BR CLR 21/20 A3002 210 97 900 000/00 RMK AO2 T02060200
53988KBKB BKB20190629213013706/29/19 21:30:31  5-MIN KBKB 300330Z AUTO 00000KT 5SM BR CLR 21/20 A3002 200 97 900 000/00 RMK A3004 190 97 900 000/00 RMK AO2 T02060200
53988KBKB BKB20190629221010906/29/19 22:10:31  5-MIN KBKB 300410Z AUTO 00000KT 5SM BR CLR 21/20 A3004 190 97 900 000/00 RMK AO2 T02060200
53988KBKB BKB20190629221510906/29/19 22:15:31  5-MIN KBKB 300415Z AUTO 00000KT 4SM BR CLR 21/19 A3003 190 93 900 000/00 RMK AO2 T02060194
53988KBKB BKB20190629222010906/29/19 22:20:31  5-MIN KBKB 300420Z AUTO 00000KT 5SM BR CLR 21/19 A3004 190 93 900 000/00 RMK AO2 T02060194
53988KBKB BKB20190629222510906/29/19 22:25:31  5-MIN KBKB 300425Z AUTO 00000KT 5SM BR CLR 20/19 A3004 190 97 900 000/00 RMK AO2 T02000194
53988KBKB BKB20190629223010906/29/19 22:30:31  5-MIN KBKB 300430Z AUTO 00000KT 5SM BR CLR 21/19 A3004 190 93 900 000/00 RMK AO2 T02060194
53988KBKB BKB20190629223505806/29/19 22:35:31  5-MIN KBKB 300435Z AUTO 00000KT02060200
53988KBKB BKB20190629230011206/29/19 23:00:31  5-MIN KBKB 300500Z AUTO 00000KT 5SM BR FEW070 21/20 A3003 190 97 900 000/00 RMK AO2 T02060200
53988KBKB BKB20190629230511206/29/19 23:05:31  5-MIN KBKB 300505Z AUTO 00000KT 5SM BR SCT070 21/20 A3004 190 97 900 000/00 RMK AO2 T02060200
53988KBKB BKB20190629231011206/29/19 23:10:31  5-MIN KBKB 300510Z AUTO 00000KT 5SM BR SCT070 21/20 A3004 190 97 900 000/00 RMK AO2 T02060200
53988KBKB BKB20190629231507306/29/19 23:15:31  5-MIN KBKB 300515Z AUTO 00900 000/00 RMK AO2 T02060200
53988KBKB BKB20190629235011906/29/19 23:50:31  5-MIN KBKB 300550Z AUTO 00000KT 4SM BR FEW060 FEW075 21/20 A3003 200 97 900 000/00 RMK AO2 T02060200
53988KBKB BKB20190629235514706/29/19 23:55:31  5-MIN KBKB 300555Z AUTO 00000KT 4SM BR FEW070 21/20 A3003 200 97 900 000/00 RMK AO2 SLP195 T02060200 10239 20200 402830200 53005
53988KBKB BKB20190630000010906/30/19 00:00:31  5-MIN KBKB 300600Z AUTO 00000KT 5SM BR CLR 21/19 A3003 190 93 900 000/00 RMK AO2 T02060194
53988KBKB BKB20190630000510906/30/19 00:05:31  5-MIN KBKB 300605Z AUTO 00000KT 5SM BR CLR 21/19 A3003 200 93 900 000/00 RMK AO2 T02060194
53988KBKB BKB20190630001010906/30/19 00:10:31  5-MIN KBKB 300610Z AUTO 00000KT 5SM BR CLR 21/19 A3003 200 93 900 000/00 RMK AO2 T02060194
53988KBKB BKB20190630001510906/30/19 00:15:31  5-MIN KBKB 300615Z AUTO 00000KT 5SM BR CLR 21/19 A3003 200 93 900 000/00 RMK AO2 T02060194
53988KBKB BKB20190630002013106/30/19 00:20:31  5-MIN KBKB 300620Z AUTO 00000KT 4SM BR CLT 6SM BR FEW002 SCT048 21/19 A3001 220 93 1000 000/00 RMK AO2 T02060194
53988KBKB BKB20190630011012006/30/19 01:10:31  5-MIN KBKB 300710Z AUTO 00000KT 5SM BR SCT002 BKN048 21/19 A3001 220 93 1000 000/00 RMK AO2 T02060194
53988KBKB BKB20190630011512006/30/19 01:15:31  5-MIN KBKB 300715Z AUTO 00000KT 5SM BR SCT002 BKN048 21/20 A3001 220 97 1000 000/00 RMK AO2 T02060200
53988KBKB BKB20190630012009606/30/19 01:20:31  5-MIN KBKB 300720Z AUTO 00000KT 5SM BR FEW002 BKN047 210/00 RMK AO2 T02060200
53988KBKB BKB20190630015512706/30/19 01:55:31  5-MIN KBKB 300755Z AUTO 00000KT 5SM BR SCT045 SCT065 21/20 A3000 230 97 1000 000/00 RMK AO2 SLP184 T02060200
53988KBKB BKB20190630020012006/30/19 02:00:31  5-MIN KBKB 300800Z AUTO 00000KT 5SM BR FEW045 SCT065 21/20 A3000 230 93 1000 000/00 RMK AO2 T02110200
53988KBKB BKB20190630020515106/30/19 02:05:31  5-MIN KBKB 300805Z AUTO 00000KT 5SM BR FEW045 21/20 A2999 230 97 1000 000/00 RMK AO2 T0206020098 240 93 900 000/00 RMK AO2 T02000189
53988KBKB BKB20190630034011906/30/19 03:40:31  5-MIN KBKB 300940Z AUTO 00000KT 6SM BR FEW002 FEW044 20/19 A2998 240 93 900 000/00 RMK AO2 T02000189
53988KBKB BKB20190630034511206/30/19 03:45:31  5-MIN KBKB 300945Z AUTO 00000KT 6SM BR FEW044 20/19 A2998 240 93 900 000/00 RMK AO2 T02000189
53988KBKB BKB20190630035011206/30/19 03:50:31  5-MIN KBKB 300950Z AUTO 00000KT 6SM BR SCT044 20/19 A2999 240 93 900 000/00 RMK AO2 T02000189
53988KBKB BKB20190630035511906/30/19 03:55:31  5-MIN KBKB 300955Z AUTO 00000KT 6SM BR FEW044 20/19 A2998 240 93 900 000/00 RMK AO2 SLP179 T02000189
53988KBKB BKB20190630040011206/30/19 04:00:31  5-MIN KBKB 301000Z AUTO 00000KT 6SM BR FEW045 20/19 A2998 240 93 900 000/00 RMK AO2 T02000189
53988KBKB BKB20190630040511206/30/19 04:05:31  5-MIN KBKB 301005Z AUTO 00000KT 6SM BR FEW045 20/19 A2998 240 93 900 000/00 RMK AO2 T02000189
53988KBKB BKB20190630041011206/30/19 04:10:31  5-MIN KBKB 301010Z AUTO 00000KT 5SM BR FEW045 20/19 A2999 240 93 900 000/00 RMK AO2 T02000189
53988KBKB BKB20190630041511206/30/19 04:15:31  5-MIN KBKB 301015Z AUTO 00000KT 5SM BR FEW045 20/19 A2999 230 93 900 000/00 RMK AO2 T02000189
53988KBKB BKB20190630042010906/30/19 04:20:31  5-MIN KBKB 301020Z AUTO 00000KT 5SM BR CLR 19/19 A2999 230 97 800 000/00 RMK AO2 T01940189
53988KBKB BKB20190630042510906/30/19 04:25:31  5-MIN KBKB 301025Z AUTO 00000KT 6SM BR CLR 19/19 A2999 230 97 800 000/00 RMK AO2 T01940189
53988KBKB BKB20190630043010906/30/19 04:30:31  5-MIN KBKB 301030Z AUTO 00000KT 6SM BR CLR 19/19 A2999 230 97 800 000/00 RMK AO2 T01940189
53988KBKB BKB20190630043510906/30/19 04:35:31  5-MIN KBKB 301035Z AUTO 00000KT 6SM BR CLR 19/19 A2999 230 97 800 000/00 RMK AO2 T01940189
53988KBKB BKB20190630044010906/30/19 04:40:31  5-MIN KBKB 301040Z AUTO 00000KT 6SM BR CLR 19/19 A2999 230 97 800 000/00 RMK AO2 T01940189
53988KBKB BKB20190630044510906/30/19 04:45:31  5-MIN KBKB 301045Z AUTO 00000KT 6SM BR CLR 19/19 A2999 230 97 800 000/00 RMK AO2 T01940189
53988KBKB BKB20190630045010906/30/19 04:50:31  5-MIN KBKB 301050Z AUTO 00000KT 6SM BR CLR 19/18 A2999 230 93 800 000/00 RMK AO2 T01940183
53988KBKB BKB20190630045511606/30/19 04:55:31  5-MIN KBKB 301055Z AUTO 00000KT 6SM BR CLR 19/18 A3000 230 93 800 000/00 RMK AO2 SLP184 T01940183
53988KBKB BKB20190630050011506/30/19 05:00:31  5-MIN KBKB 301100Z AUTO 00000KT 5SM BR CLR 19/18 A3000 A3001 220 97 800 000/00 RMK AO2 T01940189
53988KBKB BKB20190630052011206/30/19 05:20:31  5-MIN KBKB 301120Z AUTO 00000KT 5SM BR BKN039 19/19 A3001 220 97 800 000/00 RMK AO2 T01940189
53988KBKB BKB20190630052511206/30/19 05:25:31  5-MIN KBKB 301125Z AUTO 00000KT 5SM BR BKN039 19/19 A3001 220 97 800 000/00 RMK AO2 T01940189
53988KBKB BKB20190630053007506/30/19 05:30:31  5-MIN KBKB 301130Z AUTO 00000KT 6SM BR BKN040 19/19 /21 
53988KBKB BKB20190630054011206/30/19 05:40:31  5-MIN KBKB 301140Z AUTO 00000KT 5SM BR SCT040 19/19 A3002 210 97 800 000/00 RMK AO2 T01940189
53988KBKB BKB20190630054511906/30/19 05:45:31  5-MIN KBKB 301145Z AUTO 00000KT 5SM BR FEW002 SCT040 20/19 A3002 210 93 900 000/00 RMK AO2 T02000189
53988KBKB BKB20190630055011906/30/19 05:50:31  5-MIN KBKB 301150Z AUTO 00000KT 6SM BR SCT002 SCT040 19/19 A3002 210 97 800 000/00 RMK AO2 T01940189
53988KBKB BKB20190630055510206/30/19 05:55:31  5-MIN KBKB 301155Z AUTO 00000KT 6SM BR BKN002 20/19 A3002 210 93 900 000/00 RMK AO2
53988KBKB BKB20190630060011206/30/19 06:00:31  5-MIN KBKB 301200Z AUTO 00000KT 6SM BR BKN002 20/19 A3002 200 93 900 000/00 RMK AO2 T02000189
53988KBKB BKB20190630060511206/30/19 06:05:31  5-MIN KBKB 301205Z AUTO 00000KT 3SM BR BKN002 20/19 A3002 200 97 900 000/00 RMK AO2 T02000194
53988KBKB BKB20190630061011606/30/19 06:10:31  5-MIN KBKB 301210Z AUTO 00000KT 2 1/2SM BR OVC002 20/19 A3002 200 97 900 000/00 RMK AO2 T02000194
53988KBKB BKB20190630061511206/30/19 06:15:31  5-MIN KBKB 301215Z AUTO 00000KT 4SM BR BKN002 21/20 A3002 200 97 900 000/00 RMK AO2 T02060200
53988KBKB BKB20190630062011306/30/19 06:20:31  5-MIN KBKB 301220Z AUTO 00000KT 5SM BR BKN002 21/20 A3003 200 93 1000 000/00 RMK AO2 T02110200
53988KBKB BKB20190630062511306/30/19 06:25:31  5-MIN KBKB 301225Z AUTO 00000KT 6SM BR SCT002 21/21 A3002 200 97 1000 000/00 RMK AO2 T02110206
53988KBKB BKB20190630063011306/30/19 06:30:31  5-MIN KBKB 301230Z AUTO 00000KT 6SM BR FEW002 21/21 A3002 200 97 1000 000/00 RMK AO2 T02110206
53988KBKB BKB20190630063511006/30/19 06:35:31  5-MIN KBKB 301235Z AUTO 00000KT 7SM FEW002 22/21 A3003 200 93 1100 000/00 RMK AO2 T02170206
53988KBKB BKB20190630064010706/30/19 06:40:31  5-MIN KBKB 301240Z AUTO 00000KT 9SM CLR 22/21 A3003 200 93 1100 000/00 RMK AO2 T02220211
53988KBKB BKB20190630064510806/30/19 06:45:31  5-MIN KBKB 301245Z AUTO 00000KT 10SM CLR 22/21 A3003 200 93 1100 000/00 RMK AO2 T02220211
53988KBKB BKB20190630065010806/30/19 06:50:31  5-MIN KBKB 301250Z AUTO 00000KT 10SM CLR 23/22 A3003 200 93 1200 000/00 RMK AO2 T02280217
53988KBKB BKB20190630065511506/30/19 06:55:31  5-MIN KBKB 301255Z AUTO 00000KT 10SM CLR 23/22 A3003 200 93 1200 000/00 RMK AO2 SLP196 T02280217
53988KBKB BKB20190630070010806/30/19 07:00:31  5-MIN KBKB 301300Z AUTO 00000KT 10SM CLR 23/22 A3003 190 90 1200 000/00 RMK AO2 T02330217
53988KBKB BKB20190630070510806/30/19 07:05:31  5-MIN KBKB 301305Z AUTO 00000KT 10SM CLR 23/22 A3003 190 90 1200 000/00 RMK AO2 T02330217
53988KBKB BKB20190630071010806/30/19 07:10:31  5-MIN KBKB 301310Z AUTO 00000KT 10SM CLR 24/22 A3003 190 87 1300 000/00 RMK AO2 T02390217
53988KBKB BKB20190630071510806/30/19 07:15:31  5-MIN KBKB 301315Z AUTO 00000KT 10SM CLR 24/22 A3004 190 90 1300 000/00 RMK AO2 T02390222
53988KBKB BKB20190630072007606/30/19 07:20:31  5-MIN KBKB 301320Z AUTO  81 1400 000/00 RMK AO2 T02500217
53988KBKB BKB20190630075010806/30/19 07:50:31  5-MIN KBKB 301350Z AUTO 00000KT 10SM CLR 24/22 A3004 190 84 1400 000/00 RMK AO2 T02440217
53988KBKB BKB20190630075511806/30/19 07:55:31  5-MIN KBKB 301355Z AUTO 00000KT 10SM FEW010 25/22 A3004 190 84 1400 000/00 RMK AO2 SLP199 T02500222
53988KBKB BKB20190630080018906/30/19 08:00:31  5-MIN KBKB 301400Z AUTO 00000KT 10SM FEW010 206/30/19 08:35:31  5-MIN KBKB 301435Z AUTO VRB03KT 10SM FEW013 SCT030 BKN040 25/21 A3005 180 79 1400 VRB/03 RMK AO2 T02500211
53988KBKB BKB20190630084012506/30/19 08:40:31  5-MIN KBKB 301440Z AUTO 23003KT 10SM FEW013 SCT028 BKN042 25/21 A3005 180 79 1400 220/03 RMK AO2 T02500211
53988KBKB BKB20190630084512506/30/19 08:45:31  5-MIN KBKB 301445Z AUTO 00000KT 10SM SCT013 BKN030 OVC046 25/22 A3005 180 81 1400 000/00 RMK AO2 T02500217
53988KBKB BKB20190630085012506/30/19 08:50:31  5-MIN KBKB 301450Z AUTO VRB03KT 10SM FEW014 SCT030 BKN038 26/22 A3005 170 79 1500 VRB/03 RMK AO2 T02560217
53988KBKB BKB20190630085513806/30/19 08:55:31  5-MIN KBKB 301455Z AUTO VRB04KT 10SM FEW014 FEW031 BKN043 27/22 A3006 170 76 1600 VRB/04 RMK AO2 SLP204 T02670222 53014
53988KBKB BKB20190630090017206/30/19 09:00:31  5-MIN KBKB 301500Z AUTO 00000KT 10SM FEW014 FEW038 BKN045 27/22 A3006 170 73 1600 000/00 RMK AO2 T026702170/21 A3005 180 69 1700 VRB/03 RMK AO2 T02720211
53988KBKB BKB20190630094011106/30/19 09:40:31  5-MIN KBKB 301540Z AUTO 00000KT 10SM BKN046 27/21 A3005 180 69 1700 000/00 RMK AO2 T02720211
53988KBKB BKB20190630094511106/30/19 09:45:31  5-MIN KBKB 301545Z AUTO 00000KT 10SM BKN046 28/22 A3005 180 69 1700 000/00 RMK AO2 T02780217
53988KBKB BKB20190630095011106/30/19 09:50:31  5-MIN KBKB 301550Z AUTO 00000KT 10SM SCT046 28/21 A3005 180 64 1700 000/00 RMK AO2 T02780206
53988KBKB BKB20190630095511806/30/19 09:55:31  5-MIN KBKB 301555Z AUTO VRB03KT 10SM SCT046 28/21 A3005 180 64 1700 VRB/03 RMK AO2 SLP202 T02780206
53988KBKB BKB20190630100011106/30/19 10:00:31  5-MIN KBKB 301600Z AUTO 00000KT 10SM FEW046 28/21 A3005 180 64 1700 000/00 RMK AO2 T02780206
53988KBKB BKB20190630100511106/30/19 10:05:31  5-MIN KBKB 301605Z AUTO VRB03KT 10SM FEW034 29/21 A3005 180 62 1900 VRB/03 RMK AO2 T02890211
53988KBKB BKB20190630101012006/30/19 10:10:31  5-MIN KBKB 301610Z AUTO VRB03SM SCT027 SCT034 BKN050 27/21 A3004 190 66 1700 000/00 RMK AO2 T02720206
53988KBKB BKB20190630102512506/30/19 10:25:31  5-MIN KBKB 301625Z AUTO 00000KT 10SM FEW027 SCT035 BKN055 28/21 A3004 190 64 1700 000/00 RMK AO2 T02780206
53988KBKB BKB20190630103012506/30/19 10:30:31  5-MIN KBKB 301630Z AUTO 00000KT 10SM SCT030 BKN035 BKN050 28/21 A3004 190 64 1700 000/00 RMK AO2 T02780206
53988KBKB BKB20190630103512106/30/19 10:35:31  5-MIN KBKB 301635Z AUTO 00000KT 10SM FEW028 50 OVC080 28/21 A3004 190 62 1800 VRB/03 RMK AO2 T02830206
53988KBKB BKB20190630113012506/30/19 11:30:31  5-MIN KBKB 301730Z AUTO 00000KT 10SM SCT033 BKN055 BKN080 28/21 A3004 190 62 1800 000/00 RMK AO2 T02830206
53988KBKB BKB20190630113512506/30/19 11:35:31  5-MIN KBKB 301735Z AUTO VRB04KT 10SM FEW034 SCT055 BKN080 28/20 A3004 190 60 1800 VRB/04 RMK AO2 T02830200
53988KBKB BKB20190630114012506/30/19 11:40:31  5-MIN KBKB 301740Z AUTO VRB03KT 10SM FEW034 SCT065 BKN080 29/21 A3004 190 60 1900 VRB/03 RMK AO2 T02890206
53988KBKB BKB20190630114512506/30/19 11:45:31  5-MIN KBKB 301745Z AUTO VRB03KT 10SM FEW034 SCT065 BKN080 29/21 A3003 190 60 1900 VRB/03 RMK AO2 T02890206
53988KBKB BKB20190630115011806/30/19 11:50:31  5-MIN KBKB 301750Z AUTO 00000KT 10SM FEW036 SCT070 28/21 A3003 190 62 1800 000/00 RMK AO2 T02830206
53988KBKB BKB20190630115509506/30/19 11:55:31  5-MIN KBKB 301755Z AUTO 10SM FEW036 SCT065 29/21 A3003 200 60 1900 M 2940206
53988KBKB BKB20190630122011106/30/19 12:20:31  5-MIN KBKB 301820Z AUTO VRB03KT 10SM FEW036 29/21 A3003 200 58 1900 VRB/03 RMK AO2 T02940206
53988KBKB BKB20190630122511806/30/19 12:25:31  5-MIN KBKB 301825Z AUTO VRB03KT 10SM FEW038 SCT065 29/20 A3003 200 58 1900 VRB/03 RMK AO2 T02890200
53988KBKB BKB20190630123012506/30/19 12:30:31  5-MIN KBKB 301830Z AUTO 00000KT 10SM FEW040 SCT065 SCT095 29/21 A3003 200 58 1900 000/00 RMK AO2 T02940206
53988KBKB BKB20190630123512506/30/19 12:35:31  5-MIN KBKB 301835Z AUTO 00000KT 10SM SCT038 SCT065 BKN095 29/21 A3003 200 58 1900 000/00 RMK AO2 T02940206
53988KBKB BKB20190630124012506/30/19 12:40:31  5-MIN KBKB 301840Z AUTO 00000KT 10SM BKN038 BKN065 BKN100 29/21 A3003 200 60 1900 000/00 RMK AO2 T02890206
53988KBKB BKB20190630124512506/30/19 12:45:31  5-MIN KBKB 301845Z AUTO 00000KT 10SM SCT038 BKN044 BKN065 29/21 A3003 200 60 1900 000/00 RMK AO2 T02890206
53988KBKB BKB20190630125013406/30/19 12:50:31  5-MIN KBKB 301850Z AUT1900Z AUTO 00000KT 10SM SCT037 BKN046 OVC070 28/21 A3002 200 64 1800 000/00 RMK AO2 T02830211
53988KBKB BKB20190630130512506/30/19 13:05:31  5-MIN KBKB 301905Z AUTO 00000KT 10SM SCT042 BKN055 BKN070 28/21 A3002 200 64 1800 000/00 RMK AO2 T02780206
53988KBKB BKB20190630131012506/30/19 13:10:31  5-MIN KBKB 301910Z AUTO 00000KT 10SM FEW044 BKN055 OVC070 28/21 A3002 200 62 1800 000/00 RMK AO2 T02830206
53988KBKB BKB20190630131512506/30/19 13:15:31  5-MIN KBKB 301915Z AUTO 00000KT 10SM FEW044 BKN055 OVC080 29/21 A3002 210 62 1900 000/00 RMK AO2 T02890211
53988KBKB BKB20190630132012506/30/19 13:20:31  5-MIN KBKB 301920Z AUTO VRB03KT 10SM FEW044 SCT055 BKN070 29/21 A3002 210 60 2000 VRB/03 RMK AO2 T02940211
53988KBKB BKB20190630132512506/30/19 13:25:31  5-MIN KBKB 301925Z AUTO 00000KT 10SM FEW055 SCT070 BKN080 29/20 A3002 210 56 2000 000/00 RMK AO2 T02940200
53988KBKB BKB20190630133009806/30/19 13:30:31  5-MIN KBKB 301930Z AUTO 00000KT 10SM FEW055 FEW07 2000 VRB/03 RMK AO2 T03000206
53988KBKB BKB20190630140511806/30/19 14:05:31  5-MIN KBKB 302005Z AUTO VRB05KT 10SM BKN038 BKN110 31/22 A3000 220 56 2200 VRB/05 RMK AO2 T03110217
53988KBKB BKB20190630141012506/30/19 14:10:31  5-MIN KBKB 302010Z AUTO VRB04KT 10SM SCT038 SCT085 BKN110 29/21 A3000 230 60 2000 VRB/04 RMK AO2 T02940211
53988KBKB BKB20190630141512506/30/19 14:15:31  5-MIN KBKB 302015Z AUTO 00000KT 10SM SCT038 SCT085 OVC060 29/22 A2999 230 64 1900 000/00 RMK AO2 T02890217
53988KBKB BKB20190630151511806/30/19 15:15:31  5-MIN KBKB 302115Z AUTO 00000KT 10SM BKN034 BKN060 29/22 A2999 240 62 2000 000/00 RMK AO2 T02940217
53988KBKB BKB20190630152012506/30/19 15:20:31  5-MIN KBKB 302120Z AUTO VRB03KT 10SM SCT034 BKN043 BKN060 29/22 A2998 240 62 2000 VRB/03 RMK AO2 T02940217
53988KBKB BKB20190630152512506/30/19 15:25:31  5-MIN KBKB 302125Z AUTO 00000KT 10SM BKN033 BKN046 BKN060 29/22 A2999 240 64 1900 000/00 RMK AO2 T02890217
53988KBKB BKB20190630153012506/30/19 15:30:31  5-MIN KBKB 302130Z AUTO 00000KT 10SM BKN033 BKN045 BKN060 29/22 A2998 240 64 1900 000/00 RMK AO2 T02890217
53988KBKB BKB20190630153511806/30/19 15:35:31  5-MIN KBKB 302135Z AUTO VRB04KT 10SM BKN033 BKN060 29/22 A2998 240 62 2000 VRB/04 RMK AO2 T02940217
53988KBKB BKB20190630154007706/30/19 15:40:31  5-MIN KBKB 302140Z AUTO VRB0 2000 000/00 RMK AO2 T02940211
53988KBKB BKB20190630161512506/30/19 16:15:31  5-MIN KBKB 302215Z AUTO VRB03KT 10SM SCT034 SCT048 BKN065 30/21 A2997 260 58 2100 VRB/03 RMK AO2 T03000211
53988KBKB BKB20190630162012506/30/19 16:20:31  5-MIN KBKB 302220Z AUTO VRB04KT 10SM FEW034 SCT047 SCT065 29/21 A2997 260 60 2000 VRB/04 RMK AO2 T02940211
53988KBKB BKB20190630162512506/30/19 16:25:31  5-MIN KBKB 302225Z AUTO 00000KT 10SM FEW036 FEW049 SCT065 30/21 A2996 260 58 2100 000/00 RMK AO2 T03000211
53988KBKB BKB20190630163011106/30/19 16:30:31  5-MIN KBKB 302230Z AUTO VRB03KT 10SM FEW065 29/21 A2996 260 60 2000 VRB/03 RMK AO2 T02940211
53988KBKB BKB20190630163511106/30/19 16:35:31  5-MIN KBKB 302235Z AUTO 00000KT 10SM FEW065 30/21 A2996 260 56 2100 000/00 RMK AO2 T03000206
53988KBKB BKB20190630164014806/30/19 16:40:31  5-MIN KBKB 302240Z AUTO 00000KT 10SM CLR 29/21 A2996 260 60 2000 000/00 RMK AO2 T02940211 58 2000 000/00 RMK AO2 SLP170 T02940206
53988KBKB BKB20190630170010806/30/19 17:00:31  5-MIN KBKB 302300Z AUTO 00000KT 10SM CLR 29/21 A2996 260 62 2000 000/00 RMK AO2 T02890211
53988KBKB BKB20190630170510806/30/19 17:05:31  5-MIN KBKB 302305Z AUTO 00000KT 10SM CLR 29/20 A2996 270 58 2000 000/00 RMK AO2 T02890200
53988KBKB BKB20190630171010806/30/19 17:10:31  5-MIN KBKB 302310Z AUTO 00000KT 10SM CLR 29/20 A2996 270 58 2000 000/00 RMK AO2 T02890200
53988KBKB BKB20190630171510806/30/19 17:15:31  5-MIN KBKB 302315Z AUTO 00000KT 10SM CLR 29/21 A2996 270 60 2000 000/00 RMK AO2 T02890206
53988KBKB BKB20190630172010806/30/19 17:20:31  5-MIN KBKB 302320Z AUTO 00000KT 10SM CLR 29/19 A2996 270 54 2000 000/00 RMK AO2 T02940194
53988KBKB BKB20190630172510806/30/19 17:25:31  5-MIN KBKB 302325Z AUTO 00000KT 10SM CLR 29/21 A2995 270 60 2000 000/00 RMK AO2 T02890206
53988KBKB BKB20190630173010806/30/19 17:30:31  5-MIN KBKB 302330Z AUTO 00000KT 10SM CLR 29/21 A2995 270 62 2000 000/00 RMK AO2 T02890211
53988KBKB BKB20190630173510806/30/19 17:35:31  5-MIN KBKB 302335Z AUTO 00000KT 10SM CLR 29/20 A2995 270 56 2000 000/00 RMK AO2 T02940200
