53917KNEW NEW20190902233010709/02/19 23:30:31  5-MIN KNEW 030530Z AUTO 06010KT 10SM CLR 29/24 A2992 10 71 1700 060/10 RMK AO2 T02940239
53917KNEW NEW20190902233510709/02/19 23:35:31  5-MIN KNEW 030535Z AUTO 06011KT 10SM CLR 29/24 A2992 10 71 1700 060/11 RMK AO2 T02940239
53917KNEW NEW20190902234010709/02/19 23:40:31  5-MIN KNEW 030540Z AUTO 06011KT 10SM CLR 29/24 A2992 10 71 1700 060/11 RMK AO2 T02940239
53917KNEW NEW20190902234510709/02/19 23:45:31  5-MIN KNEW 030545Z AUTO 06011KT 10SM CLR 29/24 A2992 10 71 1700 060/11 RMK AO2 T02940239
53917KNEW NEW20190902235014209/02/19 23:50:31  5-MIN KNEW 030550Z AUTO 06011KT 10SM CLR 29/24 A2992 10 74 1700 060/11 RMK AO2 SLP124 T02890239 10311 20289 403330267 53002
53917KNEW NEW20190902235510709/02/19 23:55:31  5-MIN KNEW 030555Z AUTO 07011KT 10SM CLR 29/24 A2992 10 74 1700 070/11 RMK AO2 T02890239
53917KNEW NEW20190903000010709/03/19 00:00:31  5-MIN KNEW 030600Z AUTO 07011KT 10SM CLR 29/24 A2992 10 74 1700 070/11 RMK AO2 T02890239
53917KNEW NEW20190903000510709/03/19 00:05:31  5-MIN KNEW 030605Z AUTO 06011KT 10SM CLR 29/23 A2992 20 71 1700 060/11 RMK AO2 T02890233
53917KNEW NEW20190903001010709/03/19 00:10:31  5-MIN KNEW 030610Z AUTO 06012KT 10SM CLR 29/24 A2991 20 74 1700 060/12 RMK AO2 T02890239
53917KNEW NEW20190903001510709/03/19 00:15:31  5-MIN KNEW 030615Z AUTO 06013KT 10SM CLR 29/23 A2992 20 71 1700 060/13 RMK AO2 T02890233
53917KNEW NEW20190903002010709/03/19 00:20:31  5-MIN KNEW 030620Z AUTO 06013KT 10SM CLR 29/23 A2991 20 71 1700 060/13 RMK AO2 T02890233
53917KNEW NEW20190903002510709/03/19 00:25:31  5-MIN KNEW 030625Z AUTO 06013KT 10SM CLR 29/23 A2991 20 71 1700 060/13 RMK AO2 T02890233
53917KNEW NEW20190903003010709/03/19 00:30:31  5-MIN KNEW 030630Z AUTO 06012KT 10SM CLR 29/23 A2991 20 71 1700 060/12 RMK AO2 T02890233
53917KNEW NEW20190903003510709/03/19 00:35:31  5-MIN KNEW 030635Z AUTO 06013KT 10SM CLR 29/23 A2991 20 71 1700 060/13 RMK AO2 T02890233
53917KNEW NEW20190903004010709/03/19 00:40:31  5-MIN KNEW 030640Z AUTO 06013KT 10SM CLR 29/23 A2991 20 71 1700 060/13 RMK AO2 T02890233
53917KNEW NEW20190903004510709/03/19 00:45:31  5-MIN KNEW 030645Z AUTO 06013KT 10SM CLR 29/23 A2991 20 71 1700 060/13 RMK AO2 T02890233
53917KNEW NEW20190903005011409/03/19 00:50:31  5-MIN KNEW 030650Z AUTO 06013KT 10SM CLR 29/23 A2991 20 71 1700 060/13 RMK AO2 SLP122 T02890233
53917KNEW NEW20190903005510709/03/19 00:55:31  5-MIN KNEW 030655Z AUTO 06013KT 10SM CLR 29/23 A2991 20 71 1700 060/13 RMK AO2 T02890233
53917KNEW NEW20190903010010709/03/19 01:00:31  5-MIN KNEW 030700Z AUTO 06012KT 10SM CLR 29/23 A2991 20 71 1700 060/12 RMK AO2 T02890233
53917KNEW NEW20190903010510709/03/19 01:05:31  5-MIN KNEW 030705Z AUTO 06011KT 10SM CLR 29/24 A2991 20 74 1700 060/11 RMK AO2 T02890239
53917KNEW NEW20190903011010709/03/19 01:10:31  5-MIN KNEW 030710Z AUTO 05012KT 10SM CLR 29/24 A2991 20 74 1700 050/12 RMK AO2 T02890239
53917KNEW NEW20190903011510709/03/19 01:15:31  5-MIN KNEW 030715Z AUTO 05011KT 10SM CLR 29/24 A2991 20 74 1700 050/11 RMK AO2 T02890239
53917KNEW NEW20190903012010709/03/19 01:20:31  5-MIN KNEW 030720Z AUTO 05013KT 10SM CLR 29/24 A2991 30 74 1700 050/13 RMK AO2 T02890239
53917KNEW NEW20190903012510709/03/19 01:25:31  5-MIN KNEW 030725Z AUTO 05012KT 10SM CLR 29/24 A2990 30 74 1700 050/12 RMK AO2 T02890239
53917KNEW NEW20190903013010709/03/19 01:30:31  5-MIN KNEW 030730Z AUTO 05011KT 10SM CLR 29/24 A2990 30 74 1700 050/11 RMK AO2 T02890239
53917KNEW NEW20190903013510709/03/19 01:35:31  5-MIN KNEW 030735Z AUTO 05011KT 10SM CLR 29/24 A2990 30 74 1700 050/11 RMK AO2 T02890239
53917KNEW NEW20190903014010709/03/19 01:40:31  5-MIN KNEW 030740Z AUTO 05012KT 10SM CLR 28/24 A2990 30 76 1600 050/12 RMK AO2 T02830239
53917KNEW NEW20190903014510709/03/19 01:45:31  5-MIN KNEW 030745Z AUTO 05012KT 10SM CLR 28/23 A2990 30 74 1600 050/12 RMK AO2 T02830233
53917KNEW NEW20190903015011409/03/19 01:50:31  5-MIN KNEW 030750Z AUTO 05012KT 10SM CLR 28/23 A2990 30 74 1600 050/12 RMK AO2 SLP118 T02830233
53917KNEW NEW20190903015510709/03/19 01:55:31  5-MIN KNEW 030755Z AUTO 05012KT 10SM CLR 28/24 A2990 30 76 1600 050/12 RMK AO2 T02830239
53917KNEW NEW20190903020010709/03/19 02:00:31  5-MIN KNEW 030800Z AUTO 05012KT 10SM CLR 28/23 A2990 30 74 1600 050/12 RMK AO2 T02830233
53917KNEW NEW20190903020510709/03/19 02:05:31  5-MIN KNEW 030805Z AUTO 05011KT 10SM CLR 28/23 A2990 30 74 1600 050/11 RMK AO2 T02830233
53917KNEW NEW20190903021010709/03/19 02:10:31  5-MIN KNEW 030810Z AUTO 05011KT 10SM CLR 28/23 A2989 40 74 1600 050/11 RMK AO2 T02830233
53917KNEW NEW20190903021510709/03/19 02:15:31  5-MIN KNEW 030815Z AUTO 05011KT 10SM CLR 28/24 A2989 40 76 1600 050/11 RMK AO2 T02830239
53917KNEW NEW20190903022010709/03/19 02:20:31  5-MIN KNEW 030820Z AUTO 05011KT 10SM CLR 28/24 A2989 30 76 1600 050/11 RMK AO2 T02830239
53917KNEW NEW20190903022510709/03/19 02:25:31  5-MIN KNEW 030825Z AUTO 05011KT 10SM CLR 28/24 A2989 30 76 1600 050/11 RMK AO2 T02830239
53917KNEW NEW20190903023010709/03/19 02:30:31  5-MIN KNEW 030830Z AUTO 05012KT 10SM CLR 28/24 A2990 30 76 1600 050/12 RMK AO2 T02830239
53917KNEW NEW20190903023510709/03/19 02:35:31  5-MIN KNEW 030835Z AUTO 05012KT 10SM CLR 28/23 A2990 30 74 1600 050/12 RMK AO2 T02830233
53917KNEW NEW20190903024010709/03/19 02:40:31  5-MIN KNEW 030840Z AUTO 04012KT 10SM CLR 28/23 A2990 30 74 1600 040/12 RMK AO2 T02830233
53917KNEW NEW20190903024510709/03/19 02:45:31  5-MIN KNEW 030845Z AUTO 05012KT 10SM CLR 28/23 A2990 30 74 1600 050/12 RMK AO2 T02830233
53917KNEW NEW20190903025012009/03/19 02:50:31  5-MIN KNEW 030850Z AUTO 05011KT 10SM CLR 28/23 A2990 30 74 1600 050/11 RMK AO2 SLP118 T02830233 58006
53917KNEW NEW20190903025510709/03/19 02:55:31  5-MIN KNEW 030855Z AUTO 05012KT 10SM CLR 28/23 A2990 30 74 1600 050/12 RMK AO2 T02830233
53917KNEW NEW20190903030010709/03/19 03:00:31  5-MIN KNEW 030900Z AUTO 05012KT 10SM CLR 28/23 A2990 30 74 1600 050/12 RMK AO2 T02830233
53917KNEW NEW20190903030510709/03/19 03:05:31  5-MIN KNEW 030905Z AUTO 05012KT 10SM CLR 28/23 A2990 30 74 1600 050/12 RMK AO2 T02830233
53917KNEW NEW20190903031010709/03/19 03:10:31  5-MIN KNEW 030910Z AUTO 04011KT 10SM CLR 28/23 A2990 30 74 1600 040/11 RMK AO2 T02830233
53917KNEW NEW20190903031510709/03/19 03:15:31  5-MIN KNEW 030915Z AUTO 05012KT 10SM CLR 28/23 A2990 30 74 1600 050/12 RMK AO2 T02830233
53917KNEW NEW20190903032010709/03/19 03:20:31  5-MIN KNEW 030920Z AUTO 05012KT 10SM CLR 28/23 A2990 30 74 1600 050/12 RMK AO2 T02830233
53917KNEW NEW20190903032510709/03/19 03:25:31  5-MIN KNEW 030925Z AUTO 05013KT 10SM CLR 28/23 A2990 30 76 1500 050/13 RMK AO2 T02780233
53917KNEW NEW20190903033010709/03/19 03:30:31  5-MIN KNEW 030930Z AUTO 05012KT 10SM CLR 28/23 A2990 30 76 1600 050/12 RMK AO2 T02780233
53917KNEW NEW20190903033510709/03/19 03:35:31  5-MIN KNEW 030935Z AUTO 05012KT 10SM CLR 28/23 A2990 30 76 1600 050/12 RMK AO2 T02780233
53917KNEW NEW20190903034010709/03/19 03:40:31  5-MIN KNEW 030940Z AUTO 05011KT 10SM CLR 28/24 A2990 30 79 1500 050/11 RMK AO2 T02780239
53917KNEW NEW20190903034510709/03/19 03:45:31  5-MIN KNEW 030945Z AUTO 06012KT 10SM CLR 28/23 A2990 30 76 1500 060/12 RMK AO2 T02780233
53917KNEW NEW20190903035011409/03/19 03:50:31  5-MIN KNEW 030950Z AUTO 06013KT 10SM CLR 28/23 A2990 30 71 1600 060/13 RMK AO2 SLP119 T02830228
53917KNEW NEW20190903035510709/03/19 03:55:31  5-MIN KNEW 030955Z AUTO 06012KT 10SM CLR 28/23 A2990 30 71 1600 060/12 RMK AO2 T02830228
53917KNEW NEW20190903040010709/03/19 04:00:31  5-MIN KNEW 031000Z AUTO 06013KT 10SM CLR 28/23 A2990 30 74 1500 060/13 RMK AO2 T02780228
53917KNEW NEW20190903040510709/03/19 04:05:31  5-MIN KNEW 031005Z AUTO 06012KT 10SM CLR 28/23 A2990 30 74 1500 060/12 RMK AO2 T02780228
53917KNEW NEW20190903041010709/03/19 04:10:31  5-MIN KNEW 031010Z AUTO 06012KT 10SM CLR 28/23 A2990 30 74 1500 060/12 RMK AO2 T02780228
53917KNEW NEW20190903041510709/03/19 04:15:31  5-MIN KNEW 031015Z AUTO 06012KT 10SM CLR 28/23 A2991 20 74 1500 060/12 RMK AO2 T02780228
53917KNEW NEW20190903042010709/03/19 04:20:31  5-MIN KNEW 031020Z AUTO 07011KT 10SM CLR 28/23 A2991 20 74 1500 070/11 RMK AO2 T02780228
53917KNEW NEW20190903042510709/03/19 04:25:31  5-MIN KNEW 031025Z AUTO 06013KT 10SM CLR 28/23 A2991 20 74 1500 060/13 RMK AO2 T02780228
53917KNEW NEW20190903043010709/03/19 04:30:31  5-MIN KNEW 031030Z AUTO 06012KT 10SM CLR 28/23 A2991 20 74 1500 060/12 RMK AO2 T02780228
53917KNEW NEW20190903043510709/03/19 04:35:31  5-MIN KNEW 031035Z AUTO 06013KT 10SM CLR 28/23 A2991 20 74 1500 060/13 RMK AO2 T02780228
53917KNEW NEW20190903044010709/03/19 04:40:31  5-MIN KNEW 031040Z AUTO 07013KT 10SM CLR 28/23 A2991 20 74 1500 070/13 RMK AO2 T02780228
53917KNEW NEW20190903044510709/03/19 04:45:31  5-MIN KNEW 031045Z AUTO 06011KT 10SM CLR 28/23 A2992 10 74 1500 060/11 RMK AO2 T02780228
53917KNEW NEW20190903045011409/03/19 04:50:31  5-MIN KNEW 031050Z AUTO 06013KT 10SM CLR 28/23 A2992 10 74 1500 060/13 RMK AO2 SLP124 T02780228
53917KNEW NEW20190903045510709/03/19 04:55:31  5-MIN KNEW 031055Z AUTO 06012KT 10SM CLR 28/22 A2992 10 71 1500 060/12 RMK AO2 T02780222
53917KNEW NEW20190903050010709/03/19 05:00:31  5-MIN KNEW 031100Z AUTO 06013KT 10SM CLR 28/23 A2992 10 74 1500 060/13 RMK AO2 T02780228
53917KNEW NEW20190903050510709/03/19 05:05:31  5-MIN KNEW 031105Z AUTO 06010KT 10SM CLR 28/23 A2992 10 74 1500 060/10 RMK AO2 T02780228
53917KNEW NEW20190903051010709/03/19 05:10:31  5-MIN KNEW 031110Z AUTO 06013KT 10SM CLR 28/23 A2992 10 74 1500 060/13 RMK AO2 T02780228
53917KNEW NEW20190903051510709/03/19 05:15:31  5-MIN KNEW 031115Z AUTO 06013KT 10SM CLR 28/23 A2992 10 74 1500 060/13 RMK AO2 T02780228
53917KNEW NEW20190903052010709/03/19 05:20:31  5-MIN KNEW 031120Z AUTO 06014KT 10SM CLR 28/23 A2992 10 74 1500 060/14 RMK AO2 T02780228
53917KNEW NEW20190903052510709/03/19 05:25:31  5-MIN KNEW 031125Z AUTO 06012KT 10SM CLR 28/23 A2993 10 74 1500 060/12 RMK AO2 T02780228
53917KNEW NEW20190903053010609/03/19 05:30:31  5-MIN KNEW 031130Z AUTO 07012KT 10SM CLR 28/23 A2993 0 74 1500 070/12 RMK AO2 T02780228
53917KNEW NEW20190903053510609/03/19 05:35:31  5-MIN KNEW 031135Z AUTO 06014KT 10SM CLR 28/23 A2993 0 74 1500 060/14 RMK AO2 T02780228
53917KNEW NEW20190903054010609/03/19 05:40:31  5-MIN KNEW 031140Z AUTO 06013KT 10SM CLR 28/23 A2994 0 74 1500 060/13 RMK AO2 T02780228
53917KNEW NEW20190903054510109/03/19 05:45:31  5-MIN KNEW 031145Z 06013KT 10SM CLR 28/23 A2994 0 74 1500 060/13 RMK AO2 T02780228
53917KNEW NEW20190903055012609/03/19 05:50:31  5-MIN KNEW 031150Z 06013KT 10SM CLR 28/23 A2994 0 74 1500 060/13 RMK AO2 SLP132 T02780228 10289 20278 55006
53917KNEW NEW20190903055510109/03/19 05:55:31  5-MIN KNEW 031155Z 06012KT 10SM CLR 28/23 A2994 0 74 1500 060/12 RMK AO2 T02780228
53917KNEW NEW20190903060010109/03/19 06:00:31  5-MIN KNEW 031200Z 06013KT 10SM CLR 28/23 A2994 0 74 1500 060/13 RMK AO2 T02780228
53917KNEW NEW20190903060510309/03/19 06:05:31  5-MIN KNEW 031205Z 06014KT 10SM CLR 28/22 A2994 -10 71 1500 060/14 RMK AO2 T02780222
53917KNEW NEW20190903061010309/03/19 06:10:31  5-MIN KNEW 031210Z 06012KT 10SM CLR 28/23 A2994 -10 74 1500 060/12 RMK AO2 T02780228
53917KNEW NEW20190903061510309/03/19 06:15:31  5-MIN KNEW 031215Z 07012KT 10SM CLR 28/23 A2995 -10 74 1500 070/12 RMK AO2 T02780228
53917KNEW NEW20190903062010309/03/19 06:20:31  5-MIN KNEW 031220Z 06012KT 10SM CLR 28/23 A2995 -10 74 1500 060/12 RMK AO2 T02780228
53917KNEW NEW20190903062510309/03/19 06:25:31  5-MIN KNEW 031225Z 06012KT 10SM CLR 28/23 A2995 -10 74 1500 060/12 RMK AO2 T02780228
53917KNEW NEW20190903063010309/03/19 06:30:31  5-MIN KNEW 031230Z 07013KT 10SM CLR 28/23 A2995 -10 74 1500 070/13 RMK AO2 T02780228
53917KNEW NEW20190903063510309/03/19 06:35:31  5-MIN KNEW 031235Z 07012KT 10SM CLR 28/23 A2995 -10 74 1500 070/12 RMK AO2 T02780228
53917KNEW NEW20190903064010309/03/19 06:40:31  5-MIN KNEW 031240Z 07012KT 10SM CLR 28/23 A2995 -10 74 1500 070/12 RMK AO2 T02780228
53917KNEW NEW20190903064510309/03/19 06:45:31  5-MIN KNEW 031245Z 06013KT 10SM CLR 28/23 A2995 -20 74 1500 060/13 RMK AO2 T02780228
53917KNEW NEW20190903065011009/03/19 06:50:31  5-MIN KNEW 031250Z 06012KT 10SM CLR 28/23 A2996 -20 74 1500 060/12 RMK AO2 SLP137 T02780228
53917KNEW NEW20190903065510309/03/19 06:55:31  5-MIN KNEW 031255Z 07012KT 10SM CLR 28/23 A2995 -20 74 1500 070/12 RMK AO2 T02780228
53917KNEW NEW20190903070010309/03/19 07:00:31  5-MIN KNEW 031300Z 06012KT 10SM CLR 28/23 A2996 -20 71 1500 060/12 RMK AO2 T02830228
53917KNEW NEW20190903070510309/03/19 07:05:31  5-MIN KNEW 031305Z 07012KT 10SM CLR 28/23 A2996 -20 74 1500 070/12 RMK AO2 T02780228
53917KNEW NEW20190903071010309/03/19 07:10:31  5-MIN KNEW 031310Z 06010KT 10SM CLR 28/23 A2996 -20 71 1500 060/10 RMK AO2 T02830228
53917KNEW NEW20190903071510309/03/19 07:15:31  5-MIN KNEW 031315Z 07012KT 10SM CLR 28/23 A2996 -20 71 1500 070/12 RMK AO2 T02830228
53917KNEW NEW20190903072010309/03/19 07:20:31  5-MIN KNEW 031320Z 06011KT 10SM CLR 28/23 A2996 -20 71 1500 060/11 RMK AO2 T02830228
53917KNEW NEW20190903072510309/03/19 07:25:31  5-MIN KNEW 031325Z 06011KT 10SM CLR 28/23 A2996 -20 71 1500 060/11 RMK AO2 T02830228
53917KNEW NEW20190903073010309/03/19 07:30:31  5-MIN KNEW 031330Z 06010KT 10SM CLR 28/23 A2996 -20 71 1500 060/10 RMK AO2 T02830228
53917KNEW NEW20190903073510309/03/19 07:35:31  5-MIN KNEW 031335Z 06011KT 10SM CLR 28/23 A2996 -20 71 1500 060/11 RMK AO2 T02830228
53917KNEW NEW20190903074010309/03/19 07:40:31  5-MIN KNEW 031340Z 06010KT 10SM CLR 28/23 A2996 -20 71 1500 060/10 RMK AO2 T02830228
53917KNEW NEW20190903074510309/03/19 07:45:31  5-MIN KNEW 031345Z 06011KT 10SM CLR 29/23 A2996 -20 69 1600 060/11 RMK AO2 T02890228
53917KNEW NEW20190903075011009/03/19 07:50:31  5-MIN KNEW 031350Z 06011KT 10SM CLR 29/23 A2996 -20 69 1600 060/11 RMK AO2 SLP139 T02890228
53917KNEW NEW20190903075510309/03/19 07:55:31  5-MIN KNEW 031355Z 06012KT 10SM CLR 29/23 A2996 -20 69 1600 060/12 RMK AO2 T02890228
53917KNEW NEW20190903080010309/03/19 08:00:31  5-MIN KNEW 031400Z 06012KT 10SM CLR 29/23 A2996 -20 69 1600 060/12 RMK AO2 T02890228
53917KNEW NEW20190903080510309/03/19 08:05:31  5-MIN KNEW 031405Z 06012KT 10SM CLR 29/23 A2996 -20 69 1600 060/12 RMK AO2 T02890228
53917KNEW NEW20190903081010309/03/19 08:10:31  5-MIN KNEW 031410Z 07011KT 10SM CLR 29/23 A2997 -30 69 1600 070/11 RMK AO2 T02890228
53917KNEW NEW20190903081510309/03/19 08:15:31  5-MIN KNEW 031415Z 06010KT 10SM CLR 29/23 A2997 -30 69 1600 060/10 RMK AO2 T02890228
53917KNEW NEW20190903082010309/03/19 08:20:31  5-MIN KNEW 031420Z 06010KT 10SM CLR 29/23 A2997 -30 67 1700 060/10 RMK AO2 T02940228
53917KNEW NEW20190903082510309/03/19 08:25:31  5-MIN KNEW 031425Z 06011KT 10SM CLR 29/23 A2997 -30 67 1700 060/11 RMK AO2 T02940228
53917KNEW NEW20190903083010309/03/19 08:30:31  5-MIN KNEW 031430Z 06011KT 10SM CLR 29/23 A2997 -30 67 1700 060/11 RMK AO2 T02940228
53917KNEW NEW20190903083510309/03/19 08:35:31  5-MIN KNEW 031435Z 06011KT 10SM CLR 29/23 A2996 -20 67 1700 060/11 RMK AO2 T02940228
53917KNEW NEW20190903084010309/03/19 08:40:31  5-MIN KNEW 031440Z 06011KT 10SM CLR 30/23 A2996 -20 65 1700 060/11 RMK AO2 T03000228
53917KNEW NEW20190903084510309/03/19 08:45:31  5-MIN KNEW 031445Z 06010KT 10SM CLR 30/23 A2996 -20 65 1700 060/10 RMK AO2 T03000228
53917KNEW NEW20190903085011609/03/19 08:50:31  5-MIN KNEW 031450Z 05011KT 10SM CLR 30/23 A2996 -30 65 1700 050/11 RMK AO2 SLP140 T03000228 53014
53917KNEW NEW20190903085510309/03/19 08:55:31  5-MIN KNEW 031455Z 05010KT 10SM CLR 30/23 A2997 -30 65 1700 050/10 RMK AO2 T03000228
53917KNEW NEW20190903090010309/03/19 09:00:31  5-MIN KNEW 031500Z 06010KT 10SM CLR 30/23 A2997 -30 65 1700 060/10 RMK AO2 T03000228
53917KNEW NEW20190903090510309/03/19 09:05:31  5-MIN KNEW 031505Z 06010KT 10SM CLR 30/23 A2997 -30 65 1700 060/10 RMK AO2 T03000228
53917KNEW NEW20190903091010309/03/19 09:10:31  5-MIN KNEW 031510Z 06010KT 10SM CLR 31/23 A2997 -30 62 1800 060/10 RMK AO2 T03060228
53917KNEW NEW20190903091510309/03/19 09:15:31  5-MIN KNEW 031515Z 06009KT 10SM CLR 31/23 A2997 -30 65 1800 060/09 RMK AO2 T03060233
53917KNEW NEW20190903092010309/03/19 09:20:31  5-MIN KNEW 031520Z 05009KT 10SM CLR 31/23 A2997 -30 62 1800 050/09 RMK AO2 T03060228
53917KNEW NEW20190903092510309/03/19 09:25:31  5-MIN KNEW 031525Z 06010KT 10SM CLR 31/23 A2997 -30 65 1800 060/10 RMK AO2 T03060233
53917KNEW NEW20190903093010309/03/19 09:30:31  5-MIN KNEW 031530Z 06009KT 10SM CLR 31/23 A2997 -30 65 1800 060/09 RMK AO2 T03060233
53917KNEW NEW20190903093510309/03/19 09:35:31  5-MIN KNEW 031535Z 06009KT 10SM CLR 31/23 A2997 -30 63 1800 060/09 RMK AO2 T03110233
53917KNEW NEW20190903094010309/03/19 09:40:31  5-MIN KNEW 031540Z 06009KT 10SM CLR 31/23 A2997 -30 63 1800 060/09 RMK AO2 T03110233
53917KNEW NEW20190903094510309/03/19 09:45:31  5-MIN KNEW 031545Z 06010KT 10SM CLR 31/23 A2997 -30 63 1800 060/10 RMK AO2 T03110233
53917KNEW NEW20190903095011009/03/19 09:50:31  5-MIN KNEW 031550Z 06010KT 10SM CLR 32/23 A2996 -30 61 1900 060/10 RMK AO2 SLP140 T03170233
53917KNEW NEW20190903095510309/03/19 09:55:31  5-MIN KNEW 031555Z 05010KT 10SM CLR 31/23 A2996 -20 63 1800 050/10 RMK AO2 T03110233
53917KNEW NEW20190903100010309/03/19 10:00:31  5-MIN KNEW 031600Z 05010KT 10SM CLR 31/23 A2996 -20 63 1800 050/10 RMK AO2 T03110233
53917KNEW NEW20190903100510309/03/19 10:05:31  5-MIN KNEW 031605Z 06010KT 10SM CLR 31/23 A2996 -20 63 1800 060/10 RMK AO2 T03110233
53917KNEW NEW20190903101010309/03/19 10:10:31  5-MIN KNEW 031610Z 06010KT 10SM CLR 32/23 A2996 -20 61 1900 060/10 RMK AO2 T03170233
53917KNEW NEW20190903101510309/03/19 10:15:31  5-MIN KNEW 031615Z 07009KT 10SM CLR 32/23 A2996 -20 61 1900 070/09 RMK AO2 T03170233
53917KNEW NEW20190903102010309/03/19 10:20:31  5-MIN KNEW 031620Z 07010KT 10SM CLR 32/23 A2996 -20 59 2000 070/10 RMK AO2 T03220233
53917KNEW NEW20190903102510309/03/19 10:25:31  5-MIN KNEW 031625Z 07008KT 10SM CLR 32/23 A2996 -20 59 2000 070/08 RMK AO2 T03220233
53917KNEW NEW20190903103010309/03/19 10:30:31  5-MIN KNEW 031630Z 07010KT 10SM CLR 32/23 A2996 -20 59 2000 070/10 RMK AO2 T03220233
53917KNEW NEW20190903103510309/03/19 10:35:31  5-MIN KNEW 031635Z 06010KT 10SM CLR 32/23 A2996 -20 59 2000 060/10 RMK AO2 T03220233
53917KNEW NEW20190903104010309/03/19 10:40:31  5-MIN KNEW 031640Z 07011KT 10SM CLR 32/23 A2996 -20 59 2000 070/11 RMK AO2 T03220233
53917KNEW NEW20190903104510309/03/19 10:45:31  5-MIN KNEW 031645Z 08011KT 10SM CLR 32/23 A2996 -20 57 2000 080/11 RMK AO2 T03220228
53917KNEW NEW20190903105011009/03/19 10:50:31  5-MIN KNEW 031650Z 07011KT 10SM CLR 33/23 A2995 -20 55 2000 070/11 RMK AO2 SLP137 T03280228
53917KNEW NEW20190903105510309/03/19 10:55:31  5-MIN KNEW 031655Z 06011KT 10SM CLR 33/23 A2995 -10 57 2000 060/11 RMK AO2 T03280233
53917KNEW NEW20190903110010309/03/19 11:00:31  5-MIN KNEW 031700Z 08013KT 10SM CLR 33/23 A2995 -10 55 2000 080/13 RMK AO2 T03280228
53917KNEW NEW20190903110510309/03/19 11:05:31  5-MIN KNEW 031705Z 08013KT 10SM CLR 33/22 A2995 -10 51 2000 080/13 RMK AO2 T03280217
53917KNEW NEW20190903111010309/03/19 11:10:31  5-MIN KNEW 031710Z 08012KT 10SM CLR 32/22 A2995 -10 55 2000 080/12 RMK AO2 T03220222
53917KNEW NEW20190903111510309/03/19 11:15:31  5-MIN KNEW 031715Z 07011KT 10SM CLR 32/22 A2995 -10 55 2000 070/11 RMK AO2 T03220222
53917KNEW NEW20190903112010309/03/19 11:20:31  5-MIN KNEW 031720Z 07010KT 10SM CLR 33/23 A2995 -10 55 2100 070/10 RMK AO2 T03280228
53917KNEW NEW20190903112510309/03/19 11:25:31  5-MIN KNEW 031725Z 06011KT 10SM CLR 33/23 A2994 -10 55 2100 060/11 RMK AO2 T03280228
53917KNEW NEW20190903113010109/03/19 11:30:31  5-MIN KNEW 031730Z 08011KT 10SM CLR 33/23 A2994 0 55 2100 080/11 RMK AO2 T03280228
53917KNEW NEW20190903113510109/03/19 11:35:31  5-MIN KNEW 031735Z 08009KT 10SM CLR 32/23 A2994 0 59 2000 080/09 RMK AO2 T03220233
53917KNEW NEW20190903114010109/03/19 11:40:31  5-MIN KNEW 031740Z 08010KT 10SM CLR 33/22 A2994 0 53 2100 080/10 RMK AO2 T03280222
53917KNEW NEW20190903114510109/03/19 11:45:31  5-MIN KNEW 031745Z 08010KT 10SM CLR 33/22 A2994 0 53 2100 080/10 RMK AO2 T03280222
53917KNEW NEW20190903115012609/03/19 11:50:31  5-MIN KNEW 031750Z 09009KT 10SM CLR 33/22 A2994 0 53 2100 090/09 RMK AO2 SLP132 T03280222 10328 20278 51009
53917KNEW NEW20190903115510109/03/19 11:55:31  5-MIN KNEW 031755Z 07011KT 10SM CLR 33/22 A2994 0 51 2100 070/11 RMK AO2 T03280217
53917KNEW NEW20190903120010109/03/19 12:00:31  5-MIN KNEW 031800Z 09010KT 10SM CLR 33/22 A2994 0 51 2100 090/10 RMK AO2 T03280217
53917KNEW NEW20190903120510109/03/19 12:05:31  5-MIN KNEW 031805Z 09011KT 10SM CLR 33/22 A2994 0 53 2100 090/11 RMK AO2 T03280222
53917KNEW NEW20190903121010109/03/19 12:10:31  5-MIN KNEW 031810Z 09012KT 10SM CLR 33/22 A2994 0 51 2100 090/12 RMK AO2 T03280217
53917KNEW NEW20190903121510109/03/19 12:15:31  5-MIN KNEW 031815Z 09011KT 10SM CLR 33/22 A2994 0 51 2100 090/11 RMK AO2 T03280217
53917KNEW NEW20190903122010109/03/19 12:20:31  5-MIN KNEW 031820Z 08011KT 10SM CLR 33/22 A2994 0 51 2100 080/11 RMK AO2 T03280217
53917KNEW NEW20190903122510109/03/19 12:25:31  5-MIN KNEW 031825Z 07011KT 10SM CLR 33/21 A2994 0 49 2100 070/11 RMK AO2 T03280211
53917KNEW NEW20190903123010109/03/19 12:30:31  5-MIN KNEW 031830Z 08012KT 10SM CLR 33/21 A2993 0 49 2100 080/12 RMK AO2 T03280211
53917KNEW NEW20190903123510109/03/19 12:35:31  5-MIN KNEW 031835Z 08013KT 10SM CLR 33/21 A2993 0 48 2100 080/13 RMK AO2 T03330211
53917KNEW NEW20190903124010109/03/19 12:40:31  5-MIN KNEW 031840Z 09011KT 10SM CLR 33/21 A2993 0 46 2100 090/11 RMK AO2 T03330206
53917KNEW NEW20190903124510109/03/19 12:45:31  5-MIN KNEW 031845Z 09011KT 10SM CLR 33/21 A2993 0 46 2100 090/11 RMK AO2 T03330206
53917KNEW NEW20190903125010809/03/19 12:50:31  5-MIN KNEW 031850Z 08011KT 10SM CLR 33/21 A2993 0 46 2100 080/11 RMK AO2 SLP129 T03330206
53917KNEW NEW20190903125510109/03/19 12:55:31  5-MIN KNEW 031855Z 08013KT 10SM CLR 33/20 A2993 0 45 2100 080/13 RMK AO2 T03330200
53917KNEW NEW20190903130010109/03/19 13:00:31  5-MIN KNEW 031900Z 08011KT 10SM CLR 33/20 A2993 0 45 2100 080/11 RMK AO2 T03330200
53917KNEW NEW20190903130510109/03/19 13:05:31  5-MIN KNEW 031905Z 08014KT 10SM CLR 33/20 A2993 0 45 2100 080/14 RMK AO2 T03330200
53917KNEW NEW20190903131010209/03/19 13:10:31  5-MIN KNEW 031910Z 09010KT 10SM CLR 33/21 A2993 10 46 2100 090/10 RMK AO2 T03330206
53917KNEW NEW20190903131510209/03/19 13:15:31  5-MIN KNEW 031915Z 08010KT 10SM CLR 33/21 A2992 10 46 2100 080/10 RMK AO2 T03330206
53917KNEW NEW20190903132010209/03/19 13:20:31  5-MIN KNEW 031920Z 08011KT 10SM CLR 33/20 A2992 10 45 2100 080/11 RMK AO2 T03330200
53917KNEW NEW20190903132510209/03/19 13:25:31  5-MIN KNEW 031925Z 08011KT 10SM CLR 33/21 A2992 10 48 2100 080/11 RMK AO2 T03330211
53917KNEW NEW20190903133010209/03/19 13:30:31  5-MIN KNEW 031930Z 09010KT 10SM CLR 33/21 A2992 10 48 2100 090/10 RMK AO2 T03330211
53917KNEW NEW20190903133510209/03/19 13:35:31  5-MIN KNEW 031935Z 10012KT 10SM CLR 33/21 A2992 20 48 2100 100/12 RMK AO2 T03330211
53917KNEW NEW20190903134010209/03/19 13:40:31  5-MIN KNEW 031940Z 09012KT 10SM CLR 33/21 A2991 20 49 2100 090/12 RMK AO2 T03280211
53917KNEW NEW20190903134510209/03/19 13:45:31  5-MIN KNEW 031945Z 10011KT 10SM CLR 33/21 A2991 20 49 2100 100/11 RMK AO2 T03280211
53917KNEW NEW20190903135010909/03/19 13:50:31  5-MIN KNEW 031950Z 10011KT 10SM CLR 33/22 A2991 20 50 2200 100/11 RMK AO2 SLP123 T03330217
53917KNEW NEW20190903135510209/03/19 13:55:31  5-MIN KNEW 031955Z 09009KT 10SM CLR 33/22 A2991 20 51 2100 090/09 RMK AO2 T03280217
53917KNEW NEW20190903140010209/03/19 14:00:31  5-MIN KNEW 032000Z 10012KT 10SM CLR 33/21 A2991 20 49 2100 100/12 RMK AO2 T03280211
53917KNEW NEW20190903140510209/03/19 14:05:31  5-MIN KNEW 032005Z 10010KT 10SM CLR 33/22 A2991 20 50 2200 100/10 RMK AO2 T03330217
53917KNEW NEW20190903141010209/03/19 14:10:31  5-MIN KNEW 032010Z 10008KT 10SM CLR 33/22 A2990 30 50 2200 100/08 RMK AO2 T03330217
53917KNEW NEW20190903141510209/03/19 14:15:31  5-MIN KNEW 032015Z 11009KT 10SM CLR 33/22 A2991 20 51 2100 110/09 RMK AO2 T03280217
53917KNEW NEW20190903142010209/03/19 14:20:31  5-MIN KNEW 032020Z 12009KT 10SM CLR 33/22 A2990 30 50 2200 120/09 RMK AO2 T03330217
53917KNEW NEW20190903142510209/03/19 14:25:31  5-MIN KNEW 032025Z 12010KT 10SM CLR 33/22 A2990 30 50 2200 120/10 RMK AO2 T03330217
53917KNEW NEW20190903143010209/03/19 14:30:31  5-MIN KNEW 032030Z 10009KT 10SM CLR 33/22 A2990 30 50 2200 100/09 RMK AO2 T03330217
53917KNEW NEW20190903143510209/03/19 14:35:31  5-MIN KNEW 032035Z 11008KT 10SM CLR 33/22 A2990 30 50 2200 110/08 RMK AO2 T03330217
53917KNEW NEW20190903144010209/03/19 14:40:31  5-MIN KNEW 032040Z 12008KT 10SM CLR 33/22 A2990 30 51 2100 120/08 RMK AO2 T03280217
53917KNEW NEW20190903144510709/03/19 14:45:31  5-MIN KNEW 032045Z AUTO 10010KT 10SM CLR 33/22 A2990 30 51 2200 100/10 RMK AO2 T03330222
53917KNEW NEW20190903145012009/03/19 14:50:31  5-MIN KNEW 032050Z AUTO 11009KT 10SM CLR 33/22 A2990 30 51 2100 110/09 RMK AO2 SLP118 T03280217 58008
53917KNEW NEW20190903145510709/03/19 14:55:31  5-MIN KNEW 032055Z AUTO 10010KT 10SM CLR 33/22 A2990 30 51 2100 100/10 RMK AO2 T03280217
53917KNEW NEW20190903150010709/03/19 15:00:31  5-MIN KNEW 032100Z AUTO 09008KT 10SM CLR 33/22 A2990 30 51 2100 090/08 RMK AO2 T03280217
53917KNEW NEW20190903150510709/03/19 15:05:31  5-MIN KNEW 032105Z AUTO 10008KT 10SM CLR 33/21 A2990 30 49 2100 100/08 RMK AO2 T03280211
53917KNEW NEW20190903151010709/03/19 15:10:31  5-MIN KNEW 032110Z AUTO 12009KT 10SM CLR 33/22 A2990 30 51 2100 120/09 RMK AO2 T03280217
53917KNEW NEW20190903151510709/03/19 15:15:31  5-MIN KNEW 032115Z AUTO 09008KT 10SM CLR 33/22 A2990 30 51 2100 090/08 RMK AO2 T03280217
53917KNEW NEW20190903152010709/03/19 15:20:31  5-MIN KNEW 032120Z AUTO 11010KT 10SM CLR 33/22 A2990 30 51 2100 110/10 RMK AO2 T03280217
53917KNEW NEW20190903152510709/03/19 15:25:31  5-MIN KNEW 032125Z AUTO 11008KT 10SM CLR 33/22 A2990 30 51 2100 110/08 RMK AO2 T03280217
53917KNEW NEW20190903153010709/03/19 15:30:31  5-MIN KNEW 032130Z AUTO 09007KT 10SM CLR 33/22 A2990 30 50 2200 090/07 RMK AO2 T03330217
53917KNEW NEW20190903153510709/03/19 15:35:31  5-MIN KNEW 032135Z AUTO 10008KT 10SM CLR 33/22 A2990 30 50 2200 100/08 RMK AO2 T03330217
53917KNEW NEW20190903154010709/03/19 15:40:31  5-MIN KNEW 032140Z AUTO 12008KT 10SM CLR 33/22 A2990 30 50 2200 120/08 RMK AO2 T03330217
53917KNEW NEW20190903154510709/03/19 15:45:31  5-MIN KNEW 032145Z AUTO 12007KT 10SM CLR 33/22 A2990 30 51 2100 120/07 RMK AO2 T03280217
53917KNEW NEW20190903155011409/03/19 15:50:31  5-MIN KNEW 032150Z AUTO 11005KT 10SM CLR 33/21 A2990 30 48 2200 110/05 RMK AO2 SLP120 T03330211
53917KNEW NEW20190903155510709/03/19 15:55:31  5-MIN KNEW 032155Z AUTO 12006KT 10SM CLR 33/22 A2990 30 50 2200 120/06 RMK AO2 T03330217
53917KNEW NEW20190903160010709/03/19 16:00:31  5-MIN KNEW 032200Z AUTO 13008KT 10SM CLR 33/22 A2990 30 51 2100 130/08 RMK AO2 T03280217
53917KNEW NEW20190903160510709/03/19 16:05:31  5-MIN KNEW 032205Z AUTO 12007KT 10SM CLR 33/21 A2990 30 49 2100 120/07 RMK AO2 T03280211
53917KNEW NEW20190903161010709/03/19 16:10:31  5-MIN KNEW 032210Z AUTO 13007KT 10SM CLR 33/22 A2990 30 51 2100 130/07 RMK AO2 T03280217
53917KNEW NEW20190903161510709/03/19 16:15:31  5-MIN KNEW 032215Z AUTO 11008KT 10SM CLR 33/22 A2990 30 51 2100 110/08 RMK AO2 T03280217
53917KNEW NEW20190903162010709/03/19 16:20:31  5-MIN KNEW 032220Z AUTO 12006KT 10SM CLR 33/21 A2990 30 49 2100 120/06 RMK AO2 T03280211
53917KNEW NEW20190903162510709/03/19 16:25:31  5-MIN KNEW 032225Z AUTO 13006KT 10SM CLR 33/22 A2990 30 51 2100 130/06 RMK AO2 T03280217
53917KNEW NEW20190903163010709/03/19 16:30:31  5-MIN KNEW 032230Z AUTO 11007KT 10SM CLR 33/21 A2990 30 49 2100 110/07 RMK AO2 T03280211
53917KNEW NEW20190903163510709/03/19 16:35:31  5-MIN KNEW 032235Z AUTO 11005KT 10SM CLR 33/21 A2990 30 49 2100 110/05 RMK AO2 T03280211
53917KNEW NEW20190903164010709/03/19 16:40:31  5-MIN KNEW 032240Z AUTO 12006KT 10SM CLR 33/21 A2990 30 49 2100 120/06 RMK AO2 T03280211
53917KNEW NEW20190903164510709/03/19 16:45:31  5-MIN KNEW 032245Z AUTO 12006KT 10SM CLR 33/21 A2991 20 49 2100 120/06 RMK AO2 T03280211
53917KNEW NEW20190903165011409/03/19 16:50:31  5-MIN KNEW 032250Z AUTO 12005KT 10SM CLR 33/21 A2991 20 49 2100 120/05 RMK AO2 SLP121 T03280211
53917KNEW NEW20190903165510709/03/19 16:55:31  5-MIN KNEW 032255Z AUTO 13005KT 10SM CLR 33/21 A2991 20 49 2100 130/05 RMK AO2 T03280211
53917KNEW NEW20190903170010709/03/19 17:00:31  5-MIN KNEW 032300Z AUTO 12005KT 10SM CLR 33/21 A2991 20 49 2100 120/05 RMK AO2 T03280211
53917KNEW NEW20190903170510709/03/19 17:05:31  5-MIN KNEW 032305Z AUTO 12005KT 10SM CLR 33/21 A2991 20 49 2100 120/05 RMK AO2 T03280211
53917KNEW NEW20190903171010709/03/19 17:10:31  5-MIN KNEW 032310Z AUTO 13005KT 10SM CLR 33/21 A2990 30 48 2100 130/05 RMK AO2 T03280206
53917KNEW NEW20190903171510709/03/19 17:15:31  5-MIN KNEW 032315Z AUTO 11006KT 10SM CLR 33/21 A2990 30 49 2100 110/06 RMK AO2 T03280211
53917KNEW NEW20190903172010709/03/19 17:20:31  5-MIN KNEW 032320Z AUTO 13006KT 10SM CLR 32/21 A2991 20 51 2000 130/06 RMK AO2 T03220211
53917KNEW NEW20190903172510709/03/19 17:25:31  5-MIN KNEW 032325Z AUTO 12005KT 10SM CLR 32/21 A2991 20 49 2000 120/05 RMK AO2 T03220206
53917KNEW NEW20190903173010709/03/19 17:30:31  5-MIN KNEW 032330Z AUTO 11006KT 10SM CLR 32/21 A2991 20 49 2000 110/06 RMK AO2 T03220206
53917KNEW NEW20190903173510709/03/19 17:35:31  5-MIN KNEW 032335Z AUTO 12003KT 10SM CLR 32/21 A2991 20 51 2000 120/03 RMK AO2 T03220211
53917KNEW NEW20190903174010709/03/19 17:40:31  5-MIN KNEW 032340Z AUTO 12005KT 10SM CLR 32/22 A2992 20 53 2000 120/05 RMK AO2 T03220217
53917KNEW NEW20190903174510709/03/19 17:45:31  5-MIN KNEW 032345Z AUTO 12004KT 10SM CLR 32/21 A2991 20 53 2000 120/04 RMK AO2 T03170211
53917KNEW NEW20190903175013209/03/19 17:50:31  5-MIN KNEW 032350Z AUTO 11004KT 10SM CLR 32/21 A2991 20 53 2000 110/04 RMK AO2 SLP123 T03170211 10333 20317 58015
53917KNEW NEW20190903175510709/03/19 17:55:31  5-MIN KNEW 032355Z AUTO 12003KT 10SM CLR 32/21 A2991 20 53 2000 120/03 RMK AO2 T03170211
53917KNEW NEW20190903180010709/03/19 18:00:31  5-MIN KNEW 040000Z AUTO 12005KT 10SM CLR 32/21 A2991 20 53 2000 120/05 RMK AO2 T03170211
53917KNEW NEW20190903180510709/03/19 18:05:31  5-MIN KNEW 040005Z AUTO 11004KT 10SM CLR 32/21 A2991 20 51 2000 110/04 RMK AO2 T03170206
53917KNEW NEW20190903181010709/03/19 18:10:31  5-MIN KNEW 040010Z AUTO 12003KT 10SM CLR 32/21 A2991 20 53 2000 120/03 RMK AO2 T03170211
53917KNEW NEW20190903181510709/03/19 18:15:31  5-MIN KNEW 040015Z AUTO 13004KT 10SM CLR 32/22 A2992 20 55 2000 130/04 RMK AO2 T03170217
53917KNEW NEW20190903182010709/03/19 18:20:31  5-MIN KNEW 040020Z AUTO 13003KT 10SM CLR 32/21 A2992 10 53 2000 130/03 RMK AO2 T03170211
53917KNEW NEW20190903182510709/03/19 18:25:31  5-MIN KNEW 040025Z AUTO 12003KT 10SM CLR 32/21 A2992 10 53 2000 120/03 RMK AO2 T03170211
53917KNEW NEW20190903183010709/03/19 18:30:31  5-MIN KNEW 040030Z AUTO 13003KT 10SM CLR 32/21 A2992 10 53 2000 130/03 RMK AO2 T03170211
53917KNEW NEW20190903183510709/03/19 18:35:31  5-MIN KNEW 040035Z AUTO 13003KT 10SM CLR 31/21 A2992 10 54 1900 130/03 RMK AO2 T03110211
53917KNEW NEW20190903184010709/03/19 18:40:31  5-MIN KNEW 040040Z AUTO 12003KT 10SM CLR 31/21 A2992 10 54 1900 120/03 RMK AO2 T03110211
53917KNEW NEW20190903184510709/03/19 18:45:31  5-MIN KNEW 040045Z AUTO 13003KT 10SM CLR 31/22 A2992 10 56 1900 130/03 RMK AO2 T03110217
53917KNEW NEW20190903185011409/03/19 18:50:31  5-MIN KNEW 040050Z AUTO 12003KT 10SM CLR 31/22 A2992 10 56 1900 120/03 RMK AO2 SLP126 T03110217
53917KNEW NEW20190903185510709/03/19 18:55:31  5-MIN KNEW 040055Z AUTO 13003KT 10SM CLR 31/22 A2992 10 56 1900 130/03 RMK AO2 T03110217
53917KNEW NEW20190903190010709/03/19 19:00:31  5-MIN KNEW 040100Z AUTO 13003KT 10SM CLR 31/22 A2992 10 56 1900 130/03 RMK AO2 T03110217
53917KNEW NEW20190903190510709/03/19 19:05:31  5-MIN KNEW 040105Z AUTO 13003KT 10SM CLR 31/22 A2992 10 56 1900 130/03 RMK AO2 T03110217
53917KNEW NEW20190903191010709/03/19 19:10:31  5-MIN KNEW 040110Z AUTO 11003KT 10SM CLR 31/22 A2992 10 56 1900 110/03 RMK AO2 T03110217
53917KNEW NEW20190903191510709/03/19 19:15:31  5-MIN KNEW 040115Z AUTO 00000KT 10SM CLR 31/22 A2993 10 56 1900 000/00 RMK AO2 T03110217
53917KNEW NEW20190903192010609/03/19 19:20:31  5-MIN KNEW 040120Z AUTO 00000KT 10SM CLR 31/22 A2993 0 58 1900 000/00 RMK AO2 T03110222
53917KNEW NEW20190903192510609/03/19 19:25:31  5-MIN KNEW 040125Z AUTO 00000KT 10SM CLR 31/23 A2993 0 62 1800 000/00 RMK AO2 T03060228
53917KNEW NEW20190903193010609/03/19 19:30:31  5-MIN KNEW 040130Z AUTO 00000KT 10SM CLR 31/23 A2993 0 62 1800 000/00 RMK AO2 T03060228
53917KNEW NEW20190903193510609/03/19 19:35:31  5-MIN KNEW 040135Z AUTO 00000KT 10SM CLR 31/23 A2993 0 60 1900 000/00 RMK AO2 T03110228
53917KNEW NEW20190903194010609/03/19 19:40:31  5-MIN KNEW 040140Z AUTO 00000KT 10SM CLR 31/23 A2993 0 60 1900 000/00 RMK AO2 T03110228
53917KNEW NEW20190903194510609/03/19 19:45:31  5-MIN KNEW 040145Z AUTO 00000KT 10SM CLR 31/23 A2993 0 60 1900 000/00 RMK AO2 T03110228
53917KNEW NEW20190903195011309/03/19 19:50:31  5-MIN KNEW 040150Z AUTO 00000KT 10SM CLR 31/23 A2993 0 60 1900 000/00 RMK AO2 SLP128 T03110228
53917KNEW NEW20190903195510609/03/19 19:55:31  5-MIN KNEW 040155Z AUTO 07003KT 10SM CLR 31/23 A2993 0 60 1900 070/03 RMK AO2 T03110228
53917KNEW NEW20190903200010609/03/19 20:00:31  5-MIN KNEW 040200Z AUTO 00000KT 10SM CLR 31/23 A2993 0 65 1800 000/00 RMK AO2 T03060233
53917KNEW NEW20190903200510609/03/19 20:05:31  5-MIN KNEW 040205Z AUTO 00000KT 10SM CLR 31/23 A2993 0 63 1900 000/00 RMK AO2 T03110233
53917KNEW NEW20190903201010609/03/19 20:10:31  5-MIN KNEW 040210Z AUTO 05003KT 10SM CLR 31/23 A2994 0 60 1900 050/03 RMK AO2 T03110228
53917KNEW NEW20190903201510609/03/19 20:15:31  5-MIN KNEW 040215Z AUTO 04003KT 10SM CLR 31/23 A2994 0 65 1800 040/03 RMK AO2 T03060233
53917KNEW NEW20190903202010609/03/19 20:20:31  5-MIN KNEW 040220Z AUTO 05004KT 10SM CLR 31/24 A2993 0 67 1800 050/04 RMK AO2 T03060239
53917KNEW NEW20190903202510609/03/19 20:25:31  5-MIN KNEW 040225Z AUTO 05004KT 10SM CLR 31/24 A2994 0 67 1800 050/04 RMK AO2 T03060239
53917KNEW NEW20190903203010609/03/19 20:30:31  5-MIN KNEW 040230Z AUTO 05004KT 10SM CLR 31/24 A2994 0 67 1800 050/04 RMK AO2 T03060239
53917KNEW NEW20190903203510609/03/19 20:35:31  5-MIN KNEW 040235Z AUTO 05004KT 10SM CLR 31/24 A2993 0 67 1800 050/04 RMK AO2 T03060239
53917KNEW NEW20190903204010609/03/19 20:40:31  5-MIN KNEW 040240Z AUTO 05004KT 10SM CLR 31/24 A2993 0 67 1800 050/04 RMK AO2 T03060239
53917KNEW NEW20190903204510609/03/19 20:45:31  5-MIN KNEW 040245Z AUTO 05004KT 10SM CLR 31/24 A2993 0 67 1800 050/04 RMK AO2 T03060239
53917KNEW NEW20190903205011909/03/19 20:50:31  5-MIN KNEW 040250Z AUTO 06005KT 10SM CLR 31/23 A2993 0 65 1800 060/05 RMK AO2 SLP130 T03060233 51004
53917KNEW NEW20190903205510609/03/19 20:55:31  5-MIN KNEW 040255Z AUTO 06004KT 10SM CLR 31/23 A2994 0 65 1800 060/04 RMK AO2 T03060233
53917KNEW NEW20190903210010609/03/19 21:00:31  5-MIN KNEW 040300Z AUTO 05004KT 10SM CLR 31/24 A2994 0 67 1800 050/04 RMK AO2 T03060239
53917KNEW NEW20190903210510609/03/19 21:05:31  5-MIN KNEW 040305Z AUTO 06004KT 10SM CLR 31/23 A2994 0 65 1800 060/04 RMK AO2 T03060233
53917KNEW NEW20190903211010609/03/19 21:10:31  5-MIN KNEW 040310Z AUTO 06004KT 10SM CLR 31/23 A2994 0 65 1800 060/04 RMK AO2 T03060233
53917KNEW NEW20190903211510609/03/19 21:15:31  5-MIN KNEW 040315Z AUTO 06005KT 10SM CLR 31/23 A2994 0 65 1800 060/05 RMK AO2 T03060233
53917KNEW NEW20190903212010609/03/19 21:20:31  5-MIN KNEW 040320Z AUTO 06005KT 10SM CLR 30/24 A2994 0 69 1800 060/05 RMK AO2 T03000239
53917KNEW NEW20190903212510609/03/19 21:25:31  5-MIN KNEW 040325Z AUTO 06004KT 10SM CLR 31/24 A2994 0 67 1800 060/04 RMK AO2 T03060239
53917KNEW NEW20190903213010609/03/19 21:30:31  5-MIN KNEW 040330Z AUTO 06005KT 10SM CLR 31/24 A2994 0 67 1800 060/05 RMK AO2 T03060239
53917KNEW NEW20190903213510609/03/19 21:35:31  5-MIN KNEW 040335Z AUTO 06005KT 10SM CLR 30/24 A2994 0 69 1800 060/05 RMK AO2 T03000239
53917KNEW NEW20190903214010609/03/19 21:40:31  5-MIN KNEW 040340Z AUTO 06005KT 10SM CLR 30/24 A2994 0 69 1800 060/05 RMK AO2 T03000239
53917KNEW NEW20190903214510609/03/19 21:45:31  5-MIN KNEW 040345Z AUTO 06005KT 10SM CLR 30/24 A2994 0 69 1800 060/05 RMK AO2 T03000239
53917KNEW NEW20190903215011309/03/19 21:50:31  5-MIN KNEW 040350Z AUTO 06005KT 10SM CLR 30/24 A2994 0 69 1800 060/05 RMK AO2 SLP132 T03000239
53917KNEW NEW20190903215510609/03/19 21:55:31  5-MIN KNEW 040355Z AUTO 06007KT 10SM CLR 30/24 A2994 0 69 1800 060/07 RMK AO2 T03000239
53917KNEW NEW20190903220010609/03/19 22:00:31  5-MIN KNEW 040400Z AUTO 06006KT 10SM CLR 31/24 A2994 0 67 1800 060/06 RMK AO2 T03060239
53917KNEW NEW20190903220510609/03/19 22:05:31  5-MIN KNEW 040405Z AUTO 06006KT 10SM CLR 30/23 A2994 0 67 1800 060/06 RMK AO2 T03000233
53917KNEW NEW20190903221010609/03/19 22:10:31  5-MIN KNEW 040410Z AUTO 06006KT 10SM CLR 30/24 A2994 0 69 1800 060/06 RMK AO2 T03000239
53917KNEW NEW20190903221510609/03/19 22:15:31  5-MIN KNEW 040415Z AUTO 06006KT 10SM CLR 30/23 A2994 0 67 1800 060/06 RMK AO2 T03000233
53917KNEW NEW20190903222010609/03/19 22:20:31  5-MIN KNEW 040420Z AUTO 06006KT 10SM CLR 30/24 A2994 0 69 1700 060/06 RMK AO2 T03000239
53917KNEW NEW20190903222510809/03/19 22:25:31  5-MIN KNEW 040425Z AUTO 07005KT 10SM CLR 30/23 A2994 -10 67 1700 070/05 RMK AO2 T03000233
53917KNEW NEW20190903223010609/03/19 22:30:31  5-MIN KNEW 040430Z AUTO 06004KT 10SM CLR 30/24 A2994 0 69 1800 060/04 RMK AO2 T03000239
53917KNEW NEW20190903223510609/03/19 22:35:31  5-MIN KNEW 040435Z AUTO 06005KT 10SM CLR 30/24 A2994 0 69 1800 060/05 RMK AO2 T03000239
53917KNEW NEW20190903224010609/03/19 22:40:31  5-MIN KNEW 040440Z AUTO 06005KT 10SM CLR 30/24 A2994 0 69 1800 060/05 RMK AO2 T03000239
53917KNEW NEW20190903224510609/03/19 22:45:31  5-MIN KNEW 040445Z AUTO 06004KT 10SM CLR 30/24 A2994 0 69 1800 060/04 RMK AO2 T03000239
53917KNEW NEW20190903225011309/03/19 22:50:31  5-MIN KNEW 040450Z AUTO 06004KT 10SM CLR 30/24 A2994 0 72 1800 060/04 RMK AO2 SLP132 T03000244
53917KNEW NEW20190903225510609/03/19 22:55:31  5-MIN KNEW 040455Z AUTO 06004KT 10SM CLR 30/24 A2994 0 72 1800 060/04 RMK AO2 T03000244
53917KNEW NEW20190903230010609/03/19 23:00:31  5-MIN KNEW 040500Z AUTO 06003KT 10SM CLR 30/24 A2994 0 69 1800 060/03 RMK AO2 T03000239
53917KNEW NEW20190903230510609/03/19 23:05:31  5-MIN KNEW 040505Z AUTO 06004KT 10SM CLR 30/24 A2994 0 69 1800 060/04 RMK AO2 T03000239
53917KNEW NEW20190903231010609/03/19 23:10:31  5-MIN KNEW 040510Z AUTO 05004KT 10SM CLR 30/24 A2994 0 72 1800 050/04 RMK AO2 T03000244
53917KNEW NEW20190903231510609/03/19 23:15:31  5-MIN KNEW 040515Z AUTO 05004KT 10SM CLR 30/24 A2994 0 72 1800 050/04 RMK AO2 T03000244
53917KNEW NEW20190903232010609/03/19 23:20:31  5-MIN KNEW 040520Z AUTO 04005KT 10SM CLR 30/24 A2993 0 69 1800 040/05 RMK AO2 T03000239
53917KNEW NEW20190903232510609/03/19 23:25:31  5-MIN KNEW 040525Z AUTO 04004KT 10SM CLR 30/24 A2993 0 72 1800 040/04 RMK AO2 T03000244
53917KNEW NEW20190903233010609/03/19 23:30:31  5-MIN KNEW 040530Z AUTO 05004KT 10SM CLR 30/24 A2993 0 72 1800 050/04 RMK AO2 T03000244
53917KNEW NEW20190903233510609/03/19 23:35:31  5-MIN KNEW 040535Z AUTO 04004KT 10SM CLR 30/24 A2993 0 69 1800 040/04 RMK AO2 T03000239
53917KNEW NEW20190903234010609/03/19 23:40:31  5-MIN KNEW 040540Z AUTO 04004KT 10SM CLR 30/24 A2993 0 72 1800 040/04 RMK AO2 T03000244
53917KNEW NEW20190903234510609/03/19 23:45:31  5-MIN KNEW 040545Z AUTO 04004KT 10SM CLR 30/24 A2993 0 72 1800 040/04 RMK AO2 T03000244
53917KNEW NEW20190903235014109/03/19 23:50:31  5-MIN KNEW 040550Z AUTO 03004KT 10SM CLR 30/24 A2993 0 69 1800 030/04 RMK AO2 SLP128 T03000239 10317 20294 403330278 51008
53917KNEW NEW20190903235510609/03/19 23:55:31  5-MIN KNEW 040555Z AUTO 02004KT 10SM CLR 30/24 A2993 0 72 1800 020/04 RMK AO2 T03000244
53917KNEW NEW20190904000010609/04/19 00:00:31  5-MIN KNEW 040600Z AUTO 03004KT 10SM CLR 30/24 A2993 0 72 1800 030/04 RMK AO2 T03000244
53917KNEW NEW20190904000510609/04/19 00:05:31  5-MIN KNEW 040605Z AUTO 03004KT 10SM CLR 29/25 A2993 0 76 1700 030/04 RMK AO2 T02940250
53917KNEW NEW20190904001010609/04/19 00:10:31  5-MIN KNEW 040610Z AUTO 03004KT 10SM CLR 29/24 A2993 0 74 1700 030/04 RMK AO2 T02940244
53917KNEW NEW20190904001510609/04/19 00:15:31  5-MIN KNEW 040615Z AUTO 02004KT 10SM CLR 29/24 A2993 0 74 1700 020/04 RMK AO2 T02940244
53917KNEW NEW20190904002010609/04/19 00:20:31  5-MIN KNEW 040620Z AUTO 03004KT 10SM CLR 29/24 A2993 0 74 1700 030/04 RMK AO2 T02940244
53917KNEW NEW20190904002510609/04/19 00:25:31  5-MIN KNEW 040625Z AUTO 02005KT 10SM CLR 29/24 A2993 0 71 1700 020/05 RMK AO2 T02940239
53917KNEW NEW20190904003010609/04/19 00:30:31  5-MIN KNEW 040630Z AUTO 02005KT 10SM CLR 29/24 A2993 0 71 1700 020/05 RMK AO2 T02940239
53917KNEW NEW20190904003510609/04/19 00:35:31  5-MIN KNEW 040635Z AUTO 02005KT 10SM CLR 29/24 A2993 0 71 1700 020/05 RMK AO2 T02940239
53917KNEW NEW20190904004010609/04/19 00:40:31  5-MIN KNEW 040640Z AUTO 01005KT 10SM CLR 29/24 A2994 0 71 1700 010/05 RMK AO2 T02940239
53917KNEW NEW20190904004510609/04/19 00:45:31  5-MIN KNEW 040645Z AUTO 36005KT 10SM CLR 29/24 A2993 0 74 1600 360/05 RMK AO2 T02890239
53917KNEW NEW20190904005011309/04/19 00:50:31  5-MIN KNEW 040650Z AUTO 01005KT 10SM CLR 29/24 A2993 0 76 1600 010/05 RMK AO2 SLP130 T02890244
53917KNEW NEW20190904005510609/04/19 00:55:31  5-MIN KNEW 040655Z AUTO 36005KT 10SM CLR 29/24 A2993 0 76 1600 360/05 RMK AO2 T02890244
53917KNEW NEW20190904010010609/04/19 01:00:31  5-MIN KNEW 040700Z AUTO 01005KT 10SM CLR 29/24 A2993 0 74 1600 010/05 RMK AO2 T02890239
53917KNEW NEW20190904010510609/04/19 01:05:31  5-MIN KNEW 040705Z AUTO 01005KT 10SM CLR 29/24 A2993 0 76 1600 010/05 RMK AO2 T02890244
53917KNEW NEW20190904011010709/04/19 01:10:31  5-MIN KNEW 040710Z AUTO 01006KT 10SM CLR 29/24 A2993 10 76 1600 010/06 RMK AO2 T02890244
53917KNEW NEW20190904011510709/04/19 01:15:31  5-MIN KNEW 040715Z AUTO 01007KT 10SM CLR 29/24 A2993 10 76 1600 010/07 RMK AO2 T02890244
53917KNEW NEW20190904012010609/04/19 01:20:31  5-MIN KNEW 040720Z AUTO 35006KT 10SM CLR 29/24 A2993 0 76 1600 350/06 RMK AO2 T02890244
53917KNEW NEW20190904012510609/04/19 01:25:31  5-MIN KNEW 040725Z AUTO 36006KT 10SM CLR 28/24 A2993 0 79 1600 360/06 RMK AO2 T02830244
53917KNEW NEW20190904013010709/04/19 01:30:31  5-MIN KNEW 040730Z AUTO 36007KT 10SM CLR 29/24 A2993 10 76 1600 360/07 RMK AO2 T02890244
53917KNEW NEW20190904013510709/04/19 01:35:31  5-MIN KNEW 040735Z AUTO 36005KT 10SM CLR 29/24 A2993 10 76 1600 360/05 RMK AO2 T02890244
53917KNEW NEW20190904014010709/04/19 01:40:31  5-MIN KNEW 040740Z AUTO 01005KT 10SM CLR 29/24 A2993 10 76 1600 010/05 RMK AO2 T02890244
53917KNEW NEW20190904014510709/04/19 01:45:31  5-MIN KNEW 040745Z AUTO 36005KT 10SM CLR 29/24 A2993 10 76 1600 360/05 RMK AO2 T02890244
53917KNEW NEW20190904015011409/04/19 01:50:31  5-MIN KNEW 040750Z AUTO 01005KT 10SM CLR 29/24 A2993 10 76 1600 010/05 RMK AO2 SLP127 T02890244
53917KNEW NEW20190904015510709/04/19 01:55:31  5-MIN KNEW 040755Z AUTO 02005KT 10SM CLR 29/24 A2993 10 74 1600 020/05 RMK AO2 T02890239
53917KNEW NEW20190904020010709/04/19 02:00:31  5-MIN KNEW 040800Z AUTO 01004KT 10SM CLR 29/24 A2993 10 74 1600 010/04 RMK AO2 T02890239
53917KNEW NEW20190904020510709/04/19 02:05:31  5-MIN KNEW 040805Z AUTO 02004KT 10SM CLR 29/24 A2993 10 74 1600 020/04 RMK AO2 T02890239
53917KNEW NEW20190904021010709/04/19 02:10:31  5-MIN KNEW 040810Z AUTO 02005KT 10SM CLR 29/24 A2993 10 71 1700 020/05 RMK AO2 T02940239
53917KNEW NEW20190904021510709/04/19 02:15:31  5-MIN KNEW 040815Z AUTO 03005KT 10SM CLR 29/24 A2993 10 71 1700 030/05 RMK AO2 T02940239
53917KNEW NEW20190904022010709/04/19 02:20:31  5-MIN KNEW 040820Z AUTO 03005KT 10SM CLR 29/24 A2993 10 71 1700 030/05 RMK AO2 T02940239
53917KNEW NEW20190904022510709/04/19 02:25:31  5-MIN KNEW 040825Z AUTO 03005KT 10SM CLR 29/24 A2993 10 71 1700 030/05 RMK AO2 T02940239
53917KNEW NEW20190904023010709/04/19 02:30:31  5-MIN KNEW 040830Z AUTO 02005KT 10SM CLR 29/24 A2993 10 74 1600 020/05 RMK AO2 T02890239
53917KNEW NEW20190904023510609/04/19 02:35:31  5-MIN KNEW 040835Z AUTO 02006KT 10SM CLR 29/24 A2993 0 74 1600 020/06 RMK AO2 T02890239
53917KNEW NEW20190904024010609/04/19 02:40:31  5-MIN KNEW 040840Z AUTO 03006KT 10SM CLR 29/24 A2993 0 71 1700 030/06 RMK AO2 T02940239
53917KNEW NEW20190904024510609/04/19 02:45:31  5-MIN KNEW 040845Z AUTO 03006KT 10SM CLR 29/24 A2993 0 74 1600 030/06 RMK AO2 T02890239
53917KNEW NEW20190904025011909/04/19 02:50:31  5-MIN KNEW 040850Z AUTO 03006KT 10SM CLR 29/24 A2993 0 74 1600 030/06 RMK AO2 SLP129 T02890239 58001
53917KNEW NEW20190904025510609/04/19 02:55:31  5-MIN KNEW 040855Z AUTO 03005KT 10SM CLR 29/24 A2993 0 74 1600 030/05 RMK AO2 T02890239
53917KNEW NEW20190904030010609/04/19 03:00:31  5-MIN KNEW 040900Z AUTO 03005KT 10SM CLR 29/24 A2993 0 74 1600 030/05 RMK AO2 T02890239
53917KNEW NEW20190904030510609/04/19 03:05:31  5-MIN KNEW 040905Z AUTO 04006KT 10SM CLR 29/24 A2993 0 74 1600 040/06 RMK AO2 T02890239
53917KNEW NEW20190904031010609/04/19 03:10:31  5-MIN KNEW 040910Z AUTO 03006KT 10SM CLR 29/24 A2993 0 74 1600 030/06 RMK AO2 T02890239
53917KNEW NEW20190904031510609/04/19 03:15:31  5-MIN KNEW 040915Z AUTO 03006KT 10SM CLR 29/24 A2994 0 74 1600 030/06 RMK AO2 T02890239
53917KNEW NEW20190904032010609/04/19 03:20:31  5-MIN KNEW 040920Z AUTO 03006KT 10SM CLR 29/24 A2994 0 74 1600 030/06 RMK AO2 T02890239
53917KNEW NEW20190904032510609/04/19 03:25:31  5-MIN KNEW 040925Z AUTO 03006KT 10SM CLR 29/24 A2994 0 74 1600 030/06 RMK AO2 T02890239
53917KNEW NEW20190904033010609/04/19 03:30:31  5-MIN KNEW 040930Z AUTO 02006KT 10SM CLR 29/24 A2994 0 74 1600 020/06 RMK AO2 T02890239
53917KNEW NEW20190904033510609/04/19 03:35:31  5-MIN KNEW 040935Z AUTO 02007KT 10SM CLR 28/24 A2994 0 76 1600 020/07 RMK AO2 T02830239
53917KNEW NEW20190904034010609/04/19 03:40:31  5-MIN KNEW 040940Z AUTO 03006KT 10SM CLR 28/24 A2994 0 76 1600 030/06 RMK AO2 T02830239
53917KNEW NEW20190904034510609/04/19 03:45:31  5-MIN KNEW 040945Z AUTO 03006KT 10SM CLR 28/24 A2994 0 76 1600 030/06 RMK AO2 T02830239
53917KNEW NEW20190904035011309/04/19 03:50:31  5-MIN KNEW 040950Z AUTO 04006KT 10SM CLR 28/24 A2994 0 76 1600 040/06 RMK AO2 SLP133 T02830239
53917KNEW NEW20190904035510809/04/19 03:55:31  5-MIN KNEW 040955Z AUTO 04006KT 10SM CLR 28/24 A2994 -10 76 1600 040/06 RMK AO2 T02830239
53917KNEW NEW20190904040010809/04/19 04:00:31  5-MIN KNEW 041000Z AUTO 04006KT 10SM CLR 28/24 A2994 -10 76 1600 040/06 RMK AO2 T02830239
53917KNEW NEW20190904040510809/04/19 04:05:31  5-MIN KNEW 041005Z AUTO 04007KT 10SM CLR 28/24 A2995 -10 76 1600 040/07 RMK AO2 T02830239
53917KNEW NEW20190904041010809/04/19 04:10:31  5-MIN KNEW 041010Z AUTO 04006KT 10SM CLR 28/24 A2995 -10 76 1600 040/06 RMK AO2 T02830239
53917KNEW NEW20190904041510809/04/19 04:15:31  5-MIN KNEW 041015Z AUTO 04007KT 10SM CLR 28/24 A2995 -10 76 1600 040/07 RMK AO2 T02830239
53917KNEW NEW20190904042010809/04/19 04:20:31  5-MIN KNEW 041020Z AUTO 05006KT 10SM CLR 28/24 A2995 -10 76 1600 050/06 RMK AO2 T02830239
53917KNEW NEW20190904042510809/04/19 04:25:31  5-MIN KNEW 041025Z AUTO 05007KT 10SM CLR 28/23 A2995 -10 74 1600 050/07 RMK AO2 T02830233
53917KNEW NEW20190904043010809/04/19 04:30:31  5-MIN KNEW 041030Z AUTO 05006KT 10SM CLR 28/23 A2995 -10 74 1600 050/06 RMK AO2 T02830233
53917KNEW NEW20190904043510809/04/19 04:35:31  5-MIN KNEW 041035Z AUTO 05007KT 10SM CLR 28/23 A2995 -10 74 1600 050/07 RMK AO2 T02830233
53917KNEW NEW20190904044010809/04/19 04:40:31  5-MIN KNEW 041040Z AUTO 05008KT 10SM CLR 28/23 A2996 -20 74 1500 050/08 RMK AO2 T02830233
53917KNEW NEW20190904044510809/04/19 04:45:31  5-MIN KNEW 041045Z AUTO 05007KT 10SM CLR 28/23 A2996 -20 74 1500 050/07 RMK AO2 T02830233
53917KNEW NEW20190904045011509/04/19 04:50:31  5-MIN KNEW 041050Z AUTO 05008KT 10SM CLR 28/23 A2996 -20 74 1500 050/08 RMK AO2 SLP139 T02830233
53917KNEW NEW20190904045510809/04/19 04:55:31  5-MIN KNEW 041055Z AUTO 05007KT 10SM CLR 28/23 A2996 -20 74 1500 050/07 RMK AO2 T02830233
53917KNEW NEW20190904050010809/04/19 05:00:31  5-MIN KNEW 041100Z AUTO 05009KT 10SM CLR 28/23 A2997 -30 74 1500 050/09 RMK AO2 T02830233
53917KNEW NEW20190904050510809/04/19 05:05:31  5-MIN KNEW 041105Z AUTO 06009KT 10SM CLR 28/23 A2997 -30 74 1500 060/09 RMK AO2 T02830233
53917KNEW NEW20190904051010809/04/19 05:10:31  5-MIN KNEW 041110Z AUTO 05008KT 10SM CLR 29/23 A2997 -30 71 1600 050/08 RMK AO2 T02890233
53917KNEW NEW20190904051510809/04/19 05:15:31  5-MIN KNEW 041115Z AUTO 05009KT 10SM CLR 29/24 A2997 -30 74 1600 050/09 RMK AO2 T02890239
53917KNEW NEW20190904052010809/04/19 05:20:31  5-MIN KNEW 041120Z AUTO 06009KT 10SM CLR 29/23 A2997 -30 71 1600 060/09 RMK AO2 T02890233
53917KNEW NEW20190904052510809/04/19 05:25:31  5-MIN KNEW 041125Z AUTO 06009KT 10SM CLR 29/23 A2997 -30 71 1600 060/09 RMK AO2 T02890233
53917KNEW NEW20190904053010809/04/19 05:30:31  5-MIN KNEW 041130Z AUTO 05008KT 10SM CLR 29/24 A2998 -30 74 1600 050/08 RMK AO2 T02890239
53917KNEW NEW20190904053510809/04/19 05:35:31  5-MIN KNEW 041135Z AUTO 06008KT 10SM CLR 29/24 A2998 -40 74 1600 060/08 RMK AO2 T02890239
53917KNEW NEW20190904054010709/04/19 05:40:31  5-MIN KNEW 041140Z AUTO 06008KT 9SM CLR 29/24 A2998 -40 74 1600 060/08 RMK AO2 T02890239
53917KNEW NEW20190904054510709/04/19 05:45:31  5-MIN KNEW 041145Z AUTO 06009KT 9SM CLR 29/23 A2998 -40 71 1600 060/09 RMK AO2 T02890233
53917KNEW NEW20190904055013209/04/19 05:50:31  5-MIN KNEW 041150Z AUTO 06009KT 9SM CLR 29/24 A2998 -40 74 1600 060/09 RMK AO2 SLP145 T02890239 10300 20283 55000
53917KNEW NEW20190904055510709/04/19 05:55:31  5-MIN KNEW 041155Z AUTO 05008KT 9SM CLR 29/24 A2998 -40 74 1600 050/08 RMK AO2 T02890239
53917KNEW NEW20190904060010209/04/19 06:00:31  5-MIN KNEW 041200Z 05009KT 9SM CLR 29/23 A2999 -40 71 1600 050/09 RMK AO2 T02890233
53917KNEW NEW20190904060510209/04/19 06:05:31  5-MIN KNEW 041205Z 04010KT 9SM CLR 28/23 A2999 -50 74 1500 040/10 RMK AO2 T02830233
53917KNEW NEW20190904061010209/04/19 06:10:31  5-MIN KNEW 041210Z 04009KT 9SM CLR 28/23 A2999 -50 74 1500 040/09 RMK AO2 T02830233
53917KNEW NEW20190904061510209/04/19 06:15:31  5-MIN KNEW 041215Z 04009KT 9SM CLR 28/23 A2999 -50 74 1500 040/09 RMK AO2 T02830233
53917KNEW NEW20190904062010209/04/19 06:20:31  5-MIN KNEW 041220Z 04009KT 9SM CLR 28/23 A3000 -50 74 1500 040/09 RMK AO2 T02830233
53917KNEW NEW20190904062510209/04/19 06:25:31  5-MIN KNEW 041225Z 04009KT 9SM CLR 28/23 A3000 -60 74 1500 040/09 RMK AO2 T02830233
53917KNEW NEW20190904063010209/04/19 06:30:31  5-MIN KNEW 041230Z 04008KT 9SM CLR 28/23 A3000 -60 74 1500 040/08 RMK AO2 T02830233
53917KNEW NEW20190904063510209/04/19 06:35:31  5-MIN KNEW 041235Z 04009KT 9SM CLR 28/23 A3000 -60 74 1500 040/09 RMK AO2 T02830233
53917KNEW NEW20190904064010209/04/19 06:40:31  5-MIN KNEW 041240Z 05009KT 9SM CLR 28/23 A3000 -60 74 1500 050/09 RMK AO2 T02830233
53917KNEW NEW20190904064510209/04/19 06:45:31  5-MIN KNEW 041245Z 05009KT 9SM CLR 28/23 A3000 -60 74 1500 050/09 RMK AO2 T02830233
53917KNEW NEW20190904065010909/04/19 06:50:31  5-MIN KNEW 041250Z 05011KT 9SM CLR 28/23 A3000 -60 74 1500 050/11 RMK AO2 SLP154 T02830233
53917KNEW NEW20190904065510209/04/19 06:55:31  5-MIN KNEW 041255Z 05013KT 9SM CLR 28/23 A3001 -60 74 1500 050/13 RMK AO2 T02830233
53917KNEW NEW20190904070010209/04/19 07:00:31  5-MIN KNEW 041300Z 04012KT 9SM CLR 28/23 A3001 -60 71 1500 040/12 RMK AO2 T02830228
53917KNEW NEW20190904070510209/04/19 07:05:31  5-MIN KNEW 041305Z 04011KT 9SM CLR 28/23 A3001 -60 74 1500 040/11 RMK AO2 T02830233
53917KNEW NEW20190904071010209/04/19 07:10:31  5-MIN KNEW 041310Z 05011KT 9SM CLR 28/23 A3001 -70 74 1500 050/11 RMK AO2 T02830233
53917KNEW NEW20190904071510209/04/19 07:15:31  5-MIN KNEW 041315Z 05010KT 9SM CLR 29/23 A3001 -70 71 1600 050/10 RMK AO2 T02890233
53917KNEW NEW20190904072010209/04/19 07:20:31  5-MIN KNEW 041320Z 05010KT 9SM CLR 29/23 A3001 -60 71 1600 050/10 RMK AO2 T02890233
53917KNEW NEW20190904072510209/04/19 07:25:31  5-MIN KNEW 041325Z 06010KT 9SM CLR 29/23 A3001 -60 71 1600 060/10 RMK AO2 T02890233
53917KNEW NEW20190904073010209/04/19 07:30:31  5-MIN KNEW 041330Z 06010KT 9SM CLR 29/23 A3001 -60 69 1600 060/10 RMK AO2 T02940233
53917KNEW NEW20190904073510209/04/19 07:35:31  5-MIN KNEW 041335Z 05010KT 9SM CLR 29/23 A3001 -60 69 1600 050/10 RMK AO2 T02940233
53917KNEW NEW20190904074010209/04/19 07:40:31  5-MIN KNEW 041340Z 05009KT 9SM CLR 29/23 A3001 -60 69 1600 050/09 RMK AO2 T02940233
53917KNEW NEW20190904074510209/04/19 07:45:31  5-MIN KNEW 041345Z 05009KT 9SM CLR 29/23 A3001 -60 69 1600 050/09 RMK AO2 T02940233
53917KNEW NEW20190904075010909/04/19 07:50:31  5-MIN KNEW 041350Z 06009KT 9SM CLR 30/23 A3001 -60 67 1700 060/09 RMK AO2 SLP154 T03000233
53917KNEW NEW20190904075510209/04/19 07:55:31  5-MIN KNEW 041355Z 06009KT 9SM CLR 30/23 A3001 -60 65 1700 060/09 RMK AO2 T03000228
53917KNEW NEW20190904080010209/04/19 08:00:31  5-MIN KNEW 041400Z 06008KT 9SM CLR 30/23 A3001 -70 67 1700 060/08 RMK AO2 T03000233
53917KNEW NEW20190904080510209/04/19 08:05:31  5-MIN KNEW 041405Z 06008KT 9SM CLR 30/23 A3001 -70 67 1700 060/08 RMK AO2 T03000233
53917KNEW NEW20190904081010209/04/19 08:10:31  5-MIN KNEW 041410Z 06008KT 9SM CLR 30/23 A3001 -70 67 1700 060/08 RMK AO2 T03000233
53917KNEW NEW20190904081510209/04/19 08:15:31  5-MIN KNEW 041415Z 06006KT 9SM CLR 30/23 A3001 -70 65 1700 060/06 RMK AO2 T03000228
53917KNEW NEW20190904082010209/04/19 08:20:31  5-MIN KNEW 041420Z 06007KT 9SM CLR 30/23 A3001 -70 65 1700 060/07 RMK AO2 T03000228
53917KNEW NEW20190904082510209/04/19 08:25:31  5-MIN KNEW 041425Z 06007KT 9SM CLR 31/23 A3001 -70 62 1700 060/07 RMK AO2 T03060228
53917KNEW NEW20190904083010209/04/19 08:30:31  5-MIN KNEW 041430Z 06006KT 9SM CLR 31/23 A3001 -70 62 1700 060/06 RMK AO2 T03060228
53917KNEW NEW20190904083510209/04/19 08:35:31  5-MIN KNEW 041435Z 05006KT 9SM CLR 31/23 A3001 -70 65 1700 050/06 RMK AO2 T03060233
53917KNEW NEW20190904084010209/04/19 08:40:31  5-MIN KNEW 041440Z 05006KT 9SM CLR 31/23 A3001 -70 65 1700 050/06 RMK AO2 T03060233
53917KNEW NEW20190904084510209/04/19 08:45:31  5-MIN KNEW 041445Z 05006KT 9SM CLR 31/23 A3001 -70 65 1700 050/06 RMK AO2 T03060233
53917KNEW NEW20190904085011509/04/19 08:50:31  5-MIN KNEW 041450Z 05006KT 9SM CLR 31/23 A3001 -70 65 1700 050/06 RMK AO2 SLP157 T03060233 53017
53917KNEW NEW20190904085510209/04/19 08:55:31  5-MIN KNEW 041455Z 04007KT 9SM CLR 31/23 A3002 -70 63 1800 040/07 RMK AO2 T03110233
53917KNEW NEW20190904090010209/04/19 09:00:31  5-MIN KNEW 041500Z 03007KT 9SM CLR 31/23 A3002 -70 65 1700 030/07 RMK AO2 T03060233
53917KNEW NEW20190904090510209/04/19 09:05:31  5-MIN KNEW 041505Z 04007KT 9SM CLR 31/24 A3001 -70 67 1700 040/07 RMK AO2 T03060239
53917KNEW NEW20190904091010209/04/19 09:10:31  5-MIN KNEW 041510Z 04006KT 9SM CLR 31/23 A3002 -70 65 1700 040/06 RMK AO2 T03060233
53917KNEW NEW20190904091510209/04/19 09:15:31  5-MIN KNEW 041515Z 04006KT 8SM CLR 31/23 A3002 -70 65 1700 040/06 RMK AO2 T03060233
53917KNEW NEW20190904092010209/04/19 09:20:31  5-MIN KNEW 041520Z 04007KT 8SM CLR 31/23 A3002 -70 65 1700 040/07 RMK AO2 T03060233
53917KNEW NEW20190904092510209/04/19 09:25:31  5-MIN KNEW 041525Z 03007KT 8SM CLR 31/24 A3002 -80 65 1800 030/07 RMK AO2 T03110239
53917KNEW NEW20190904093010209/04/19 09:30:31  5-MIN KNEW 041530Z 03008KT 8SM CLR 31/23 A3002 -80 63 1800 030/08 RMK AO2 T03110233
53917KNEW NEW20190904093510209/04/19 09:35:31  5-MIN KNEW 041535Z 04007KT 8SM CLR 31/23 A3002 -80 63 1800 040/07 RMK AO2 T03110233
53917KNEW NEW20190904094010209/04/19 09:40:31  5-MIN KNEW 041540Z 03007KT 9SM CLR 31/24 A3002 -80 65 1800 030/07 RMK AO2 T03110239
53917KNEW NEW20190904094510209/04/19 09:45:31  5-MIN KNEW 041545Z 02007KT 9SM CLR 31/24 A3002 -80 65 1800 020/07 RMK AO2 T03110239
53917KNEW NEW20190904095010909/04/19 09:50:31  5-MIN KNEW 041550Z 02007KT 9SM CLR 31/23 A3002 -80 63 1800 020/07 RMK AO2 SLP160 T03110233
53917KNEW NEW20190904095510209/04/19 09:55:31  5-MIN KNEW 041555Z 03007KT 9SM CLR 32/23 A3002 -80 61 1800 030/07 RMK AO2 T03170233
53917KNEW NEW20190904100010209/04/19 10:00:31  5-MIN KNEW 041600Z 03006KT 9SM CLR 32/23 A3002 -80 61 1800 030/06 RMK AO2 T03170233
53917KNEW NEW20190904100510209/04/19 10:05:31  5-MIN KNEW 041605Z 02007KT 9SM CLR 32/23 A3003 -80 61 1800 020/07 RMK AO2 T03170233
53917KNEW NEW20190904101010209/04/19 10:10:31  5-MIN KNEW 041610Z 02007KT 9SM CLR 32/23 A3003 -80 61 1800 020/07 RMK AO2 T03170233
53917KNEW NEW20190904101510209/04/19 10:15:31  5-MIN KNEW 041615Z 02007KT 9SM CLR 32/23 A3003 -80 59 1900 020/07 RMK AO2 T03220233
53917KNEW NEW20190904102010209/04/19 10:20:31  5-MIN KNEW 041620Z 03006KT 9SM CLR 32/23 A3003 -80 61 1800 030/06 RMK AO2 T03170233
53917KNEW NEW20190904102510209/04/19 10:25:31  5-MIN KNEW 041625Z 02005KT 9SM CLR 32/23 A3003 -80 61 1800 020/05 RMK AO2 T03170233
53917KNEW NEW20190904103010209/04/19 10:30:31  5-MIN KNEW 041630Z 01006KT 9SM CLR 32/23 A3003 -80 61 1800 010/06 RMK AO2 T03170233
53917KNEW NEW20190904103510209/04/19 10:35:31  5-MIN KNEW 041635Z 02005KT 9SM CLR 32/23 A3003 -80 59 1900 020/05 RMK AO2 T03220233
53917KNEW NEW20190904104010209/04/19 10:40:31  5-MIN KNEW 041640Z 01005KT 9SM CLR 32/23 A3003 -80 59 1900 010/05 RMK AO2 T03220233
53917KNEW NEW20190904104510209/04/19 10:45:31  5-MIN KNEW 041645Z 01005KT 9SM CLR 32/23 A3003 -80 59 1900 010/05 RMK AO2 T03220233
53917KNEW NEW20190904105010909/04/19 10:50:31  5-MIN KNEW 041650Z 36006KT 9SM CLR 33/24 A3003 -80 59 2000 360/06 RMK AO2 SLP162 T03280239
53917KNEW NEW20190904105510209/04/19 10:55:31  5-MIN KNEW 041655Z 01005KT 9SM CLR 33/24 A3003 -80 59 2000 010/05 RMK AO2 T03280239
53917KNEW NEW20190904110010209/04/19 11:00:31  5-MIN KNEW 041700Z 35005KT 9SM CLR 33/24 A3003 -80 59 2000 350/05 RMK AO2 T03280239
53917KNEW NEW20190904110510209/04/19 11:05:31  5-MIN KNEW 041705Z 36005KT 9SM CLR 33/24 A3003 -80 59 2000 360/05 RMK AO2 T03280239
53917KNEW NEW20190904111010309/04/19 11:10:31  5-MIN KNEW 041710Z 36006KT 10SM CLR 33/24 A3002 -80 59 2000 360/06 RMK AO2 T03280239
53917KNEW NEW20190904111510309/04/19 11:15:31  5-MIN KNEW 041715Z 36006KT 10SM CLR 33/24 A3002 -80 57 2000 360/06 RMK AO2 T03330239
53917KNEW NEW20190904112010309/04/19 11:20:31  5-MIN KNEW 041720Z 35006KT 10SM CLR 33/24 A3002 -80 57 2000 350/06 RMK AO2 T03330239
53917KNEW NEW20190904112510309/04/19 11:25:31  5-MIN KNEW 041725Z 36006KT 10SM CLR 33/24 A3002 -70 57 2000 360/06 RMK AO2 T03330239
53917KNEW NEW20190904113010309/04/19 11:30:31  5-MIN KNEW 041730Z 35006KT 10SM CLR 33/24 A3002 -70 59 2000 350/06 RMK AO2 T03330244
53917KNEW NEW20190904113510309/04/19 11:35:31  5-MIN KNEW 041735Z 35006KT 10SM CLR 33/24 A3002 -70 59 2000 350/06 RMK AO2 T03330244
53917KNEW NEW20190904114010309/04/19 11:40:31  5-MIN KNEW 041740Z 35006KT 10SM CLR 33/24 A3002 -70 57 2000 350/06 RMK AO2 T03330239
53917KNEW NEW20190904114510309/04/19 11:45:31  5-MIN KNEW 041745Z 35006KT 10SM CLR 34/24 A3002 -70 55 2100 350/06 RMK AO2 T03390239
53917KNEW NEW20190904115012809/04/19 11:50:31  5-MIN KNEW 041750Z 36006KT 10SM CLR 34/24 A3002 -70 55 2100 360/06 RMK AO2 SLP158 T03390239 10339 20283 51012
53917KNEW NEW20190904115510309/04/19 11:55:31  5-MIN KNEW 041755Z 34005KT 10SM CLR 34/24 A3001 -70 55 2100 340/05 RMK AO2 T03390239
53917KNEW NEW20190904120010309/04/19 12:00:31  5-MIN KNEW 041800Z 34006KT 10SM CLR 34/24 A3001 -70 55 2100 340/06 RMK AO2 T03390239
53917KNEW NEW20190904120510309/04/19 12:05:31  5-MIN KNEW 041805Z 34006KT 10SM CLR 33/24 A3001 -70 57 2000 340/06 RMK AO2 T03330239
53917KNEW NEW20190904121010309/04/19 12:10:31  5-MIN KNEW 041810Z 32006KT 10SM CLR 33/24 A3001 -70 57 2000 320/06 RMK AO2 T03330239
53917KNEW NEW20190904121510309/04/19 12:15:31  5-MIN KNEW 041815Z 34006KT 10SM CLR 33/24 A3001 -70 57 2000 340/06 RMK AO2 T03330239
53917KNEW NEW20190904122010309/04/19 12:20:31  5-MIN KNEW 041820Z 32006KT 10SM CLR 34/24 A3001 -60 55 2100 320/06 RMK AO2 T03390239
53917KNEW NEW20190904122510309/04/19 12:25:31  5-MIN KNEW 041825Z 32005KT 10SM CLR 33/24 A3000 -60 57 2000 320/05 RMK AO2 T03330239
53917KNEW NEW20190904123010309/04/19 12:30:31  5-MIN KNEW 041830Z 32006KT 10SM CLR 33/24 A3000 -60 57 2100 320/06 RMK AO2 T03330239
53917KNEW NEW20190904123510309/04/19 12:35:31  5-MIN KNEW 041835Z 33006KT 10SM CLR 34/24 A3000 -60 55 2100 330/06 RMK AO2 T03390239
53917KNEW NEW20190904124010309/04/19 12:40:31  5-MIN KNEW 041840Z 32005KT 10SM CLR 33/23 A3000 -60 55 2100 320/05 RMK AO2 T03330233
53917KNEW NEW20190904124510309/04/19 12:45:31  5-MIN KNEW 041845Z 32006KT 10SM CLR 33/23 A3000 -60 55 2100 320/06 RMK AO2 T03330233
53917KNEW NEW20190904125011009/04/19 12:50:31  5-MIN KNEW 041850Z 32006KT 10SM CLR 33/24 A3000 -60 57 2100 320/06 RMK AO2 SLP151 T03330239
53917KNEW NEW20190904125510309/04/19 12:55:31  5-MIN KNEW 041855Z 31006KT 10SM CLR 33/23 A3000 -50 55 2100 310/06 RMK AO2 T03330233
53917KNEW NEW20190904130010309/04/19 13:00:31  5-MIN KNEW 041900Z 30005KT 10SM CLR 33/23 A3000 -50 55 2100 300/05 RMK AO2 T03330233
53917KNEW NEW20190904130510309/04/19 13:05:31  5-MIN KNEW 041905Z 30005KT 10SM CLR 33/23 A2999 -50 55 2100 300/05 RMK AO2 T03330233
53917KNEW NEW20190904131010309/04/19 13:10:31  5-MIN KNEW 041910Z 31005KT 10SM CLR 33/23 A2999 -50 55 2100 310/05 RMK AO2 T03330233
53917KNEW NEW20190904131510309/04/19 13:15:31  5-MIN KNEW 041915Z 30005KT 10SM CLR 33/23 A2999 -50 53 2100 300/05 RMK AO2 T03330228
53917KNEW NEW20190904132010309/04/19 13:20:31  5-MIN KNEW 041920Z 29005KT 10SM CLR 33/23 A2999 -40 55 2100 290/05 RMK AO2 T03330233
53917KNEW NEW20190904132510309/04/19 13:25:31  5-MIN KNEW 041925Z 29005KT 10SM CLR 33/23 A2998 -40 55 2100 290/05 RMK AO2 T03330233
53917KNEW NEW20190904133010309/04/19 13:30:31  5-MIN KNEW 041930Z 29005KT 10SM CLR 33/23 A2998 -40 57 2000 290/05 RMK AO2 T03280233
53917KNEW NEW20190904133510209/04/19 13:35:31  5-MIN KNEW 041935Z 30005KT 9SM CLR 33/23 A2998 -40 55 2100 300/05 RMK AO2 T03330233
53917KNEW NEW20190904134010209/04/19 13:40:31  5-MIN KNEW 041940Z 29005KT 9SM CLR 33/23 A2998 -30 53 2100 290/05 RMK AO2 T03330228
53917KNEW NEW20190904134510209/04/19 13:45:31  5-MIN KNEW 041945Z 29006KT 9SM CLR 33/23 A2998 -40 55 2100 290/06 RMK AO2 T03330233
53917KNEW NEW20190904135010909/04/19 13:50:31  5-MIN KNEW 041950Z 29005KT 9SM CLR 33/23 A2997 -30 53 2100 290/05 RMK AO2 SLP143 T03330228
53917KNEW NEW20190904135510209/04/19 13:55:31  5-MIN KNEW 041955Z 29005KT 9SM CLR 33/23 A2997 -30 55 2100 290/05 RMK AO2 T03330233
53917KNEW NEW20190904140010209/04/19 14:00:31  5-MIN KNEW 042000Z 29005KT 9SM CLR 33/23 A2997 -30 55 2100 290/05 RMK AO2 T03330233
53917KNEW NEW20190904140510209/04/19 14:05:31  5-MIN KNEW 042005Z 30005KT 9SM CLR 33/23 A2997 -30 53 2100 300/05 RMK AO2 T03330228
53917KNEW NEW20190904141010209/04/19 14:10:31  5-MIN KNEW 042010Z 28005KT 9SM CLR 33/23 A2997 -30 55 2100 280/05 RMK AO2 T03330233
53917KNEW NEW20190904141510209/04/19 14:15:31  5-MIN KNEW 042015Z 29005KT 9SM CLR 33/23 A2997 -30 53 2100 290/05 RMK AO2 T03330228
53917KNEW NEW20190904142010209/04/19 14:20:31  5-MIN KNEW 042020Z 28006KT 9SM CLR 33/24 A2997 -30 57 2100 280/06 RMK AO2 T03330239
53917KNEW NEW20190904142510209/04/19 14:25:31  5-MIN KNEW 042025Z 29006KT 8SM CLR 33/23 A2996 -20 55 2100 290/06 RMK AO2 T03330233
53917KNEW NEW20190904143010209/04/19 14:30:31  5-MIN KNEW 042030Z 28006KT 8SM CLR 33/24 A2996 -20 57 2100 280/06 RMK AO2 T03330239
53917KNEW NEW20190904143510209/04/19 14:35:31  5-MIN KNEW 042035Z 28006KT 8SM CLR 33/23 A2996 -20 55 2100 280/06 RMK AO2 T03330233
53917KNEW NEW20190904144010209/04/19 14:40:31  5-MIN KNEW 042040Z 28006KT 8SM CLR 33/23 A2996 -20 55 2100 280/06 RMK AO2 T03330233
53917KNEW NEW20190904144510209/04/19 14:45:31  5-MIN KNEW 042045Z 28005KT 8SM CLR 33/23 A2996 -20 53 2100 280/05 RMK AO2 T03330228
53917KNEW NEW20190904145011509/04/19 14:50:31  5-MIN KNEW 042050Z 28005KT 9SM CLR 33/23 A2996 -20 55 2100 280/05 RMK AO2 SLP139 T03330233 50000
53917KNEW NEW20190904145510209/04/19 14:55:31  5-MIN KNEW 042055Z 28005KT 9SM CLR 33/23 A2996 -20 53 2100 280/05 RMK AO2 T03330228
53917KNEW NEW20190904150010309/04/19 15:00:31  5-MIN KNEW 042100Z 27005KT 10SM CLR 33/23 A2996 -20 53 2100 270/05 RMK AO2 T03330228
53917KNEW NEW20190904150510309/04/19 15:05:31  5-MIN KNEW 042105Z 27005KT 10SM CLR 33/23 A2996 -20 55 2100 270/05 RMK AO2 T03330233
53917KNEW NEW20190904151010309/04/19 15:10:31  5-MIN KNEW 042110Z 28005KT 10SM CLR 33/23 A2996 -20 53 2100 280/05 RMK AO2 T03330228
53917KNEW NEW20190904151510309/04/19 15:15:31  5-MIN KNEW 042115Z 28005KT 10SM CLR 34/23 A2996 -20 51 2200 280/05 RMK AO2 T03390228
53917KNEW NEW20190904152010609/04/19 15:20:31  5-MIN KNEW 042120Z 29005KT 10SM FEW080 34/23 A2996 -20 51 2200 290/05 RMK AO2 T03390228
53917KNEW NEW20190904152510609/04/19 15:25:31  5-MIN KNEW 042125Z 28005KT 10SM FEW075 33/23 A2996 -20 53 2100 280/05 RMK AO2 T03330228
53917KNEW NEW20190904153010609/04/19 15:30:31  5-MIN KNEW 042130Z 28005KT 10SM FEW065 33/23 A2996 -20 53 2100 280/05 RMK AO2 T03330228
53917KNEW NEW20190904153510609/04/19 15:35:31  5-MIN KNEW 042135Z 28005KT 10SM SCT070 33/22 A2996 -20 53 2000 280/05 RMK AO2 T03280222
53917KNEW NEW20190904154011309/04/19 15:40:31  5-MIN KNEW 042140Z 27005KT 10SM SCT070 BKN085 33/23 A2996 -20 55 2000 270/05 RMK AO2 T03280228
53917KNEW NEW20190904154511309/04/19 15:45:31  5-MIN KNEW 042145Z 27005KT 10SM FEW070 SCT085 33/22 A2996 -20 51 2100 270/05 RMK AO2 T03330222
53917KNEW NEW20190904155012009/04/19 15:50:31  5-MIN KNEW 042150Z 28005KT 10SM FEW070 SCT085 33/22 A2996 -20 50 2100 280/05 RMK AO2 SLP138 T03330217
53917KNEW NEW20190904155511309/04/19 15:55:31  5-MIN KNEW 042155Z 28005KT 10SM FEW070 SCT085 33/22 A2996 -20 50 2100 280/05 RMK AO2 T03330217
53917KNEW NEW20190904160011309/04/19 16:00:31  5-MIN KNEW 042200Z 28005KT 10SM FEW070 FEW090 33/22 A2996 -20 51 2100 280/05 RMK AO2 T03330222
53917KNEW NEW20190904160510609/04/19 16:05:31  5-MIN KNEW 042205Z 28006KT 10SM FEW085 33/22 A2996 -20 51 2100 280/06 RMK AO2 T03330222
53917KNEW NEW20190904161010309/04/19 16:10:31  5-MIN KNEW 042210Z 28005KT 10SM CLR 33/23 A2995 -10 53 2100 280/05 RMK AO2 T03330228
53917KNEW NEW20190904161510309/04/19 16:15:31  5-MIN KNEW 042215Z 28005KT 10SM CLR 33/22 A2995 -10 50 2100 280/05 RMK AO2 T03330217
53917KNEW NEW20190904162010309/04/19 16:20:31  5-MIN KNEW 042220Z 28005KT 10SM CLR 34/22 A2995 -10 48 2200 280/05 RMK AO2 T03390217
53917KNEW NEW20190904162510309/04/19 16:25:31  5-MIN KNEW 042225Z 28005KT 10SM CLR 33/22 A2995 -20 50 2100 280/05 RMK AO2 T03330217
53917KNEW NEW20190904163010309/04/19 16:30:31  5-MIN KNEW 042230Z 28006KT 10SM CLR 33/21 A2995 -10 48 2100 280/06 RMK AO2 T03330211
53917KNEW NEW20190904163510309/04/19 16:35:31  5-MIN KNEW 042235Z 28005KT 10SM CLR 33/21 A2995 -10 48 2100 280/05 RMK AO2 T03330211
53917KNEW NEW20190904164010309/04/19 16:40:31  5-MIN KNEW 042240Z 27006KT 10SM CLR 33/22 A2995 -20 50 2100 270/06 RMK AO2 T03330217
53917KNEW NEW20190904164510309/04/19 16:45:31  5-MIN KNEW 042245Z 28006KT 10SM CLR 33/22 A2996 -20 51 2100 280/06 RMK AO2 T03330222
53917KNEW NEW20190904165011009/04/19 16:50:31  5-MIN KNEW 042250Z 27005KT 10SM CLR 33/22 A2995 -20 51 2100 270/05 RMK AO2 SLP137 T03330222
53917KNEW NEW20190904165510309/04/19 16:55:31  5-MIN KNEW 042255Z 27005KT 10SM CLR 33/22 A2995 -10 50 2100 270/05 RMK AO2 T03330217
53917KNEW NEW20190904170010309/04/19 17:00:31  5-MIN KNEW 042300Z 27005KT 10SM CLR 33/22 A2995 -10 53 2000 270/05 RMK AO2 T03280222
53917KNEW NEW20190904170510309/04/19 17:05:31  5-MIN KNEW 042305Z 27005KT 10SM CLR 33/22 A2995 -10 51 2100 270/05 RMK AO2 T03330222
53917KNEW NEW20190904171010309/04/19 17:10:31  5-MIN KNEW 042310Z 27006KT 10SM CLR 33/22 A2995 -20 51 2100 270/06 RMK AO2 T03330222
53917KNEW NEW20190904171510309/04/19 17:15:31  5-MIN KNEW 042315Z 27005KT 10SM CLR 33/22 A2996 -20 51 2100 270/05 RMK AO2 T03330222
53917KNEW NEW20190904172010309/04/19 17:20:31  5-MIN KNEW 042320Z 27005KT 10SM CLR 33/22 A2996 -20 53 2000 270/05 RMK AO2 T03280222
53917KNEW NEW20190904172510309/04/19 17:25:31  5-MIN KNEW 042325Z 28005KT 10SM CLR 33/23 A2996 -20 55 2000 280/05 RMK AO2 T03280228
53917KNEW NEW20190904173010309/04/19 17:30:31  5-MIN KNEW 042330Z 29005KT 10SM CLR 33/23 A2996 -20 55 2000 290/05 RMK AO2 T03280228
53917KNEW NEW20190904173510309/04/19 17:35:31  5-MIN KNEW 042335Z 29005KT 10SM CLR 33/23 A2996 -20 55 2000 290/05 RMK AO2 T03280228
53917KNEW NEW20190904174010309/04/19 17:40:31  5-MIN KNEW 042340Z 29006KT 10SM CLR 33/23 A2996 -20 55 2000 290/06 RMK AO2 T03280228
53917KNEW NEW20190904174510309/04/19 17:45:31  5-MIN KNEW 042345Z 28005KT 10SM CLR 33/23 A2996 -20 57 2000 280/05 RMK AO2 T03280233
53917KNEW NEW20190904175012809/04/19 17:50:31  5-MIN KNEW 042350Z 28005KT 10SM CLR 33/23 A2996 -20 55 2000 280/05 RMK AO2 SLP139 T03280228 10339 20328 56019
53917KNEW NEW20190904175510309/04/19 17:55:31  5-MIN KNEW 042355Z 29004KT 10SM CLR 33/23 A2996 -20 55 2000 290/04 RMK AO2 T03280228
53917KNEW NEW20190904180010309/04/19 18:00:31  5-MIN KNEW 050000Z 29004KT 10SM CLR 33/23 A2997 -30 55 2000 290/04 RMK AO2 T03280228
53917KNEW NEW20190904180510309/04/19 18:05:31  5-MIN KNEW 050005Z 30004KT 10SM CLR 33/22 A2997 -30 53 2000 300/04 RMK AO2 T03280222
53917KNEW NEW20190904181010309/04/19 18:10:31  5-MIN KNEW 050010Z 35005KT 10SM CLR 33/22 A2996 -20 53 2000 350/05 RMK AO2 T03280222
53917KNEW NEW20190904181510309/04/19 18:15:31  5-MIN KNEW 050015Z 36004KT 10SM CLR 33/22 A2997 -30 51 2000 360/04 RMK AO2 T03280217
53917KNEW NEW20190904182010309/04/19 18:20:31  5-MIN KNEW 050020Z 35004KT 10SM CLR 33/22 A2997 -30 51 2000 350/04 RMK AO2 T03280217
53917KNEW NEW20190904182510309/04/19 18:25:31  5-MIN KNEW 050025Z 36004KT 10SM CLR 33/21 A2997 -30 49 2000 360/04 RMK AO2 T03280211
53917KNEW NEW20190904183010309/04/19 18:30:31  5-MIN KNEW 050030Z 34004KT 10SM CLR 32/22 A2997 -30 53 2000 340/04 RMK AO2 T03220217
53917KNEW NEW20190904183510309/04/19 18:35:31  5-MIN KNEW 050035Z 35005KT 10SM CLR 32/23 A2997 -30 57 2000 350/05 RMK AO2 T03220228
53917KNEW NEW20190904184010309/04/19 18:40:31  5-MIN KNEW 050040Z 36004KT 10SM CLR 32/23 A2997 -30 57 2000 360/04 RMK AO2 T03220228
53917KNEW NEW20190904184510309/04/19 18:45:31  5-MIN KNEW 050045Z 01007KT 10SM CLR 32/23 A2997 -30 59 2000 010/07 RMK AO2 T03220233
53917KNEW NEW20190904185011009/04/19 18:50:31  5-MIN KNEW 050050Z 01007KT 10SM CLR 32/23 A2997 -30 57 2000 010/07 RMK AO2 SLP143 T03220228
53917KNEW NEW20190904185510309/04/19 18:55:31  5-MIN KNEW 050055Z 01007KT 10SM CLR 32/23 A2998 -30 59 2000 010/07 RMK AO2 T03220233
53917KNEW NEW20190904190010309/04/19 19:00:31  5-MIN KNEW 050100Z 01006KT 10SM CLR 32/24 A2998 -40 61 2000 010/06 RMK AO2 T03220239
53917KNEW NEW20190904190510309/04/19 19:05:31  5-MIN KNEW 050105Z 01006KT 10SM CLR 32/23 A2998 -40 59 2000 010/06 RMK AO2 T03220233
53917KNEW NEW20190904191010309/04/19 19:10:31  5-MIN KNEW 050110Z 36007KT 10SM CLR 32/23 A2998 -40 61 1900 360/07 RMK AO2 T03170233
53917KNEW NEW20190904191510309/04/19 19:15:31  5-MIN KNEW 050115Z 36006KT 10SM CLR 32/23 A2998 -40 61 1900 360/06 RMK AO2 T03170233
53917KNEW NEW20190904192010309/04/19 19:20:31  5-MIN KNEW 050120Z 36005KT 10SM CLR 32/24 A2998 -40 63 1900 360/05 RMK AO2 T03170239
53917KNEW NEW20190904192510309/04/19 19:25:31  5-MIN KNEW 050125Z 36006KT 10SM CLR 32/24 A2998 -40 63 1900 360/06 RMK AO2 T03170239
53917KNEW NEW20190904193010309/04/19 19:30:31  5-MIN KNEW 050130Z 36005KT 10SM CLR 32/23 A2998 -40 61 1900 360/05 RMK AO2 T03170233
53917KNEW NEW20190904193510309/04/19 19:35:31  5-MIN KNEW 050135Z 36005KT 10SM CLR 32/24 A2998 -40 63 1900 360/05 RMK AO2 T03170239
53917KNEW NEW20190904194010309/04/19 19:40:31  5-MIN KNEW 050140Z 35005KT 10SM CLR 32/24 A2998 -40 63 1900 350/05 RMK AO2 T03170239
53917KNEW NEW20190904194510309/04/19 19:45:31  5-MIN KNEW 050145Z 35005KT 10SM CLR 32/23 A2998 -40 61 1900 350/05 RMK AO2 T03170233
53917KNEW NEW20190904195011509/04/19 19:50:31  5-MIN KNEW 050150Z AUTO 35005KT 10SM CLR 32/23 A2998 -40 61 1900 350/05 RMK AO2 SLP147 T03170233
53917KNEW NEW20190904195510809/04/19 19:55:31  5-MIN KNEW 050155Z AUTO 35005KT 10SM CLR 32/23 A2999 -40 61 1900 350/05 RMK AO2 T03170233
53917KNEW NEW20190904200010809/04/19 20:00:31  5-MIN KNEW 050200Z AUTO 35004KT 10SM CLR 32/23 A2999 -40 61 1900 350/04 RMK AO2 T03170233
53917KNEW NEW20190904200510809/04/19 20:05:31  5-MIN KNEW 050205Z AUTO 35005KT 10SM CLR 32/24 A2999 -50 63 1900 350/05 RMK AO2 T03170239
53917KNEW NEW20190904201010809/04/19 20:10:31  5-MIN KNEW 050210Z AUTO 35005KT 10SM CLR 32/23 A2999 -50 61 1900 350/05 RMK AO2 T03170233
53917KNEW NEW20190904201510809/04/19 20:15:31  5-MIN KNEW 050215Z AUTO 35005KT 10SM CLR 32/24 A3000 -50 63 1900 350/05 RMK AO2 T03170239
53917KNEW NEW20190904224010809/04/19 22:40:31  5-MIN KNEW 050440Z AUTO 36008KT 10SM CLR 31/24 A3000 -60 67 1700 360/08 RMK AO2 T03060239
53917KNEW NEW20190904224510809/04/19 22:45:31  5-MIN KNEW 050445Z AUTO 35008KT 10SM CLR 31/24 A3000 -60 67 1700 350/08 RMK AO2 T03060239
53917KNEW NEW20190904225011509/04/19 22:50:31  5-MIN KNEW 050450Z AUTO 35007KT 10SM CLR 31/24 A3000 -60 67 1700 350/07 RMK AO2 SLP152 T03060239
53917KNEW NEW20190904225510809/04/19 22:55:31  5-MIN KNEW 050455Z AUTO 35008KT 10SM CLR 31/24 A3000 -60 67 1700 350/08 RMK AO2 T03060239
53917KNEW NEW20190904230010809/04/19 23:00:31  5-MIN KNEW 050500Z AUTO 36007KT 10SM CLR 31/24 A3000 -60 67 1700 360/07 RMK AO2 T03060239
53917KNEW NEW20190904230510809/04/19 23:05:31  5-MIN KNEW 050505Z AUTO 36007KT 10SM CLR 30/24 A3000 -60 69 1700 360/07 RMK AO2 T03000239
53917KNEW NEW20190904231010809/04/19 23:10:31  5-MIN KNEW 050510Z AUTO 36008KT 10SM CLR 31/24 A3000 -60 67 1700 360/08 RMK AO2 T03060239
53917KNEW NEW20190904231510809/04/19 23:15:31  5-MIN KNEW 050515Z AUTO 36007KT 10SM CLR 31/24 A3000 -60 67 1700 360/07 RMK AO2 T03060239
53917KNEW NEW20190904232010809/04/19 23:20:31  5-MIN KNEW 050520Z AUTO 36007KT 10SM CLR 30/24 A3000 -60 69 1700 360/07 RMK AO2 T03000239
53917KNEW NEW20190904232510809/04/19 23:25:31  5-MIN KNEW 050525Z AUTO 36008KT 10SM CLR 30/24 A3000 -60 69 1700 360/08 RMK AO2 T03000239
53917KNEW NEW20190904233010809/04/19 23:30:31  5-MIN KNEW 050530Z AUTO 36007KT 10SM CLR 30/24 A3000 -50 69 1700 360/07 RMK AO2 T03000239
53917KNEW NEW20190904233510809/04/19 23:35:31  5-MIN KNEW 050535Z AUTO 36008KT 10SM CLR 30/24 A3000 -50 69 1700 360/08 RMK AO2 T03000239
53917KNEW NEW20190904234010809/04/19 23:40:31  5-MIN KNEW 050540Z AUTO 01008KT 10SM CLR 30/24 A3000 -50 69 1700 010/08 RMK AO2 T03000239
53917KNEW NEW20190904234510809/04/19 23:45:31  5-MIN KNEW 050545Z AUTO 36007KT 10SM CLR 30/24 A3000 -50 69 1700 360/07 RMK AO2 T03000239
53917KNEW NEW20190904235014309/04/19 23:50:31  5-MIN KNEW 050550Z AUTO 01007KT 10SM CLR 30/23 A3000 -50 67 1700 010/07 RMK AO2 SLP151 T03000233 10328 20300 403390283 53013
53917KNEW NEW20190904235510809/04/19 23:55:31  5-MIN KNEW 050555Z AUTO 01008KT 10SM CLR 30/23 A2999 -50 67 1700 010/08 RMK AO2 T03000233
53917KNEW NEW20190905000010809/05/19 00:00:31  5-MIN KNEW 050600Z AUTO 01009KT 10SM CLR 30/23 A2999 -50 67 1700 010/09 RMK AO2 T03000233
53917KNEW NEW20190905000510809/05/19 00:05:31  5-MIN KNEW 050605Z AUTO 01009KT 10SM CLR 31/23 A2999 -50 65 1800 010/09 RMK AO2 T03060233
53917KNEW NEW20190905001010809/05/19 00:10:31  5-MIN KNEW 050610Z AUTO 01008KT 10SM CLR 31/23 A2999 -50 65 1800 010/08 RMK AO2 T03060233
53917KNEW NEW20190905001510809/05/19 00:15:31  5-MIN KNEW 050615Z AUTO 01009KT 10SM CLR 30/23 A2999 -50 67 1700 010/09 RMK AO2 T03000233
53917KNEW NEW20190905002010809/05/19 00:20:31  5-MIN KNEW 050620Z AUTO 01008KT 10SM CLR 30/23 A2999 -50 65 1700 010/08 RMK AO2 T03000228
53917KNEW NEW20190905002510809/05/19 00:25:31  5-MIN KNEW 050625Z AUTO 02007KT 10SM CLR 31/23 A2999 -50 62 1800 020/07 RMK AO2 T03060228
53917KNEW NEW20190905003010809/05/19 00:30:31  5-MIN KNEW 050630Z AUTO 02008KT 10SM CLR 31/23 A2999 -50 62 1800 020/08 RMK AO2 T03060228
53917KNEW NEW20190905003510809/05/19 00:35:31  5-MIN KNEW 050635Z AUTO 02008KT 10SM CLR 31/23 A2999 -50 65 1800 020/08 RMK AO2 T03060233
53917KNEW NEW20190905004010809/05/19 00:40:31  5-MIN KNEW 050640Z AUTO 01007KT 10SM CLR 30/23 A2999 -50 67 1700 010/07 RMK AO2 T03000233
53917KNEW NEW20190905004510809/05/19 00:45:31  5-MIN KNEW 050645Z AUTO 02007KT 10SM CLR 30/23 A2999 -50 67 1700 020/07 RMK AO2 T03000233
53917KNEW NEW20190905005011509/05/19 00:50:31  5-MIN KNEW 050650Z AUTO 02007KT 10SM CLR 30/24 A2999 -50 69 1700 020/07 RMK AO2 SLP150 T03000239
53917KNEW NEW20190905005510809/05/19 00:55:31  5-MIN KNEW 050655Z AUTO 02007KT 10SM CLR 30/23 A2999 -50 67 1700 020/07 RMK AO2 T03000233
53917KNEW NEW20190905010010809/05/19 01:00:31  5-MIN KNEW 050700Z AUTO 02006KT 10SM CLR 30/23 A2999 -50 67 1700 020/06 RMK AO2 T03000233
53917KNEW NEW20190905010510809/05/19 01:05:31  5-MIN KNEW 050705Z AUTO 03007KT 10SM CLR 30/23 A2999 -50 67 1700 030/07 RMK AO2 T03000233
53917KNEW NEW20190905011010809/05/19 01:10:31  5-MIN KNEW 050710Z AUTO 03008KT 10SM CLR 30/23 A2999 -50 67 1700 030/08 RMK AO2 T03000233
53917KNEW NEW20190905011510809/05/19 01:15:31  5-MIN KNEW 050715Z AUTO 02008KT 10SM CLR 30/23 A2999 -50 65 1700 020/08 RMK AO2 T03000228
53917KNEW NEW20190905012010809/05/19 01:20:31  5-MIN KNEW 050720Z AUTO 03007KT 10SM CLR 30/23 A2999 -50 65 1700 030/07 RMK AO2 T03000228
53917KNEW NEW20190905012510809/05/19 01:25:31  5-MIN KNEW 050725Z AUTO 03008KT 10SM CLR 30/23 A2999 -50 65 1700 030/08 RMK AO2 T03000228
53917KNEW NEW20190905013010809/05/19 01:30:31  5-MIN KNEW 050730Z AUTO 03008KT 10SM CLR 30/23 A2999 -50 65 1700 030/08 RMK AO2 T03000228
53917KNEW NEW20190905013510809/05/19 01:35:31  5-MIN KNEW 050735Z AUTO 03007KT 10SM CLR 30/23 A2999 -50 65 1700 030/07 RMK AO2 T03000228
53917KNEW NEW20190905014010809/05/19 01:40:31  5-MIN KNEW 050740Z AUTO 02007KT 10SM CLR 30/23 A2999 -50 65 1700 020/07 RMK AO2 T03000228
53917KNEW NEW20190905014510809/05/19 01:45:31  5-MIN KNEW 050745Z AUTO 03008KT 10SM CLR 30/23 A2999 -50 65 1700 030/08 RMK AO2 T03000228
53917KNEW NEW20190905015011509/05/19 01:50:31  5-MIN KNEW 050750Z AUTO 03007KT 10SM CLR 30/23 A2999 -50 65 1700 030/07 RMK AO2 SLP150 T03000228
53917KNEW NEW20190905015510809/05/19 01:55:31  5-MIN KNEW 050755Z AUTO 03008KT 10SM CLR 30/23 A2999 -50 65 1700 030/08 RMK AO2 T03000228
53917KNEW NEW20190905020010809/05/19 02:00:31  5-MIN KNEW 050800Z AUTO 03007KT 10SM CLR 30/23 A2999 -50 65 1700 030/07 RMK AO2 T03000228
53917KNEW NEW20190905020510809/05/19 02:05:31  5-MIN KNEW 050805Z AUTO 03007KT 10SM CLR 30/23 A2999 -50 65 1700 030/07 RMK AO2 T03000228
53917KNEW NEW20190905021010809/05/19 02:10:31  5-MIN KNEW 050810Z AUTO 04008KT 10SM CLR 30/22 A2999 -50 62 1700 040/08 RMK AO2 T03000222
53917KNEW NEW20190905021510809/05/19 02:15:31  5-MIN KNEW 050815Z AUTO 04007KT 10SM CLR 30/22 A2999 -50 62 1700 040/07 RMK AO2 T03000222
53917KNEW NEW20190905022010809/05/19 02:20:31  5-MIN KNEW 050820Z AUTO 04008KT 10SM CLR 30/22 A2999 -50 62 1700 040/08 RMK AO2 T03000222
53917KNEW NEW20190905022510809/05/19 02:25:31  5-MIN KNEW 050825Z AUTO 04007KT 10SM CLR 30/22 A2999 -50 62 1700 040/07 RMK AO2 T03000222
53917KNEW NEW20190905023010809/05/19 02:30:31  5-MIN KNEW 050830Z AUTO 04008KT 10SM CLR 30/22 A2999 -50 62 1700 040/08 RMK AO2 T03000222
53917KNEW NEW20190905023510809/05/19 02:35:31  5-MIN KNEW 050835Z AUTO 04007KT 10SM CLR 30/23 A2999 -50 65 1700 040/07 RMK AO2 T03000228
53917KNEW NEW20190905024010809/05/19 02:40:31  5-MIN KNEW 050840Z AUTO 04007KT 10SM CLR 30/22 A2999 -50 62 1700 040/07 RMK AO2 T03000222
53917KNEW NEW20190905024510809/05/19 02:45:31  5-MIN KNEW 050845Z AUTO 04007KT 10SM CLR 30/22 A2999 -50 62 1700 040/07 RMK AO2 T03000222
53917KNEW NEW20190905025012109/05/19 02:50:31  5-MIN KNEW 050850Z AUTO 05006KT 10SM CLR 30/23 A2999 -50 65 1700 050/06 RMK AO2 SLP149 T03000228 58003
53917KNEW NEW20190905025510809/05/19 02:55:31  5-MIN KNEW 050855Z AUTO 04007KT 10SM CLR 30/23 A2999 -50 65 1700 040/07 RMK AO2 T03000228
53917KNEW NEW20190905030010809/05/19 03:00:31  5-MIN KNEW 050900Z AUTO 05007KT 10SM CLR 30/23 A2999 -50 65 1700 050/07 RMK AO2 T03000228
53917KNEW NEW20190905030510809/05/19 03:05:31  5-MIN KNEW 050905Z AUTO 05007KT 10SM CLR 30/22 A3000 -50 62 1700 050/07 RMK AO2 T03000222
53917KNEW NEW20190905031010809/05/19 03:10:31  5-MIN KNEW 050910Z AUTO 04008KT 10SM CLR 30/22 A3000 -60 62 1700 040/08 RMK AO2 T03000222
53917KNEW NEW20190905031510809/05/19 03:15:31  5-MIN KNEW 050915Z AUTO 04007KT 10SM CLR 29/22 A3000 -60 64 1600 040/07 RMK AO2 T02940222
53917KNEW NEW20190905032010809/05/19 03:20:31  5-MIN KNEW 050920Z AUTO 05006KT 10SM CLR 29/23 A3000 -60 67 1600 050/06 RMK AO2 T02940228
53917KNEW NEW20190905032510809/05/19 03:25:31  5-MIN KNEW 050925Z AUTO 05006KT 10SM CLR 29/22 A3000 -60 64 1600 050/06 RMK AO2 T02940222
53917KNEW NEW20190905033010809/05/19 03:30:31  5-MIN KNEW 050930Z AUTO 04006KT 10SM CLR 29/22 A3000 -60 64 1600 040/06 RMK AO2 T02940222
53917KNEW NEW20190905033510809/05/19 03:35:31  5-MIN KNEW 050935Z AUTO 05007KT 10SM CLR 29/22 A3000 -60 64 1600 050/07 RMK AO2 T02940222
53917KNEW NEW20190905034010809/05/19 03:40:31  5-MIN KNEW 050940Z AUTO 05005KT 10SM CLR 29/22 A3000 -60 64 1600 050/05 RMK AO2 T02940222
53917KNEW NEW20190905034510809/05/19 03:45:31  5-MIN KNEW 050945Z AUTO 03005KT 10SM CLR 29/22 A3000 -60 64 1600 030/05 RMK AO2 T02940222
53917KNEW NEW20190905035011509/05/19 03:50:31  5-MIN KNEW 050950Z AUTO 04005KT 10SM CLR 29/22 A3000 -60 64 1600 040/05 RMK AO2 SLP154 T02940222
53917KNEW NEW20190905035510809/05/19 03:55:31  5-MIN KNEW 050955Z AUTO 05004KT 10SM CLR 29/22 A3000 -60 64 1600 050/04 RMK AO2 T02940222
53917KNEW NEW20190905040010809/05/19 04:00:31  5-MIN KNEW 051000Z AUTO 04004KT 10SM CLR 29/23 A3001 -60 67 1600 040/04 RMK AO2 T02940228
53917KNEW NEW20190905040510809/05/19 04:05:31  5-MIN KNEW 051005Z AUTO 05005KT 10SM CLR 29/23 A3001 -60 67 1600 050/05 RMK AO2 T02940228
53917KNEW NEW20190905041010809/05/19 04:10:31  5-MIN KNEW 051010Z AUTO 03004KT 10SM CLR 29/23 A3001 -70 67 1600 030/04 RMK AO2 T02940228
53917KNEW NEW20190905041510809/05/19 04:15:31  5-MIN KNEW 051015Z AUTO 02004KT 10SM CLR 29/23 A3001 -70 69 1600 020/04 RMK AO2 T02890228
53917KNEW NEW20190905042010809/05/19 04:20:31  5-MIN KNEW 051020Z AUTO 02004KT 10SM CLR 29/22 A3001 -70 67 1600 020/04 RMK AO2 T02890222
53917KNEW NEW20190905042510809/05/19 04:25:31  5-MIN KNEW 051025Z AUTO 03005KT 10SM CLR 29/23 A3001 -70 69 1500 030/05 RMK AO2 T02890228
53917KNEW NEW20190905043010809/05/19 04:30:31  5-MIN KNEW 051030Z AUTO 02004KT 10SM CLR 29/23 A3001 -70 69 1500 020/04 RMK AO2 T02890228
53917KNEW NEW20190905043510809/05/19 04:35:31  5-MIN KNEW 051035Z AUTO 02004KT 10SM CLR 29/23 A3001 -70 69 1500 020/04 RMK AO2 T02890228
53917KNEW NEW20190905044010809/05/19 04:40:31  5-MIN KNEW 051040Z AUTO 02004KT 10SM CLR 29/23 A3001 -70 69 1500 020/04 RMK AO2 T02890228
53917KNEW NEW20190905044510809/05/19 04:45:31  5-MIN KNEW 051045Z AUTO 02004KT 10SM CLR 29/23 A3002 -70 69 1500 020/04 RMK AO2 T02890228
53917KNEW NEW20190905045011509/05/19 04:50:31  5-MIN KNEW 051050Z AUTO 04005KT 10SM CLR 29/23 A3001 -70 69 1500 040/05 RMK AO2 SLP157 T02890228
53917KNEW NEW20190905045510809/05/19 04:55:31  5-MIN KNEW 051055Z AUTO 02004KT 10SM CLR 29/23 A3002 -70 69 1500 020/04 RMK AO2 T02890228
53917KNEW NEW20190905050010809/05/19 05:00:31  5-MIN KNEW 051100Z AUTO 02003KT 10SM CLR 29/23 A3002 -70 69 1500 020/03 RMK AO2 T02890228
53917KNEW NEW20190905050510809/05/19 05:05:31  5-MIN KNEW 051105Z AUTO 03004KT 10SM CLR 29/23 A3002 -80 69 1500 030/04 RMK AO2 T02890228
53917KNEW NEW20190905051010809/05/19 05:10:31  5-MIN KNEW 051110Z AUTO 02003KT 10SM CLR 29/23 A3002 -80 69 1500 020/03 RMK AO2 T02890228
53917KNEW NEW20190905051510809/05/19 05:15:31  5-MIN KNEW 051115Z AUTO 02003KT 10SM CLR 28/23 A3003 -80 71 1500 020/03 RMK AO2 T02830228
53917KNEW NEW20190905052010809/05/19 05:20:31  5-MIN KNEW 051120Z AUTO 02003KT 10SM CLR 29/23 A3003 -80 69 1500 020/03 RMK AO2 T02890228
53917KNEW NEW20190905052510809/05/19 05:25:31  5-MIN KNEW 051125Z AUTO 01003KT 10SM CLR 29/23 A3003 -90 69 1500 010/03 RMK AO2 T02890228
53917KNEW NEW20190905053010809/05/19 05:30:31  5-MIN KNEW 051130Z AUTO 00000KT 10SM CLR 28/23 A3003 -90 71 1500 000/00 RMK AO2 T02830228
53917KNEW NEW20190905053510809/05/19 05:35:31  5-MIN KNEW 051135Z AUTO 00000KT 10SM CLR 29/23 A3003 -90 69 1500 000/00 RMK AO2 T02890228
53917KNEW NEW20190905054010809/05/19 05:40:31  5-MIN KNEW 051140Z AUTO 00000KT 10SM CLR 29/23 A3003 -90 69 1500 000/00 RMK AO2 T02890228
53917KNEW NEW20190905054510709/05/19 05:45:31  5-MIN KNEW 051145Z AUTO 00000KT 9SM CLR 29/23 A3004 -90 69 1500 000/00 RMK AO2 T02890228
53917KNEW NEW20190905055013209/05/19 05:50:31  5-MIN KNEW 051150Z AUTO 03003KT 9SM CLR 29/23 A3004 -90 69 1500 030/03 RMK AO2 SLP165 T02890228 10306 20283 56001
53917KNEW NEW20190905055510709/05/19 05:55:31  5-MIN KNEW 051155Z AUTO 03003KT 9SM CLR 29/23 A3004 -90 69 1500 030/03 RMK AO2 T02890228
53917KNEW NEW20190905060010209/05/19 06:00:31  5-MIN KNEW 051200Z 02003KT 9SM CLR 29/23 A3004 -90 69 1500 020/03 RMK AO2 T02890228
53917KNEW NEW20190905060510209/05/19 06:05:31  5-MIN KNEW 051205Z 02003KT 9SM CLR 29/23 A3004 -90 69 1500 020/03 RMK AO2 T02890228
53917KNEW NEW20190905061010309/05/19 06:10:31  5-MIN KNEW 051210Z 01005KT 9SM CLR 29/23 A3004 -100 69 1500 010/05 RMK AO2 T02890228
53917KNEW NEW20190905061510309/05/19 06:15:31  5-MIN KNEW 051215Z 01004KT 9SM CLR 29/23 A3005 -100 69 1500 010/04 RMK AO2 T02890228
53917KNEW NEW20190905062010309/05/19 06:20:31  5-MIN KNEW 051220Z 02004KT 9SM CLR 29/23 A3005 -100 69 1500 020/04 RMK AO2 T02890228
53917KNEW NEW20190905062510309/05/19 06:25:31  5-MIN KNEW 051225Z 01004KT 9SM CLR 29/23 A3005 -100 69 1500 010/04 RMK AO2 T02890228
53917KNEW NEW20190905063010309/05/19 06:30:31  5-MIN KNEW 051230Z 00000KT 9SM CLR 29/23 A3005 -110 69 1600 000/00 RMK AO2 T02940233
53917KNEW NEW20190905063510309/05/19 06:35:31  5-MIN KNEW 051235Z 00000KT 9SM CLR 29/23 A3005 -110 69 1600 000/00 RMK AO2 T02940233
53917KNEW NEW20190905064010309/05/19 06:40:31  5-MIN KNEW 051240Z 00000KT 9SM CLR 29/23 A3006 -110 69 1600 000/00 RMK AO2 T02940233
53917KNEW NEW20190905064510309/05/19 06:45:31  5-MIN KNEW 051245Z 00000KT 9SM CLR 29/23 A3006 -110 67 1600 000/00 RMK AO2 T02940228
53917KNEW NEW20190905065011009/05/19 06:50:31  5-MIN KNEW 051250Z 00000KT 9SM CLR 29/23 A3006 -110 67 1600 000/00 RMK AO2 SLP172 T02940228
53917KNEW NEW20190905065510309/05/19 06:55:31  5-MIN KNEW 051255Z 35003KT 9SM CLR 30/23 A3006 -110 65 1600 350/03 RMK AO2 T03000228
53917KNEW NEW20190905070010409/05/19 07:00:31  5-MIN KNEW 051300Z 00000KT 10SM CLR 30/23 A3006 -120 65 1600 000/00 RMK AO2 T03000228
53917KNEW NEW20190905070510409/05/19 07:05:31  5-MIN KNEW 051305Z 36003KT 10SM CLR 30/23 A3007 -120 65 1600 360/03 RMK AO2 T03000228
53917KNEW NEW20190905071010409/05/19 07:10:31  5-MIN KNEW 051310Z 02004KT 10SM CLR 30/23 A3007 -120 65 1600 020/04 RMK AO2 T03000228
53917KNEW NEW20190905071510409/05/19 07:15:31  5-MIN KNEW 051315Z 03004KT 10SM CLR 30/22 A3007 -120 62 1600 030/04 RMK AO2 T03000222
53917KNEW NEW20190905072010409/05/19 07:20:31  5-MIN KNEW 051320Z 02004KT 10SM CLR 30/22 A3006 -120 62 1600 020/04 RMK AO2 T03000222
53917KNEW NEW20190905072510409/05/19 07:25:31  5-MIN KNEW 051325Z 03004KT 10SM CLR 30/22 A3007 -120 62 1600 030/04 RMK AO2 T03000222
53917KNEW NEW20190905073010409/05/19 07:30:31  5-MIN KNEW 051330Z 02004KT 10SM CLR 30/23 A3007 -120 65 1600 020/04 RMK AO2 T03000228
53917KNEW NEW20190905073510409/05/19 07:35:31  5-MIN KNEW 051335Z 02004KT 10SM CLR 30/23 A3007 -120 65 1600 020/04 RMK AO2 T03000228
53917KNEW NEW20190905074010409/05/19 07:40:31  5-MIN KNEW 051340Z 02003KT 10SM CLR 30/23 A3007 -120 65 1600 020/03 RMK AO2 T03000228
53917KNEW NEW20190905074510409/05/19 07:45:31  5-MIN KNEW 051345Z 36003KT 10SM CLR 30/23 A3007 -120 65 1600 360/03 RMK AO2 T03000228
53917KNEW NEW20190905075011109/05/19 07:50:31  5-MIN KNEW 051350Z 34003KT 10SM CLR 30/23 A3007 -120 65 1600 340/03 RMK AO2 SLP176 T03000228
53917KNEW NEW20190905075510409/05/19 07:55:31  5-MIN KNEW 051355Z 36004KT 10SM CLR 31/22 A3007 -120 60 1700 360/04 RMK AO2 T03060222
53917KNEW NEW20190905080010409/05/19 08:00:31  5-MIN KNEW 051400Z 36004KT 10SM CLR 31/23 A3007 -120 62 1700 360/04 RMK AO2 T03060228
53917KNEW NEW20190905080510409/05/19 08:05:31  5-MIN KNEW 051405Z 36004KT 10SM CLR 31/23 A3007 -120 62 1700 360/04 RMK AO2 T03060228
53917KNEW NEW20190905081010309/05/19 08:10:31  5-MIN KNEW 051410Z 36004KT 9SM CLR 31/22 A3007 -120 60 1700 360/04 RMK AO2 T03060222
53917KNEW NEW20190905081510309/05/19 08:15:31  5-MIN KNEW 051415Z 33004KT 9SM CLR 31/23 A3007 -120 62 1700 330/04 RMK AO2 T03060228
53917KNEW NEW20190905082010309/05/19 08:20:31  5-MIN KNEW 051420Z 35004KT 9SM CLR 31/22 A3007 -130 60 1700 350/04 RMK AO2 T03060222
53917KNEW NEW20190905082510309/05/19 08:25:31  5-MIN KNEW 051425Z 35004KT 9SM CLR 31/22 A3007 -130 58 1700 350/04 RMK AO2 T03110222
53917KNEW NEW20190905083010309/05/19 08:30:31  5-MIN KNEW 051430Z 33005KT 8SM CLR 31/23 A3008 -130 62 1700 330/05 RMK AO2 T03060228
53917KNEW NEW20190905083510309/05/19 08:35:31  5-MIN KNEW 051435Z 33005KT 8SM CLR 31/23 A3008 -130 62 1700 330/05 RMK AO2 T03060228
53917KNEW NEW20190905084010309/05/19 08:40:31  5-MIN KNEW 051440Z 34005KT 8SM CLR 31/23 A3008 -130 62 1700 340/05 RMK AO2 T03060228
53917KNEW NEW20190905084510309/05/19 08:45:31  5-MIN KNEW 051445Z 32005KT 8SM CLR 31/23 A3008 -130 62 1700 320/05 RMK AO2 T03060228
53917KNEW NEW20190905085011609/05/19 08:50:31  5-MIN KNEW 051450Z 32005KT 8SM CLR 31/23 A3008 -130 62 1700 320/05 RMK AO2 SLP178 T03060228 53016
53917KNEW NEW20190905085510309/05/19 08:55:31  5-MIN KNEW 051455Z 32005KT 8SM CLR 31/23 A3008 -130 62 1700 320/05 RMK AO2 T03060228
53917KNEW NEW20190905090010609/05/19 09:00:31  5-MIN KNEW 051500Z 30005KT 6SM HZ CLR 31/23 A3008 -130 65 1700 300/05 RMK AO2 T03060233
53917KNEW NEW20190905090510609/05/19 09:05:31  5-MIN KNEW 051505Z 30004KT 6SM HZ CLR 30/23 A3007 -130 65 1600 300/04 RMK AO2 T03000228
53917KNEW NEW20190905091010609/05/19 09:10:31  5-MIN KNEW 051510Z 29005KT 6SM HZ CLR 30/23 A3007 -130 67 1600 290/05 RMK AO2 T03000233
53917KNEW NEW20190905091510309/05/19 09:15:31  5-MIN KNEW 051515Z 32005KT 7SM CLR 31/23 A3007 -130 62 1700 320/05 RMK AO2 T03060228
53917KNEW NEW20190905092010309/05/19 09:20:31  5-MIN KNEW 051520Z 31004KT 8SM CLR 31/23 A3007 -120 62 1700 310/04 RMK AO2 T03060228
53917KNEW NEW20190905092510309/05/19 09:25:31  5-MIN KNEW 051525Z 32005KT 8SM CLR 31/23 A3007 -120 62 1700 320/05 RMK AO2 T03060228
53917KNEW NEW20190905093010309/05/19 09:30:31  5-MIN KNEW 051530Z 32005KT 9SM CLR 31/22 A3007 -120 60 1700 320/05 RMK AO2 T03060222
53917KNEW NEW20190905093510309/05/19 09:35:31  5-MIN KNEW 051535Z 31005KT 9SM CLR 31/23 A3007 -120 62 1700 310/05 RMK AO2 T03060228
53917KNEW NEW20190905094010309/05/19 09:40:31  5-MIN KNEW 051540Z 30005KT 9SM CLR 31/23 A3007 -120 62 1700 300/05 RMK AO2 T03060228
53917KNEW NEW20190905094510309/05/19 09:45:31  5-MIN KNEW 051545Z 31005KT 9SM CLR 31/23 A3007 -120 62 1700 310/05 RMK AO2 T03060228
53917KNEW NEW20190905095011009/05/19 09:50:31  5-MIN KNEW 051550Z 30005KT 9SM CLR 31/23 A3007 -120 62 1700 300/05 RMK AO2 SLP175 T03060228
53917KNEW NEW20190905095510309/05/19 09:55:31  5-MIN KNEW 051555Z 31006KT 9SM CLR 31/23 A3007 -120 62 1700 310/06 RMK AO2 T03060228
53917KNEW NEW20190905100010309/05/19 10:00:31  5-MIN KNEW 051600Z 31006KT 9SM CLR 31/23 A3007 -120 60 1700 310/06 RMK AO2 T03110228
53917KNEW NEW20190905100510309/05/19 10:05:31  5-MIN KNEW 051605Z 30006KT 9SM CLR 31/23 A3007 -120 60 1700 300/06 RMK AO2 T03110228
53917KNEW NEW20190905101010409/05/19 10:10:31  5-MIN KNEW 051610Z 31006KT 10SM CLR 31/23 A3007 -120 63 1700 310/06 RMK AO2 T03110233
53917KNEW NEW20190905101510409/05/19 10:15:31  5-MIN KNEW 051615Z 29006KT 10SM CLR 31/23 A3007 -120 65 1700 290/06 RMK AO2 T03060233
53917KNEW NEW20190905102010309/05/19 10:20:31  5-MIN KNEW 051620Z 29006KT 9SM CLR 31/24 A3007 -120 67 1700 290/06 RMK AO2 T03060239
53917KNEW NEW20190905102510309/05/19 10:25:31  5-MIN KNEW 051625Z 30006KT 9SM CLR 31/23 A3007 -120 65 1700 300/06 RMK AO2 T03060233
53917KNEW NEW20190905103010309/05/19 10:30:31  5-MIN KNEW 051630Z 30006KT 9SM CLR 31/23 A3007 -120 65 1700 300/06 RMK AO2 T03060233
53917KNEW NEW20190905103510409/05/19 10:35:31  5-MIN KNEW 051635Z 30005KT 10SM CLR 31/23 A3007 -120 65 1700 300/05 RMK AO2 T03060233
53917KNEW NEW20190905104010409/05/19 10:40:31  5-MIN KNEW 051640Z 30006KT 10SM CLR 31/23 A3007 -120 63 1700 300/06 RMK AO2 T03110233
53917KNEW NEW20190905104510409/05/19 10:45:31  5-MIN KNEW 051645Z 31006KT 10SM CLR 31/23 A3007 -120 63 1700 310/06 RMK AO2 T03110233
53917KNEW NEW20190905105011009/05/19 10:50:31  5-MIN KNEW 051650Z 30006KT 9SM CLR 31/23 A3007 -120 60 1700 300/06 RMK AO2 SLP174 T03110228
53917KNEW NEW20190905105510309/05/19 10:55:31  5-MIN KNEW 051655Z 31006KT 9SM CLR 31/23 A3006 -120 60 1700 310/06 RMK AO2 T03110228
53917KNEW NEW20190905110010309/05/19 11:00:31  5-MIN KNEW 051700Z 30006KT 9SM CLR 31/23 A3006 -120 63 1700 300/06 RMK AO2 T03110233
53917KNEW NEW20190905110510309/05/19 11:05:31  5-MIN KNEW 051705Z 30006KT 9SM CLR 31/23 A3006 -120 63 1700 300/06 RMK AO2 T03110233
53917KNEW NEW20190905111010409/05/19 11:10:31  5-MIN KNEW 051710Z 30007KT 10SM CLR 31/23 A3006 -120 63 1700 300/07 RMK AO2 T03110233
53917KNEW NEW20190905111510409/05/19 11:15:31  5-MIN KNEW 051715Z 29006KT 10SM CLR 32/23 A3006 -120 61 1800 290/06 RMK AO2 T03170233
53917KNEW NEW20190905112010409/05/19 11:20:31  5-MIN KNEW 051720Z 30006KT 10SM CLR 31/23 A3006 -110 63 1700 300/06 RMK AO2 T03110233
53917KNEW NEW20190905112510409/05/19 11:25:31  5-MIN KNEW 051725Z 30006KT 10SM CLR 31/23 A3006 -110 63 1700 300/06 RMK AO2 T03110233
53917KNEW NEW20190905113010409/05/19 11:30:31  5-MIN KNEW 051730Z 30006KT 10SM CLR 32/23 A3006 -110 61 1800 300/06 RMK AO2 T03170233
53917KNEW NEW20190905113510409/05/19 11:35:31  5-MIN KNEW 051735Z 30006KT 10SM CLR 32/23 A3006 -110 61 1800 300/06 RMK AO2 T03170233
53917KNEW NEW20190905114010409/05/19 11:40:31  5-MIN KNEW 051740Z 29006KT 10SM CLR 31/23 A3006 -110 63 1700 290/06 RMK AO2 T03110233
53917KNEW NEW20190905114510409/05/19 11:45:31  5-MIN KNEW 051745Z 29006KT 10SM CLR 32/23 A3006 -110 61 1800 290/06 RMK AO2 T03170233
53917KNEW NEW20190905115012909/05/19 11:50:31  5-MIN KNEW 051750Z 29006KT 10SM CLR 32/23 A3006 -110 58 1800 290/06 RMK AO2 SLP172 T03170228 10317 20289 51013
53917KNEW NEW20190905115510409/05/19 11:55:31  5-MIN KNEW 051755Z 29006KT 10SM CLR 32/23 A3006 -110 61 1800 290/06 RMK AO2 T03170233
53917KNEW NEW20190905120010409/05/19 12:00:31  5-MIN KNEW 051800Z 29006KT 10SM CLR 32/23 A3005 -110 58 1800 290/06 RMK AO2 T03170228
53917KNEW NEW20190905120510409/05/19 12:05:31  5-MIN KNEW 051805Z 28006KT 10SM CLR 32/23 A3005 -100 58 1800 280/06 RMK AO2 T03170228
53917KNEW NEW20190905121010409/05/19 12:10:31  5-MIN KNEW 051810Z 28006KT 10SM CLR 32/23 A3005 -100 61 1800 280/06 RMK AO2 T03170233
53917KNEW NEW20190905121510409/05/19 12:15:31  5-MIN KNEW 051815Z 27007KT 10SM CLR 32/23 A3005 -100 58 1800 270/07 RMK AO2 T03170228
53917KNEW NEW20190905122010409/05/19 12:20:31  5-MIN KNEW 051820Z 28006KT 10SM CLR 32/23 A3005 -100 58 1800 280/06 RMK AO2 T03170228
53917KNEW NEW20190905122510409/05/19 12:25:31  5-MIN KNEW 051825Z 28007KT 10SM CLR 32/23 A3005 -100 61 1800 280/07 RMK AO2 T03170233
53917KNEW NEW20190905123010409/05/19 12:30:31  5-MIN KNEW 051830Z 27007KT 10SM CLR 32/23 A3005 -100 59 1900 270/07 RMK AO2 T03220233
53917KNEW NEW20190905123510409/05/19 12:35:31  5-MIN KNEW 051835Z 28007KT 10SM CLR 32/24 A3005 -100 61 1900 280/07 RMK AO2 T03220239
53917KNEW NEW20190905124010409/05/19 12:40:31  5-MIN KNEW 051840Z 28007KT 10SM CLR 32/23 A3005 -100 59 1900 280/07 RMK AO2 T03220233
53917KNEW NEW20190905124510409/05/19 12:45:31  5-MIN KNEW 051845Z 28007KT 10SM CLR 32/23 A3005 -100 57 1900 280/07 RMK AO2 T03220228
53917KNEW NEW20190905125011109/05/19 12:50:31  5-MIN KNEW 051850Z 28008KT 10SM CLR 33/23 A3004 -100 57 1900 280/08 RMK AO2 SLP167 T03280233
53917KNEW NEW20190905125510409/05/19 12:55:31  5-MIN KNEW 051855Z 27008KT 10SM CLR 32/23 A3004 -100 57 1900 270/08 RMK AO2 T03220228
53917KNEW NEW20190905130010309/05/19 13:00:31  5-MIN KNEW 051900Z 28009KT 10SM CLR 32/23 A3004 -90 57 1900 280/09 RMK AO2 T03220228
53917KNEW NEW20190905130510309/05/19 13:05:31  5-MIN KNEW 051905Z 27009KT 10SM CLR 33/22 A3004 -90 53 2000 270/09 RMK AO2 T03280222
53917KNEW NEW20190905131010309/05/19 13:10:31  5-MIN KNEW 051910Z 27009KT 10SM CLR 33/23 A3004 -90 55 2000 270/09 RMK AO2 T03280228
53917KNEW NEW20190905131510309/05/19 13:15:31  5-MIN KNEW 051915Z 27009KT 10SM CLR 32/24 A3003 -90 61 1900 270/09 RMK AO2 T03220239
53917KNEW NEW20190905132010209/05/19 13:20:31  5-MIN KNEW 051920Z 27009KT 9SM CLR 32/23 A3003 -90 59 1900 270/09 RMK AO2 T03220233
53917KNEW NEW20190905132510209/05/19 13:25:31  5-MIN KNEW 051925Z 27009KT 9SM CLR 33/23 A3003 -90 57 2000 270/09 RMK AO2 T03280233
53917KNEW NEW20190905133010309/05/19 13:30:31  5-MIN KNEW 051930Z 28009KT 10SM CLR 33/23 A3003 -80 57 2000 280/09 RMK AO2 T03280233
53917KNEW NEW20190905133510309/05/19 13:35:31  5-MIN KNEW 051935Z 27009KT 10SM CLR 33/23 A3003 -80 55 2000 270/09 RMK AO2 T03280228
53917KNEW NEW20190905134010309/05/19 13:40:31  5-MIN KNEW 051940Z 27010KT 10SM CLR 33/23 A3002 -80 57 2000 270/10 RMK AO2 T03280233
53917KNEW NEW20190905134510309/05/19 13:45:31  5-MIN KNEW 051945Z 27009KT 10SM CLR 33/23 A3002 -80 57 2000 270/09 RMK AO2 T03280233
53917KNEW NEW20190905135011009/05/19 13:50:31  5-MIN KNEW 051950Z 28010KT 10SM CLR 33/23 A3002 -80 57 2000 280/10 RMK AO2 SLP160 T03280233
53917KNEW NEW20190905135510309/05/19 13:55:31  5-MIN KNEW 051955Z 27009KT 10SM CLR 33/24 A3002 -80 59 2000 270/09 RMK AO2 T03280239
53917KNEW NEW20190905140010309/05/19 14:00:31  5-MIN KNEW 052000Z 27009KT 10SM CLR 33/24 A3002 -80 59 2000 270/09 RMK AO2 T03280239
53917KNEW NEW20190905140510309/05/19 14:05:31  5-MIN KNEW 052005Z 27008KT 10SM CLR 33/24 A3002 -70 59 2000 270/08 RMK AO2 T03280239
53917KNEW NEW20190905141010309/05/19 14:10:31  5-MIN KNEW 052010Z 27009KT 10SM CLR 33/24 A3001 -70 57 2000 270/09 RMK AO2 T03330239
53917KNEW NEW20190905141510209/05/19 14:15:31  5-MIN KNEW 052015Z 27009KT 9SM CLR 33/23 A3002 -70 57 2000 270/09 RMK AO2 T03280233
53917KNEW NEW20190905142010209/05/19 14:20:31  5-MIN KNEW 052020Z 28008KT 9SM CLR 33/23 A3001 -70 55 2000 280/08 RMK AO2 T03330233
53917KNEW NEW20190905142510209/05/19 14:25:31  5-MIN KNEW 052025Z 28009KT 9SM CLR 33/23 A3001 -70 53 2000 280/09 RMK AO2 T03330228
53917KNEW NEW20190905143010209/05/19 14:30:31  5-MIN KNEW 052030Z 29010KT 9SM CLR 33/23 A3001 -70 53 2000 290/10 RMK AO2 T03330228
53917KNEW NEW20190905143510209/05/19 14:35:31  5-MIN KNEW 052035Z 28010KT 9SM CLR 33/23 A3001 -60 53 2000 280/10 RMK AO2 T03330228
53917KNEW NEW20190905144010209/05/19 14:40:31  5-MIN KNEW 052040Z 28010KT 9SM CLR 33/23 A3001 -60 53 2000 280/10 RMK AO2 T03330228
53917KNEW NEW20190905144510209/05/19 14:45:31  5-MIN KNEW 052045Z 28010KT 9SM CLR 33/23 A3000 -60 55 2000 280/10 RMK AO2 T03330233
53917KNEW NEW20190905145011509/05/19 14:50:31  5-MIN KNEW 052050Z 28010KT 9SM CLR 33/23 A3000 -60 53 2100 280/10 RMK AO2 SLP153 T03330228 58007
53917KNEW NEW20190905145510209/05/19 14:55:31  5-MIN KNEW 052055Z 29010KT 9SM CLR 33/23 A3000 -60 53 2100 290/10 RMK AO2 T03330228
53917KNEW NEW20190905150010309/05/19 15:00:31  5-MIN KNEW 052100Z 29010KT 10SM CLR 33/23 A3000 -50 53 2100 290/10 RMK AO2 T03330228
53917KNEW NEW20190905150510309/05/19 15:05:31  5-MIN KNEW 052105Z 29010KT 10SM CLR 33/23 A3000 -50 53 2100 290/10 RMK AO2 T03330228
53917KNEW NEW20190905151010309/05/19 15:10:31  5-MIN KNEW 052110Z 28010KT 10SM CLR 33/23 A3000 -50 53 2100 280/10 RMK AO2 T03330228
53917KNEW NEW20190905151510309/05/19 15:15:31  5-MIN KNEW 052115Z 29010KT 10SM CLR 33/23 A2999 -50 55 2100 290/10 RMK AO2 T03330233
53917KNEW NEW20190905152010309/05/19 15:20:31  5-MIN KNEW 052120Z 29011KT 10SM CLR 33/23 A2999 -50 53 2100 290/11 RMK AO2 T03330228
53917KNEW NEW20190905152510309/05/19 15:25:31  5-MIN KNEW 052125Z 28010KT 10SM CLR 33/23 A2999 -50 53 2100 280/10 RMK AO2 T03330228
53917KNEW NEW20190905153010309/05/19 15:30:31  5-MIN KNEW 052130Z 29009KT 10SM CLR 33/23 A2999 -50 55 2100 290/09 RMK AO2 T03330233
53917KNEW NEW20190905153510309/05/19 15:35:31  5-MIN KNEW 052135Z 28010KT 10SM CLR 33/23 A2999 -50 55 2100 280/10 RMK AO2 T03330233
53917KNEW NEW20190905154010309/05/19 15:40:31  5-MIN KNEW 052140Z 29010KT 10SM CLR 33/23 A2999 -50 55 2100 290/10 RMK AO2 T03330233
53917KNEW NEW20190905154510309/05/19 15:45:31  5-MIN KNEW 052145Z 28010KT 10SM CLR 33/23 A2999 -50 55 2100 280/10 RMK AO2 T03330233
53917KNEW NEW20190905155011009/05/19 15:50:31  5-MIN KNEW 052150Z 28010KT 10SM CLR 33/23 A2999 -50 55 2100 280/10 RMK AO2 SLP148 T03330233
53917KNEW NEW20190905155510209/05/19 15:55:31  5-MIN KNEW 052155Z 28011KT 9SM CLR 33/24 A2999 -40 57 2100 280/11 RMK AO2 T03330239
53917KNEW NEW20190905160010209/05/19 16:00:31  5-MIN KNEW 052200Z 28010KT 9SM CLR 33/24 A2998 -40 57 2100 280/10 RMK AO2 T03330239
53917KNEW NEW20190905160510209/05/19 16:05:31  5-MIN KNEW 052205Z 28010KT 9SM CLR 33/23 A2998 -40 55 2100 280/10 RMK AO2 T03330233
53917KNEW NEW20190905161010209/05/19 16:10:31  5-MIN KNEW 052210Z 29009KT 9SM CLR 33/23 A2998 -40 53 2100 290/09 RMK AO2 T03330228
53917KNEW NEW20190905161510209/05/19 16:15:31  5-MIN KNEW 052215Z 28010KT 9SM CLR 33/23 A2998 -40 55 2100 280/10 RMK AO2 T03330233
53917KNEW NEW20190905162010209/05/19 16:20:31  5-MIN KNEW 052220Z 28010KT 9SM CLR 33/23 A2998 -40 55 2100 280/10 RMK AO2 T03330233
53917KNEW NEW20190905162510209/05/19 16:25:31  5-MIN KNEW 052225Z 28009KT 9SM CLR 33/23 A2998 -40 55 2100 280/09 RMK AO2 T03330233
53917KNEW NEW20190905163010209/05/19 16:30:31  5-MIN KNEW 052230Z 28010KT 9SM CLR 33/23 A2998 -40 55 2100 280/10 RMK AO2 T03330233
53917KNEW NEW20190905163510209/05/19 16:35:31  5-MIN KNEW 052235Z 28009KT 9SM CLR 33/23 A2998 -40 53 2100 280/09 RMK AO2 T03330228
53917KNEW NEW20190905164010209/05/19 16:40:31  5-MIN KNEW 052240Z 28009KT 9SM CLR 33/23 A2998 -40 55 2100 280/09 RMK AO2 T03330233
53917KNEW NEW20190905164510209/05/19 16:45:31  5-MIN KNEW 052245Z 28010KT 9SM CLR 33/23 A2998 -30 55 2100 280/10 RMK AO2 T03330233
53917KNEW NEW20190905165010909/05/19 16:50:31  5-MIN KNEW 052250Z 28009KT 9SM CLR 33/23 A2998 -40 55 2100 280/09 RMK AO2 SLP144 T03330233
53917KNEW NEW20190905165510209/05/19 16:55:31  5-MIN KNEW 052255Z 28009KT 9SM CLR 33/23 A2998 -40 55 2100 280/09 RMK AO2 T03330233
53917KNEW NEW20190905170010209/05/19 17:00:31  5-MIN KNEW 052300Z 28009KT 9SM CLR 33/23 A2998 -40 57 2000 280/09 RMK AO2 T03280233
53917KNEW NEW20190905170510209/05/19 17:05:31  5-MIN KNEW 052305Z 28008KT 9SM CLR 33/24 A2998 -40 59 2000 280/08 RMK AO2 T03280239
53917KNEW NEW20190905171010209/05/19 17:10:31  5-MIN KNEW 052310Z 27008KT 9SM CLR 33/23 A2998 -40 57 2000 270/08 RMK AO2 T03280233
53917KNEW NEW20190905171510209/05/19 17:15:31  5-MIN KNEW 052315Z 27007KT 9SM CLR 33/24 A2998 -40 59 2000 270/07 RMK AO2 T03280239
53917KNEW NEW20190905172010209/05/19 17:20:31  5-MIN KNEW 052320Z 27008KT 9SM CLR 33/24 A2998 -40 59 2000 270/08 RMK AO2 T03280239
53917KNEW NEW20190905172510209/05/19 17:25:31  5-MIN KNEW 052325Z 27008KT 9SM CLR 33/24 A2998 -40 59 2000 270/08 RMK AO2 T03280239
53917KNEW NEW20190905173010209/05/19 17:30:31  5-MIN KNEW 052330Z 27007KT 9SM CLR 33/24 A2998 -30 61 2000 270/07 RMK AO2 T03280244
53917KNEW NEW20190905173510209/05/19 17:35:31  5-MIN KNEW 052335Z 28008KT 9SM CLR 33/24 A2997 -30 59 2000 280/08 RMK AO2 T03280239
53917KNEW NEW20190905174010209/05/19 17:40:31  5-MIN KNEW 052340Z 28007KT 9SM CLR 32/24 A2997 -30 63 2000 280/07 RMK AO2 T03220244
53917KNEW NEW20190905174510209/05/19 17:45:31  5-MIN KNEW 052345Z 28007KT 8SM CLR 32/24 A2997 -30 63 2000 280/07 RMK AO2 T03220244
53917KNEW NEW20190905175012709/05/19 17:50:31  5-MIN KNEW 052350Z 28007KT 8SM CLR 32/24 A2997 -30 63 2000 280/07 RMK AO2 SLP143 T03220244 10333 20317 58019
53917KNEW NEW20190905175510209/05/19 17:55:31  5-MIN KNEW 052355Z 28007KT 8SM CLR 32/24 A2997 -30 63 2000 280/07 RMK AO2 T03220244
53917KNEW NEW20190905180010209/05/19 18:00:31  5-MIN KNEW 060000Z 29008KT 8SM CLR 32/24 A2997 -30 63 2000 290/08 RMK AO2 T03220244
53917KNEW NEW20190905180510209/05/19 18:05:31  5-MIN KNEW 060005Z 30007KT 8SM CLR 32/24 A2997 -30 63 2000 300/07 RMK AO2 T03220244
53917KNEW NEW20190905181010209/05/19 18:10:31  5-MIN KNEW 060010Z 30007KT 8SM CLR 32/24 A2997 -30 63 2000 300/07 RMK AO2 T03220244
53917KNEW NEW20190905181510209/05/19 18:15:31  5-MIN KNEW 060015Z 30008KT 8SM CLR 32/24 A2997 -30 63 2000 300/08 RMK AO2 T03220244
53917KNEW NEW20190905182010209/05/19 18:20:31  5-MIN KNEW 060020Z 30007KT 8SM CLR 32/24 A2997 -30 63 2000 300/07 RMK AO2 T03220244
53917KNEW NEW20190905182510209/05/19 18:25:31  5-MIN KNEW 060025Z 30008KT 8SM CLR 32/25 A2997 -30 65 2000 300/08 RMK AO2 T03220250
53917KNEW NEW20190905183010209/05/19 18:30:31  5-MIN KNEW 060030Z 30007KT 9SM CLR 32/24 A2997 -30 63 2000 300/07 RMK AO2 T03220244
53917KNEW NEW20190905183510309/05/19 18:35:31  5-MIN KNEW 060035Z 30006KT 10SM CLR 32/25 A2997 -30 65 2000 300/06 RMK AO2 T03220250
53917KNEW NEW20190905184010309/05/19 18:40:31  5-MIN KNEW 060040Z 30007KT 10SM CLR 32/25 A2997 -30 65 2000 300/07 RMK AO2 T03220250
53917KNEW NEW20190905184510309/05/19 18:45:31  5-MIN KNEW 060045Z 30006KT 10SM CLR 32/25 A2997 -30 65 2000 300/06 RMK AO2 T03220250
53917KNEW NEW20190905185011009/05/19 18:50:31  5-MIN KNEW 060050Z 30005KT 10SM CLR 32/25 A2997 -30 67 1900 300/05 RMK AO2 SLP143 T03170250
53917KNEW NEW20190905185510209/05/19 18:55:31  5-MIN KNEW 060055Z 30006KT 9SM CLR 32/25 A2997 -30 67 1900 300/06 RMK AO2 T03170250
53917KNEW NEW20190905190010209/05/19 19:00:31  5-MIN KNEW 060100Z 31006KT 9SM CLR 32/25 A2998 -30 67 1900 310/06 RMK AO2 T03170250
53917KNEW NEW20190905190510209/05/19 19:05:31  5-MIN KNEW 060105Z 31005KT 8SM CLR 32/25 A2998 -30 67 1900 310/05 RMK AO2 T03170250
53917KNEW NEW20190905191010209/05/19 19:10:31  5-MIN KNEW 060110Z 31006KT 7SM CLR 32/26 A2998 -40 69 1900 310/06 RMK AO2 T03170256
53917KNEW NEW20190905191510509/05/19 19:15:31  5-MIN KNEW 060115Z 33007KT 6SM HZ CLR 32/26 A2998 -40 72 1900 330/07 RMK AO2 T03170261
53917KNEW NEW20190905192010209/05/19 19:20:31  5-MIN KNEW 060120Z 33007KT 7SM CLR 32/26 A2998 -40 69 1900 330/07 RMK AO2 T03170256
53917KNEW NEW20190905192510209/05/19 19:25:31  5-MIN KNEW 060125Z 33007KT 7SM CLR 32/26 A2998 -40 69 1900 330/07 RMK AO2 T03170256
53917KNEW NEW20190905193010509/05/19 19:30:31  5-MIN KNEW 060130Z 33008KT 6SM HZ CLR 32/25 A2998 -40 67 1900 330/08 RMK AO2 T03170250
53917KNEW NEW20190905193510509/05/19 19:35:31  5-MIN KNEW 060135Z 33008KT 6SM HZ CLR 32/25 A2998 -40 67 1900 330/08 RMK AO2 T03170250
53917KNEW NEW20190905194010509/05/19 19:40:31  5-MIN KNEW 060140Z 33008KT 6SM HZ CLR 32/25 A2998 -40 67 1900 330/08 RMK AO2 T03170250
53917KNEW NEW20190905194510209/05/19 19:45:31  5-MIN KNEW 060145Z 33008KT 7SM CLR 32/26 A2998 -40 69 1900 330/08 RMK AO2 T03170256
53917KNEW NEW20190905195010909/05/19 19:50:31  5-MIN KNEW 060150Z 33007KT 7SM CLR 32/26 A2998 -40 69 1900 330/07 RMK AO2 SLP146 T03170256
53917KNEW NEW20190905195510509/05/19 19:55:31  5-MIN KNEW 060155Z 33008KT 6SM HZ CLR 32/26 A2998 -40 69 1900 330/08 RMK AO2 T03170256
53917KNEW NEW20190905200011009/05/19 20:00:31  5-MIN KNEW 060200Z AUTO 33007KT 6SM HZ CLR 32/26 A2999 -40 69 1900 330/07 RMK AO2 T03170256
53917KNEW NEW20190905200510709/05/19 20:05:31  5-MIN KNEW 060205Z AUTO 33007KT 7SM CLR 32/26 A2999 -50 69 1900 330/07 RMK AO2 T03170256
53917KNEW NEW20190905201010709/05/19 20:10:31  5-MIN KNEW 060210Z AUTO 33007KT 7SM CLR 32/26 A2999 -50 69 1900 330/07 RMK AO2 T03170256
53917KNEW NEW20190905201510709/05/19 20:15:31  5-MIN KNEW 060215Z AUTO 33006KT 7SM CLR 32/26 A2999 -50 69 1900 330/06 RMK AO2 T03170256
53917KNEW NEW20190905202010709/05/19 20:20:31  5-MIN KNEW 060220Z AUTO 33005KT 7SM CLR 32/26 A2999 -50 69 1900 330/05 RMK AO2 T03170256
53917KNEW NEW20190905202510709/05/19 20:25:31  5-MIN KNEW 060225Z AUTO 33006KT 7SM CLR 31/26 A2999 -50 72 1800 330/06 RMK AO2 T03110256
53917KNEW NEW20190905203011009/05/19 20:30:31  5-MIN KNEW 060230Z AUTO 33007KT 6SM HZ CLR 31/26 A2999 -50 72 1800 330/07 RMK AO2 T03110256
53917KNEW NEW20190905203510709/05/19 20:35:31  5-MIN KNEW 060235Z AUTO 32006KT 7SM CLR 31/26 A2999 -50 72 1800 320/06 RMK AO2 T03110256
53917KNEW NEW20190905204010709/05/19 20:40:31  5-MIN KNEW 060240Z AUTO 32006KT 7SM CLR 31/26 A2999 -50 72 1800 320/06 RMK AO2 T03110256
53917KNEW NEW20190905204511009/05/19 20:45:31  5-MIN KNEW 060245Z AUTO 32006KT 6SM HZ CLR 31/26 A2999 -50 74 1800 320/06 RMK AO2 T03110261
53917KNEW NEW20190905205012309/05/19 20:50:31  5-MIN KNEW 060250Z AUTO 32006KT 6SM HZ CLR 31/26 A2999 -50 74 1800 320/06 RMK AO2 SLP150 T03110261 56009
53917KNEW NEW20190905205510709/05/19 20:55:31  5-MIN KNEW 060255Z AUTO 32006KT 7SM CLR 31/26 A2999 -50 72 1800 320/06 RMK AO2 T03110256
53917KNEW NEW20190905210010709/05/19 21:00:31  5-MIN KNEW 060300Z AUTO 32006KT 7SM CLR 31/26 A2999 -50 72 1800 320/06 RMK AO2 T03110256
53917KNEW NEW20190905210510709/05/19 21:05:31  5-MIN KNEW 060305Z AUTO 32006KT 7SM CLR 31/26 A3000 -50 72 1800 320/06 RMK AO2 T03110256
53917KNEW NEW20190905211010709/05/19 21:10:31  5-MIN KNEW 060310Z AUTO 32006KT 8SM CLR 31/26 A3000 -50 72 1800 320/06 RMK AO2 T03110256
53917KNEW NEW20190905211510709/05/19 21:15:31  5-MIN KNEW 060315Z AUTO 31007KT 8SM CLR 31/26 A3000 -50 72 1800 310/07 RMK AO2 T03110256
53917KNEW NEW20190905212010709/05/19 21:20:31  5-MIN KNEW 060320Z AUTO 31006KT 8SM CLR 31/26 A2999 -50 72 1800 310/06 RMK AO2 T03110256
53917KNEW NEW20190905212510709/05/19 21:25:31  5-MIN KNEW 060325Z AUTO 31007KT 9SM CLR 31/26 A3000 -50 72 1800 310/07 RMK AO2 T03110256
53917KNEW NEW20190905213010709/05/19 21:30:31  5-MIN KNEW 060330Z AUTO 31007KT 9SM CLR 31/26 A2999 -50 72 1800 310/07 RMK AO2 T03110256
53917KNEW NEW20190905213510709/05/19 21:35:31  5-MIN KNEW 060335Z AUTO 31007KT 9SM CLR 31/26 A2999 -50 72 1800 310/07 RMK AO2 T03110256
53917KNEW NEW20190905214010709/05/19 21:40:31  5-MIN KNEW 060340Z AUTO 31007KT 9SM CLR 31/26 A2999 -50 72 1800 310/07 RMK AO2 T03110256
53917KNEW NEW20190905214510709/05/19 21:45:31  5-MIN KNEW 060345Z AUTO 31007KT 9SM CLR 31/26 A2999 -50 72 1800 310/07 RMK AO2 T03110256
53917KNEW NEW20190905215011509/05/19 21:50:31  5-MIN KNEW 060350Z AUTO 31006KT 10SM CLR 31/26 A2999 -50 72 1800 310/06 RMK AO2 SLP149 T03110256
53917KNEW NEW20190905215510809/05/19 21:55:31  5-MIN KNEW 060355Z AUTO 31006KT 10SM CLR 31/26 A2999 -50 72 1800 310/06 RMK AO2 T03110256
53917KNEW NEW20190905220010809/05/19 22:00:31  5-MIN KNEW 060400Z AUTO 31007KT 10SM CLR 31/26 A2999 -50 72 1800 310/07 RMK AO2 T03110256
53917KNEW NEW20190905220510809/05/19 22:05:31  5-MIN KNEW 060405Z AUTO 31006KT 10SM CLR 31/26 A2999 -50 72 1800 310/06 RMK AO2 T03110256
53917KNEW NEW20190905221010809/05/19 22:10:31  5-MIN KNEW 060410Z AUTO 31006KT 10SM CLR 31/26 A2999 -50 72 1800 310/06 RMK AO2 T03110256
53917KNEW NEW20190905221510809/05/19 22:15:31  5-MIN KNEW 060415Z AUTO 31006KT 10SM CLR 31/26 A2999 -50 72 1800 310/06 RMK AO2 T03110256
53917KNEW NEW20190905222010809/05/19 22:20:31  5-MIN KNEW 060420Z AUTO 31006KT 10SM CLR 31/26 A2999 -50 72 1800 310/06 RMK AO2 T03110256
53917KNEW NEW20190905222510809/05/19 22:25:31  5-MIN KNEW 060425Z AUTO 31006KT 10SM CLR 31/26 A2999 -50 72 1800 310/06 RMK AO2 T03110256
53917KNEW NEW20190905223010809/05/19 22:30:31  5-MIN KNEW 060430Z AUTO 31006KT 10SM CLR 31/26 A2999 -50 72 1800 310/06 RMK AO2 T03110256
53917KNEW NEW20190905223510809/05/19 22:35:31  5-MIN KNEW 060435Z AUTO 31006KT 10SM CLR 31/26 A2999 -50 72 1800 310/06 RMK AO2 T03110256
53917KNEW NEW20190905224010809/05/19 22:40:31  5-MIN KNEW 060440Z AUTO 31005KT 10SM CLR 31/26 A2999 -50 72 1800 310/05 RMK AO2 T03110256
53917KNEW NEW20190905224510809/05/19 22:45:31  5-MIN KNEW 060445Z AUTO 31006KT 10SM CLR 31/26 A2999 -50 72 1800 310/06 RMK AO2 T03110256
53917KNEW NEW20190905225011509/05/19 22:50:31  5-MIN KNEW 060450Z AUTO 31006KT 10SM CLR 31/26 A2999 -50 72 1800 310/06 RMK AO2 SLP148 T03110256
53917KNEW NEW20190905225510809/05/19 22:55:31  5-MIN KNEW 060455Z AUTO 31006KT 10SM CLR 31/26 A2999 -40 72 1800 310/06 RMK AO2 T03110256
53917KNEW NEW20190905230010809/05/19 23:00:31  5-MIN KNEW 060500Z AUTO 31005KT 10SM CLR 31/26 A2999 -40 72 1800 310/05 RMK AO2 T03110256
53917KNEW NEW20190905230510809/05/19 23:05:31  5-MIN KNEW 060505Z AUTO 31006KT 10SM CLR 31/26 A2999 -40 72 1800 310/06 RMK AO2 T03110256
53917KNEW NEW20190905231010709/05/19 23:10:31  5-MIN KNEW 060510Z AUTO 31006KT 9SM CLR 31/26 A2998 -40 72 1800 310/06 RMK AO2 T03110256
53917KNEW NEW20190905231510809/05/19 23:15:31  5-MIN KNEW 060515Z AUTO 32007KT 10SM CLR 31/26 A2998 -40 72 1800 320/07 RMK AO2 T03110256
53917KNEW NEW20190905232010809/05/19 23:20:31  5-MIN KNEW 060520Z AUTO 31007KT 10SM CLR 31/26 A2998 -40 72 1800 310/07 RMK AO2 T03110256
53917KNEW NEW20190905232510809/05/19 23:25:31  5-MIN KNEW 060525Z AUTO 32007KT 10SM CLR 31/26 A2998 -40 72 1800 320/07 RMK AO2 T03110256
53917KNEW NEW20190905233010809/05/19 23:30:31  5-MIN KNEW 060530Z AUTO 32007KT 10SM CLR 31/25 A2998 -40 69 1800 320/07 RMK AO2 T03110250
53917KNEW NEW20190905233510809/05/19 23:35:31  5-MIN KNEW 060535Z AUTO 32007KT 10SM CLR 31/25 A2998 -40 69 1800 320/07 RMK AO2 T03110250
53917KNEW NEW20190905234010709/05/19 23:40:31  5-MIN KNEW 060540Z AUTO 31006KT 9SM CLR 31/25 A2998 -40 69 1800 310/06 RMK AO2 T03110250
53917KNEW NEW20190905234510709/05/19 23:45:31  5-MIN KNEW 060545Z AUTO 31007KT 9SM CLR 31/26 A2998 -40 72 1800 310/07 RMK AO2 T03110256
53917KNEW NEW20190905235014209/05/19 23:50:31  5-MIN KNEW 060550Z AUTO 32007KT 9SM CLR 31/25 A2998 -40 69 1800 320/07 RMK AO2 SLP146 T03110250 10322 20311 403330283 53007
53917KNEW NEW20190905235510709/05/19 23:55:31  5-MIN KNEW 060555Z AUTO 31008KT 9SM CLR 31/26 A2998 -40 72 1800 310/08 RMK AO2 T03110256
53917KNEW NEW20190906000010709/06/19 00:00:31  5-MIN KNEW 060600Z AUTO 31008KT 9SM CLR 31/25 A2998 -40 69 1800 310/08 RMK AO2 T03110250
53917KNEW NEW20190906000510709/06/19 00:05:31  5-MIN KNEW 060605Z AUTO 31007KT 9SM CLR 31/25 A2998 -40 72 1800 310/07 RMK AO2 T03060250
53917KNEW NEW20190906001010709/06/19 00:10:31  5-MIN KNEW 060610Z AUTO 31007KT 9SM CLR 31/25 A2999 -40 72 1800 310/07 RMK AO2 T03060250
53917KNEW NEW20190906001510709/06/19 00:15:31  5-MIN KNEW 060615Z AUTO 31007KT 9SM CLR 31/25 A2999 -40 72 1800 310/07 RMK AO2 T03060250
53917KNEW NEW20190906002010709/06/19 00:20:31  5-MIN KNEW 060620Z AUTO 31007KT 9SM CLR 31/25 A2999 -40 72 1800 310/07 RMK AO2 T03060250
53917KNEW NEW20190906002510709/06/19 00:25:31  5-MIN KNEW 060625Z AUTO 30007KT 9SM CLR 31/26 A2998 -40 74 1800 300/07 RMK AO2 T03060256
53917KNEW NEW20190906003010709/06/19 00:30:31  5-MIN KNEW 060630Z AUTO 30007KT 9SM CLR 31/26 A2998 -40 74 1800 300/07 RMK AO2 T03060256
53917KNEW NEW20190906003510709/06/19 00:35:31  5-MIN KNEW 060635Z AUTO 30007KT 9SM CLR 31/26 A2998 -40 74 1800 300/07 RMK AO2 T03060256
53917KNEW NEW20190906004010709/06/19 00:40:31  5-MIN KNEW 060640Z AUTO 31008KT 9SM CLR 31/26 A2998 -40 74 1800 310/08 RMK AO2 T03060256
53917KNEW NEW20190906004510709/06/19 00:45:31  5-MIN KNEW 060645Z AUTO 30008KT 9SM CLR 31/26 A2998 -40 74 1800 300/08 RMK AO2 T03060256
53917KNEW NEW20190906005011409/06/19 00:50:31  5-MIN KNEW 060650Z AUTO 30008KT 9SM CLR 31/26 A2998 -40 77 1800 300/08 RMK AO2 SLP145 T03060261
53917KNEW NEW20190906005510709/06/19 00:55:31  5-MIN KNEW 060655Z AUTO 31009KT 8SM CLR 31/26 A2998 -40 74 1800 310/09 RMK AO2 T03060256
53917KNEW NEW20190906010010709/06/19 01:00:31  5-MIN KNEW 060700Z AUTO 31009KT 9SM CLR 31/25 A2998 -40 72 1800 310/09 RMK AO2 T03060250
53917KNEW NEW20190906010510709/06/19 01:05:31  5-MIN KNEW 060705Z AUTO 31008KT 9SM CLR 31/25 A2998 -40 72 1800 310/08 RMK AO2 T03060250
53917KNEW NEW20190906011010709/06/19 01:10:31  5-MIN KNEW 060710Z AUTO 31009KT 9SM CLR 31/25 A2998 -40 72 1800 310/09 RMK AO2 T03060250
53917KNEW NEW20190906011510709/06/19 01:15:31  5-MIN KNEW 060715Z AUTO 31009KT 8SM CLR 31/25 A2998 -40 72 1800 310/09 RMK AO2 T03060250
53917KNEW NEW20190906012010709/06/19 01:20:31  5-MIN KNEW 060720Z AUTO 31009KT 8SM CLR 31/25 A2998 -40 72 1800 310/09 RMK AO2 T03060250
53917KNEW NEW20190906012510709/06/19 01:25:31  5-MIN KNEW 060725Z AUTO 31009KT 9SM CLR 31/25 A2998 -40 72 1800 310/09 RMK AO2 T03060250
53917KNEW NEW20190906013010709/06/19 01:30:31  5-MIN KNEW 060730Z AUTO 31009KT 9SM CLR 31/25 A2998 -40 72 1800 310/09 RMK AO2 T03060250
53917KNEW NEW20190906013510709/06/19 01:35:31  5-MIN KNEW 060735Z AUTO 31010KT 9SM CLR 31/25 A2998 -40 72 1800 310/10 RMK AO2 T03060250
53917KNEW NEW20190906014010709/06/19 01:40:31  5-MIN KNEW 060740Z AUTO 31009KT 9SM CLR 31/25 A2998 -40 72 1800 310/09 RMK AO2 T03060250
53917KNEW NEW20190906014510709/06/19 01:45:31  5-MIN KNEW 060745Z AUTO 31010KT 9SM CLR 31/25 A2998 -40 72 1800 310/10 RMK AO2 T03060250
53917KNEW NEW20190906015011409/06/19 01:50:31  5-MIN KNEW 060750Z AUTO 31009KT 9SM CLR 31/24 A2998 -40 69 1800 310/09 RMK AO2 SLP145 T03060244
53917KNEW NEW20190906015510709/06/19 01:55:31  5-MIN KNEW 060755Z AUTO 31009KT 9SM CLR 31/25 A2998 -40 72 1800 310/09 RMK AO2 T03060250
53917KNEW NEW20190906020010709/06/19 02:00:31  5-MIN KNEW 060800Z AUTO 31010KT 9SM CLR 31/24 A2998 -40 69 1800 310/10 RMK AO2 T03060244
53917KNEW NEW20190906020510709/06/19 02:05:31  5-MIN KNEW 060805Z AUTO 32009KT 9SM CLR 31/24 A2998 -40 69 1800 320/09 RMK AO2 T03060244
53917KNEW NEW20190906021010709/06/19 02:10:31  5-MIN KNEW 060810Z AUTO 32009KT 9SM CLR 30/24 A2998 -40 72 1700 320/09 RMK AO2 T03000244
53917KNEW NEW20190906021510709/06/19 02:15:31  5-MIN KNEW 060815Z AUTO 32009KT 9SM CLR 30/24 A2997 -30 72 1700 320/09 RMK AO2 T03000244
53917KNEW NEW20190906022010709/06/19 02:20:31  5-MIN KNEW 060820Z AUTO 32009KT 9SM CLR 30/25 A2998 -30 74 1700 320/09 RMK AO2 T03000250
53917KNEW NEW20190906022510709/06/19 02:25:31  5-MIN KNEW 060825Z AUTO 32009KT 9SM CLR 30/24 A2998 -40 72 1700 320/09 RMK AO2 T03000244
53917KNEW NEW20190906023010709/06/19 02:30:31  5-MIN KNEW 060830Z AUTO 31008KT 9SM CLR 30/24 A2998 -40 72 1700 310/08 RMK AO2 T03000244
53917KNEW NEW20190906023510709/06/19 02:35:31  5-MIN KNEW 060835Z AUTO 31007KT 9SM CLR 30/25 A2998 -40 74 1700 310/07 RMK AO2 T03000250
53917KNEW NEW20190906024010709/06/19 02:40:31  5-MIN KNEW 060840Z AUTO 30008KT 9SM CLR 30/25 A2998 -40 74 1700 300/08 RMK AO2 T03000250
53917KNEW NEW20190906024510709/06/19 02:45:31  5-MIN KNEW 060845Z AUTO 31008KT 9SM CLR 30/25 A2998 -40 74 1700 310/08 RMK AO2 T03000250
53917KNEW NEW20190906025012009/06/19 02:50:31  5-MIN KNEW 060850Z AUTO 32009KT 9SM CLR 30/25 A2998 -40 74 1700 320/09 RMK AO2 SLP146 T03000250 58003
53917KNEW NEW20190906025510709/06/19 02:55:31  5-MIN KNEW 060855Z AUTO 32009KT 9SM CLR 30/25 A2998 -40 74 1700 320/09 RMK AO2 T03000250
53917KNEW NEW20190906030010709/06/19 03:00:31  5-MIN KNEW 060900Z AUTO 31009KT 9SM CLR 30/25 A2998 -40 74 1700 310/09 RMK AO2 T03000250
53917KNEW NEW20190906030510709/06/19 03:05:31  5-MIN KNEW 060905Z AUTO 32010KT 9SM CLR 30/25 A2998 -40 74 1700 320/10 RMK AO2 T03000250
53917KNEW NEW20190906031010709/06/19 03:10:31  5-MIN KNEW 060910Z AUTO 32010KT 9SM CLR 30/25 A2998 -40 74 1700 320/10 RMK AO2 T03000250
53917KNEW NEW20190906031510709/06/19 03:15:31  5-MIN KNEW 060915Z AUTO 33011KT 9SM CLR 29/25 A2998 -40 76 1600 330/11 RMK AO2 T02940250
53917KNEW NEW20190906032010709/06/19 03:20:31  5-MIN KNEW 060920Z AUTO 32010KT 9SM CLR 29/26 A2998 -40 79 1600 320/10 RMK AO2 T02940256
53917KNEW NEW20190906032510709/06/19 03:25:31  5-MIN KNEW 060925Z AUTO 33010KT 8SM CLR 29/26 A2998 -40 79 1600 330/10 RMK AO2 T02940256
53917KNEW NEW20190906033010709/06/19 03:30:31  5-MIN KNEW 060930Z AUTO 33010KT 8SM CLR 29/26 A2998 -40 79 1600 330/10 RMK AO2 T02940256
53917KNEW NEW20190906033510709/06/19 03:35:31  5-MIN KNEW 060935Z AUTO 33009KT 8SM CLR 29/25 A2998 -40 76 1600 330/09 RMK AO2 T02940250
53917KNEW NEW20190906034010709/06/19 03:40:31  5-MIN KNEW 060940Z AUTO 33010KT 8SM CLR 29/25 A2998 -40 76 1600 330/10 RMK AO2 T02940250
53917KNEW NEW20190906034510709/06/19 03:45:31  5-MIN KNEW 060945Z AUTO 33008KT 8SM CLR 29/24 A2998 -40 74 1600 330/08 RMK AO2 T02940244
53917KNEW NEW20190906035011409/06/19 03:50:31  5-MIN KNEW 060950Z AUTO 33009KT 8SM CLR 29/24 A2998 -40 74 1600 330/09 RMK AO2 SLP147 T02940244
53917KNEW NEW20190906035510709/06/19 03:55:31  5-MIN KNEW 060955Z AUTO 33008KT 8SM CLR 29/24 A2999 -40 74 1600 330/08 RMK AO2 T02940244
53917KNEW NEW20190906040010709/06/19 04:00:31  5-MIN KNEW 061000Z AUTO 33010KT 8SM CLR 29/24 A2999 -50 74 1600 330/10 RMK AO2 T02940244
53917KNEW NEW20190906040510709/06/19 04:05:31  5-MIN KNEW 061005Z AUTO 33010KT 8SM CLR 29/24 A2999 -50 74 1600 330/10 RMK AO2 T02940244
53917KNEW NEW20190906041010709/06/19 04:10:31  5-MIN KNEW 061010Z AUTO 34010KT 8SM CLR 29/24 A2999 -50 71 1600 340/10 RMK AO2 T02940239
53917KNEW NEW20190906041510709/06/19 04:15:31  5-MIN KNEW 061015Z AUTO 33009KT 8SM CLR 29/24 A2999 -50 71 1600 330/09 RMK AO2 T02940239
53917KNEW NEW20190906042010709/06/19 04:20:31  5-MIN KNEW 061020Z AUTO 34010KT 8SM CLR 29/24 A2999 -50 71 1600 340/10 RMK AO2 T02940239
53917KNEW NEW20190906042510709/06/19 04:25:31  5-MIN KNEW 061025Z AUTO 34009KT 8SM CLR 29/23 A2999 -50 69 1600 340/09 RMK AO2 T02940233
53917KNEW NEW20190906043010709/06/19 04:30:31  5-MIN KNEW 061030Z AUTO 34008KT 8SM CLR 29/24 A3000 -50 71 1600 340/08 RMK AO2 T02940239
53917KNEW NEW20190906043510709/06/19 04:35:31  5-MIN KNEW 061035Z AUTO 34009KT 8SM CLR 29/24 A3000 -60 71 1600 340/09 RMK AO2 T02940239
53917KNEW NEW20190906044010709/06/19 04:40:31  5-MIN KNEW 061040Z AUTO 34008KT 8SM CLR 29/24 A3000 -60 71 1600 340/08 RMK AO2 T02940239
53917KNEW NEW20190906044510709/06/19 04:45:31  5-MIN KNEW 061045Z AUTO 34007KT 8SM CLR 29/24 A3000 -60 71 1600 340/07 RMK AO2 T02940239
53917KNEW NEW20190906045011409/06/19 04:50:31  5-MIN KNEW 061050Z AUTO 34008KT 8SM CLR 29/24 A3000 -60 74 1600 340/08 RMK AO2 SLP153 T02890239
53917KNEW NEW20190906045510709/06/19 04:55:31  5-MIN KNEW 061055Z AUTO 35006KT 7SM CLR 29/24 A3000 -60 74 1600 350/06 RMK AO2 T02890239
53917KNEW NEW20190906050010709/06/19 05:00:31  5-MIN KNEW 061100Z AUTO 34005KT 7SM CLR 29/23 A3000 -60 71 1600 340/05 RMK AO2 T02890233
53917KNEW NEW20190906050510709/06/19 05:05:31  5-MIN KNEW 061105Z AUTO 34007KT 7SM CLR 29/23 A3000 -60 71 1600 340/07 RMK AO2 T02890233
53917KNEW NEW20190906051010709/06/19 05:10:31  5-MIN KNEW 061110Z AUTO 34006KT 8SM CLR 29/23 A3000 -60 71 1600 340/06 RMK AO2 T02890233
53917KNEW NEW20190906051510709/06/19 05:15:31  5-MIN KNEW 061115Z AUTO 35006KT 8SM CLR 29/23 A3001 -60 71 1600 350/06 RMK AO2 T02890233
53917KNEW NEW20190906052010709/06/19 05:20:31  5-MIN KNEW 061120Z AUTO 35007KT 8SM CLR 29/23 A3001 -60 71 1600 350/07 RMK AO2 T02890233
53917KNEW NEW20190906052510709/06/19 05:25:31  5-MIN KNEW 061125Z AUTO 35007KT 8SM CLR 29/23 A3001 -60 71 1600 350/07 RMK AO2 T02890233
53917KNEW NEW20190906053010709/06/19 05:30:31  5-MIN KNEW 061130Z AUTO 01009KT 8SM CLR 29/23 A3001 -60 71 1600 010/09 RMK AO2 T02890233
53917KNEW NEW20190906053510709/06/19 05:35:31  5-MIN KNEW 061135Z AUTO 36008KT 8SM CLR 29/23 A3001 -60 71 1600 360/08 RMK AO2 T02890233
53917KNEW NEW20190906054010709/06/19 05:40:31  5-MIN KNEW 061140Z AUTO 01009KT 8SM CLR 29/23 A3001 -70 71 1600 010/09 RMK AO2 T02890233
53917KNEW NEW20190906054510709/06/19 05:45:31  5-MIN KNEW 061145Z AUTO 01009KT 7SM CLR 29/23 A3001 -70 71 1500 010/09 RMK AO2 T02890233
53917KNEW NEW20190906055012709/06/19 05:50:31  5-MIN KNEW 061150Z 01008KT 7SM CLR 29/23 A3001 -70 71 1500 010/08 RMK AO2 SLP156 T02890233 10311 20289 55001
53917KNEW NEW20190906055510209/06/19 05:55:31  5-MIN KNEW 061155Z 02009KT 7SM CLR 29/23 A3002 -70 71 1500 020/09 RMK AO2 T02890233
53917KNEW NEW20190906060010209/06/19 06:00:31  5-MIN KNEW 061200Z 02008KT 7SM CLR 29/23 A3002 -70 71 1500 020/08 RMK AO2 T02890233
53917KNEW NEW20190906060510209/06/19 06:05:31  5-MIN KNEW 061205Z 03009KT 7SM CLR 29/23 A3002 -80 71 1500 030/09 RMK AO2 T02890233
53917KNEW NEW20190906061010209/06/19 06:10:31  5-MIN KNEW 061210Z 03009KT 7SM CLR 29/23 A3002 -80 71 1500 030/09 RMK AO2 T02890233
53917KNEW NEW20190906061510209/06/19 06:15:31  5-MIN KNEW 061215Z 03007KT 7SM CLR 29/23 A3002 -80 71 1500 030/07 RMK AO2 T02890233
53917KNEW NEW20190906062010209/06/19 06:20:31  5-MIN KNEW 061220Z 03008KT 7SM CLR 29/23 A3002 -80 69 1500 030/08 RMK AO2 T02890228
53917KNEW NEW20190906062510209/06/19 06:25:31  5-MIN KNEW 061225Z 02008KT 7SM CLR 29/23 A3002 -80 71 1500 020/08 RMK AO2 T02890233
53917KNEW NEW20190906063010209/06/19 06:30:31  5-MIN KNEW 061230Z 04008KT 7SM CLR 29/23 A3003 -80 71 1500 040/08 RMK AO2 T02890233
53917KNEW NEW20190906063510209/06/19 06:35:31  5-MIN KNEW 061235Z 02007KT 7SM CLR 29/23 A3003 -80 71 1500 020/07 RMK AO2 T02890233
53917KNEW NEW20190906064010209/06/19 06:40:31  5-MIN KNEW 061240Z 02007KT 7SM CLR 29/23 A3003 -80 71 1500 020/07 RMK AO2 T02890233
53917KNEW NEW20190906064510209/06/19 06:45:31  5-MIN KNEW 061245Z 02006KT 7SM CLR 29/23 A3003 -90 69 1500 020/06 RMK AO2 T02890228
53917KNEW NEW20190906065010909/06/19 06:50:31  5-MIN KNEW 061250Z 01007KT 7SM CLR 29/23 A3003 -90 71 1500 010/07 RMK AO2 SLP163 T02890233
53917KNEW NEW20190906065510209/06/19 06:55:31  5-MIN KNEW 061255Z 02007KT 7SM CLR 29/23 A3003 -90 71 1500 020/07 RMK AO2 T02890233
53917KNEW NEW20190906070010209/06/19 07:00:31  5-MIN KNEW 061300Z 01007KT 7SM CLR 29/23 A3003 -90 71 1500 010/07 RMK AO2 T02890233
53917KNEW NEW20190906070510209/06/19 07:05:31  5-MIN KNEW 061305Z 02007KT 7SM CLR 29/23 A3003 -90 71 1500 020/07 RMK AO2 T02890233
53917KNEW NEW20190906071010209/06/19 07:10:31  5-MIN KNEW 061310Z 02006KT 7SM CLR 29/23 A3003 -90 71 1500 020/06 RMK AO2 T02890233
53917KNEW NEW20190906071510209/06/19 07:15:31  5-MIN KNEW 061315Z 02005KT 7SM CLR 29/23 A3003 -90 71 1500 020/05 RMK AO2 T02890233
53917KNEW NEW20190906072010209/06/19 07:20:31  5-MIN KNEW 061320Z 02006KT 7SM CLR 29/23 A3003 -90 69 1600 020/06 RMK AO2 T02940233
53917KNEW NEW20190906072510209/06/19 07:25:31  5-MIN KNEW 061325Z 02006KT 7SM CLR 29/23 A3004 -90 71 1500 020/06 RMK AO2 T02890233
53917KNEW NEW20190906073010209/06/19 07:30:31  5-MIN KNEW 061330Z 03006KT 7SM CLR 29/23 A3004 -90 69 1600 030/06 RMK AO2 T02940233
53917KNEW NEW20190906073510209/06/19 07:35:31  5-MIN KNEW 061335Z 03005KT 7SM CLR 29/23 A3004 -90 69 1500 030/05 RMK AO2 T02890228
53917KNEW NEW20190906074010209/06/19 07:40:31  5-MIN KNEW 061340Z 03004KT 7SM CLR 29/23 A3004 -90 71 1500 030/04 RMK AO2 T02890233
53917KNEW NEW20190906074510209/06/19 07:45:31  5-MIN KNEW 061345Z 36005KT 7SM CLR 29/23 A3004 -90 69 1600 360/05 RMK AO2 T02940233
53917KNEW NEW20190906075011009/06/19 07:50:31  5-MIN KNEW 061350Z 01004KT 7SM CLR 29/24 A3004 -100 71 1600 010/04 RMK AO2 SLP166 T02940239
53917KNEW NEW20190906075510309/06/19 07:55:31  5-MIN KNEW 061355Z 03005KT 7SM CLR 29/23 A3004 -100 69 1600 030/05 RMK AO2 T02940233
53917KNEW NEW20190906080010309/06/19 08:00:31  5-MIN KNEW 061400Z 01005KT 7SM CLR 29/23 A3004 -100 69 1600 010/05 RMK AO2 T02940233
53917KNEW NEW20190906080510309/06/19 08:05:31  5-MIN KNEW 061405Z 36005KT 7SM CLR 29/23 A3004 -100 69 1600 360/05 RMK AO2 T02940233
53917KNEW NEW20190906081010309/06/19 08:10:31  5-MIN KNEW 061410Z 02005KT 7SM CLR 29/24 A3004 -100 71 1600 020/05 RMK AO2 T02940239
53917KNEW NEW20190906081510309/06/19 08:15:31  5-MIN KNEW 061415Z 02006KT 7SM CLR 29/23 A3004 -100 67 1600 020/06 RMK AO2 T02940228
53917KNEW NEW20190906082010309/06/19 08:20:31  5-MIN KNEW 061420Z 01004KT 8SM CLR 30/23 A3004 -100 65 1600 010/04 RMK AO2 T03000228
53917KNEW NEW20190906082510309/06/19 08:25:31  5-MIN KNEW 061425Z 02005KT 8SM CLR 29/23 A3004 -100 67 1600 020/05 RMK AO2 T02940228
53917KNEW NEW20190906083010309/06/19 08:30:31  5-MIN KNEW 061430Z 01004KT 8SM CLR 30/23 A3005 -100 65 1600 010/04 RMK AO2 T03000228
53917KNEW NEW20190906083510309/06/19 08:35:31  5-MIN KNEW 061435Z 02004KT 8SM CLR 30/23 A3005 -100 65 1600 020/04 RMK AO2 T03000228
53917KNEW NEW20190906084010309/06/19 08:40:31  5-MIN KNEW 061440Z 02004KT 8SM CLR 30/22 A3005 -100 62 1600 020/04 RMK AO2 T03000222
53917KNEW NEW20190906084510309/06/19 08:45:31  5-MIN KNEW 061445Z 36004KT 8SM CLR 30/22 A3005 -100 62 1600 360/04 RMK AO2 T03000222
53917KNEW NEW20190906085011609/06/19 08:50:31  5-MIN KNEW 061450Z 02003KT 8SM CLR 30/22 A3005 -100 62 1600 020/03 RMK AO2 SLP169 T03000222 53011
53917KNEW NEW20190906085510309/06/19 08:55:31  5-MIN KNEW 061455Z 02003KT 8SM CLR 30/22 A3005 -100 62 1600 020/03 RMK AO2 T03000222
53917KNEW NEW20190906090010309/06/19 09:00:31  5-MIN KNEW 061500Z 01004KT 8SM CLR 31/22 A3005 -100 60 1700 010/04 RMK AO2 T03060222
53917KNEW NEW20190906090510309/06/19 09:05:31  5-MIN KNEW 061505Z 02004KT 9SM CLR 30/22 A3005 -100 60 1600 020/04 RMK AO2 T03000217
53917KNEW NEW20190906091010309/06/19 09:10:31  5-MIN KNEW 061510Z 01004KT 9SM CLR 31/22 A3005 -100 58 1700 010/04 RMK AO2 T03060217
53917KNEW NEW20190906091510309/06/19 09:15:31  5-MIN KNEW 061515Z 03004KT 9SM CLR 31/22 A3005 -100 58 1700 030/04 RMK AO2 T03060217
53917KNEW NEW20190906092010309/06/19 09:20:31  5-MIN KNEW 061520Z 01004KT 9SM CLR 31/22 A3005 -100 58 1700 010/04 RMK AO2 T03060217
53917KNEW NEW20190906092510309/06/19 09:25:31  5-MIN KNEW 061525Z 03004KT 9SM CLR 30/22 A3005 -100 60 1600 030/04 RMK AO2 T03000217
53917KNEW NEW20190906093010309/06/19 09:30:31  5-MIN KNEW 061530Z 04004KT 9SM CLR 30/22 A3005 -100 60 1600 040/04 RMK AO2 T03000217
53917KNEW NEW20190906093510309/06/19 09:35:31  5-MIN KNEW 061535Z 02004KT 9SM CLR 31/22 A3005 -100 58 1700 020/04 RMK AO2 T03060217
53917KNEW NEW20190906094010309/06/19 09:40:31  5-MIN KNEW 061540Z 02004KT 9SM CLR 31/22 A3005 -100 58 1700 020/04 RMK AO2 T03060217
53917KNEW NEW20190906094510309/06/19 09:45:31  5-MIN KNEW 061545Z VRB03KT 9SM CLR 31/21 A3005 -100 56 1700 VRB/03 RMK AO2 T03060211
53917KNEW NEW20190906095011009/06/19 09:50:31  5-MIN KNEW 061550Z 02003KT 9SM CLR 31/22 A3005 -100 58 1700 020/03 RMK AO2 SLP168 T03060217
53917KNEW NEW20190906095510309/06/19 09:55:31  5-MIN KNEW 061555Z 01003KT 9SM CLR 31/21 A3005 -100 54 1800 010/03 RMK AO2 T03110211
53917KNEW NEW20190906100010309/06/19 10:00:31  5-MIN KNEW 061600Z 36004KT 9SM CLR 31/22 A3005 -100 56 1800 360/04 RMK AO2 T03110217
53917KNEW NEW20190906100510409/06/19 10:05:31  5-MIN KNEW 061605Z 02004KT 10SM CLR 31/22 A3004 -100 56 1800 020/04 RMK AO2 T03110217
53917KNEW NEW20190906101010309/06/19 10:10:31  5-MIN KNEW 061610Z 35003KT 9SM CLR 31/21 A3004 -100 56 1700 350/03 RMK AO2 T03060211
53917KNEW NEW20190906101510409/06/19 10:15:31  5-MIN KNEW 061615Z 02003KT 10SM CLR 31/21 A3004 -100 56 1700 020/03 RMK AO2 T03060211
53917KNEW NEW20190906102010409/06/19 10:20:31  5-MIN KNEW 061620Z 33004KT 10SM CLR 31/22 A3004 -100 56 1800 330/04 RMK AO2 T03110217
53917KNEW NEW20190906102510409/06/19 10:25:31  5-MIN KNEW 061625Z 01004KT 10SM CLR 31/22 A3004 -100 56 1800 010/04 RMK AO2 T03110217
53917KNEW NEW20190906103010409/06/19 10:30:31  5-MIN KNEW 061630Z 01004KT 10SM CLR 31/22 A3004 -100 56 1800 010/04 RMK AO2 T03110217
53917KNEW NEW20190906103510309/06/19 10:35:31  5-MIN KNEW 061635Z 36004KT 10SM CLR 31/21 A3004 -90 54 1800 360/04 RMK AO2 T03110211
53917KNEW NEW20190906104010309/06/19 10:40:31  5-MIN KNEW 061640Z 34004KT 10SM CLR 32/22 A3004 -90 55 1800 340/04 RMK AO2 T03170217
53917KNEW NEW20190906104510309/06/19 10:45:31  5-MIN KNEW 061645Z 32004KT 10SM CLR 31/22 A3004 -90 56 1800 320/04 RMK AO2 T03110217
53917KNEW NEW20190906105011009/06/19 10:50:31  5-MIN KNEW 061650Z 33004KT 10SM CLR 31/22 A3004 -90 56 1800 330/04 RMK AO2 SLP164 T03110217
53917KNEW NEW20190906105510309/06/19 10:55:31  5-MIN KNEW 061655Z 32003KT 10SM CLR 31/22 A3004 -90 58 1800 320/03 RMK AO2 T03110222
53917KNEW NEW20190906110010309/06/19 11:00:31  5-MIN KNEW 061700Z 32004KT 10SM CLR 31/22 A3004 -90 60 1700 320/04 RMK AO2 T03060222
53917KNEW NEW20190906110510309/06/19 11:05:31  5-MIN KNEW 061705Z 32004KT 10SM CLR 31/22 A3004 -90 56 1800 320/04 RMK AO2 T03110217
53917KNEW NEW20190906111010309/06/19 11:10:31  5-MIN KNEW 061710Z 32005KT 10SM CLR 31/22 A3004 -90 56 1800 320/05 RMK AO2 T03110217
53917KNEW NEW20190906111510309/06/19 11:15:31  5-MIN KNEW 061715Z 34004KT 10SM CLR 31/22 A3004 -90 58 1800 340/04 RMK AO2 T03110222
53917KNEW NEW20190906112010309/06/19 11:20:31  5-MIN KNEW 061720Z 31005KT 10SM CLR 32/22 A3003 -90 56 1800 310/05 RMK AO2 T03170222
53917KNEW NEW20190906112510309/06/19 11:25:31  5-MIN KNEW 061725Z 31005KT 10SM CLR 31/22 A3003 -90 56 1800 310/05 RMK AO2 T03110217
53917KNEW NEW20190906113010309/06/19 11:30:31  5-MIN KNEW 061730Z 31005KT 10SM CLR 31/22 A3003 -90 58 1800 310/05 RMK AO2 T03110222
53917KNEW NEW20190906113510309/06/19 11:35:31  5-MIN KNEW 061735Z 31005KT 10SM CLR 31/22 A3003 -90 56 1800 310/05 RMK AO2 T03110217
53917KNEW NEW20190906114010309/06/19 11:40:31  5-MIN KNEW 061740Z 31006KT 10SM CLR 31/22 A3003 -90 56 1800 310/06 RMK AO2 T03110217
53917KNEW NEW20190906114510209/06/19 11:45:31  5-MIN KNEW 061745Z 32005KT 9SM CLR 31/22 A3003 -80 56 1800 320/05 RMK AO2 T03110217
53917KNEW NEW20190906115012809/06/19 11:50:31  5-MIN KNEW 061750Z 31005KT 10SM CLR 31/22 A3002 -80 58 1800 310/05 RMK AO2 SLP161 T03110222 10317 20289 51012
53917KNEW NEW20190906115510309/06/19 11:55:31  5-MIN KNEW 061755Z 30005KT 10SM CLR 32/22 A3002 -80 56 1800 300/05 RMK AO2 T03170222
53917KNEW NEW20190906120010309/06/19 12:00:31  5-MIN KNEW 061800Z 31005KT 10SM CLR 31/22 A3002 -80 58 1800 310/05 RMK AO2 T03110222
53917KNEW NEW20190906120510209/06/19 12:05:31  5-MIN KNEW 061805Z 30005KT 9SM CLR 31/22 A3002 -70 58 1800 300/05 RMK AO2 T03110222
53917KNEW NEW20190906121010209/06/19 12:10:31  5-MIN KNEW 061810Z 30005KT 9SM CLR 31/23 A3001 -70 60 1800 300/05 RMK AO2 T03110228
53917KNEW NEW20190906121510309/06/19 12:15:31  5-MIN KNEW 061815Z 29005KT 10SM CLR 31/23 A3001 -70 60 1800 290/05 RMK AO2 T03110228
53917KNEW NEW20190906122010309/06/19 12:20:31  5-MIN KNEW 061820Z 28005KT 10SM CLR 31/23 A3001 -70 60 1800 280/05 RMK AO2 T03110228
53917KNEW NEW20190906122510209/06/19 12:25:31  5-MIN KNEW 061825Z 29005KT 9SM CLR 32/23 A3001 -70 58 1900 290/05 RMK AO2 T03170228
53917KNEW NEW20190906123010309/06/19 12:30:31  5-MIN KNEW 061830Z 30005KT 10SM CLR 32/23 A3001 -70 61 1900 300/05 RMK AO2 T03170233
53917KNEW NEW20190906123510309/06/19 12:35:31  5-MIN KNEW 061835Z 29005KT 10SM CLR 32/23 A3001 -70 61 1900 290/05 RMK AO2 T03170233
53917KNEW NEW20190906124010209/06/19 12:40:31  5-MIN KNEW 061840Z 29005KT 9SM CLR 32/24 A3001 -60 61 1900 290/05 RMK AO2 T03220239
53917KNEW NEW20190906124510209/06/19 12:45:31  5-MIN KNEW 061845Z 30005KT 9SM CLR 32/23 A3000 -60 59 1900 300/05 RMK AO2 T03220233
53917KNEW NEW20190906125010909/06/19 12:50:31  5-MIN KNEW 061850Z 29005KT 9SM CLR 32/23 A3000 -60 61 1900 290/05 RMK AO2 SLP153 T03170233
53917KNEW NEW20190906125510209/06/19 12:55:31  5-MIN KNEW 061855Z 29006KT 9SM CLR 32/24 A3000 -60 61 1900 290/06 RMK AO2 T03220239
53917KNEW NEW20190906130010209/06/19 13:00:31  5-MIN KNEW 061900Z 29006KT 9SM CLR 32/24 A3000 -60 61 1900 290/06 RMK AO2 T03220239
53917KNEW NEW20190906130510209/06/19 13:05:31  5-MIN KNEW 061905Z 29006KT 9SM CLR 32/24 A3000 -60 61 1900 290/06 RMK AO2 T03220239
53917KNEW NEW20190906131010209/06/19 13:10:31  5-MIN KNEW 061910Z 29006KT 9SM CLR 32/24 A3000 -50 61 1900 290/06 RMK AO2 T03220239
53917KNEW NEW20190906131510209/06/19 13:15:31  5-MIN KNEW 061915Z 28007KT 9SM CLR 32/24 A3000 -50 61 1900 280/07 RMK AO2 T03220239
53917KNEW NEW20190906132010209/06/19 13:20:31  5-MIN KNEW 061920Z 27007KT 9SM CLR 32/24 A2999 -50 61 1900 270/07 RMK AO2 T03220239
53917KNEW NEW20190906132510209/06/19 13:25:31  5-MIN KNEW 061925Z 28006KT 9SM CLR 32/24 A2999 -50 61 1900 280/06 RMK AO2 T03220239
53917KNEW NEW20190906133010209/06/19 13:30:31  5-MIN KNEW 061930Z 28006KT 9SM CLR 32/24 A2999 -50 63 1900 280/06 RMK AO2 T03220244
53917KNEW NEW20190906133510209/06/19 13:35:31  5-MIN KNEW 061935Z 27007KT 9SM CLR 32/24 A2999 -50 61 1900 270/07 RMK AO2 T03220239
53917KNEW NEW20190906134010209/06/19 13:40:31  5-MIN KNEW 061940Z 27007KT 9SM CLR 32/24 A2999 -50 63 1900 270/07 RMK AO2 T03220244
53917KNEW NEW20190906134510209/06/19 13:45:31  5-MIN KNEW 061945Z 28007KT 9SM CLR 33/24 A2998 -40 61 2000 280/07 RMK AO2 T03280244
53917KNEW NEW20190906135010909/06/19 13:50:31  5-MIN KNEW 061950Z 28007KT 9SM CLR 33/24 A2998 -40 61 2000 280/07 RMK AO2 SLP146 T03280244
53917KNEW NEW20190906135510209/06/19 13:55:31  5-MIN KNEW 061955Z 28007KT 8SM CLR 33/25 A2998 -40 63 2000 280/07 RMK AO2 T03280250
53917KNEW NEW20190906140010209/06/19 14:00:31  5-MIN KNEW 062000Z 28008KT 9SM CLR 33/24 A2998 -40 61 2000 280/08 RMK AO2 T03280244
53917KNEW NEW20190906140510209/06/19 14:05:31  5-MIN KNEW 062005Z 28007KT 9SM CLR 33/24 A2998 -40 61 2000 280/07 RMK AO2 T03280244
53917KNEW NEW20190906141010209/06/19 14:10:31  5-MIN KNEW 062010Z 28009KT 9SM CLR 33/24 A2997 -30 61 2000 280/09 RMK AO2 T03280244
53917KNEW NEW20190906141510209/06/19 14:15:31  5-MIN KNEW 062015Z 28008KT 9SM CLR 33/24 A2997 -30 61 2000 280/08 RMK AO2 T03280244
53917KNEW NEW20190906142010209/06/19 14:20:31  5-MIN KNEW 062020Z 28007KT 9SM CLR 33/24 A2997 -30 61 2000 280/07 RMK AO2 T03280244
53917KNEW NEW20190906142510209/06/19 14:25:31  5-MIN KNEW 062025Z 28007KT 8SM CLR 33/25 A2997 -30 63 2000 280/07 RMK AO2 T03280250
53917KNEW NEW20190906143010209/06/19 14:30:31  5-MIN KNEW 062030Z 28008KT 8SM CLR 33/25 A2997 -30 61 2100 280/08 RMK AO2 T03330250
53917KNEW NEW20190906143510209/06/19 14:35:31  5-MIN KNEW 062035Z 28008KT 8SM CLR 33/25 A2997 -30 61 2100 280/08 RMK AO2 T03330250
53917KNEW NEW20190906144010209/06/19 14:40:31  5-MIN KNEW 062040Z 29008KT 9SM CLR 33/25 A2996 -20 61 2100 290/08 RMK AO2 T03330250
53917KNEW NEW20190906144510209/06/19 14:45:31  5-MIN KNEW 062045Z 28007KT 9SM CLR 33/25 A2996 -20 61 2100 280/07 RMK AO2 T03330250
53917KNEW NEW20190906145011509/06/19 14:50:31  5-MIN KNEW 062050Z 28007KT 8SM CLR 33/24 A2996 -20 59 2100 280/07 RMK AO2 SLP139 T03330244 58009
53917KNEW NEW20190906145510209/06/19 14:55:31  5-MIN KNEW 062055Z 29007KT 9SM CLR 33/24 A2996 -20 59 2100 290/07 RMK AO2 T03330244
53917KNEW NEW20190906150010209/06/19 15:00:31  5-MIN KNEW 062100Z 29007KT 9SM CLR 33/24 A2996 -20 59 2100 290/07 RMK AO2 T03330244
53917KNEW NEW20190906150510209/06/19 15:05:31  5-MIN KNEW 062105Z 29007KT 7SM CLR 34/24 A2996 -20 57 2200 290/07 RMK AO2 T03390244
53917KNEW NEW20190906151010509/06/19 15:10:31  5-MIN KNEW 062110Z 30008KT 6SM HZ CLR 34/24 A2996 -20 57 2200 300/08 RMK AO2 T03390244
53917KNEW NEW20190906151510209/06/19 15:15:31  5-MIN KNEW 062115Z 30008KT 7SM CLR 34/24 A2996 -20 57 2200 300/08 RMK AO2 T03390244
53917KNEW NEW20190906152010209/06/19 15:20:31  5-MIN KNEW 062120Z 30007KT 9SM CLR 34/24 A2995 -20 55 2200 300/07 RMK AO2 T03390239
53917KNEW NEW20190906152510209/06/19 15:25:31  5-MIN KNEW 062125Z 30007KT 9SM CLR 34/24 A2995 -10 55 2200 300/07 RMK AO2 T03390239
53917KNEW NEW20190906153010209/06/19 15:30:31  5-MIN KNEW 062130Z 30007KT 9SM CLR 34/24 A2995 -10 55 2200 300/07 RMK AO2 T03390239
53917KNEW NEW20190906153510209/06/19 15:35:31  5-MIN KNEW 062135Z 30007KT 9SM CLR 34/24 A2995 -10 55 2200 300/07 RMK AO2 T03390239
53917KNEW NEW20190906154010209/06/19 15:40:31  5-MIN KNEW 062140Z 31007KT 9SM CLR 34/24 A2995 -10 55 2200 310/07 RMK AO2 T03390239
53917KNEW NEW20190906154510209/06/19 15:45:31  5-MIN KNEW 062145Z 30006KT 9SM CLR 34/24 A2995 -10 55 2200 300/06 RMK AO2 T03390239
53917KNEW NEW20190906155010909/06/19 15:50:31  5-MIN KNEW 062150Z 32006KT 9SM CLR 34/24 A2995 -10 55 2200 320/06 RMK AO2 SLP136 T03390239
53917KNEW NEW20190906155510209/06/19 15:55:31  5-MIN KNEW 062155Z 31005KT 9SM CLR 34/23 A2995 -10 53 2200 310/05 RMK AO2 T03390233
53917KNEW NEW20190906160010309/06/19 16:00:31  5-MIN KNEW 062200Z 30006KT 10SM CLR 34/23 A2995 -10 53 2200 300/06 RMK AO2 T03390233
53917KNEW NEW20190906160510209/06/19 16:05:31  5-MIN KNEW 062205Z 29005KT 9SM CLR 34/24 A2995 -10 55 2200 290/05 RMK AO2 T03390239
53917KNEW NEW20190906161010209/06/19 16:10:31  5-MIN KNEW 062210Z 30005KT 9SM CLR 34/24 A2995 -10 55 2200 300/05 RMK AO2 T03390239
53917KNEW NEW20190906161510309/06/19 16:15:31  5-MIN KNEW 062215Z 31005KT 10SM CLR 34/24 A2995 -10 55 2200 310/05 RMK AO2 T03390239
53917KNEW NEW20190906162010309/06/19 16:20:31  5-MIN KNEW 062220Z 32006KT 10SM CLR 34/23 A2995 -10 51 2200 320/06 RMK AO2 T03390228
53917KNEW NEW20190906162510309/06/19 16:25:31  5-MIN KNEW 062225Z 32006KT 10SM CLR 34/23 A2995 -10 51 2200 320/06 RMK AO2 T03390228
53917KNEW NEW20190906163010309/06/19 16:30:31  5-MIN KNEW 062230Z 32006KT 10SM CLR 34/23 A2995 -10 50 2200 320/06 RMK AO2 T03440228
53917KNEW NEW20190906163510309/06/19 16:35:31  5-MIN KNEW 062235Z 31006KT 10SM CLR 34/23 A2995 -10 53 2200 310/06 RMK AO2 T03390233
53917KNEW NEW20190906164010309/06/19 16:40:31  5-MIN KNEW 062240Z 32005KT 10SM CLR 34/23 A2995 -10 53 2200 320/05 RMK AO2 T03390233
53917KNEW NEW20190906164510309/06/19 16:45:31  5-MIN KNEW 062245Z 33005KT 10SM CLR 34/23 A2995 -10 53 2200 330/05 RMK AO2 T03390233
53917KNEW NEW20190906165011009/06/19 16:50:31  5-MIN KNEW 062250Z 32005KT 10SM CLR 34/24 A2995 -10 55 2200 320/05 RMK AO2 SLP136 T03390239
53917KNEW NEW20190906165510309/06/19 16:55:31  5-MIN KNEW 062255Z 33005KT 10SM CLR 34/24 A2995 -10 55 2200 330/05 RMK AO2 T03390239
53917KNEW NEW20190906170010309/06/19 17:00:31  5-MIN KNEW 062300Z 33006KT 10SM CLR 34/23 A2995 -10 53 2200 330/06 RMK AO2 T03390233
53917KNEW NEW20190906170510309/06/19 17:05:31  5-MIN KNEW 062305Z 34005KT 10SM CLR 34/23 A2995 -20 53 2200 340/05 RMK AO2 T03390233
53917KNEW NEW20190906171010309/06/19 17:10:31  5-MIN KNEW 062310Z 34005KT 10SM CLR 34/23 A2996 -20 51 2200 340/05 RMK AO2 T03390228
53917KNEW NEW20190906171510309/06/19 17:15:31  5-MIN KNEW 062315Z 34005KT 10SM CLR 34/23 A2996 -20 51 2200 340/05 RMK AO2 T03390228
53917KNEW NEW20190906172010309/06/19 17:20:31  5-MIN KNEW 062320Z 34005KT 10SM CLR 34/23 A2996 -20 53 2200 340/05 RMK AO2 T03390233
53917KNEW NEW20190906172510309/06/19 17:25:31  5-MIN KNEW 062325Z 34005KT 10SM CLR 34/23 A2996 -20 53 2200 340/05 RMK AO2 T03390233
53917KNEW NEW20190906173010309/06/19 17:30:31  5-MIN KNEW 062330Z 33005KT 10SM CLR 33/23 A2996 -20 55 2100 330/05 RMK AO2 T03330233
53917KNEW NEW20190906173510309/06/19 17:35:31  5-MIN KNEW 062335Z 33004KT 10SM CLR 33/23 A2996 -20 55 2100 330/04 RMK AO2 T03330233
53917KNEW NEW20190906174010309/06/19 17:40:31  5-MIN KNEW 062340Z 34005KT 10SM CLR 33/24 A2995 -20 57 2100 340/05 RMK AO2 T03330239
53917KNEW NEW20190906174510309/06/19 17:45:31  5-MIN KNEW 062345Z 34005KT 10SM CLR 33/23 A2995 -20 55 2100 340/05 RMK AO2 T03330233
53917KNEW NEW20190906175012809/06/19 17:50:31  5-MIN KNEW 062350Z 34005KT 10SM CLR 33/23 A2996 -20 55 2100 340/05 RMK AO2 SLP137 T03330233 10344 20311 57021
53917KNEW NEW20190906175510309/06/19 17:55:31  5-MIN KNEW 062355Z 34004KT 10SM CLR 33/23 A2996 -20 57 2000 340/04 RMK AO2 T03280233
53917KNEW NEW20190906180010309/06/19 18:00:31  5-MIN KNEW 070000Z 35004KT 10SM CLR 33/23 A2996 -20 57 2000 350/04 RMK AO2 T03280233
53917KNEW NEW20190906180510309/06/19 18:05:31  5-MIN KNEW 070005Z 36004KT 10SM CLR 33/23 A2996 -20 55 2000 360/04 RMK AO2 T03280228
53917KNEW NEW20190906181010309/06/19 18:10:31  5-MIN KNEW 070010Z 36005KT 10SM CLR 32/23 A2996 -20 59 2000 360/05 RMK AO2 T03220233
53917KNEW NEW20190906181510309/06/19 18:15:31  5-MIN KNEW 070015Z 01005KT 10SM CLR 32/23 A2996 -20 59 2000 010/05 RMK AO2 T03220233
53917KNEW NEW20190906182010309/06/19 18:20:31  5-MIN KNEW 070020Z 02005KT 10SM CLR 33/24 A2996 -20 59 2000 020/05 RMK AO2 T03280239
53917KNEW NEW20190906182510309/06/19 18:25:31  5-MIN KNEW 070025Z 02005KT 10SM CLR 33/24 A2996 -20 59 2000 020/05 RMK AO2 T03280239
53917KNEW NEW20190906183010309/06/19 18:30:31  5-MIN KNEW 070030Z 03004KT 10SM CLR 33/24 A2996 -20 61 2000 030/04 RMK AO2 T03280244
53917KNEW NEW20190906183510309/06/19 18:35:31  5-MIN KNEW 070035Z 03005KT 10SM CLR 33/24 A2996 -20 61 2000 030/05 RMK AO2 T03280244
53917KNEW NEW20190906184010309/06/19 18:40:31  5-MIN KNEW 070040Z 03006KT 10SM CLR 33/24 A2996 -20 59 2000 030/06 RMK AO2 T03280239
53917KNEW NEW20190906184510309/06/19 18:45:31  5-MIN KNEW 070045Z 03005KT 10SM CLR 33/23 A2997 -30 55 2100 030/05 RMK AO2 T03330233
53917KNEW NEW20190906185011009/06/19 18:50:31  5-MIN KNEW 070050Z 03005KT 10SM CLR 33/23 A2997 -30 53 2100 030/05 RMK AO2 SLP141 T03330228
53917KNEW NEW20190906185510209/06/19 18:55:31  5-MIN KNEW 070055Z 04006KT 9SM CLR 33/23 A2997 -30 57 2000 040/06 RMK AO2 T03280233
53917KNEW NEW20190906190010209/06/19 19:00:31  5-MIN KNEW 070100Z 04005KT 9SM CLR 33/24 A2997 -30 59 2000 040/05 RMK AO2 T03280239
53917KNEW NEW20190906190510209/06/19 19:05:31  5-MIN KNEW 070105Z 03005KT 9SM CLR 33/24 A2997 -30 59 2000 030/05 RMK AO2 T03280239
53917KNEW NEW20190906191010209/06/19 19:10:31  5-MIN KNEW 070110Z 04005KT 8SM CLR 33/24 A2997 -30 59 2000 040/05 RMK AO2 T03280239
53917KNEW NEW20190906191510209/06/19 19:15:31  5-MIN KNEW 070115Z 03005KT 8SM CLR 33/23 A2997 -30 57 2000 030/05 RMK AO2 T03280233
53917KNEW NEW20190906192010209/06/19 19:20:31  5-MIN KNEW 070120Z 03005KT 8SM CLR 33/24 A2998 -30 59 2000 030/05 RMK AO2 T03280239
53917KNEW NEW20190906192510209/06/19 19:25:31  5-MIN KNEW 070125Z 04004KT 8SM CLR 33/24 A2998 -40 59 2000 040/04 RMK AO2 T03280239
53917KNEW NEW20190906193010209/06/19 19:30:31  5-MIN KNEW 070130Z 04004KT 8SM CLR 33/24 A2998 -40 59 2000 040/04 RMK AO2 T03280239
53917KNEW NEW20190906193510209/06/19 19:35:31  5-MIN KNEW 070135Z 04004KT 8SM CLR 32/24 A2998 -40 61 2000 040/04 RMK AO2 T03220239
53917KNEW NEW20190906194010209/06/19 19:40:31  5-MIN KNEW 070140Z 04004KT 8SM CLR 32/24 A2998 -40 61 2000 040/04 RMK AO2 T03220239
53917KNEW NEW20190906194510209/06/19 19:45:31  5-MIN KNEW 070145Z 03004KT 8SM CLR 32/24 A2998 -40 61 2000 030/04 RMK AO2 T03220239
53917KNEW NEW20190906195010909/06/19 19:50:31  5-MIN KNEW 070150Z 03003KT 8SM CLR 32/24 A2998 -40 61 2000 030/03 RMK AO2 SLP145 T03220239
53917KNEW NEW20190906195510709/06/19 19:55:31  5-MIN KNEW 070155Z AUTO 02003KT 8SM CLR 32/24 A2998 -40 61 2000 020/03 RMK AO2 T03220239
53917KNEW NEW20190906200010709/06/19 20:00:31  5-MIN KNEW 070200Z AUTO 02004KT 8SM CLR 32/24 A2998 -40 61 2000 020/04 RMK AO2 T03220239
53917KNEW NEW20190906200510709/06/19 20:05:31  5-MIN KNEW 070205Z AUTO 01004KT 8SM CLR 32/23 A2998 -40 59 2000 010/04 RMK AO2 T03220233
53917KNEW NEW20190906201010709/06/19 20:10:31  5-MIN KNEW 070210Z AUTO 01004KT 8SM CLR 32/23 A2998 -40 57 2000 010/04 RMK AO2 T03220228
53917KNEW NEW20190906201510709/06/19 20:15:31  5-MIN KNEW 070215Z AUTO 01004KT 9SM CLR 32/23 A2998 -40 59 2000 010/04 RMK AO2 T03220233
53917KNEW NEW20190906202010709/06/19 20:20:31  5-MIN KNEW 070220Z AUTO 01005KT 9SM CLR 32/23 A2998 -40 61 1900 010/05 RMK AO2 T03170233
53917KNEW NEW20190906202510709/06/19 20:25:31  5-MIN KNEW 070225Z AUTO 01005KT 9SM CLR 32/23 A2998 -40 61 1900 010/05 RMK AO2 T03170233
53917KNEW NEW20190906203010709/06/19 20:30:31  5-MIN KNEW 070230Z AUTO 01006KT 9SM CLR 32/23 A2998 -40 58 1900 010/06 RMK AO2 T03170228
53917KNEW NEW20190906203510709/06/19 20:35:31  5-MIN KNEW 070235Z AUTO 01005KT 9SM CLR 32/23 A2999 -40 58 1900 010/05 RMK AO2 T03170228
53917KNEW NEW20190906204010709/06/19 20:40:31  5-MIN KNEW 070240Z AUTO 02004KT 9SM CLR 32/23 A2999 -50 57 1900 020/04 RMK AO2 T03220228
53917KNEW NEW20190906204510709/06/19 20:45:31  5-MIN KNEW 070245Z AUTO 02003KT 9SM CLR 32/23 A2999 -50 57 1900 020/03 RMK AO2 T03220228
53917KNEW NEW20190906205012009/06/19 20:50:31  5-MIN KNEW 070250Z AUTO 00000KT 8SM CLR 32/23 A2999 -50 57 1900 000/00 RMK AO2 SLP149 T03220228 55001
53917KNEW NEW20190906205510709/06/19 20:55:31  5-MIN KNEW 070255Z AUTO 03003KT 8SM CLR 32/23 A2999 -50 61 1900 030/03 RMK AO2 T03170233
53917KNEW NEW20190906210010709/06/19 21:00:31  5-MIN KNEW 070300Z AUTO 03003KT 8SM CLR 32/23 A2999 -50 59 1900 030/03 RMK AO2 T03220233
53917KNEW NEW20190906210510709/06/19 21:05:31  5-MIN KNEW 070305Z AUTO 03004KT 9SM CLR 32/23 A2999 -50 57 1900 030/04 RMK AO2 T03220228
53917KNEW NEW20190906211010709/06/19 21:10:31  5-MIN KNEW 070310Z AUTO 02004KT 9SM CLR 32/22 A2999 -50 55 1900 020/04 RMK AO2 T03220222
53917KNEW NEW20190906211510709/06/19 21:15:31  5-MIN KNEW 070315Z AUTO 03004KT 9SM CLR 32/23 A2999 -50 59 1900 030/04 RMK AO2 T03220233
53917KNEW NEW20190906212010709/06/19 21:20:31  5-MIN KNEW 070320Z AUTO 02004KT 9SM CLR 32/23 A2999 -50 57 1900 020/04 RMK AO2 T03220228
53917KNEW NEW20190906212510709/06/19 21:25:31  5-MIN KNEW 070325Z AUTO 03004KT 9SM CLR 32/23 A2999 -50 57 1900 030/04 RMK AO2 T03220228
53917KNEW NEW20190906213010709/06/19 21:30:31  5-MIN KNEW 070330Z AUTO 03004KT 9SM CLR 32/22 A2999 -50 55 1900 030/04 RMK AO2 T03220222
53917KNEW NEW20190906213510709/06/19 21:35:31  5-MIN KNEW 070335Z AUTO 02003KT 9SM CLR 32/22 A2999 -50 55 1900 020/03 RMK AO2 T03220222
53917KNEW NEW20190906214010709/06/19 21:40:31  5-MIN KNEW 070340Z AUTO 02003KT 9SM CLR 32/23 A2999 -50 57 1900 020/03 RMK AO2 T03220228
53917KNEW NEW20190906214510709/06/19 21:45:31  5-MIN KNEW 070345Z AUTO 02003KT 9SM CLR 32/23 A2999 -50 58 1900 020/03 RMK AO2 T03170228
53917KNEW NEW20190906215011409/06/19 21:50:31  5-MIN KNEW 070350Z AUTO 03003KT 9SM CLR 32/23 A2999 -50 61 1900 030/03 RMK AO2 SLP150 T03170233
53917KNEW NEW20190906215510709/06/19 21:55:31  5-MIN KNEW 070355Z AUTO 03003KT 9SM CLR 32/23 A2999 -50 61 1900 030/03 RMK AO2 T03170233
53917KNEW NEW20190906220010709/06/19 22:00:31  5-MIN KNEW 070400Z AUTO 03004KT 9SM CLR 32/23 A2999 -50 61 1900 030/04 RMK AO2 T03170233
53917KNEW NEW20190906220510709/06/19 22:05:31  5-MIN KNEW 070405Z AUTO 03003KT 9SM CLR 32/23 A2999 -50 58 1900 030/03 RMK AO2 T03170228
53917KNEW NEW20190906221010809/06/19 22:10:31  5-MIN KNEW 070410Z AUTO 04004KT 10SM CLR 32/24 A2999 -50 63 1900 040/04 RMK AO2 T03170239
53917KNEW NEW20190906221510809/06/19 22:15:31  5-MIN KNEW 070415Z AUTO 03004KT 10SM CLR 32/23 A2999 -50 61 1900 030/04 RMK AO2 T03170233
53917KNEW NEW20190906222010809/06/19 22:20:31  5-MIN KNEW 070420Z AUTO 03004KT 10SM CLR 32/24 A2999 -50 63 1900 030/04 RMK AO2 T03170239
53917KNEW NEW20190906222510809/06/19 22:25:31  5-MIN KNEW 070425Z AUTO 03004KT 10SM CLR 32/24 A2999 -50 65 1900 030/04 RMK AO2 T03170244
53917KNEW NEW20190906223010809/06/19 22:30:31  5-MIN KNEW 070430Z AUTO 04004KT 10SM CLR 32/24 A2999 -50 65 1900 040/04 RMK AO2 T03170244
53917KNEW NEW20190906223510809/06/19 22:35:31  5-MIN KNEW 070435Z AUTO 03004KT 10SM CLR 32/24 A2999 -50 63 1900 030/04 RMK AO2 T03170239
53917KNEW NEW20190906224010809/06/19 22:40:31  5-MIN KNEW 070440Z AUTO 04004KT 10SM CLR 31/24 A2999 -50 67 1800 040/04 RMK AO2 T03110244
53917KNEW NEW20190906224510809/06/19 22:45:31  5-MIN KNEW 070445Z AUTO 04004KT 10SM CLR 32/24 A2999 -50 63 1900 040/04 RMK AO2 T03170239
53917KNEW NEW20190906225011509/06/19 22:50:31  5-MIN KNEW 070450Z AUTO 04004KT 10SM CLR 32/24 A2999 -50 63 1900 040/04 RMK AO2 SLP148 T03170239
53917KNEW NEW20190906225510809/06/19 22:55:31  5-MIN KNEW 070455Z AUTO 04004KT 10SM CLR 32/24 A2999 -50 63 1900 040/04 RMK AO2 T03170239
53917KNEW NEW20190906230010809/06/19 23:00:31  5-MIN KNEW 070500Z AUTO 04004KT 10SM CLR 32/23 A2999 -50 61 1900 040/04 RMK AO2 T03170233
53917KNEW NEW20190906230510809/06/19 23:05:31  5-MIN KNEW 070505Z AUTO 05004KT 10SM CLR 32/23 A2999 -50 61 1900 050/04 RMK AO2 T03170233
53917KNEW NEW20190906231010809/06/19 23:10:31  5-MIN KNEW 070510Z AUTO 05004KT 10SM CLR 32/23 A2999 -50 61 1900 050/04 RMK AO2 T03170233
53917KNEW NEW20190906231510809/06/19 23:15:31  5-MIN KNEW 070515Z AUTO 06003KT 10SM CLR 31/24 A2999 -50 65 1800 060/03 RMK AO2 T03110239
53917KNEW NEW20190906232010809/06/19 23:20:31  5-MIN KNEW 070520Z AUTO 05003KT 10SM CLR 31/24 A2999 -50 65 1800 050/03 RMK AO2 T03110239
53917KNEW NEW20190906232510809/06/19 23:25:31  5-MIN KNEW 070525Z AUTO 04004KT 10SM CLR 31/23 A2999 -50 63 1800 040/04 RMK AO2 T03110233
53917KNEW NEW20190906233010809/06/19 23:30:31  5-MIN KNEW 070530Z AUTO 04003KT 10SM CLR 32/23 A2999 -50 58 1900 040/03 RMK AO2 T03170228
53917KNEW NEW20190906233510809/06/19 23:35:31  5-MIN KNEW 070535Z AUTO 05003KT 10SM CLR 32/23 A2999 -50 58 1900 050/03 RMK AO2 T03170228
53917KNEW NEW20190906234010809/06/19 23:40:31  5-MIN KNEW 070540Z AUTO 00000KT 10SM CLR 31/23 A2999 -50 63 1800 000/00 RMK AO2 T03110233
53917KNEW NEW20190906234510809/06/19 23:45:31  5-MIN KNEW 070545Z AUTO 00000KT 10SM CLR 31/23 A2999 -50 65 1800 000/00 RMK AO2 T03060233
53917KNEW NEW20190906235014309/06/19 23:50:31  5-MIN KNEW 070550Z AUTO 00000KT 10SM CLR 31/23 A2999 -50 62 1800 000/00 RMK AO2 SLP149 T03060228 10333 20300 403440289 53012
53917KNEW NEW20190906235510809/06/19 23:55:31  5-MIN KNEW 070555Z AUTO 00000KT 10SM CLR 30/23 A2999 -50 65 1700 000/00 RMK AO2 T03000228
53917KNEW NEW20190907000010809/07/19 00:00:31  5-MIN KNEW 070600Z AUTO 00000KT 10SM CLR 30/23 A2999 -50 65 1700 000/00 RMK AO2 T03000228
53917KNEW NEW20190907000510809/07/19 00:05:31  5-MIN KNEW 070605Z AUTO 00000KT 10SM CLR 29/23 A2999 -50 67 1600 000/00 RMK AO2 T02940228
53917KNEW NEW20190907001010809/07/19 00:10:31  5-MIN KNEW 070610Z AUTO 00000KT 10SM CLR 30/23 A2999 -50 65 1700 000/00 RMK AO2 T03000228
53917KNEW NEW20190907001510809/07/19 00:15:31  5-MIN KNEW 070615Z AUTO 00000KT 10SM CLR 30/23 A2999 -50 65 1700 000/00 RMK AO2 T03000228
53917KNEW NEW20190907002010809/07/19 00:20:31  5-MIN KNEW 070620Z AUTO 00000KT 10SM CLR 29/23 A2999 -50 67 1600 000/00 RMK AO2 T02940228
53917KNEW NEW20190907002510809/07/19 00:25:31  5-MIN KNEW 070625Z AUTO 04003KT 10SM CLR 30/23 A2999 -50 65 1700 040/03 RMK AO2 T03000228
53917KNEW NEW20190907003010809/07/19 00:30:31  5-MIN KNEW 070630Z AUTO 03004KT 10SM CLR 31/23 A2999 -50 62 1800 030/04 RMK AO2 T03060228
53917KNEW NEW20190907003510809/07/19 00:35:31  5-MIN KNEW 070635Z AUTO VRB03KT 10SM CLR 31/23 A2999 -50 63 1800 VRB/03 RMK AO2 T03110233
53917KNEW NEW20190907004010809/07/19 00:40:31  5-MIN KNEW 070640Z AUTO 00000KT 10SM CLR 29/23 A2999 -50 69 1600 000/00 RMK AO2 T02940233
53917KNEW NEW20190907004510709/07/19 00:45:31  5-MIN KNEW 070645Z AUTO 00000KT 9SM CLR 29/23 A2999 -50 71 1600 000/00 RMK AO2 T02890233
53917KNEW NEW20190907005011409/07/19 00:50:31  5-MIN KNEW 070650Z AUTO 00000KT 9SM CLR 29/23 A2999 -50 71 1600 000/00 RMK AO2 SLP148 T02890233
53917KNEW NEW20190907005510709/07/19 00:55:31  5-MIN KNEW 070655Z AUTO 00000KT 9SM CLR 29/23 A2999 -50 71 1600 000/00 RMK AO2 T02890233
53917KNEW NEW20190907010010709/07/19 01:00:31  5-MIN KNEW 070700Z AUTO 00000KT 9SM CLR 29/23 A2999 -40 71 1600 000/00 RMK AO2 T02890233
53917KNEW NEW20190907010510709/07/19 01:05:31  5-MIN KNEW 070705Z AUTO 00000KT 9SM CLR 29/23 A2998 -40 71 1600 000/00 RMK AO2 T02890233
53917KNEW NEW20190907011010709/07/19 01:10:31  5-MIN KNEW 070710Z AUTO 00000KT 9SM CLR 29/23 A2998 -40 71 1600 000/00 RMK AO2 T02890233
53917KNEW NEW20190907011510709/07/19 01:15:31  5-MIN KNEW 070715Z AUTO 00000KT 9SM CLR 29/23 A2998 -40 71 1600 000/00 RMK AO2 T02890233
53917KNEW NEW20190907012010709/07/19 01:20:31  5-MIN KNEW 070720Z AUTO 00000KT 9SM CLR 29/23 A2998 -40 71 1600 000/00 RMK AO2 T02890233
53917KNEW NEW20190907012510709/07/19 01:25:31  5-MIN KNEW 070725Z AUTO 00000KT 9SM CLR 29/23 A2998 -40 69 1600 000/00 RMK AO2 T02940233
53917KNEW NEW20190907013010709/07/19 01:30:31  5-MIN KNEW 070730Z AUTO 00000KT 9SM CLR 29/24 A2998 -40 74 1600 000/00 RMK AO2 T02890239
53917KNEW NEW20190907013510709/07/19 01:35:31  5-MIN KNEW 070735Z AUTO 00000KT 9SM CLR 29/23 A2998 -40 71 1600 000/00 RMK AO2 T02890233
53917KNEW NEW20190907014010809/07/19 01:40:31  5-MIN KNEW 070740Z AUTO 00000KT 10SM CLR 29/23 A2998 -40 69 1600 000/00 RMK AO2 T02890228
53917KNEW NEW20190907014510809/07/19 01:45:31  5-MIN KNEW 070745Z AUTO 00000KT 10SM CLR 29/23 A2998 -40 69 1600 000/00 RMK AO2 T02890228
53917KNEW NEW20190907015011509/07/19 01:50:31  5-MIN KNEW 070750Z AUTO 00000KT 10SM CLR 29/23 A2998 -40 69 1600 000/00 RMK AO2 SLP146 T02890228
53917KNEW NEW20190907015510809/07/19 01:55:31  5-MIN KNEW 070755Z AUTO 00000KT 10SM CLR 29/23 A2998 -40 69 1600 000/00 RMK AO2 T02890228
53917KNEW NEW20190907020010809/07/19 02:00:31  5-MIN KNEW 070800Z AUTO 00000KT 10SM CLR 29/23 A2998 -40 69 1600 000/00 RMK AO2 T02890228
53917KNEW NEW20190907020510809/07/19 02:05:31  5-MIN KNEW 070805Z AUTO 00000KT 10SM CLR 29/23 A2998 -40 67 1600 000/00 RMK AO2 T02940228
53917KNEW NEW20190907021010809/07/19 02:10:31  5-MIN KNEW 070810Z AUTO 00000KT 10SM CLR 29/23 A2998 -40 71 1600 000/00 RMK AO2 T02890233
53917KNEW NEW20190907021510809/07/19 02:15:31  5-MIN KNEW 070815Z AUTO 00000KT 10SM CLR 29/23 A2998 -40 69 1600 000/00 RMK AO2 T02940233
53917KNEW NEW20190907022010809/07/19 02:20:31  5-MIN KNEW 070820Z AUTO 00000KT 10SM CLR 29/23 A2998 -40 69 1600 000/00 RMK AO2 T02940233
53917KNEW NEW20190907022510809/07/19 02:25:31  5-MIN KNEW 070825Z AUTO 00000KT 10SM CLR 29/23 A2998 -40 69 1600 000/00 RMK AO2 T02890228
53917KNEW NEW20190907023010809/07/19 02:30:31  5-MIN KNEW 070830Z AUTO 00000KT 10SM CLR 29/23 A2998 -40 71 1600 000/00 RMK AO2 T02890233
53917KNEW NEW20190907023510809/07/19 02:35:31  5-MIN KNEW 070835Z AUTO 00000KT 10SM CLR 29/23 A2998 -40 69 1600 000/00 RMK AO2 T02890228
53917KNEW NEW20190907024010809/07/19 02:40:31  5-MIN KNEW 070840Z AUTO 00000KT 10SM CLR 29/23 A2998 -40 69 1700 000/00 RMK AO2 T02940233
53917KNEW NEW20190907024510809/07/19 02:45:31  5-MIN KNEW 070845Z AUTO 00000KT 10SM CLR 29/23 A2998 -30 67 1700 000/00 RMK AO2 T02940228
53917KNEW NEW20190907025012109/07/19 02:50:31  5-MIN KNEW 070850Z AUTO 32003KT 10SM CLR 31/23 A2997 -30 62 1800 320/03 RMK AO2 SLP143 T03060228 58000
53917KNEW NEW20190907025510809/07/19 02:55:31  5-MIN KNEW 070855Z AUTO 32003KT 10SM CLR 31/23 A2997 -30 62 1800 320/03 RMK AO2 T03060228
53917KNEW NEW20190907030010809/07/19 03:00:31  5-MIN KNEW 070900Z AUTO 00000KT 10SM CLR 30/23 A2997 -30 67 1700 000/00 RMK AO2 T03000233
53917KNEW NEW20190907030510809/07/19 03:05:31  5-MIN KNEW 070905Z AUTO 00000KT 10SM CLR 30/23 A2997 -30 67 1700 000/00 RMK AO2 T03000233
53917KNEW NEW20190907031010809/07/19 03:10:31  5-MIN KNEW 070910Z AUTO 00000KT 10SM CLR 29/24 A2997 -30 71 1700 000/00 RMK AO2 T02940239
53917KNEW NEW20190907031510809/07/19 03:15:31  5-MIN KNEW 070915Z AUTO 00000KT 10SM CLR 29/23 A2997 -30 71 1600 000/00 RMK AO2 T02890233
53917KNEW NEW20190907032010809/07/19 03:20:31  5-MIN KNEW 070920Z AUTO 00000KT 10SM CLR 29/24 A2997 -30 74 1600 000/00 RMK AO2 T02890239
53917KNEW NEW20190907032510809/07/19 03:25:31  5-MIN KNEW 070925Z AUTO 00000KT 10SM CLR 29/24 A2997 -30 74 1600 000/00 RMK AO2 T02890239
53917KNEW NEW20190907033010709/07/19 03:30:31  5-MIN KNEW 070930Z AUTO 00000KT 9SM CLR 28/24 A2997 -30 76 1500 000/00 RMK AO2 T02830239
53917KNEW NEW20190907033510709/07/19 03:35:31  5-MIN KNEW 070935Z AUTO 00000KT 9SM CLR 28/24 A2998 -40 76 1500 000/00 RMK AO2 T02830239
53917KNEW NEW20190907034010709/07/19 03:40:31  5-MIN KNEW 070940Z AUTO 30003KT 9SM CLR 29/24 A2998 -40 74 1600 300/03 RMK AO2 T02890239
53917KNEW NEW20190907034510709/07/19 03:45:31  5-MIN KNEW 070945Z AUTO 32003KT 9SM CLR 30/23 A2998 -40 67 1700 320/03 RMK AO2 T03000233
53917KNEW NEW20190907035011409/07/19 03:50:31  5-MIN KNEW 070950Z AUTO 32003KT 9SM CLR 30/23 A2997 -30 67 1700 320/03 RMK AO2 SLP144 T03000233
53917KNEW NEW20190907035510709/07/19 03:55:31  5-MIN KNEW 070955Z AUTO 32003KT 9SM CLR 30/23 A2997 -30 67 1700 320/03 RMK AO2 T03000233
53917KNEW NEW20190907040010709/07/19 04:00:31  5-MIN KNEW 071000Z AUTO 31003KT 9SM CLR 30/23 A2998 -40 67 1700 310/03 RMK AO2 T03000233
53917KNEW NEW20190907040510709/07/19 04:05:31  5-MIN KNEW 071005Z AUTO 31003KT 9SM CLR 30/23 A2998 -40 67 1700 310/03 RMK AO2 T03000233
53917KNEW NEW20190907041010809/07/19 04:10:31  5-MIN KNEW 071010Z AUTO 31003KT 10SM CLR 30/23 A2998 -40 65 1700 310/03 RMK AO2 T03000228
53917KNEW NEW20190907041510709/07/19 04:15:31  5-MIN KNEW 071015Z AUTO 30003KT 9SM CLR 30/23 A2998 -40 67 1700 300/03 RMK AO2 T03000233
53917KNEW NEW20190907042010809/07/19 04:20:31  5-MIN KNEW 071020Z AUTO 29003KT 10SM CLR 30/23 A2998 -40 65 1700 290/03 RMK AO2 T03000228
53917KNEW NEW20190907042510809/07/19 04:25:31  5-MIN KNEW 071025Z AUTO 29003KT 10SM CLR 30/23 A2998 -40 67 1700 290/03 RMK AO2 T03000233
53917KNEW NEW20190907043010709/07/19 04:30:31  5-MIN KNEW 071030Z AUTO 00000KT 9SM CLR 29/24 A2999 -40 71 1600 000/00 RMK AO2 T02940239
53917KNEW NEW20190907043510709/07/19 04:35:31  5-MIN KNEW 071035Z AUTO 26003KT 8SM CLR 29/24 A2999 -40 74 1600 260/03 RMK AO2 T02940244
53917KNEW NEW20190907044010709/07/19 04:40:31  5-MIN KNEW 071040Z AUTO 00000KT 8SM CLR 29/24 A2999 -40 76 1600 000/00 RMK AO2 T02890244
53917KNEW NEW20190907044510709/07/19 04:45:31  5-MIN KNEW 071045Z AUTO 23004KT 9SM CLR 28/24 A2999 -50 79 1500 230/04 RMK AO2 T02830244
53917KNEW NEW20190907045011409/07/19 04:50:31  5-MIN KNEW 071050Z AUTO 24003KT 9SM CLR 29/25 A2999 -50 79 1600 240/03 RMK AO2 SLP148 T02890250
53917KNEW NEW20190907045510709/07/19 04:55:31  5-MIN KNEW 071055Z AUTO 23006KT 9SM CLR 29/25 A2999 -50 79 1600 230/06 RMK AO2 T02890250
53917KNEW NEW20190907050010709/07/19 05:00:31  5-MIN KNEW 071100Z AUTO 23006KT 9SM CLR 29/25 A2999 -50 79 1600 230/06 RMK AO2 T02890250
53917KNEW NEW20190907050510709/07/19 05:05:31  5-MIN KNEW 071105Z AUTO 24005KT 9SM CLR 29/25 A2999 -50 79 1600 240/05 RMK AO2 T02890250
53917KNEW NEW20190907051010709/07/19 05:10:31  5-MIN KNEW 071110Z AUTO 25007KT 9SM CLR 29/25 A2999 -50 79 1600 250/07 RMK AO2 T02890250
53917KNEW NEW20190907051510709/07/19 05:15:31  5-MIN KNEW 071115Z AUTO 25006KT 8SM CLR 29/26 A2999 -50 82 1600 250/06 RMK AO2 T02890256
53917KNEW NEW20190907052010709/07/19 05:20:31  5-MIN KNEW 071120Z AUTO 26007KT 8SM CLR 29/26 A3000 -50 82 1600 260/07 RMK AO2 T02890256
53917KNEW NEW20190907052510709/07/19 05:25:31  5-MIN KNEW 071125Z AUTO 26006KT 8SM CLR 29/26 A3000 -50 82 1600 260/06 RMK AO2 T02940261
53917KNEW NEW20190907053010709/07/19 05:30:31  5-MIN KNEW 071130Z AUTO 26006KT 8SM CLR 29/26 A3000 -50 85 1600 260/06 RMK AO2 T02890261
53917KNEW NEW20190907053510709/07/19 05:35:31  5-MIN KNEW 071135Z AUTO 27008KT 9SM CLR 29/26 A3000 -60 82 1600 270/08 RMK AO2 T02940261
53917KNEW NEW20190907054010709/07/19 05:40:31  5-MIN KNEW 071140Z AUTO 27008KT 8SM CLR 29/26 A3000 -60 82 1600 270/08 RMK AO2 T02940261
53917KNEW NEW20190907054511009/07/19 05:45:31  5-MIN KNEW 071145Z AUTO 27008KT 6SM HZ CLR 29/26 A3000 -60 82 1600 270/08 RMK AO2 T02940261
53917KNEW NEW20190907055013009/07/19 05:50:31  5-MIN KNEW 071150Z 26008KT 6SM HZ CLR 29/26 A3000 -60 82 1600 260/08 RMK AO2 SLP154 T02940261 10311 20283 58006
53917KNEW NEW20190907055510509/07/19 05:55:31  5-MIN KNEW 071155Z 27009KT 6SM HZ CLR 29/26 A3001 -60 82 1600 270/09 RMK AO2 T02940261
53917KNEW NEW20190907060010509/07/19 06:00:31  5-MIN KNEW 071200Z 28008KT 6SM HZ CLR 30/26 A3001 -70 79 1700 280/08 RMK AO2 T03000261
53917KNEW NEW20190907060510209/07/19 06:05:31  5-MIN KNEW 071205Z 28008KT 7SM CLR 30/26 A3001 -70 79 1700 280/08 RMK AO2 T03000261
53917KNEW NEW20190907061010209/07/19 06:10:31  5-MIN KNEW 071210Z 29007KT 8SM CLR 30/26 A3001 -70 79 1700 290/07 RMK AO2 T03000261
53917KNEW NEW20190907061510209/07/19 06:15:31  5-MIN KNEW 071215Z 31006KT 9SM CLR 30/26 A3001 -70 79 1700 310/06 RMK AO2 T03000261
53917KNEW NEW20190907062010209/07/19 06:20:31  5-MIN KNEW 071220Z 31007KT 9SM CLR 30/26 A3001 -70 79 1700 310/07 RMK AO2 T03000261
53917KNEW NEW20190907062510209/07/19 06:25:31  5-MIN KNEW 071225Z 31008KT 9SM CLR 30/26 A3002 -70 79 1700 310/08 RMK AO2 T03000261
53917KNEW NEW20190907063010209/07/19 06:30:31  5-MIN KNEW 071230Z 32007KT 9SM CLR 30/26 A3002 -70 77 1700 320/07 RMK AO2 T03000256
53917KNEW NEW20190907063510209/07/19 06:35:31  5-MIN KNEW 071235Z 31007KT 9SM CLR 30/26 A3002 -70 77 1700 310/07 RMK AO2 T03000256
53917KNEW NEW20190907064010209/07/19 06:40:31  5-MIN KNEW 071240Z 31007KT 8SM CLR 30/26 A3002 -70 79 1700 310/07 RMK AO2 T03000261
53917KNEW NEW20190907064510209/07/19 06:45:31  5-MIN KNEW 071245Z 31008KT 8SM CLR 30/27 A3002 -80 82 1700 310/08 RMK AO2 T03000267
53917KNEW NEW20190907065010909/07/19 06:50:31  5-MIN KNEW 071250Z 32008KT 8SM CLR 30/27 A3002 -80 82 1700 320/08 RMK AO2 SLP159 T03000267
53917KNEW NEW20190907065510209/07/19 06:55:31  5-MIN KNEW 071255Z 32008KT 8SM CLR 30/27 A3002 -80 82 1700 320/08 RMK AO2 T03000267
53917KNEW NEW20190907070010209/07/19 07:00:31  5-MIN KNEW 071300Z 32007KT 8SM CLR 30/27 A3002 -80 82 1700 320/07 RMK AO2 T03000267
53917KNEW NEW20190907070510209/07/19 07:05:31  5-MIN KNEW 071305Z 33008KT 8SM CLR 30/27 A3002 -80 82 1700 330/08 RMK AO2 T03000267
53917KNEW NEW20190907071010209/07/19 07:10:31  5-MIN KNEW 071310Z 34008KT 8SM CLR 30/26 A3002 -80 79 1700 340/08 RMK AO2 T03000261
53917KNEW NEW20190907071510209/07/19 07:15:31  5-MIN KNEW 071315Z 34008KT 8SM CLR 31/26 A3003 -80 77 1700 340/08 RMK AO2 T03060261
53917KNEW NEW20190907072010209/07/19 07:20:31  5-MIN KNEW 071320Z 34007KT 8SM CLR 31/26 A3003 -80 77 1700 340/07 RMK AO2 T03060261
53917KNEW NEW20190907072510209/07/19 07:25:31  5-MIN KNEW 071325Z 34006KT 8SM CLR 31/26 A3003 -80 74 1700 340/06 RMK AO2 T03060256
53917KNEW NEW20190907073010209/07/19 07:30:31  5-MIN KNEW 071330Z 34006KT 8SM CLR 31/26 A3003 -80 74 1700 340/06 RMK AO2 T03060256
53917KNEW NEW20190907073510209/07/19 07:35:31  5-MIN KNEW 071335Z 35006KT 8SM CLR 31/26 A3003 -80 74 1700 350/06 RMK AO2 T03060256
53917KNEW NEW20190907074010209/07/19 07:40:31  5-MIN KNEW 071340Z 35006KT 8SM CLR 31/26 A3003 -80 72 1800 350/06 RMK AO2 T03110256
53917KNEW NEW20190907074510209/07/19 07:45:31  5-MIN KNEW 071345Z 35005KT 8SM CLR 31/26 A3003 -80 72 1800 350/05 RMK AO2 T03110256
53917KNEW NEW20190907075010909/07/19 07:50:31  5-MIN KNEW 071350Z 34006KT 8SM CLR 31/25 A3003 -80 69 1800 340/06 RMK AO2 SLP161 T03110250
53917KNEW NEW20190907075510209/07/19 07:55:31  5-MIN KNEW 071355Z 34005KT 8SM CLR 31/25 A3003 -80 69 1800 340/05 RMK AO2 T03110250
53917KNEW NEW20190907080010209/07/19 08:00:31  5-MIN KNEW 071400Z 34006KT 8SM CLR 31/25 A3003 -90 69 1800 340/06 RMK AO2 T03110250
53917KNEW NEW20190907080510209/07/19 08:05:31  5-MIN KNEW 071405Z 34006KT 8SM CLR 31/25 A3003 -90 69 1800 340/06 RMK AO2 T03110250
53917KNEW NEW20190907081010209/07/19 08:10:31  5-MIN KNEW 071410Z 33006KT 8SM CLR 31/25 A3003 -90 69 1800 330/06 RMK AO2 T03110250
53917KNEW NEW20190907081510209/07/19 08:15:31  5-MIN KNEW 071415Z 33005KT 8SM CLR 31/25 A3003 -90 69 1800 330/05 RMK AO2 T03110250
53917KNEW NEW20190907082010209/07/19 08:20:31  5-MIN KNEW 071420Z 33006KT 8SM CLR 31/25 A3003 -90 69 1800 330/06 RMK AO2 T03110250
53917KNEW NEW20190907082510209/07/19 08:25:31  5-MIN KNEW 071425Z 35006KT 8SM CLR 32/25 A3003 -90 67 1800 350/06 RMK AO2 T03170250
53917KNEW NEW20190907083010209/07/19 08:30:31  5-MIN KNEW 071430Z 33006KT 8SM CLR 31/24 A3003 -90 67 1800 330/06 RMK AO2 T03110244
53917KNEW NEW20190907083510209/07/19 08:35:31  5-MIN KNEW 071435Z 34005KT 8SM CLR 31/24 A3003 -90 67 1800 340/05 RMK AO2 T03110244
53917KNEW NEW20190907084010209/07/19 08:40:31  5-MIN KNEW 071440Z 33005KT 8SM CLR 31/24 A3003 -90 67 1800 330/05 RMK AO2 T03110244
53917KNEW NEW20190907084510209/07/19 08:45:31  5-MIN KNEW 071445Z 34005KT 7SM CLR 32/24 A3003 -90 65 1800 340/05 RMK AO2 T03170244
53917KNEW NEW20190907085011809/07/19 08:50:31  5-MIN KNEW 071450Z 32005KT 6SM HZ CLR 31/24 A3003 -90 67 1800 320/05 RMK AO2 SLP164 T03110244 53011
53917KNEW NEW20190907085510509/07/19 08:55:31  5-MIN KNEW 071455Z 32005KT 6SM HZ CLR 31/24 A3004 -90 67 1800 320/05 RMK AO2 T03110244
53917KNEW NEW20190907090010509/07/19 09:00:31  5-MIN KNEW 071500Z 30006KT 6SM HZ CLR 31/24 A3004 -90 67 1800 300/06 RMK AO2 T03110244
53917KNEW NEW20190907090510509/07/19 09:05:31  5-MIN KNEW 071505Z 31005KT 6SM HZ CLR 31/24 A3004 -90 67 1800 310/05 RMK AO2 T03110244
53917KNEW NEW20190907091010509/07/19 09:10:31  5-MIN KNEW 071510Z 32006KT 6SM HZ CLR 32/24 A3004 -90 65 1800 320/06 RMK AO2 T03170244
53917KNEW NEW20190907091510509/07/19 09:15:31  5-MIN KNEW 071515Z 32005KT 6SM HZ CLR 32/24 A3004 -90 65 1800 320/05 RMK AO2 T03170244
53917KNEW NEW20190907092010509/07/19 09:20:31  5-MIN KNEW 071520Z 30005KT 6SM HZ CLR 32/24 A3004 -90 65 1800 300/05 RMK AO2 T03170244
53917KNEW NEW20190907092510209/07/19 09:25:31  5-MIN KNEW 071525Z 31005KT 7SM CLR 32/24 A3003 -90 65 1800 310/05 RMK AO2 T03170244
53917KNEW NEW20190907093010209/07/19 09:30:31  5-MIN KNEW 071530Z 30004KT 7SM CLR 32/24 A3003 -90 65 1800 300/04 RMK AO2 T03170244
53917KNEW NEW20190907093510209/07/19 09:35:31  5-MIN KNEW 071535Z 33004KT 7SM CLR 32/24 A3003 -90 65 1800 330/04 RMK AO2 T03170244
53917KNEW NEW20190907094010209/07/19 09:40:31  5-MIN KNEW 071540Z 30005KT 7SM CLR 32/24 A3003 -90 65 1800 300/05 RMK AO2 T03170244
53917KNEW NEW20190907094510209/07/19 09:45:31  5-MIN KNEW 071545Z 28004KT 7SM CLR 32/24 A3003 -90 65 1800 280/04 RMK AO2 T03170244
53917KNEW NEW20190907095010909/07/19 09:50:31  5-MIN KNEW 071550Z 29004KT 7SM CLR 32/24 A3003 -90 65 1800 290/04 RMK AO2 SLP163 T03170244
53917KNEW NEW20190907095510509/07/19 09:55:31  5-MIN KNEW 071555Z 30004KT 6SM HZ CLR 32/24 A3003 -80 65 1800 300/04 RMK AO2 T03170244
53917KNEW NEW20190907100010509/07/19 10:00:31  5-MIN KNEW 071600Z 28005KT 6SM HZ CLR 32/24 A3003 -80 65 1800 280/05 RMK AO2 T03170244
53917KNEW NEW20190907100510209/07/19 10:05:31  5-MIN KNEW 071605Z 29005KT 7SM CLR 32/25 A3002 -80 67 1800 290/05 RMK AO2 T03170250
53917KNEW NEW20190907101010209/07/19 10:10:31  5-MIN KNEW 071610Z 29005KT 7SM CLR 32/24 A3002 -80 65 1800 290/05 RMK AO2 T03170244
53917KNEW NEW20190907101510209/07/19 10:15:31  5-MIN KNEW 071615Z 30006KT 7SM CLR 32/24 A3002 -80 63 1900 300/06 RMK AO2 T03220244
53917KNEW NEW20190907102010209/07/19 10:20:31  5-MIN KNEW 071620Z 30007KT 7SM CLR 32/24 A3002 -80 63 1900 300/07 RMK AO2 T03220244
53917KNEW NEW20190907102510209/07/19 10:25:31  5-MIN KNEW 071625Z 30006KT 7SM CLR 32/24 A3002 -80 65 1800 300/06 RMK AO2 T03170244
53917KNEW NEW20190907103010509/07/19 10:30:31  5-MIN KNEW 071630Z 30006KT 6SM HZ CLR 32/24 A3002 -80 65 1800 300/06 RMK AO2 T03170244
53917KNEW NEW20190907103510509/07/19 10:35:31  5-MIN KNEW 071635Z 29007KT 6SM HZ CLR 32/25 A3002 -80 67 1800 290/07 RMK AO2 T03170250
53917KNEW NEW20190907104010509/07/19 10:40:31  5-MIN KNEW 071640Z 29007KT 6SM HZ CLR 32/25 A3002 -70 67 1900 290/07 RMK AO2 T03170250
53917KNEW NEW20190907104510509/07/19 10:45:31  5-MIN KNEW 071645Z 29006KT 6SM HZ CLR 32/25 A3002 -70 67 1900 290/06 RMK AO2 T03170250
53917KNEW NEW20190907105011209/07/19 10:50:31  5-MIN KNEW 071650Z 30007KT 6SM HZ CLR 32/25 A3001 -70 65 1900 300/07 RMK AO2 SLP157 T03220250
53917KNEW NEW20190907105510509/07/19 10:55:31  5-MIN KNEW 071655Z 30007KT 6SM HZ CLR 32/25 A3001 -70 67 1900 300/07 RMK AO2 T03170250
53917KNEW NEW20190907110010509/07/19 11:00:31  5-MIN KNEW 071700Z 30007KT 6SM HZ CLR 32/25 A3001 -70 67 1900 300/07 RMK AO2 T03170250
53917KNEW NEW20190907110510509/07/19 11:05:31  5-MIN KNEW 071705Z 30007KT 6SM HZ CLR 32/25 A3001 -70 67 1900 300/07 RMK AO2 T03170250
53917KNEW NEW20190907111010509/07/19 11:10:31  5-MIN KNEW 071710Z 29006KT 6SM HZ CLR 32/25 A3001 -70 65 1900 290/06 RMK AO2 T03220250
53917KNEW NEW20190907111510509/07/19 11:15:31  5-MIN KNEW 071715Z 29006KT 6SM HZ CLR 32/25 A3001 -60 65 1900 290/06 RMK AO2 T03220250
53917KNEW NEW20190907112010509/07/19 11:20:31  5-MIN KNEW 071720Z 29005KT 6SM HZ CLR 32/25 A3001 -60 65 1900 290/05 RMK AO2 T03220250
53917KNEW NEW20190907112510509/07/19 11:25:31  5-MIN KNEW 071725Z 30006KT 6SM HZ CLR 32/25 A3000 -60 65 1900 300/06 RMK AO2 T03220250
53917KNEW NEW20190907113010509/07/19 11:30:31  5-MIN KNEW 071730Z 30006KT 6SM HZ CLR 32/25 A3000 -60 65 1900 300/06 RMK AO2 T03220250
53917KNEW NEW20190907113510509/07/19 11:35:31  5-MIN KNEW 071735Z 30005KT 6SM HZ CLR 32/25 A3000 -60 65 1900 300/05 RMK AO2 T03220250
53917KNEW NEW20190907114010509/07/19 11:40:31  5-MIN KNEW 071740Z 30005KT 6SM HZ CLR 32/25 A3000 -60 65 1900 300/05 RMK AO2 T03220250
53917KNEW NEW20190907114510509/07/19 11:45:31  5-MIN KNEW 071745Z 30005KT 6SM HZ CLR 33/25 A3000 -60 63 2000 300/05 RMK AO2 T03280250
53917KNEW NEW20190907115013009/07/19 11:50:31  5-MIN KNEW 071750Z 29005KT 6SM HZ CLR 32/25 A3000 -60 65 1900 290/05 RMK AO2 SLP152 T03220250 10328 20294 51010
53917KNEW NEW20190907115510209/07/19 11:55:31  5-MIN KNEW 071755Z 30005KT 7SM CLR 32/25 A3000 -60 65 1900 300/05 RMK AO2 T03220250
53917KNEW NEW20190907120010209/07/19 12:00:31  5-MIN KNEW 071800Z 29005KT 7SM CLR 32/26 A3000 -50 67 1900 290/05 RMK AO2 T03220256
53917KNEW NEW20190907120510209/07/19 12:05:31  5-MIN KNEW 071805Z 29005KT 7SM CLR 33/25 A3000 -50 63 2000 290/05 RMK AO2 T03280250
53917KNEW NEW20190907121010209/07/19 12:10:31  5-MIN KNEW 071810Z 28005KT 7SM CLR 32/25 A3000 -50 65 1900 280/05 RMK AO2 T03220250
53917KNEW NEW20190907121510209/07/19 12:15:31  5-MIN KNEW 071815Z 29004KT 7SM CLR 33/25 A3000 -50 63 2000 290/04 RMK AO2 T03280250
53917KNEW NEW20190907122010209/07/19 12:20:31  5-MIN KNEW 071820Z 29005KT 7SM CLR 32/25 A2999 -50 65 1900 290/05 RMK AO2 T03220250
53917KNEW NEW20190907122510209/07/19 12:25:31  5-MIN KNEW 071825Z 29005KT 7SM CLR 32/25 A2999 -50 65 1900 290/05 RMK AO2 T03220250
53917KNEW NEW20190907123010209/07/19 12:30:31  5-MIN KNEW 071830Z 29005KT 7SM CLR 33/24 A2999 -50 61 2000 290/05 RMK AO2 T03280244
53917KNEW NEW20190907123510209/07/19 12:35:31  5-MIN KNEW 071835Z 29005KT 7SM CLR 33/25 A2999 -50 63 2000 290/05 RMK AO2 T03280250
53917KNEW NEW20190907124010209/07/19 12:40:31  5-MIN KNEW 071840Z 29004KT 7SM CLR 33/25 A2999 -50 63 2000 290/04 RMK AO2 T03280250
53917KNEW NEW20190907124510209/07/19 12:45:31  5-MIN KNEW 071845Z 30005KT 7SM CLR 33/25 A2999 -50 61 2100 300/05 RMK AO2 T03330250
53917KNEW NEW20190907125010909/07/19 12:50:31  5-MIN KNEW 071850Z 29005KT 7SM CLR 33/24 A2999 -40 61 2000 290/05 RMK AO2 SLP147 T03280244
53917KNEW NEW20190907125510209/07/19 12:55:31  5-MIN KNEW 071855Z 29005KT 7SM CLR 33/25 A2998 -40 63 2000 290/05 RMK AO2 T03280250
53917KNEW NEW20190907130010209/07/19 13:00:31  5-MIN KNEW 071900Z 29004KT 7SM CLR 33/25 A2998 -40 63 2000 290/04 RMK AO2 T03280250
53917KNEW NEW20190907130510209/07/19 13:05:31  5-MIN KNEW 071905Z 29005KT 7SM CLR 33/25 A2998 -40 63 2000 290/05 RMK AO2 T03280250
53917KNEW NEW20190907131010209/07/19 13:10:31  5-MIN KNEW 071910Z 28005KT 7SM CLR 33/25 A2998 -40 63 2000 280/05 RMK AO2 T03280250
53917KNEW NEW20190907131510209/07/19 13:15:31  5-MIN KNEW 071915Z 30005KT 7SM CLR 33/25 A2998 -40 63 2000 300/05 RMK AO2 T03280250
53917KNEW NEW20190907132010209/07/19 13:20:31  5-MIN KNEW 071920Z 29004KT 7SM CLR 33/25 A2997 -30 63 2000 290/04 RMK AO2 T03280250
53917KNEW NEW20190907132510209/07/19 13:25:31  5-MIN KNEW 071925Z 28004KT 7SM CLR 33/24 A2997 -30 59 2100 280/04 RMK AO2 T03330244
53917KNEW NEW20190907133010209/07/19 13:30:31  5-MIN KNEW 071930Z 29005KT 7SM CLR 33/24 A2997 -30 59 2100 290/05 RMK AO2 T03330244
53917KNEW NEW20190907133510209/07/19 13:35:31  5-MIN KNEW 071935Z 28005KT 7SM CLR 33/24 A2997 -30 59 2100 280/05 RMK AO2 T03330244
53917KNEW NEW20190907134010209/07/19 13:40:31  5-MIN KNEW 071940Z 27005KT 8SM CLR 33/24 A2997 -30 59 2100 270/05 RMK AO2 T03330244
53917KNEW NEW20190907134510209/07/19 13:45:31  5-MIN KNEW 071945Z 27005KT 8SM CLR 33/25 A2996 -20 61 2100 270/05 RMK AO2 T03330250
53917KNEW NEW20190907135010909/07/19 13:50:31  5-MIN KNEW 071950Z 27006KT 8SM CLR 33/24 A2996 -20 59 2100 270/06 RMK AO2 SLP140 T03330244
53917KNEW NEW20190907135510209/07/19 13:55:31  5-MIN KNEW 071955Z 27006KT 8SM CLR 33/24 A2996 -20 59 2100 270/06 RMK AO2 T03330244
53917KNEW NEW20190907140010209/07/19 14:00:31  5-MIN KNEW 072000Z 27006KT 8SM CLR 33/25 A2996 -20 61 2100 270/06 RMK AO2 T03330250
53917KNEW NEW20190907140510209/07/19 14:05:31  5-MIN KNEW 072005Z 28006KT 8SM CLR 34/24 A2996 -20 57 2200 280/06 RMK AO2 T03390244
53917KNEW NEW20190907141010209/07/19 14:10:31  5-MIN KNEW 072010Z 28007KT 8SM CLR 34/25 A2995 -10 59 2200 280/07 RMK AO2 T03390250
53917KNEW NEW20190907141510209/07/19 14:15:31  5-MIN KNEW 072015Z 27008KT 8SM CLR 34/24 A2995 -10 57 2200 270/08 RMK AO2 T03390244
53917KNEW NEW20190907142010209/07/19 14:20:31  5-MIN KNEW 072020Z 28006KT 8SM CLR 34/25 A2995 -10 59 2200 280/06 RMK AO2 T03390250
53917KNEW NEW20190907142510209/07/19 14:25:31  5-MIN KNEW 072025Z 28007KT 8SM CLR 34/24 A2995 -10 57 2200 280/07 RMK AO2 T03390244
53917KNEW NEW20190907143010209/07/19 14:30:31  5-MIN KNEW 072030Z 28007KT 8SM CLR 34/24 A2995 -10 57 2200 280/07 RMK AO2 T03390244
53917KNEW NEW20190907143510209/07/19 14:35:31  5-MIN KNEW 072035Z 28007KT 8SM CLR 34/24 A2995 -10 57 2200 280/07 RMK AO2 T03390244
53917KNEW NEW20190907144010209/07/19 14:40:31  5-MIN KNEW 072040Z 28007KT 8SM CLR 34/24 A2995 -10 55 2200 280/07 RMK AO2 T03440244
53917KNEW NEW20190907144510209/07/19 14:45:31  5-MIN KNEW 072045Z 28008KT 9SM CLR 34/24 A2995 -10 55 2200 280/08 RMK AO2 T03440244
53917KNEW NEW20190907145011509/07/19 14:50:31  5-MIN KNEW 072050Z 28007KT 9SM CLR 34/24 A2994 -10 53 2200 280/07 RMK AO2 SLP133 T03440239 58013
53917KNEW NEW20190907145510209/07/19 14:55:31  5-MIN KNEW 072055Z 28008KT 9SM CLR 34/24 A2994 -10 53 2200 280/08 RMK AO2 T03440239
53917KNEW NEW20190907150010209/07/19 15:00:31  5-MIN KNEW 072100Z 27008KT 9SM CLR 34/24 A2995 -10 53 2200 270/08 RMK AO2 T03440239
53917KNEW NEW20190907150510209/07/19 15:05:31  5-MIN KNEW 072105Z 28007KT 9SM CLR 34/24 A2995 -10 53 2200 280/07 RMK AO2 T03440239
53917KNEW NEW20190907151010209/07/19 15:10:31  5-MIN KNEW 072110Z 27007KT 9SM CLR 34/24 A2995 -10 53 2200 270/07 RMK AO2 T03440239
53917KNEW NEW20190907151510209/07/19 15:15:31  5-MIN KNEW 072115Z 27007KT 9SM CLR 34/23 A2994 -10 52 2200 270/07 RMK AO2 T03440233
53917KNEW NEW20190907152010309/07/19 15:20:31  5-MIN KNEW 072120Z 28007KT 10SM CLR 34/23 A2994 -10 52 2200 280/07 RMK AO2 T03440233
53917KNEW NEW20190907152015109/07/19 15:20:31  5-MIN KNEW 072120Z 28007KT 10SM CLR 34/23 A2994 -10 52 09/0 RMK AO2 T T22/24 AK AO2 T034 52909/07/19 15R 250 N Z 28007KT < A29<2500 
53917KNEW NEW20190907152510309/07/19 15:25:31  5-MIN KNEW 072125Z 28007KT 10SM CLR 34/23 A2994 -10 52 2200 280/07 RMK AO2 T03440233
53917KNEW NEW20190907153010209/07/19 15:30:31  5-MIN KNEW 072130Z 27007KT 9SM CLR 34/23 A2994 -10 52 2200 270/07 RMK AO2 T03440233
53917KNEW NEW20190907153510009/07/19 15:35:31  5-MIN KNEW 072135Z 27007KT 9SM CLR 34/22 A2994 0 48 2200 270/07 RMK AO2 T03440222
53917KNEW NEW20190907154010009/07/19 15:40:31  5-MIN KNEW 072140Z 28007KT 9SM CLR 34/22 A2994 0 48 2200 280/07 RMK AO2 T03440222
53917KNEW NEW20190907154510109/07/19 15:45:31  5-MIN KNEW 072145Z 29006KT 10SM CLR 34/22 A2994 0 48 2200 290/06 RMK AO2 T03440222
53917KNEW NEW20190907155010809/07/19 15:50:31  5-MIN KNEW 072150Z 28006KT 10SM CLR 34/22 A2994 0 48 2200 280/06 RMK AO2 SLP132 T03440222
53917KNEW NEW20190907155510009/07/19 15:55:31  5-MIN KNEW 072155Z 28007KT 9SM CLR 34/22 A2994 0 48 2200 280/07 RMK AO2 T03440222
53917KNEW NEW20190907160010009/07/19 16:00:31  5-MIN KNEW 072200Z 27007KT 9SM CLR 34/22 A2994 0 48 2200 270/07 RMK AO2 T03440222
53917KNEW NEW20190907160510009/07/19 16:05:31  5-MIN KNEW 072205Z 27006KT 9SM CLR 34/22 A2994 0 48 2200 270/06 RMK AO2 T03440222
53917KNEW NEW20190907161010009/07/19 16:10:31  5-MIN KNEW 072210Z 27007KT 9SM CLR 34/22 A2994 0 48 2200 270/07 RMK AO2 T03440222
53917KNEW NEW20190907161510009/07/19 16:15:31  5-MIN KNEW 072215Z 26007KT 9SM CLR 34/22 A2994 0 48 2200 260/07 RMK AO2 T03440222
53917KNEW NEW20190907162010009/07/19 16:20:31  5-MIN KNEW 072220Z 26007KT 9SM CLR 34/22 A2994 0 46 2200 260/07 RMK AO2 T03440217
53917KNEW NEW20190907162510009/07/19 16:25:31  5-MIN KNEW 072225Z 26007KT 9SM CLR 34/22 A2993 0 46 2200 260/07 RMK AO2 T03440217
53917KNEW NEW20190907163010009/07/19 16:30:31  5-MIN KNEW 072230Z 26006KT 9SM CLR 34/22 A2993 0 46 2200 260/06 RMK AO2 T03440217
53917KNEW NEW20190907163510109/07/19 16:35:31  5-MIN KNEW 072235Z 26006KT 10SM CLR 34/22 A2993 0 46 2300 260/06 RMK AO2 T03440217
53917KNEW NEW20190907164010009/07/19 16:40:31  5-MIN KNEW 072240Z 27006KT 9SM CLR 34/22 A2993 0 46 2300 270/06 RMK AO2 T03440217
53917KNEW NEW20190907164510009/07/19 16:45:31  5-MIN KNEW 072245Z 27006KT 9SM CLR 34/22 A2993 0 46 2300 270/06 RMK AO2 T03440217
53917KNEW NEW20190907165010709/07/19 16:50:31  5-MIN KNEW 072250Z 27006KT 9SM CLR 34/21 A2993 0 45 2300 270/06 RMK AO2 SLP129 T03440211
53917KNEW NEW20190907165510009/07/19 16:55:31  5-MIN KNEW 072255Z 27005KT 9SM CLR 34/22 A2993 0 46 2300 270/05 RMK AO2 T03440217
53917KNEW NEW20190907170010009/07/19 17:00:31  5-MIN KNEW 072300Z 26005KT 9SM CLR 34/22 A2993 0 48 2300 260/05 RMK AO2 T03440222
53917KNEW NEW20190907170510009/07/19 17:05:31  5-MIN KNEW 072305Z 26004KT 9SM CLR 34/22 A2994 0 50 2200 260/04 RMK AO2 T03390222
53917KNEW NEW20190907171010009/07/19 17:10:31  5-MIN KNEW 072310Z 26004KT 9SM CLR 34/22 A2994 0 50 2200 260/04 RMK AO2 T03390222
53917KNEW NEW20190907171510009/07/19 17:15:31  5-MIN KNEW 072315Z 26005KT 9SM CLR 34/22 A2994 0 50 2200 260/05 RMK AO2 T03390222
53917KNEW NEW20190907172010009/07/19 17:20:31  5-MIN KNEW 072320Z 27005KT 9SM CLR 34/22 A2994 0 50 2200 270/05 RMK AO2 T03390222
53917KNEW NEW20190907172510009/07/19 17:25:31  5-MIN KNEW 072325Z 27005KT 9SM CLR 34/23 A2994 0 51 2200 270/05 RMK AO2 T03390228
53917KNEW NEW20190907173010009/07/19 17:30:31  5-MIN KNEW 072330Z 28004KT 9SM CLR 34/23 A2993 0 51 2200 280/04 RMK AO2 T03390228
53917KNEW NEW20190907173510009/07/19 17:35:31  5-MIN KNEW 072335Z 27004KT 9SM CLR 34/23 A2993 0 51 2200 270/04 RMK AO2 T03390228
53917KNEW NEW20190907174010009/07/19 17:40:31  5-MIN KNEW 072340Z 27005KT 9SM CLR 34/23 A2994 0 51 2200 270/05 RMK AO2 T03390228
53917KNEW NEW20190907174510009/07/19 17:45:31  5-MIN KNEW 072345Z 27004KT 9SM CLR 34/23 A2994 0 51 2200 270/04 RMK AO2 T03390228
53917KNEW NEW20190907175012509/07/19 17:50:31  5-MIN KNEW 072350Z 27005KT 9SM CLR 33/23 A2994 0 55 2100 270/05 RMK AO2 SLP131 T03330233 10344 20322 58018
53917KNEW NEW20190907175510009/07/19 17:55:31  5-MIN KNEW 072355Z 28004KT 9SM CLR 33/23 A2994 0 53 2100 280/04 RMK AO2 T03330228
53917KNEW NEW20190907180010009/07/19 18:00:31  5-MIN KNEW 080000Z 28004KT 9SM CLR 33/23 A2994 0 55 2100 280/04 RMK AO2 T03330233
53917KNEW NEW20190907180510009/07/19 18:05:31  5-MIN KNEW 080005Z 28003KT 8SM CLR 33/23 A2994 0 55 2100 280/03 RMK AO2 T03330233
53917KNEW NEW20190907181010009/07/19 18:10:31  5-MIN KNEW 080010Z 28004KT 8SM CLR 33/24 A2994 0 57 2100 280/04 RMK AO2 T03330239
53917KNEW NEW20190907181510009/07/19 18:15:31  5-MIN KNEW 080015Z 28003KT 8SM CLR 33/23 A2993 0 55 2100 280/03 RMK AO2 T03330233
53917KNEW NEW20190907182010009/07/19 18:20:31  5-MIN KNEW 080020Z 28003KT 8SM CLR 33/23 A2993 0 55 2100 280/03 RMK AO2 T03330233
53917KNEW NEW20190907182510009/07/19 18:25:31  5-MIN KNEW 080025Z 28003KT 8SM CLR 33/23 A2993 0 55 2100 280/03 RMK AO2 T03330233
53917KNEW NEW20190907183010009/07/19 18:30:31  5-MIN KNEW 080030Z 28003KT 9SM CLR 33/24 A2994 0 57 2100 280/03 RMK AO2 T03330239
53917KNEW NEW20190907183510009/07/19 18:35:31  5-MIN KNEW 080035Z 27003KT 9SM CLR 33/24 A2994 0 57 2100 270/03 RMK AO2 T03330239
53917KNEW NEW20190907184010009/07/19 18:40:31  5-MIN KNEW 080040Z 27004KT 9SM CLR 33/23 A2994 0 55 2100 270/04 RMK AO2 T03330233
53917KNEW NEW20190907184510009/07/19 18:45:31  5-MIN KNEW 080045Z 26004KT 8SM CLR 33/24 A2994 0 57 2100 260/04 RMK AO2 T03330239
53917KNEW NEW20190907185010709/07/19 18:50:31  5-MIN KNEW 080050Z 26004KT 8SM CLR 33/24 A2994 0 57 2100 260/04 RMK AO2 SLP132 T03330239
53917KNEW NEW20190907185510009/07/19 18:55:31  5-MIN KNEW 080055Z 27004KT 8SM CLR 33/24 A2994 0 57 2100 270/04 RMK AO2 T03330239
53917KNEW NEW20190907190010009/07/19 19:00:31  5-MIN KNEW 080100Z 26004KT 8SM CLR 33/24 A2994 0 57 2100 260/04 RMK AO2 T03330239
53917KNEW NEW20190907190510009/07/19 19:05:31  5-MIN KNEW 080105Z 26004KT 8SM CLR 33/24 A2994 0 57 2100 260/04 RMK AO2 T03330239
53917KNEW NEW20190907191010209/07/19 19:10:31  5-MIN KNEW 080110Z 26004KT 8SM CLR 33/24 A2994 -10 59 2100 260/04 RMK AO2 T03280239
53917KNEW NEW20190907191510209/07/19 19:15:31  5-MIN KNEW 080115Z 26004KT 8SM CLR 33/24 A2994 -10 59 2100 260/04 RMK AO2 T03280239
53917KNEW NEW20190907192010209/07/19 19:20:31  5-MIN KNEW 080120Z 26004KT 8SM CLR 33/24 A2995 -10 57 2100 260/04 RMK AO2 T03330239
53917KNEW NEW20190907192510509/07/19 19:25:31  5-MIN KNEW 080125Z 26004KT 8SM FEW060 33/24 A2995 -10 57 2100 260/04 RMK AO2 T03330239
53917KNEW NEW20190907193010509/07/19 19:30:31  5-MIN KNEW 080130Z 25004KT 8SM SCT060 33/24 A2995 -10 59 2000 250/04 RMK AO2 T03280239
53917KNEW NEW20190907193510509/07/19 19:35:31  5-MIN KNEW 080135Z 26003KT 8SM SCT060 33/24 A2995 -10 57 2100 260/03 RMK AO2 T03330239
53917KNEW NEW20190907194010509/07/19 19:40:31  5-MIN KNEW 080140Z 25004KT 7SM FEW060 33/23 A2995 -10 55 2100 250/04 RMK AO2 T03330233
53917KNEW NEW20190907194510509/07/19 19:45:31  5-MIN KNEW 080145Z 26005KT 8SM FEW060 33/24 A2995 -10 57 2100 260/05 RMK AO2 T03330239
53917KNEW NEW20190907195011209/07/19 19:50:31  5-MIN KNEW 080150Z 26004KT 8SM FEW060 33/24 A2995 -10 59 2000 260/04 RMK AO2 SLP135 T03280239
53917KNEW NEW20190907195510509/07/19 19:55:31  5-MIN KNEW 080155Z 27004KT 8SM FEW060 33/24 A2995 -10 61 2000 270/04 RMK AO2 T03280244
53917KNEW NEW20190907200010709/07/19 20:00:31  5-MIN KNEW 080200Z AUTO 28004KT 8SM CLR 33/24 A2995 -10 61 2000 280/04 RMK AO2 T03280244
53917KNEW NEW20190907200510709/07/19 20:05:31  5-MIN KNEW 080205Z AUTO 27005KT 7SM CLR 33/24 A2995 -10 61 2000 270/05 RMK AO2 T03280244
53917KNEW NEW20190907201010709/07/19 20:10:31  5-MIN KNEW 080210Z AUTO 24004KT 7SM CLR 33/24 A2995 -10 61 2000 240/04 RMK AO2 T03280244
53917KNEW NEW20190907201510709/07/19 20:15:31  5-MIN KNEW 080215Z AUTO 25004KT 8SM CLR 33/24 A2995 -10 59 2000 250/04 RMK AO2 T03280239
53917KNEW NEW20190907202010709/07/19 20:20:31  5-MIN KNEW 080220Z AUTO 25004KT 8SM CLR 33/23 A2995 -20 57 2000 250/04 RMK AO2 T03280233
53917KNEW NEW20190907202510709/07/19 20:25:31  5-MIN KNEW 080225Z AUTO 25003KT 8SM CLR 33/24 A2996 -20 59 2000 250/03 RMK AO2 T03280239
53917KNEW NEW20190907203010709/07/19 20:30:31  5-MIN KNEW 080230Z AUTO 24004KT 8SM CLR 33/24 A2996 -20 59 2000 240/04 RMK AO2 T03280239
53917KNEW NEW20190907203510709/07/19 20:35:31  5-MIN KNEW 080235Z AUTO 24004KT 8SM CLR 33/23 A2996 -20 57 2000 240/04 RMK AO2 T03280233
53917KNEW NEW20190907204010709/07/19 20:40:31  5-MIN KNEW 080240Z AUTO 25004KT 8SM CLR 33/23 A2996 -20 57 2000 250/04 RMK AO2 T03280233
53917KNEW NEW20190907204510709/07/19 20:45:31  5-MIN KNEW 080245Z AUTO 24004KT 8SM CLR 33/23 A2996 -20 57 2000 240/04 RMK AO2 T03280233
53917KNEW NEW20190907205012009/07/19 20:50:31  5-MIN KNEW 080250Z AUTO 25005KT 8SM CLR 33/23 A2996 -20 57 2000 250/05 RMK AO2 SLP140 T03280233 55002
53917KNEW NEW20190907205510709/07/19 20:55:31  5-MIN KNEW 080255Z AUTO 25004KT 8SM CLR 33/24 A2997 -30 59 2000 250/04 RMK AO2 T03280239
53917KNEW NEW20190907210010709/07/19 21:00:31  5-MIN KNEW 080300Z AUTO 25004KT 7SM CLR 33/24 A2997 -30 59 2000 250/04 RMK AO2 T03280239
53917KNEW NEW20190907210510709/07/19 21:05:31  5-MIN KNEW 080305Z AUTO 25005KT 7SM CLR 33/24 A2997 -30 59 2000 250/05 RMK AO2 T03280239
53917KNEW NEW20190907211010709/07/19 21:10:31  5-MIN KNEW 080310Z AUTO 25005KT 7SM CLR 33/24 A2997 -30 59 2000 250/05 RMK AO2 T03280239
53917KNEW NEW20190907211510709/07/19 21:15:31  5-MIN KNEW 080315Z AUTO 25005KT 7SM CLR 33/24 A2997 -30 59 2000 250/05 RMK AO2 T03280239
53917KNEW NEW20190907212010709/07/19 21:20:31  5-MIN KNEW 080320Z AUTO 25005KT 7SM CLR 33/24 A2997 -30 61 2000 250/05 RMK AO2 T03280244
53917KNEW NEW20190907212510709/07/19 21:25:31  5-MIN KNEW 080325Z AUTO 25005KT 7SM CLR 33/24 A2996 -20 59 2000 250/05 RMK AO2 T03280239
53917KNEW NEW20190907213010709/07/19 21:30:31  5-MIN KNEW 080330Z AUTO 24005KT 7SM CLR 32/24 A2996 -20 63 2000 240/05 RMK AO2 T03220244
53917KNEW NEW20190907213510709/07/19 21:35:31  5-MIN KNEW 080335Z AUTO 27006KT 7SM CLR 32/24 A2997 -30 63 2000 270/06 RMK AO2 T03220244
53917KNEW NEW20190907214011009/07/19 21:40:31  5-MIN KNEW 080340Z AUTO 27006KT 6SM HZ CLR 33/25 A2997 -30 63 2000 270/06 RMK AO2 T03280250
53917KNEW NEW20190907214511009/07/19 21:45:31  5-MIN KNEW 080345Z AUTO 29008KT 6SM HZ CLR 33/26 A2997 -30 65 2000 290/08 RMK AO2 T03280256
53917KNEW NEW20190907215011709/07/19 21:50:31  5-MIN KNEW 080350Z AUTO 29007KT 6SM HZ CLR 33/26 A2997 -30 65 2000 290/07 RMK AO2 SLP140 T03280256
53917KNEW NEW20190907215511009/07/19 21:55:31  5-MIN KNEW 080355Z AUTO 29007KT 6SM HZ CLR 33/25 A2996 -20 63 2000 290/07 RMK AO2 T03280250
53917KNEW NEW20190907220011009/07/19 22:00:31  5-MIN KNEW 080400Z AUTO 30008KT 6SM HZ CLR 33/25 A2996 -20 63 2000 300/08 RMK AO2 T03280250
53917KNEW NEW20190907220511009/07/19 22:05:31  5-MIN KNEW 080405Z AUTO 30008KT 6SM HZ CLR 33/25 A2996 -20 63 2000 300/08 RMK AO2 T03280250
53917KNEW NEW20190907221011009/07/19 22:10:31  5-MIN KNEW 080410Z AUTO 30008KT 6SM HZ CLR 32/25 A2997 -30 65 2000 300/08 RMK AO2 T03220250
53917KNEW NEW20190907221511009/07/19 22:15:31  5-MIN KNEW 080415Z AUTO 30008KT 6SM HZ CLR 32/26 A2997 -30 67 2000 300/08 RMK AO2 T03220256
53917KNEW NEW20190907222010709/07/19 22:20:31  5-MIN KNEW 080420Z AUTO 30009KT 7SM CLR 32/26 A2996 -30 67 2000 300/09 RMK AO2 T03220256
53917KNEW NEW20190907222510709/07/19 22:25:31  5-MIN KNEW 080425Z AUTO 30008KT 7SM CLR 32/26 A2996 -20 67 2000 300/08 RMK AO2 T03220256
53917KNEW NEW20190907223010709/07/19 22:30:31  5-MIN KNEW 080430Z AUTO 30008KT 7SM CLR 32/26 A2996 -20 67 2000 300/08 RMK AO2 T03220256
53917KNEW NEW20190907223510709/07/19 22:35:31  5-MIN KNEW 080435Z AUTO 30009KT 7SM CLR 32/26 A2996 -20 67 2000 300/09 RMK AO2 T03220256
53917KNEW NEW20190907224010709/07/19 22:40:31  5-MIN KNEW 080440Z AUTO 30009KT 7SM CLR 32/26 A2996 -20 67 2000 300/09 RMK AO2 T03220256
53917KNEW NEW20190907224510709/07/19 22:45:31  5-MIN KNEW 080445Z AUTO 30009KT 7SM CLR 32/25 A2996 -20 65 2000 300/09 RMK AO2 T03220250
53917KNEW NEW20190907225011409/07/19 22:50:31  5-MIN KNEW 080450Z AUTO 30008KT 8SM CLR 32/26 A2996 -20 67 2000 300/08 RMK AO2 SLP139 T03220256
53917KNEW NEW20190907225510709/07/19 22:55:31  5-MIN KNEW 080455Z AUTO 30009KT 8SM CLR 32/26 A2996 -20 67 2000 300/09 RMK AO2 T03220256
53917KNEW NEW20190907230010709/07/19 23:00:31  5-MIN KNEW 080500Z AUTO 30009KT 8SM CLR 32/26 A2996 -20 67 2000 300/09 RMK AO2 T03220256
53917KNEW NEW20190907230510709/07/19 23:05:31  5-MIN KNEW 080505Z AUTO 30009KT 8SM CLR 32/26 A2996 -20 67 2000 300/09 RMK AO2 T03220256
53917KNEW NEW20190907231010709/07/19 23:10:31  5-MIN KNEW 080510Z AUTO 30010KT 8SM CLR 32/26 A2996 -20 67 2000 300/10 RMK AO2 T03220256
53917KNEW NEW20190907231510709/07/19 23:15:31  5-MIN KNEW 080515Z AUTO 30010KT 8SM CLR 32/26 A2996 -20 67 2000 300/10 RMK AO2 T03220256
53917KNEW NEW20190907232010709/07/19 23:20:31  5-MIN KNEW 080520Z AUTO 30011KT 8SM CLR 32/25 A2996 -20 65 2000 300/11 RMK AO2 T03220250
53917KNEW NEW20190907232510709/07/19 23:25:31  5-MIN KNEW 080525Z AUTO 31008KT 8SM CLR 32/26 A2996 -20 67 2000 310/08 RMK AO2 T03220256
53917KNEW NEW20190907233010709/07/19 23:30:31  5-MIN KNEW 080530Z AUTO 30009KT 8SM CLR 32/26 A2996 -20 67 2000 300/09 RMK AO2 T03220256
53917KNEW NEW20190907233510709/07/19 23:35:31  5-MIN KNEW 080535Z AUTO 30010KT 8SM CLR 32/26 A2996 -20 67 2000 300/10 RMK AO2 T03220256
53917KNEW NEW20190907234010709/07/19 23:40:31  5-MIN KNEW 080540Z AUTO 30009KT 8SM CLR 32/25 A2996 -20 65 2000 300/09 RMK AO2 T03220250
53917KNEW NEW20190907234510709/07/19 23:45:31  5-MIN KNEW 080545Z AUTO 31009KT 8SM CLR 32/25 A2996 -20 65 2000 310/09 RMK AO2 T03220250
53917KNEW NEW20190907235014209/07/19 23:50:31  5-MIN KNEW 080550Z AUTO 30009KT 8SM CLR 32/26 A2996 -20 67 2000 300/09 RMK AO2 SLP140 T03220256 10333 20322 403440283 53009
53917KNEW NEW20190907235510709/07/19 23:55:31  5-MIN KNEW 080555Z AUTO 29009KT 8SM CLR 32/26 A2997 -30 67 2000 290/09 RMK AO2 T03220256
53917KNEW NEW20190908000010709/08/19 00:00:31  5-MIN KNEW 080600Z AUTO 28010KT 8SM CLR 32/26 A2997 -30 69 1900 280/10 RMK AO2 T03170256
53917KNEW NEW20190908000510709/08/19 00:05:31  5-MIN KNEW 080605Z AUTO 26010KT 7SM CLR 32/26 A2997 -30 72 1900 260/10 RMK AO2 T03170261
53917KNEW NEW20190908001010709/08/19 00:10:31  5-MIN KNEW 080610Z AUTO 26010KT 7SM CLR 31/26 A2997 -30 72 1800 260/10 RMK AO2 T03110256
53917KNEW NEW20190908001510709/08/19 00:15:31  5-MIN KNEW 080615Z AUTO 26009KT 8SM CLR 31/26 A2997 -30 72 1800 260/09 RMK AO2 T03110256
53917KNEW NEW20190908002010709/08/19 00:20:31  5-MIN KNEW 080620Z AUTO 26009KT 8SM CLR 31/26 A2997 -30 72 1800 260/09 RMK AO2 T03110256
53917KNEW NEW20190908002510709/08/19 00:25:31  5-MIN KNEW 080625Z AUTO 27009KT 8SM CLR 31/26 A2997 -30 72 1800 270/09 RMK AO2 T03110256
53917KNEW NEW20190908003010709/08/19 00:30:31  5-MIN KNEW 080630Z AUTO 26009KT 8SM CLR 31/26 A2997 -30 72 1800 260/09 RMK AO2 T03110256
53917KNEW NEW20190908003510709/08/19 00:35:31  5-MIN KNEW 080635Z AUTO 27008KT 7SM CLR 31/25 A2996 -20 69 1900 270/08 RMK AO2 T03110250
53917KNEW NEW20190908004010709/08/19 00:40:31  5-MIN KNEW 080640Z AUTO 28008KT 7SM CLR 31/25 A2996 -20 69 1900 280/08 RMK AO2 T03110250
53917KNEW NEW20190908004510709/08/19 00:45:31  5-MIN KNEW 080645Z AUTO 28009KT 7SM CLR 31/25 A2996 -20 69 1900 280/09 RMK AO2 T03110250
53917KNEW NEW20190908005011409/08/19 00:50:31  5-MIN KNEW 080650Z AUTO 27008KT 7SM CLR 31/26 A2996 -20 72 1900 270/08 RMK AO2 SLP139 T03110256
53917KNEW NEW20190908005510709/08/19 00:55:31  5-MIN KNEW 080655Z AUTO 26009KT 7SM CLR 31/26 A2996 -20 74 1800 260/09 RMK AO2 T03060256
53917KNEW NEW20190908010010709/08/19 01:00:31  5-MIN KNEW 080700Z AUTO 27009KT 7SM CLR 31/26 A2996 -20 74 1800 270/09 RMK AO2 T03060256
53917KNEW NEW20190908010510709/08/19 01:05:31  5-MIN KNEW 080705Z AUTO 27008KT 7SM CLR 31/26 A2996 -20 74 1800 270/08 RMK AO2 T03060256
53917KNEW NEW20190908011010709/08/19 01:10:31  5-MIN KNEW 080710Z AUTO 28009KT 7SM CLR 31/26 A2996 -20 74 1800 280/09 RMK AO2 T03060256
53917KNEW NEW20190908011511009/08/19 01:15:31  5-MIN KNEW 080715Z AUTO 27008KT 6SM HZ CLR 31/26 A2996 -20 74 1800 270/08 RMK AO2 T03060256
53917KNEW NEW20190908012011009/08/19 01:20:31  5-MIN KNEW 080720Z AUTO 27008KT 6SM HZ CLR 31/26 A2995 -20 74 1800 270/08 RMK AO2 T03060256
53917KNEW NEW20190908012511009/08/19 01:25:31  5-MIN KNEW 080725Z AUTO 28009KT 6SM HZ CLR 31/26 A2995 -10 77 1800 280/09 RMK AO2 T03060261
53917KNEW NEW20190908013011009/08/19 01:30:31  5-MIN KNEW 080730Z AUTO 28012KT 6SM HZ CLR 31/26 A2995 -10 77 1800 280/12 RMK AO2 T03060261
53917KNEW NEW20190908013510709/08/19 01:35:31  5-MIN KNEW 080735Z AUTO 28012KT 7SM CLR 31/26 A2995 -10 72 1900 280/12 RMK AO2 T03110256
53917KNEW NEW20190908014010709/08/19 01:40:31  5-MIN KNEW 080740Z AUTO 28011KT 7SM CLR 31/26 A2995 -10 77 1800 280/11 RMK AO2 T03060261
53917KNEW NEW20190908014510709/08/19 01:45:31  5-MIN KNEW 080745Z AUTO 28012KT 7SM CLR 31/26 A2995 -10 74 1800 280/12 RMK AO2 T03060256
53917KNEW NEW20190908015011409/08/19 01:50:31  5-MIN KNEW 080750Z AUTO 28010KT 7SM CLR 31/26 A2995 -10 77 1800 280/10 RMK AO2 SLP136 T03060261
53917KNEW NEW20190908015510709/08/19 01:55:31  5-MIN KNEW 080755Z AUTO 28012KT 7SM CLR 31/26 A2995 -20 74 1800 280/12 RMK AO2 T03060256
53917KNEW NEW20190908020010709/08/19 02:00:31  5-MIN KNEW 080800Z AUTO 29012KT 7SM CLR 31/26 A2995 -20 74 1800 290/12 RMK AO2 T03060256
53917KNEW NEW20190908020510709/08/19 02:05:31  5-MIN KNEW 080805Z AUTO 29011KT 7SM CLR 31/26 A2996 -20 74 1800 290/11 RMK AO2 T03060256
53917KNEW NEW20190908020530309/08/19 02:05:31  5-MIN KNEW 080805Z AUTO 29011KT 7SM CLR 31/26 A2996 -20 74 1800 290/11 RMK AO2 T03060256 609/ 326 A2995 901131K AO2 T0 2M CLR 31/20/1280/08/10:31  5-M20 10 09/07/09/08/19 02RMK AO2 T034:3160y 0K5Z AU5Z AUTO 3062590K5K A T25256 09/07/5609/07/800 26 -208/1 -20K9 7 - AMK AO 2009 6027 - 
53917KNEW NEW20190908021010709/08/19 02:10:31  5-MIN KNEW 080810Z AUTO 28012KT 8SM CLR 31/26 A2996 -20 74 1800 280/12 RMK AO2 T03060256
53917KNEW NEW20190908021510709/08/19 02:15:31  5-MIN KNEW 080815Z AUTO 29011KT 8SM CLR 31/26 A2996 -20 74 1800 290/11 RMK AO2 T03060256
53917KNEW NEW20190908022010709/08/19 02:20:31  5-MIN KNEW 080820Z AUTO 30012KT 8SM CLR 31/25 A2995 -10 72 1800 300/12 RMK AO2 T03060250
53917KNEW NEW20190908022510709/08/19 02:25:31  5-MIN KNEW 080825Z AUTO 29012KT 8SM CLR 31/25 A2995 -10 69 1900 290/12 RMK AO2 T03110250
53917KNEW NEW20190908023010709/08/19 02:30:31  5-MIN KNEW 080830Z AUTO 29010KT 8SM CLR 31/25 A2995 -10 72 1800 290/10 RMK AO2 T03060250
53917KNEW NEW20190908023510709/08/19 02:35:31  5-MIN KNEW 080835Z AUTO 29012KT 8SM CLR 31/25 A2995 -10 72 1800 290/12 RMK AO2 T03060250
53917KNEW NEW20190908024010709/08/19 02:40:31  5-MIN KNEW 080840Z AUTO 30012KT 9SM CLR 31/25 A2995 -10 72 1800 300/12 RMK AO2 T03060250
53917KNEW NEW20190908024510709/08/19 02:45:31  5-MIN KNEW 080845Z AUTO 31012KT 9SM CLR 31/25 A2995 -10 72 1800 310/12 RMK AO2 T03060250
53917KNEW NEW20190908025012009/08/19 02:50:31  5-MIN KNEW 080850Z AUTO 30013KT 9SM CLR 31/24 A2995 -10 67 1800 300/13 RMK AO2 SLP136 T03060239 55000
53917KNEW NEW20190908025510709/08/19 02:55:31  5-MIN KNEW 080855Z AUTO 30012KT 9SM CLR 31/24 A2995 -10 69 1800 300/12 RMK AO2 T03060244
53917KNEW NEW20190908030010709/08/19 03:00:31  5-MIN KNEW 080900Z AUTO 31013KT 9SM CLR 31/24 A2995 -10 69 1800 310/13 RMK AO2 T03060244
53917KNEW NEW20190908030510709/08/19 03:05:31  5-MIN KNEW 080905Z AUTO 31012KT 9SM CLR 31/24 A2995 -20 69 1800 310/12 RMK AO2 T03060244
53917KNEW NEW20190908031010709/08/19 03:10:31  5-MIN KNEW 080910Z AUTO 31013KT 9SM CLR 31/24 A2996 -20 69 1800 310/13 RMK AO2 T03060244
53917KNEW NEW20190908031510709/08/19 03:15:31  5-MIN KNEW 080915Z AUTO 31012KT 9SM CLR 31/24 A2996 -20 67 1800 310/12 RMK AO2 T03060239
53917KNEW NEW20190908032010709/08/19 03:20:31  5-MIN KNEW 080920Z AUTO 31011KT 9SM CLR 31/24 A2996 -20 69 1800 310/11 RMK AO2 T03060244
53917KNEW NEW20190908032510709/08/19 03:25:31  5-MIN KNEW 080925Z AUTO 31011KT 9SM CLR 31/24 A2996 -20 69 1800 310/11 RMK AO2 T03060244
53917KNEW NEW20190908033010709/08/19 03:30:31  5-MIN KNEW 080930Z AUTO 31012KT 9SM CLR 31/24 A2996 -20 69 1800 310/12 RMK AO2 T03060244
53917KNEW NEW20190908033510709/08/19 03:35:31  5-MIN KNEW 080935Z AUTO 30011KT 9SM CLR 31/24 A2996 -20 69 1800 300/11 RMK AO2 T03060244
53917KNEW NEW20190908034010709/08/19 03:40:31  5-MIN KNEW 080940Z AUTO 31011KT 9SM CLR 31/24 A2996 -20 67 1800 310/11 RMK AO2 T03060239
53917KNEW NEW20190908034510709/08/19 03:45:31  5-MIN KNEW 080945Z AUTO 31011KT 9SM CLR 31/24 A2996 -20 67 1800 310/11 RMK AO2 T03060239
53917KNEW NEW20190908035011409/08/19 03:50:31  5-MIN KNEW 080950Z AUTO 31011KT 9SM CLR 31/24 A2996 -20 67 1800 310/11 RMK AO2 SLP140 T03060239
53917KNEW NEW20190908035510709/08/19 03:55:31  5-MIN KNEW 080955Z AUTO 31010KT 9SM CLR 31/24 A2997 -30 67 1800 310/10 RMK AO2 T03060239
53917KNEW NEW20190908040010709/08/19 04:00:31  5-MIN KNEW 081000Z AUTO 31012KT 9SM CLR 31/23 A2997 -30 65 1800 310/12 RMK AO2 T03060233
53917KNEW NEW20190908040510709/08/19 04:05:31  5-MIN KNEW 081005Z AUTO 31011KT 9SM CLR 31/24 A2997 -30 67 1800 310/11 RMK AO2 T03060239
53917KNEW NEW20190908041010709/08/19 04:10:31  5-MIN KNEW 081010Z AUTO 31012KT 9SM CLR 30/24 A2997 -30 69 1700 310/12 RMK AO2 T03000239
53917KNEW NEW20190908041510709/08/19 04:15:31  5-MIN KNEW 081015Z AUTO 31011KT 9SM CLR 30/24 A2997 -30 72 1700 310/11 RMK AO2 T03000244
53917KNEW NEW20190908042010709/08/19 04:20:31  5-MIN KNEW 081020Z AUTO 32012KT 9SM CLR 30/24 A2997 -30 69 1700 320/12 RMK AO2 T03000239
53917KNEW NEW20190908042510709/08/19 04:25:31  5-MIN KNEW 081025Z AUTO 31011KT 9SM CLR 30/24 A2998 -30 72 1700 310/11 RMK AO2 T03000244
53917KNEW NEW20190908043010709/08/19 04:30:31  5-MIN KNEW 081030Z AUTO 32010KT 9SM CLR 30/24 A2998 -40 72 1700 320/10 RMK AO2 T03000244
53917KNEW NEW20190908043510709/08/19 04:35:31  5-MIN KNEW 081035Z AUTO 31012KT 8SM CLR 30/24 A2998 -40 72 1700 310/12 RMK AO2 T03000244
53917KNEW NEW20190908044010709/08/19 04:40:31  5-MIN KNEW 081040Z AUTO 32010KT 9SM CLR 30/24 A2998 -40 69 1700 320/10 RMK AO2 T03000239
53917KNEW NEW20190908044510709/08/19 04:45:31  5-MIN KNEW 081045Z AUTO 32012KT 9SM CLR 29/24 A2998 -40 71 1600 320/12 RMK AO2 T02940239
53917KNEW NEW20190908045011409/08/19 04:50:31  5-MIN KNEW 081050Z AUTO 32013KT 9SM CLR 30/24 A2999 -40 69 1700 320/13 RMK AO2 SLP147 T03000239
53917KNEW NEW20190908045510709/08/19 04:55:31  5-MIN KNEW 081055Z AUTO 32013KT 8SM CLR 29/24 A2999 -40 71 1600 320/13 RMK AO2 T02940239
53917KNEW NEW20190908050010709/08/19 05:00:31  5-MIN KNEW 081100Z AUTO 32013KT 8SM CLR 29/24 A2999 -50 71 1600 320/13 RMK AO2 T02940239
53917KNEW NEW20190908050510709/08/19 05:05:31  5-MIN KNEW 081105Z AUTO 31013KT 8SM CLR 29/24 A2999 -50 71 1600 310/13 RMK AO2 T02940239
53917KNEW NEW20190908051010709/08/19 05:10:31  5-MIN KNEW 081110Z AUTO 32012KT 8SM CLR 29/24 A2999 -50 71 1600 320/12 RMK AO2 T02940239
53917KNEW NEW20190908051510709/08/19 05:15:31  5-MIN KNEW 081115Z AUTO 32014KT 8SM CLR 29/24 A2999 -50 71 1600 320/14 RMK AO2 T02940239
53917KNEW NEW20190908052010709/08/19 05:20:31  5-MIN KNEW 081120Z AUTO 32015KT 8SM CLR 29/23 A3000 -50 69 1600 320/15 RMK AO2 T02940233
53917KNEW NEW20190908052510709/08/19 05:25:31  5-MIN KNEW 081125Z AUTO 31015KT 8SM CLR 29/23 A3000 -60 67 1600 310/15 RMK AO2 T02940228
53917KNEW NEW20190908053010709/08/19 05:30:31  5-MIN KNEW 081130Z AUTO 31014KT 8SM CLR 29/23 A3000 -60 67 1600 310/14 RMK AO2 T02940228
53917KNEW NEW20190908053510709/08/19 05:35:31  5-MIN KNEW 081135Z AUTO 32013KT 9SM CLR 29/23 A3000 -60 67 1600 320/13 RMK AO2 T02940228
53917KNEW NEW20190908054010709/08/19 05:40:31  5-MIN KNEW 081140Z AUTO 31013KT 9SM CLR 29/23 A3000 -60 69 1600 310/13 RMK AO2 T02940233
53917KNEW NEW20190908054510709/08/19 05:45:31  5-MIN KNEW 081145Z AUTO 32014KT 9SM CLR 29/23 A3000 -60 67 1600 320/14 RMK AO2 T02940228
53917KNEW NEW20190908055012709/08/19 05:50:31  5-MIN KNEW 081150Z 31015KT 8SM CLR 29/22 A3001 -60 64 1600 310/15 RMK AO2 SLP155 T02940222 10322 20294 55004
53917KNEW NEW20190908055510209/08/19 05:55:31  5-MIN KNEW 081155Z 32013KT 8SM CLR 29/23 A3001 -70 69 1600 320/13 RMK AO2 T02940233
53917KNEW NEW20190908060010209/08/19 06:00:31  5-MIN KNEW 081200Z 31013KT 8SM CLR 29/23 A3001 -70 67 1600 310/13 RMK AO2 T02940228
53917KNEW NEW20190908060510209/08/19 06:05:31  5-MIN KNEW 081205Z 32013KT 8SM CLR 29/23 A3001 -70 69 1600 320/13 RMK AO2 T02940233
53917KNEW NEW20190908061010209/08/19 06:10:31  5-MIN KNEW 081210Z 32014KT 8SM CLR 29/23 A3001 -70 69 1600 320/14 RMK AO2 T02940233
53917KNEW NEW20190908061510209/08/19 06:15:31  5-MIN KNEW 081215Z 32013KT 8SM CLR 29/23 A3001 -70 69 1600 320/13 RMK AO2 T02940233
53917KNEW NEW20190908062010209/08/19 06:20:31  5-MIN KNEW 081220Z 32013KT 8SM CLR 29/23 A3001 -70 67 1600 320/13 RMK AO2 T02940228
53917KNEW NEW20190908062510209/08/19 06:25:31  5-MIN KNEW 081225Z 32015KT 8SM CLR 29/23 A3002 -70 67 1600 320/15 RMK AO2 T02940228
53917KNEW NEW20190908063010209/08/19 06:30:31  5-MIN KNEW 081230Z 32014KT 8SM CLR 29/23 A3002 -70 67 1600 320/14 RMK AO2 T02940228
53917KNEW NEW20190908063510209/08/19 06:35:31  5-MIN KNEW 081235Z 32012KT 8SM CLR 29/23 A3002 -70 69 1600 320/12 RMK AO2 T02940233
53917KNEW NEW20190908064010209/08/19 06:40:31  5-MIN KNEW 081240Z 33012KT 8SM CLR 29/23 A3002 -80 69 1600 330/12 RMK AO2 T02940233
53917KNEW NEW20190908064510209/08/19 06:45:31  5-MIN KNEW 081245Z 32012KT 8SM CLR 30/23 A3002 -80 67 1700 320/12 RMK AO2 T03000233
53917KNEW NEW20190908065010909/08/19 06:50:31  5-MIN KNEW 081250Z 33012KT 7SM CLR 30/23 A3002 -80 67 1700 330/12 RMK AO2 SLP160 T03000233
53917KNEW NEW20190908065510209/08/19 06:55:31  5-MIN KNEW 081255Z 33012KT 7SM CLR 30/23 A3002 -80 67 1700 330/12 RMK AO2 T03000233
53917KNEW NEW20190908070010209/08/19 07:00:31  5-MIN KNEW 081300Z 33013KT 8SM CLR 30/23 A3002 -80 67 1700 330/13 RMK AO2 T03000233
53917KNEW NEW20190908070510209/08/19 07:05:31  5-MIN KNEW 081305Z 32013KT 8SM CLR 30/23 A3002 -80 65 1700 320/13 RMK AO2 T03000228
53917KNEW NEW20190908071010209/08/19 07:10:31  5-MIN KNEW 081310Z 32013KT 8SM CLR 30/23 A3003 -80 65 1700 320/13 RMK AO2 T03000228
53917KNEW NEW20190908071510209/08/19 07:15:31  5-MIN KNEW 081315Z 32013KT 8SM CLR 29/23 A3003 -80 69 1600 320/13 RMK AO2 T02940233
53917KNEW NEW20190908072010209/08/19 07:20:31  5-MIN KNEW 081320Z 33010KT 8SM CLR 29/23 A3003 -80 69 1600 330/10 RMK AO2 T02940233
53917KNEW NEW20190908072510209/08/19 07:25:31  5-MIN KNEW 081325Z 33012KT 8SM CLR 30/23 A3003 -80 67 1700 330/12 RMK AO2 T03000233
53917KNEW NEW20190908073010209/08/19 07:30:31  5-MIN KNEW 081330Z 33012KT 8SM CLR 30/23 A3003 -90 67 1700 330/12 RMK AO2 T03000233
53917KNEW NEW20190908073510209/08/19 07:35:31  5-MIN KNEW 081335Z 33012KT 8SM CLR 30/23 A3003 -90 67 1700 330/12 RMK AO2 T03000233
53917KNEW NEW20190908074010209/08/19 07:40:31  5-MIN KNEW 081340Z 33012KT 8SM CLR 30/23 A3003 -90 67 1700 330/12 RMK AO2 T03000233
53917KNEW NEW20190908074510209/08/19 07:45:31  5-MIN KNEW 081345Z 33011KT 8SM CLR 30/23 A3003 -90 67 1700 330/11 RMK AO2 T03000233
53917KNEW NEW20190908075010909/08/19 07:50:31  5-MIN KNEW 081350Z 33012KT 8SM CLR 30/23 A3003 -90 67 1600 330/12 RMK AO2 SLP163 T03000233
53917KNEW NEW20190908075510209/08/19 07:55:31  5-MIN KNEW 081355Z 32011KT 8SM CLR 30/23 A3003 -90 67 1600 320/11 RMK AO2 T03000233
53917KNEW NEW20190908080010209/08/19 08:00:31  5-MIN KNEW 081400Z 33011KT 8SM CLR 30/23 A3003 -90 67 1600 330/11 RMK AO2 T03000233
53917KNEW NEW20190908080510209/08/19 08:05:31  5-MIN KNEW 081405Z 32011KT 8SM CLR 31/23 A3003 -90 65 1700 320/11 RMK AO2 T03060233
53917KNEW NEW20190908081010209/08/19 08:10:31  5-MIN KNEW 081410Z 32010KT 8SM CLR 31/23 A3003 -90 65 1700 320/10 RMK AO2 T03060233
53917KNEW NEW20190908081510209/08/19 08:15:31  5-MIN KNEW 081415Z 32011KT 8SM CLR 31/23 A3003 -90 65 1700 320/11 RMK AO2 T03060233
53917KNEW NEW20190908082010209/08/19 08:20:31  5-MIN KNEW 081420Z 31010KT 8SM CLR 31/23 A3003 -90 65 1700 310/10 RMK AO2 T03060233
53917KNEW NEW20190908082510209/08/19 08:25:31  5-MIN KNEW 081425Z 32010KT 8SM CLR 31/23 A3004 -90 65 1700 320/10 RMK AO2 T03060233
53917KNEW NEW20190908083010209/08/19 08:30:31  5-MIN KNEW 081430Z 32010KT 8SM CLR 31/23 A3004 -90 65 1700 320/10 RMK AO2 T03060233
53917KNEW NEW20190908083510209/08/19 08:35:31  5-MIN KNEW 081435Z 32009KT 8SM CLR 31/23 A3004 -90 65 1700 320/09 RMK AO2 T03060233
53917KNEW NEW20190908084010209/08/19 08:40:31  5-MIN KNEW 081440Z 32009KT 8SM CLR 31/23 A3004 -90 65 1700 320/09 RMK AO2 T03060233
53917KNEW NEW20190908084510209/08/19 08:45:31  5-MIN KNEW 081445Z 33010KT 7SM CLR 31/24 A3004 -90 65 1800 330/10 RMK AO2 T03110239
53917KNEW NEW20190908085011509/08/19 08:50:31  5-MIN KNEW 081450Z 33009KT 7SM CLR 31/23 A3004 -90 65 1700 330/09 RMK AO2 SLP165 T03060233 53018
53917KNEW NEW20190908085510209/08/19 08:55:31  5-MIN KNEW 081455Z 32009KT 7SM CLR 31/23 A3004 -90 63 1800 320/09 RMK AO2 T03110233
53917KNEW NEW20190908090010209/08/19 09:00:31  5-MIN KNEW 081500Z 32009KT 7SM CLR 31/23 A3004 -90 65 1700 320/09 RMK AO2 T03060233
53917KNEW NEW20190908090510209/08/19 09:05:31  5-MIN KNEW 081505Z 34008KT 7SM CLR 31/23 A3004 -90 65 1700 340/08 RMK AO2 T03060233
53917KNEW NEW20190908091010209/08/19 09:10:31  5-MIN KNEW 081510Z 33009KT 7SM CLR 31/23 A3004 -90 63 1800 330/09 RMK AO2 T03110233
53917KNEW NEW20190908091510209/08/19 09:15:31  5-MIN KNEW 081515Z 33008KT 7SM CLR 31/23 A3004 -90 63 1800 330/08 RMK AO2 T03110233
53917KNEW NEW20190908092010209/08/19 09:20:31  5-MIN KNEW 081520Z 32009KT 7SM CLR 31/23 A3004 -90 63 1800 320/09 RMK AO2 T03110233
53917KNEW NEW20190908092510209/08/19 09:25:31  5-MIN KNEW 081525Z 32008KT 8SM CLR 31/23 A3004 -90 63 1800 320/08 RMK AO2 T03110233
53917KNEW NEW20190908093010209/08/19 09:30:31  5-MIN KNEW 081530Z 32008KT 8SM CLR 31/23 A3004 -90 63 1800 320/08 RMK AO2 T03110233
53917KNEW NEW20190908093510209/08/19 09:35:31  5-MIN KNEW 081535Z 33008KT 7SM CLR 31/23 A3004 -90 63 1800 330/08 RMK AO2 T03110233
53917KNEW NEW20190908094010209/08/19 09:40:31  5-MIN KNEW 081540Z 32007KT 7SM CLR 31/23 A3004 -90 63 1800 320/07 RMK AO2 T03110233
53917KNEW NEW20190908094510209/08/19 09:45:31  5-MIN KNEW 081545Z 32008KT 7SM CLR 31/23 A3004 -90 63 1800 320/08 RMK AO2 T03110233
53917KNEW NEW20190908095010909/08/19 09:50:31  5-MIN KNEW 081550Z 32008KT 8SM CLR 31/23 A3004 -90 63 1800 320/08 RMK AO2 SLP164 T03110233
53917KNEW NEW20190908095510209/08/19 09:55:31  5-MIN KNEW 081555Z 32007KT 8SM CLR 31/24 A3004 -90 65 1800 320/07 RMK AO2 T03110239
53917KNEW NEW20190908100010209/08/19 10:00:31  5-MIN KNEW 081600Z 33008KT 8SM CLR 32/24 A3003 -90 63 1800 330/08 RMK AO2 T03170239
53917KNEW NEW20190908100510209/08/19 10:05:31  5-MIN KNEW 081605Z 33008KT 8SM CLR 32/24 A3004 -90 63 1800 330/08 RMK AO2 T03170239
53917KNEW NEW20190908101010209/08/19 10:10:31  5-MIN KNEW 081610Z 33008KT 9SM CLR 32/24 A3003 -90 61 1900 330/08 RMK AO2 T03220239
53917KNEW NEW20190908101510209/08/19 10:15:31  5-MIN KNEW 081615Z 32008KT 9SM CLR 32/23 A3003 -90 61 1800 320/08 RMK AO2 T03170233
53917KNEW NEW20190908102010209/08/19 10:20:31  5-MIN KNEW 081620Z 33008KT 9SM CLR 32/23 A3003 -90 61 1800 330/08 RMK AO2 T03170233
53917KNEW NEW20190908102510209/08/19 10:25:31  5-MIN KNEW 081625Z 32007KT 9SM CLR 32/23 A3003 -90 58 1800 320/07 RMK AO2 T03170228
53917KNEW NEW20190908103010209/08/19 10:30:31  5-MIN KNEW 081630Z 32007KT 9SM CLR 32/23 A3003 -90 61 1800 320/07 RMK AO2 T03170233
53917KNEW NEW20190908103510209/08/19 10:35:31  5-MIN KNEW 081635Z 32007KT 9SM CLR 32/23 A3003 -90 61 1800 320/07 RMK AO2 T03170233
53917KNEW NEW20190908104010209/08/19 10:40:31  5-MIN KNEW 081640Z 32008KT 9SM CLR 32/23 A3003 -90 61 1800 320/08 RMK AO2 T03170233
53917KNEW NEW20190908104510209/08/19 10:45:31  5-MIN KNEW 081645Z 33008KT 9SM CLR 32/23 A3003 -80 58 1800 330/08 RMK AO2 T03170228
53917KNEW NEW20190908105010909/08/19 10:50:31  5-MIN KNEW 081650Z 34008KT 9SM CLR 32/23 A3003 -80 59 1900 340/08 RMK AO2 SLP161 T03220233
53917KNEW NEW20190908105510209/08/19 10:55:31  5-MIN KNEW 081655Z 33007KT 9SM CLR 32/23 A3003 -80 59 1900 330/07 RMK AO2 T03220233
53917KNEW NEW20190908110010209/08/19 11:00:31  5-MIN KNEW 081700Z 33008KT 9SM CLR 32/23 A3003 -80 57 1900 330/08 RMK AO2 T03220228
53917KNEW NEW20190908110510209/08/19 11:05:31  5-MIN KNEW 081705Z 33008KT 9SM CLR 32/23 A3003 -80 57 1900 330/08 RMK AO2 T03220228
53917KNEW NEW20190908111010209/08/19 11:10:31  5-MIN KNEW 081710Z 33007KT 9SM CLR 32/23 A3003 -80 57 1900 330/07 RMK AO2 T03220228
53917KNEW NEW20190908111510209/08/19 11:15:31  5-MIN KNEW 081715Z 32008KT 9SM CLR 32/23 A3003 -80 59 1900 320/08 RMK AO2 T03220233
53917KNEW NEW20190908112010209/08/19 11:20:31  5-MIN KNEW 081720Z 32008KT 9SM CLR 32/23 A3003 -80 57 1900 320/08 RMK AO2 T03220228
53917KNEW NEW20190908112510209/08/19 11:25:31  5-MIN KNEW 081725Z 32007KT 9SM CLR 32/23 A3002 -80 59 1900 320/07 RMK AO2 T03220233
53917KNEW NEW20190908113010209/08/19 11:30:31  5-MIN KNEW 081730Z 32007KT 9SM CLR 32/23 A3002 -80 57 1900 320/07 RMK AO2 T03220228
53917KNEW NEW20190908113510209/08/19 11:35:31  5-MIN KNEW 081735Z 31007KT 9SM CLR 32/23 A3002 -80 59 1900 310/07 RMK AO2 T03220233
53917KNEW NEW20190908114010209/08/19 11:40:31  5-MIN KNEW 081740Z 31007KT 9SM CLR 32/23 A3002 -80 59 1900 310/07 RMK AO2 T03220233
53917KNEW NEW20190908114510209/08/19 11:45:31  5-MIN KNEW 081745Z 32007KT 9SM CLR 32/23 A3002 -80 59 1900 320/07 RMK AO2 T03220233
53917KNEW NEW20190908115012709/08/19 11:50:31  5-MIN KNEW 081750Z 31007KT 9SM CLR 32/23 A3002 -70 59 1900 310/07 RMK AO2 SLP159 T03220233 10322 20294 51010
53917KNEW NEW20190908115510209/08/19 11:55:31  5-MIN KNEW 081755Z 31007KT 8SM CLR 33/23 A3002 -70 57 2000 310/07 RMK AO2 T03280233
53917KNEW NEW20190908120010209/08/19 12:00:31  5-MIN KNEW 081800Z 30006KT 9SM CLR 32/23 A3002 -70 59 1900 300/06 RMK AO2 T03220233
53917KNEW NEW20190908120510209/08/19 12:05:31  5-MIN KNEW 081805Z 30007KT 9SM CLR 32/23 A3002 -70 59 1900 300/07 RMK AO2 T03220233
53917KNEW NEW20190908121010209/08/19 12:10:31  5-MIN KNEW 081810Z 31007KT 9SM CLR 33/23 A3002 -70 57 2000 310/07 RMK AO2 T03280233
53917KNEW NEW20190908121510209/08/19 12:15:31  5-MIN KNEW 081815Z 30007KT 9SM CLR 32/23 A3002 -70 59 1900 300/07 RMK AO2 T03220233
53917KNEW NEW20190908122010209/08/19 12:20:31  5-MIN KNEW 081820Z 29007KT 9SM CLR 33/23 A3001 -70 57 2000 290/07 RMK AO2 T03280233
53917KNEW NEW20190908122510209/08/19 12:25:31  5-MIN KNEW 081825Z 29007KT 9SM CLR 33/24 A3001 -70 59 2000 290/07 RMK AO2 T03280239
53917KNEW NEW20190908123010209/08/19 12:30:31  5-MIN KNEW 081830Z 30007KT 9SM CLR 33/23 A3001 -70 57 2000 300/07 RMK AO2 T03280233
53917KNEW NEW20190908123510209/08/19 12:35:31  5-MIN KNEW 081835Z 30007KT 9SM CLR 33/23 A3001 -70 57 2000 300/07 RMK AO2 T03280233
53917KNEW NEW20190908124010209/08/19 12:40:31  5-MIN KNEW 081840Z 29006KT 9SM CLR 33/23 A3001 -70 57 2000 290/06 RMK AO2 T03280233
53917KNEW NEW20190908124510209/08/19 12:45:31  5-MIN KNEW 081845Z 30006KT 9SM CLR 33/23 A3001 -60 57 2000 300/06 RMK AO2 T03280233
53917KNEW NEW20190908125010909/08/19 12:50:31  5-MIN KNEW 081850Z 30007KT 9SM CLR 33/23 A3001 -60 57 2000 300/07 RMK AO2 SLP154 T03280233
53917KNEW NEW20190908125510209/08/19 12:55:31  5-MIN KNEW 081855Z 30006KT 9SM CLR 33/23 A3000 -60 57 2000 300/06 RMK AO2 T03280233
53917KNEW NEW20190908130010209/08/19 13:00:31  5-MIN KNEW 081900Z 30005KT 9SM CLR 33/23 A3000 -60 57 2000 300/05 RMK AO2 T03280233
53917KNEW NEW20190908130510209/08/19 13:05:31  5-MIN KNEW 081905Z 30005KT 9SM CLR 33/23 A3000 -60 57 2000 300/05 RMK AO2 T03280233
53917KNEW NEW20190908131010209/08/19 13:10:31  5-MIN KNEW 081910Z 29006KT 9SM CLR 33/24 A3000 -60 59 2000 290/06 RMK AO2 T03280239
53917KNEW NEW20190908131510209/08/19 13:15:31  5-MIN KNEW 081915Z 29005KT 9SM CLR 33/24 A3000 -60 59 2000 290/05 RMK AO2 T03280239
53917KNEW NEW20190908132010209/08/19 13:20:31  5-MIN KNEW 081920Z 28005KT 9SM CLR 33/23 A3000 -60 57 2000 280/05 RMK AO2 T03280233
53917KNEW NEW20190908132510209/08/19 13:25:31  5-MIN KNEW 081925Z 29005KT 9SM CLR 33/24 A3000 -50 59 2000 290/05 RMK AO2 T03280239
53917KNEW NEW20190908133010209/08/19 13:30:31  5-MIN KNEW 081930Z 28005KT 9SM CLR 33/24 A3000 -50 59 2000 280/05 RMK AO2 T03280239
53917KNEW NEW20190908133510209/08/19 13:35:31  5-MIN KNEW 081935Z 28006KT 9SM CLR 33/24 A3000 -50 59 2000 280/06 RMK AO2 T03280239
53917KNEW NEW20190908134010209/08/19 13:40:31  5-MIN KNEW 081940Z 28005KT 9SM CLR 33/24 A2999 -50 59 2000 280/05 RMK AO2 T03280239
53917KNEW NEW20190908134510209/08/19 13:45:31  5-MIN KNEW 081945Z 29005KT 9SM CLR 33/24 A2999 -50 59 2100 290/05 RMK AO2 T03330244
53917KNEW NEW20190908135010909/08/19 13:50:31  5-MIN KNEW 081950Z 29005KT 9SM CLR 33/24 A2999 -50 57 2100 290/05 RMK AO2 SLP149 T03330239
53917KNEW NEW20190908135510209/08/19 13:55:31  5-MIN KNEW 081955Z 28005KT 9SM CLR 33/24 A2999 -50 57 2100 280/05 RMK AO2 T03330239
53917KNEW NEW20190908140010209/08/19 14:00:31  5-MIN KNEW 082000Z 28005KT 9SM CLR 33/24 A2999 -50 59 2000 280/05 RMK AO2 T03280239
53917KNEW NEW20190908140510209/08/19 14:05:31  5-MIN KNEW 082005Z 28006KT 9SM CLR 33/24 A2999 -50 59 2000 280/06 RMK AO2 T03280239
53917KNEW NEW20190908141010209/08/19 14:10:31  5-MIN KNEW 082010Z 28006KT 9SM CLR 33/24 A2999 -50 59 2000 280/06 RMK AO2 T03280239
53917KNEW NEW20190908141510209/08/19 14:15:31  5-MIN KNEW 082015Z 29006KT 9SM CLR 33/24 A2999 -40 57 2100 290/06 RMK AO2 T03330239
53917KNEW NEW20190908142010209/08/19 14:20:31  5-MIN KNEW 082020Z 29005KT 9SM CLR 33/24 A2998 -40 61 2000 290/05 RMK AO2 T03280244
53917KNEW NEW20190908142510209/08/19 14:25:31  5-MIN KNEW 082025Z 29005KT 9SM CLR 33/24 A2998 -40 59 2100 290/05 RMK AO2 T03330244
53917KNEW NEW20190908143010209/08/19 14:30:31  5-MIN KNEW 082030Z 30005KT 9SM CLR 33/24 A2998 -40 57 2100 300/05 RMK AO2 T03330239
53917KNEW NEW20190908143510209/08/19 14:35:31  5-MIN KNEW 082035Z 30006KT 9SM CLR 33/24 A2997 -30 59 2100 300/06 RMK AO2 T03330244
53917KNEW NEW20190908144010209/08/19 14:40:31  5-MIN KNEW 082040Z 30005KT 8SM CLR 33/24 A2997 -30 57 2100 300/05 RMK AO2 T03330239
53917KNEW NEW20190908144510209/08/19 14:45:31  5-MIN KNEW 082045Z 30005KT 9SM CLR 33/24 A2997 -30 59 2100 300/05 RMK AO2 T03330244
53917KNEW NEW20190908145011509/08/19 14:50:31  5-MIN KNEW 082050Z 30005KT 9SM CLR 33/24 A2997 -30 59 2100 300/05 RMK AO2 SLP142 T03330244 58006
53917KNEW NEW20190908145510209/08/19 14:55:31  5-MIN KNEW 082055Z 30005KT 9SM CLR 33/24 A2997 -30 59 2100 300/05 RMK AO2 T03330244
53917KNEW NEW20190908150010209/08/19 15:00:31  5-MIN KNEW 082100Z 30005KT 9SM CLR 34/24 A2997 -30 57 2200 300/05 RMK AO2 T03390244
53917KNEW NEW20190908150510209/08/19 15:05:31  5-MIN KNEW 082105Z 30005KT 9SM CLR 33/24 A2997 -30 59 2100 300/05 RMK AO2 T03330244
53917KNEW NEW20190908151010209/08/19 15:10:31  5-MIN KNEW 082110Z 30004KT 9SM CLR 34/24 A2996 -20 55 2200 300/04 RMK AO2 T03390239
53917KNEW NEW20190908151510209/08/19 15:15:31  5-MIN KNEW 082115Z 30004KT 9SM CLR 34/24 A2996 -20 55 2200 300/04 RMK AO2 T03390239
53917KNEW NEW20190908152010209/08/19 15:20:31  5-MIN KNEW 082120Z 31004KT 9SM CLR 34/24 A2996 -20 57 2200 310/04 RMK AO2 T03390244
53917KNEW NEW20190908152510209/08/19 15:25:31  5-MIN KNEW 082125Z 32005KT 9SM CLR 33/24 A2996 -20 59 2100 320/05 RMK AO2 T03330244
53917KNEW NEW20190908153010209/08/19 15:30:31  5-MIN KNEW 082130Z 31005KT 8SM CLR 33/24 A2996 -20 57 2100 310/05 RMK AO2 T03330239
53917KNEW NEW20190908153510209/08/19 15:35:31  5-MIN KNEW 082135Z 32005KT 9SM CLR 34/24 A2996 -20 55 2200 320/05 RMK AO2 T03390239
53917KNEW NEW20190908154010209/08/19 15:40:31  5-MIN KNEW 082140Z 32005KT 9SM CLR 34/24 A2996 -20 55 2200 320/05 RMK AO2 T03390239
53917KNEW NEW20190908154510209/08/19 15:45:31  5-MIN KNEW 082145Z 32004KT 8SM CLR 33/24 A2996 -20 57 2100 320/04 RMK AO2 T03330239
53917KNEW NEW20190908155010909/08/19 15:50:31  5-MIN KNEW 082150Z 32004KT 8SM CLR 34/24 A2996 -20 57 2200 320/04 RMK AO2 SLP139 T03390244
53917KNEW NEW20190908155510209/08/19 15:55:31  5-MIN KNEW 082155Z 32004KT 8SM CLR 34/24 A2996 -20 57 2200 320/04 RMK AO2 T03390244
53917KNEW NEW20190908160010209/08/19 16:00:31  5-MIN KNEW 082200Z 33004KT 8SM CLR 33/24 A2996 -20 59 2100 330/04 RMK AO2 T03330244
53917KNEW NEW20190908160510209/08/19 16:05:31  5-MIN KNEW 082205Z 32004KT 8SM CLR 33/24 A2996 -20 57 2100 320/04 RMK AO2 T03330239
53917KNEW NEW20190908161010209/08/19 16:10:31  5-MIN KNEW 082210Z 32005KT 8SM CLR 33/24 A2996 -20 59 2100 320/05 RMK AO2 T03330244
53917KNEW NEW20190908161510209/08/19 16:15:31  5-MIN KNEW 082215Z 32004KT 8SM CLR 33/24 A2996 -20 57 2100 320/04 RMK AO2 T03330239
53917KNEW NEW20190908162010209/08/19 16:20:31  5-MIN KNEW 082220Z 32004KT 8SM CLR 33/24 A2996 -20 57 2100 320/04 RMK AO2 T03330239
53917KNEW NEW20190908162510209/08/19 16:25:31  5-MIN KNEW 082225Z 31004KT 8SM CLR 33/24 A2996 -20 57 2100 310/04 RMK AO2 T03330239
53917KNEW NEW20190908163010209/08/19 16:30:31  5-MIN KNEW 082230Z 30004KT 8SM CLR 33/24 A2996 -20 57 2100 300/04 RMK AO2 T03330239
53917KNEW NEW20190908163510209/08/19 16:35:31  5-MIN KNEW 082235Z 30003KT 8SM CLR 33/24 A2996 -20 59 2000 300/03 RMK AO2 T03280239
53917KNEW NEW20190908164010209/08/19 16:40:31  5-MIN KNEW 082240Z 29003KT 8SM CLR 33/24 A2996 -20 59 2000 290/03 RMK AO2 T03280239
53917KNEW NEW20190908164510209/08/19 16:45:31  5-MIN KNEW 082245Z 28003KT 8SM CLR 33/24 A2996 -20 59 2000 280/03 RMK AO2 T03280239
53917KNEW NEW20190908165010909/08/19 16:50:31  5-MIN KNEW 082250Z 29003KT 8SM CLR 33/24 A2996 -20 59 2000 290/03 RMK AO2 SLP139 T03280239
53917KNEW NEW20190908165510209/08/19 16:55:31  5-MIN KNEW 082255Z 00000KT 8SM CLR 33/24 A2996 -20 59 2000 000/00 RMK AO2 T03280239
53917KNEW NEW20190908170010209/08/19 17:00:31  5-MIN KNEW 082300Z 00000KT 8SM CLR 33/23 A2996 -20 55 2100 000/00 RMK AO2 T03330233
53917KNEW NEW20190908170510209/08/19 17:05:31  5-MIN KNEW 082305Z 00000KT 8SM CLR 33/23 A2996 -20 53 2100 000/00 RMK AO2 T03330228
53917KNEW NEW20190908171010209/08/19 17:10:31  5-MIN KNEW 082310Z 00000KT 8SM CLR 33/23 A2997 -30 55 2000 000/00 RMK AO2 T03280228
53917KNEW NEW20190908171510209/08/19 17:15:31  5-MIN KNEW 082315Z 00000KT 8SM CLR 33/23 A2997 -30 55 2000 000/00 RMK AO2 T03280228
53917KNEW NEW20190908172010209/08/19 17:20:31  5-MIN KNEW 082320Z 00000KT 8SM CLR 33/23 A2997 -30 57 2000 000/00 RMK AO2 T03280233
53917KNEW NEW20190908172510209/08/19 17:25:31  5-MIN KNEW 082325Z 00000KT 8SM CLR 33/23 A2997 -30 57 2000 000/00 RMK AO2 T03280233
53917KNEW NEW20190908173010209/08/19 17:30:31  5-MIN KNEW 082330Z 00000KT 8SM CLR 33/23 A2997 -30 55 2000 000/00 RMK AO2 T03280228
53917KNEW NEW20190908173510209/08/19 17:35:31  5-MIN KNEW 082335Z 00000KT 8SM CLR 33/23 A2996 -20 55 2000 000/00 RMK AO2 T03280228
53917KNEW NEW20190908174010209/08/19 17:40:31  5-MIN KNEW 082340Z 00000KT 8SM CLR 33/23 A2996 -20 53 2100 000/00 RMK AO2 T03330228
53917KNEW NEW20190908174510209/08/19 17:45:31  5-MIN KNEW 082345Z 00000KT 8SM CLR 33/23 A2996 -20 53 2100 000/00 RMK AO2 T03330228
53917KNEW NEW20190908175012709/08/19 17:50:31  5-MIN KNEW 082350Z 00000KT 8SM CLR 33/22 A2996 -20 53 2000 000/00 RMK AO2 SLP139 T03280222 10339 20322 58017
53917KNEW NEW20190908175510209/08/19 17:55:31  5-MIN KNEW 082355Z 31003KT 8SM CLR 33/23 A2996 -20 55 2000 310/03 RMK AO2 T03280228
53917KNEW NEW20190908180010209/08/19 18:00:31  5-MIN KNEW 090000Z 00000KT 8SM CLR 33/24 A2997 -30 59 2000 000/00 RMK AO2 T03280239
53917KNEW NEW20190908180510209/08/19 18:05:31  5-MIN KNEW 090005Z 30003KT 8SM CLR 33/23 A2997 -30 57 2000 300/03 RMK AO2 T03280233
53917KNEW NEW20190908181010209/08/19 18:10:31  5-MIN KNEW 090010Z 00000KT 8SM CLR 33/23 A2997 -30 55 2000 000/00 RMK AO2 T03280228
53917KNEW NEW20190908181510209/08/19 18:15:31  5-MIN KNEW 090015Z 00000KT 8SM CLR 33/23 A2997 -30 55 2000 000/00 RMK AO2 T03280228
53917KNEW NEW20190908182010209/08/19 18:20:31  5-MIN KNEW 090020Z 00000KT 8SM CLR 33/22 A2997 -30 53 2000 000/00 RMK AO2 T03280222
53917KNEW NEW20190908182510209/08/19 18:25:31  5-MIN KNEW 090025Z 00000KT 8SM CLR 33/22 A2997 -30 53 2000 000/00 RMK AO2 T03280222
53917KNEW NEW20190908183010209/08/19 18:30:31  5-MIN KNEW 090030Z 00000KT 8SM CLR 33/23 A2997 -30 57 2000 000/00 RMK AO2 T03280233
53917KNEW NEW20190908183510209/08/19 18:35:31  5-MIN KNEW 090035Z 00000KT 8SM CLR 33/23 A2997 -30 57 2000 000/00 RMK AO2 T03280233
53917KNEW NEW20190908184010209/08/19 18:40:31  5-MIN KNEW 090040Z 00000KT 8SM CLR 33/23 A2997 -30 55 2000 000/00 RMK AO2 T03280228
53917KNEW NEW20190908184510209/08/19 18:45:31  5-MIN KNEW 090045Z 00000KT 8SM CLR 32/23 A2997 -30 59 2000 000/00 RMK AO2 T03220233
53917KNEW NEW20190908185010909/08/19 18:50:31  5-MIN KNEW 090050Z 00000KT 8SM CLR 32/23 A2998 -40 59 2000 000/00 RMK AO2 SLP144 T03220233
53917KNEW NEW20190908185510209/08/19 18:55:31  5-MIN KNEW 090055Z 00000KT 8SM CLR 33/23 A2998 -40 57 2000 000/00 RMK AO2 T03280233
53917KNEW NEW20190908190010209/08/19 19:00:31  5-MIN KNEW 090100Z 00000KT 8SM CLR 33/23 A2997 -30 55 2000 000/00 RMK AO2 T03280228
53917KNEW NEW20190908190510209/08/19 19:05:31  5-MIN KNEW 090105Z 00000KT 9SM CLR 33/23 A2998 -40 55 2000 000/00 RMK AO2 T03280228
53917KNEW NEW20190908191010209/08/19 19:10:31  5-MIN KNEW 090110Z 00000KT 9SM CLR 33/23 A2998 -40 55 2000 000/00 RMK AO2 T03280228
53917KNEW NEW20190908191510209/08/19 19:15:31  5-MIN KNEW 090115Z 00000KT 9SM CLR 33/22 A2998 -40 53 2000 000/00 RMK AO2 T03280222
53917KNEW NEW20190908192010209/08/19 19:20:31  5-MIN KNEW 090120Z 00000KT 9SM CLR 33/22 A2998 -40 53 2000 000/00 RMK AO2 T03280222
53917KNEW NEW20190908192510209/08/19 19:25:31  5-MIN KNEW 090125Z 00000KT 9SM CLR 33/22 A2998 -40 53 2000 000/00 RMK AO2 T03280222
53917KNEW NEW20190908193010209/08/19 19:30:31  5-MIN KNEW 090130Z 00000KT 9SM CLR 33/22 A2998 -40 53 2000 000/00 RMK AO2 T03280222
53917KNEW NEW20190908193510209/08/19 19:35:31  5-MIN KNEW 090135Z 15003KT 9SM CLR 33/23 A2998 -40 55 2000 150/03 RMK AO2 T03280228
53917KNEW NEW20190908194010209/08/19 19:40:31  5-MIN KNEW 090140Z 15005KT 9SM CLR 32/22 A2998 -40 55 1900 150/05 RMK AO2 T03220222
53917KNEW NEW20190908194510209/08/19 19:45:31  5-MIN KNEW 090145Z 15005KT 8SM CLR 32/23 A2999 -40 58 1900 150/05 RMK AO2 T03170228
53917KNEW NEW20190908195010909/08/19 19:50:31  5-MIN KNEW 090150Z 16006KT 8SM CLR 32/23 A2999 -40 61 1900 160/06 RMK AO2 SLP148 T03170233
53917KNEW NEW20190908195510709/08/19 19:55:31  5-MIN KNEW 090155Z AUTO 15005KT 8SM CLR 32/24 A2999 -40 63 1900 150/05 RMK AO2 T03170239
53917KNEW NEW20190908200010709/08/19 20:00:31  5-MIN KNEW 090200Z AUTO 16005KT 8SM CLR 32/24 A2999 -40 63 1900 160/05 RMK AO2 T03170239
53917KNEW NEW20190908200510709/08/19 20:05:31  5-MIN KNEW 090205Z AUTO 16005KT 8SM CLR 31/24 A2998 -40 65 1800 160/05 RMK AO2 T03110239
53917KNEW NEW20190908201010709/08/19 20:10:31  5-MIN KNEW 090210Z AUTO 16005KT 8SM CLR 31/24 A2998 -40 67 1800 160/05 RMK AO2 T03110244
53917KNEW NEW20190908201510709/08/19 20:15:31  5-MIN KNEW 090215Z AUTO 16006KT 8SM CLR 31/24 A2999 -50 67 1800 160/06 RMK AO2 T03110244
53917KNEW NEW20190908202010709/08/19 20:20:31  5-MIN KNEW 090220Z AUTO 15006KT 8SM CLR 31/24 A2999 -50 67 1800 150/06 RMK AO2 T03110244
53917KNEW NEW20190908202510709/08/19 20:25:31  5-MIN KNEW 090225Z AUTO 15005KT 7SM CLR 31/25 A2999 -50 69 1800 150/05 RMK AO2 T03110250
53917KNEW NEW20190908203010709/08/19 20:30:31  5-MIN KNEW 090230Z AUTO 15005KT 7SM CLR 31/25 A2999 -50 69 1800 150/05 RMK AO2 T03110250
53917KNEW NEW20190908203510709/08/19 20:35:31  5-MIN KNEW 090235Z AUTO 16006KT 7SM CLR 31/26 A2999 -50 72 1800 160/06 RMK AO2 T03110256
53917KNEW NEW20190908204010709/08/19 20:40:31  5-MIN KNEW 090240Z AUTO 16005KT 7SM CLR 31/26 A2999 -50 72 1800 160/05 RMK AO2 T03110256
53917KNEW NEW20190908204510709/08/19 20:45:31  5-MIN KNEW 090245Z AUTO 16005KT 7SM CLR 31/26 A2999 -50 72 1800 160/05 RMK AO2 T03110256
53917KNEW NEW20190908205012009/08/19 20:50:31  5-MIN KNEW 090250Z AUTO 16005KT 7SM CLR 31/26 A2999 -50 72 1800 160/05 RMK AO2 SLP149 T03110256 55002
53917KNEW NEW20190908205510709/08/19 20:55:31  5-MIN KNEW 090255Z AUTO 17005KT 7SM CLR 31/26 A2999 -50 77 1800 170/05 RMK AO2 T03060261
53917KNEW NEW20190908210010709/08/19 21:00:31  5-MIN KNEW 090300Z AUTO 17006KT 7SM CLR 31/26 A3000 -50 77 1800 170/06 RMK AO2 T03060261
53917KNEW NEW20190908210510709/08/19 21:05:31  5-MIN KNEW 090305Z AUTO 17006KT 7SM CLR 31/26 A3000 -50 74 1800 170/06 RMK AO2 T03060256
53917KNEW NEW20190908211011009/08/19 21:10:31  5-MIN KNEW 090310Z AUTO 18005KT 6SM HZ CLR 31/26 A3000 -50 74 1800 180/05 RMK AO2 T03060256
53917KNEW NEW20190908211511009/08/19 21:15:31  5-MIN KNEW 090315Z AUTO 17006KT 6SM HZ CLR 31/26 A3000 -50 74 1800 170/06 RMK AO2 T03060256
53917KNEW NEW20190908212010709/08/19 21:20:31  5-MIN KNEW 090320Z AUTO 18006KT 7SM CLR 31/26 A3000 -50 74 1800 180/06 RMK AO2 T03060256
53917KNEW NEW20190908212510709/08/19 21:25:31  5-MIN KNEW 090325Z AUTO 17005KT 7SM CLR 31/26 A3000 -50 74 1800 170/05 RMK AO2 T03060256
53917KNEW NEW20190908213010709/08/19 21:30:31  5-MIN KNEW 090330Z AUTO 17005KT 7SM CLR 30/26 A3000 -50 77 1700 170/05 RMK AO2 T03000256
53917KNEW NEW20190908213510709/08/19 21:35:31  5-MIN KNEW 090335Z AUTO 17005KT 7SM CLR 31/26 A3000 -50 74 1800 170/05 RMK AO2 T03060256
53917KNEW NEW20190908214010709/08/19 21:40:31  5-MIN KNEW 090340Z AUTO 17005KT 7SM CLR 31/26 A3000 -50 74 1800 170/05 RMK AO2 T03060256
53917KNEW NEW20190908214510709/08/19 21:45:31  5-MIN KNEW 090345Z AUTO 17004KT 7SM CLR 31/26 A3000 -50 74 1800 170/04 RMK AO2 T03060256
53917KNEW NEW20190908215011409/08/19 21:50:31  5-MIN KNEW 090350Z AUTO 18004KT 7SM CLR 30/26 A3000 -50 77 1700 180/04 RMK AO2 SLP151 T03000256
53917KNEW NEW20190908215510709/08/19 21:55:31  5-MIN KNEW 090355Z AUTO 17004KT 7SM CLR 30/26 A3000 -60 77 1700 170/04 RMK AO2 T03000256
53917KNEW NEW20190908220010709/08/19 22:00:31  5-MIN KNEW 090400Z AUTO 18005KT 7SM CLR 30/26 A3000 -60 77 1700 180/05 RMK AO2 T03000256
53917KNEW NEW20190908220510709/08/19 22:05:31  5-MIN KNEW 090405Z AUTO 17005KT 7SM CLR 30/26 A3000 -60 77 1700 170/05 RMK AO2 T03000256
53917KNEW NEW20190908221010709/08/19 22:10:31  5-MIN KNEW 090410Z AUTO 18005KT 7SM CLR 30/26 A3000 -60 77 1700 180/05 RMK AO2 T03000256
53917KNEW NEW20190908221510709/08/19 22:15:31  5-MIN KNEW 090415Z AUTO 18005KT 7SM CLR 30/26 A3000 -60 77 1700 180/05 RMK AO2 T03000256
53917KNEW NEW20190908222010709/08/19 22:20:31  5-MIN KNEW 090420Z AUTO 18004KT 7SM CLR 30/26 A3000 -60 77 1700 180/04 RMK AO2 T03000256
53917KNEW NEW20190908222510709/08/19 22:25:31  5-MIN KNEW 090425Z AUTO 19005KT 7SM CLR 30/26 A3000 -60 77 1700 190/05 RMK AO2 T03000256
53917KNEW NEW20190908223010709/08/19 22:30:31  5-MIN KNEW 090430Z AUTO 21006KT 7SM CLR 30/26 A3000 -60 77 1700 210/06 RMK AO2 T03000256
53917KNEW NEW20190908223510709/08/19 22:35:31  5-MIN KNEW 090435Z AUTO 23004KT 7SM CLR 31/26 A3000 -60 74 1700 230/04 RMK AO2 T03060256
53917KNEW NEW20190908224010709/08/19 22:40:31  5-MIN KNEW 090440Z AUTO 22004KT 7SM CLR 31/25 A3000 -60 69 1800 220/04 RMK AO2 T03110250
53917KNEW NEW20190908224510709/08/19 22:45:31  5-MIN KNEW 090445Z AUTO 26006KT 7SM CLR 31/25 A3000 -50 69 1800 260/06 RMK AO2 T03110250
53917KNEW NEW20190908225011409/08/19 22:50:31  5-MIN KNEW 090450Z AUTO 25006KT 8SM CLR 31/24 A3000 -60 67 1800 250/06 RMK AO2 SLP152 T03110244
53917KNEW NEW20190908225510709/08/19 22:55:31  5-MIN KNEW 090455Z AUTO 24004KT 8SM CLR 31/24 A3000 -50 67 1800 240/04 RMK AO2 T03110244
53917KNEW NEW20190908230010709/08/19 23:00:31  5-MIN KNEW 090500Z AUTO 25006KT 8SM CLR 31/24 A3000 -50 67 1800 250/06 RMK AO2 T03110244
53917KNEW NEW20190908230510709/08/19 23:05:31  5-MIN KNEW 090505Z AUTO 26007KT 8SM CLR 31/24 A3000 -50 67 1800 260/07 RMK AO2 T03110244
53917KNEW NEW20190908231010709/08/19 23:10:31  5-MIN KNEW 090510Z AUTO 26006KT 8SM CLR 31/24 A3000 -50 67 1800 260/06 RMK AO2 T03110244
53917KNEW NEW20190908231510709/08/19 23:15:31  5-MIN KNEW 090515Z AUTO 26006KT 8SM CLR 31/24 A2999 -50 67 1800 260/06 RMK AO2 T03110244
53917KNEW NEW20190908232010709/08/19 23:20:31  5-MIN KNEW 090520Z AUTO 27006KT 8SM CLR 31/24 A3000 -50 67 1800 270/06 RMK AO2 T03110244
53917KNEW NEW20190908232510709/08/19 23:25:31  5-MIN KNEW 090525Z AUTO 28007KT 8SM CLR 31/25 A3000 -50 69 1800 280/07 RMK AO2 T03110250
53917KNEW NEW20190908233010709/08/19 23:30:31  5-MIN KNEW 090530Z AUTO 28008KT 7SM CLR 31/25 A3000 -50 69 1800 280/08 RMK AO2 T03110250
53917KNEW NEW20190908233510709/08/19 23:35:31  5-MIN KNEW 090535Z AUTO 27007KT 7SM CLR 31/25 A3000 -50 69 1800 270/07 RMK AO2 T03110250
53917KNEW NEW20190908234010709/08/19 23:40:31  5-MIN KNEW 090540Z AUTO 26007KT 8SM CLR 31/25 A3000 -50 72 1800 260/07 RMK AO2 T03060250
53917KNEW NEW20190908234510709/08/19 23:45:31  5-MIN KNEW 090545Z AUTO 27007KT 8SM CLR 31/25 A3000 -50 72 1800 270/07 RMK AO2 T03060250
53917KNEW NEW20190908235014209/08/19 23:50:31  5-MIN KNEW 090550Z AUTO 27007KT 8SM CLR 31/25 A3000 -60 72 1700 270/07 RMK AO2 SLP152 T03060250 10328 20300 403390294 51010
53917KNEW NEW20190908235510709/08/19 23:55:31  5-MIN KNEW 090555Z AUTO 28006KT 8SM CLR 31/25 A3000 -60 72 1700 280/06 RMK AO2 T03060250
53917KNEW NEW20190909000010709/09/19 00:00:31  5-MIN KNEW 090600Z AUTO 28006KT 7SM CLR 31/26 A3000 -60 74 1700 280/06 RMK AO2 T03060256
53917KNEW NEW20190909000510709/09/19 00:05:31  5-MIN KNEW 090605Z AUTO 27005KT 7SM CLR 31/26 A3000 -60 74 1700 270/05 RMK AO2 T03060256
53917KNEW NEW20190909001010709/09/19 00:10:31  5-MIN KNEW 090610Z AUTO 28004KT 8SM CLR 31/26 A3000 -60 77 1700 280/04 RMK AO2 T03060261
53917KNEW NEW20190909001510709/09/19 00:15:31  5-MIN KNEW 090615Z AUTO 28005KT 7SM CLR 31/26 A3000 -60 77 1700 280/05 RMK AO2 T03060261
53917KNEW NEW20190909002010709/09/19 00:20:31  5-MIN KNEW 090620Z AUTO 30006KT 7SM CLR 31/26 A3000 -60 74 1700 300/06 RMK AO2 T03060256
53917KNEW NEW20190909002510709/09/19 00:25:31  5-MIN KNEW 090625Z AUTO 29007KT 8SM CLR 31/25 A3000 -60 69 1800 290/07 RMK AO2 T03110250
53917KNEW NEW20190909003010709/09/19 00:30:31  5-MIN KNEW 090630Z AUTO 29006KT 8SM CLR 31/25 A3000 -60 72 1700 290/06 RMK AO2 T03060250
53917KNEW NEW20190909003510709/09/19 00:35:31  5-MIN KNEW 090635Z AUTO 29006KT 8SM CLR 31/25 A3000 -60 69 1800 290/06 RMK AO2 T03110250
53917KNEW NEW20190909004010709/09/19 00:40:31  5-MIN KNEW 090640Z AUTO 29006KT 8SM CLR 31/25 A3000 -60 69 1800 290/06 RMK AO2 T03110250
53917KNEW NEW20190909004510709/09/19 00:45:31  5-MIN KNEW 090645Z AUTO 28006KT 8SM CLR 31/25 A3000 -60 72 1700 280/06 RMK AO2 T03060250
53917KNEW NEW20190909005011409/09/19 00:50:31  5-MIN KNEW 090650Z AUTO 29006KT 8SM CLR 31/26 A3000 -60 74 1700 290/06 RMK AO2 SLP152 T03060256
53917KNEW NEW20190909005510709/09/19 00:55:31  5-MIN KNEW 090655Z AUTO 29005KT 8SM CLR 31/26 A3000 -60 74 1700 290/05 RMK AO2 T03060256
53917KNEW NEW20190909010010709/09/19 01:00:31  5-MIN KNEW 090700Z AUTO 30005KT 7SM CLR 31/26 A3000 -60 74 1700 300/05 RMK AO2 T03060256
53917KNEW NEW20190909010511009/09/19 01:05:31  5-MIN KNEW 090705Z AUTO 30006KT 6SM HZ CLR 31/26 A3000 -60 74 1700 300/06 RMK AO2 T03060256
53917KNEW NEW20190909011011009/09/19 01:10:31  5-MIN KNEW 090710Z AUTO 30005KT 6SM HZ CLR 31/26 A3000 -60 74 1700 300/05 RMK AO2 T03060256
53917KNEW NEW20190909011510709/09/19 01:15:31  5-MIN KNEW 090715Z AUTO 31006KT 7SM CLR 31/26 A3000 -60 74 1700 310/06 RMK AO2 T03060256
53917KNEW NEW20190909012010709/09/19 01:20:31  5-MIN KNEW 090720Z AUTO 31006KT 7SM CLR 31/26 A3000 -60 74 1700 310/06 RMK AO2 T03060256
53917KNEW NEW20190909012510709/09/19 01:25:31  5-MIN KNEW 090725Z AUTO 31006KT 7SM CLR 31/26 A3000 -60 74 1700 310/06 RMK AO2 T03060256
53917KNEW NEW20190909013010709/09/19 01:30:31  5-MIN KNEW 090730Z AUTO 32005KT 8SM CLR 31/26 A3000 -60 74 1700 320/05 RMK AO2 T03060256
53917KNEW NEW20190909013510709/09/19 01:35:31  5-MIN KNEW 090735Z AUTO 31005KT 8SM CLR 31/26 A3000 -60 77 1700 310/05 RMK AO2 T03060261
53917KNEW NEW20190909014010709/09/19 01:40:31  5-MIN KNEW 090740Z AUTO 32004KT 8SM CLR 31/26 A3000 -60 77 1700 320/04 RMK AO2 T03060261
53917KNEW NEW20190909014510709/09/19 01:45:31  5-MIN KNEW 090745Z AUTO 31005KT 8SM CLR 31/26 A3000 -60 77 1700 310/05 RMK AO2 T03060261
53917KNEW NEW20190909015011409/09/19 01:50:31  5-MIN KNEW 090750Z AUTO 32005KT 8SM CLR 31/26 A3000 -60 77 1700 320/05 RMK AO2 SLP154 T03060261
53917KNEW NEW20190909015510709/09/19 01:55:31  5-MIN KNEW 090755Z AUTO 32004KT 7SM CLR 31/26 A3001 -60 77 1700 320/04 RMK AO2 T03060261
53917KNEW NEW20190909020010709/09/19 02:00:31  5-MIN KNEW 090800Z AUTO 30005KT 7SM CLR 31/26 A3001 -60 77 1700 300/05 RMK AO2 T03060261
53917KNEW NEW20190909020510709/09/19 02:05:31  5-MIN KNEW 090805Z AUTO 32004KT 8SM CLR 31/26 A3000 -60 74 1700 320/04 RMK AO2 T03060256
53917KNEW NEW20190909021010709/09/19 02:10:31  5-MIN KNEW 090810Z AUTO 31005KT 8SM CLR 31/26 A3000 -60 77 1700 310/05 RMK AO2 T03060261
53917KNEW NEW20190909021511009/09/19 02:15:31  5-MIN KNEW 090815Z AUTO 31004KT 8SM FEW065 31/26 A3000 -60 77 1700 310/04 RMK AO2 T03060261
53917KNEW NEW20190909022011009/09/19 02:20:31  5-MIN KNEW 090820Z AUTO 32004KT 8SM SCT060 31/26 A3000 -60 77 1700 320/04 RMK AO2 T03060261
53917KNEW NEW20190909022511009/09/19 02:25:31  5-MIN KNEW 090825Z AUTO 32004KT 8SM BKN060 31/26 A3000 -60 77 1700 320/04 RMK AO2 T03060261
53917KNEW NEW20190909023011009/09/19 02:30:31  5-MIN KNEW 090830Z AUTO 31003KT 8SM BKN060 31/26 A3000 -60 77 1700 310/03 RMK AO2 T03060261
53917KNEW NEW20190909023511009/09/19 02:35:31  5-MIN KNEW 090835Z AUTO 33003KT 8SM BKN060 31/26 A3000 -60 77 1700 330/03 RMK AO2 T03060261
53917KNEW NEW20190909024011009/09/19 02:40:31  5-MIN KNEW 090840Z AUTO 32003KT 8SM BKN060 31/26 A3001 -60 77 1700 320/03 RMK AO2 T03060261
53917KNEW NEW20190909024511009/09/19 02:45:31  5-MIN KNEW 090845Z AUTO 33003KT 8SM BKN060 31/26 A3001 -60 77 1700 330/03 RMK AO2 T03060261
53917KNEW NEW20190909025012309/09/19 02:50:31  5-MIN KNEW 090850Z AUTO 00000KT 8SM BKN060 31/26 A3001 -60 77 1700 000/00 RMK AO2 SLP154 T03060261 51002
53917KNEW NEW20190909025511009/09/19 02:55:31  5-MIN KNEW 090855Z AUTO 00000KT 8SM SCT060 31/26 A3001 -70 77 1700 000/00 RMK AO2 T03060261
53917KNEW NEW20190909030011009/09/19 03:00:31  5-MIN KNEW 090900Z AUTO 00000KT 7SM SCT060 31/26 A3001 -60 77 1700 000/00 RMK AO2 T03060261
53917KNEW NEW20190909030511709/09/19 03:05:31  5-MIN KNEW 090905Z AUTO 00000KT 7SM SCT060 BKN100 31/26 A3001 -70 77 1700 000/00 RMK AO2 T03060261
53917KNEW NEW20190909031012409/09/19 03:10:31  5-MIN KNEW 090910Z AUTO 00000KT 7SM SCT055 SCT070 BKN100 31/26 A3001 -70 77 1700 000/00 RMK AO2 T03060261
53917KNEW NEW20190909031512409/09/19 03:15:31  5-MIN KNEW 090915Z AUTO 00000KT 7SM SCT055 BKN075 BKN100 31/26 A3001 -70 77 1700 000/00 RMK AO2 T03060261
53917KNEW NEW20190909032012409/09/19 03:20:31  5-MIN KNEW 090920Z AUTO 00000KT 7SM SCT055 BKN075 BKN100 31/26 A3001 -70 77 1700 000/00 RMK AO2 T03060261
53917KNEW NEW20190909032512709/09/19 03:25:31  5-MIN KNEW 090925Z AUTO 00000KT 6SM HZ FEW055 SCT075 BKN100 31/26 A3001 -70 74 1800 000/00 RMK AO2 T03110261
53917KNEW NEW20190909033012709/09/19 03:30:31  5-MIN KNEW 090930Z AUTO 00000KT 6SM HZ FEW055 FEW075 SCT100 31/26 A3001 -70 77 1700 000/00 RMK AO2 T03060261
53917KNEW NEW20190909033512009/09/19 03:35:31  5-MIN KNEW 090935Z AUTO 00000KT 6SM HZ FEW060 SCT080 31/26 A3002 -70 77 1700 000/00 RMK AO2 T03060261
53917KNEW NEW20190909034012009/09/19 03:40:31  5-MIN KNEW 090940Z AUTO 00000KT 6SM HZ FEW060 FEW080 31/26 A3002 -70 77 1700 000/00 RMK AO2 T03060261
53917KNEW NEW20190909034511309/09/19 03:45:31  5-MIN KNEW 090945Z AUTO 00000KT 6SM HZ FEW060 31/26 A3002 -70 77 1700 000/00 RMK AO2 T03060261
53917KNEW NEW20190909035011709/09/19 03:50:31  5-MIN KNEW 090950Z AUTO 00000KT 7SM FEW065 31/26 A3002 -70 77 1700 000/00 RMK AO2 SLP158 T03060261
53917KNEW NEW20190909035511009/09/19 03:55:31  5-MIN KNEW 090955Z AUTO 00000KT 7SM FEW065 31/26 A3002 -70 77 1700 000/00 RMK AO2 T03060261
53917KNEW NEW20190909040011009/09/19 04:00:31  5-MIN KNEW 091000Z AUTO 21005KT 7SM FEW060 30/26 A3002 -70 79 1700 210/05 RMK AO2 T03000261
53917KNEW NEW20190909040511009/09/19 04:05:31  5-MIN KNEW 091005Z AUTO 00000KT 7SM FEW060 30/26 A3002 -70 79 1700 000/00 RMK AO2 T03000261
53917KNEW NEW20190909041010709/09/19 04:10:31  5-MIN KNEW 091010Z AUTO 00000KT 7SM CLR 30/26 A3002 -70 79 1700 000/00 RMK AO2 T03000261
53917KNEW NEW20190909041510709/09/19 04:15:31  5-MIN KNEW 091015Z AUTO 22003KT 7SM CLR 30/26 A3002 -70 79 1700 220/03 RMK AO2 T03000261
53917KNEW NEW20190909042010709/09/19 04:20:31  5-MIN KNEW 091020Z AUTO 22003KT 7SM CLR 30/26 A3002 -80 79 1700 220/03 RMK AO2 T03000261
53917KNEW NEW20190909042510709/09/19 04:25:31  5-MIN KNEW 091025Z AUTO 24003KT 7SM CLR 30/26 A3002 -80 79 1700 240/03 RMK AO2 T03000261
53917KNEW NEW20190909043010709/09/19 04:30:31  5-MIN KNEW 091030Z AUTO 00000KT 7SM CLR 30/26 A3002 -70 79 1700 000/00 RMK AO2 T03000261
53917KNEW NEW20190909043510709/09/19 04:35:31  5-MIN KNEW 091035Z AUTO 24003KT 7SM CLR 30/26 A3002 -80 79 1700 240/03 RMK AO2 T03000261
53917KNEW NEW20190909044010709/09/19 04:40:31  5-MIN KNEW 091040Z AUTO 22003KT 7SM CLR 30/26 A3002 -80 79 1700 220/03 RMK AO2 T03000261
53917KNEW NEW20190909044511009/09/19 04:45:31  5-MIN KNEW 091045Z AUTO 00000KT 7SM FEW060 30/27 A3002 -80 82 1700 000/00 RMK AO2 T03000267
53917KNEW NEW20190909045011709/09/19 04:50:31  5-MIN KNEW 091050Z AUTO 22003KT 7SM FEW060 30/27 A3002 -80 82 1700 220/03 RMK AO2 SLP160 T03000267
53917KNEW NEW20190909045510709/09/19 04:55:31  5-MIN KNEW 091055Z AUTO 23003KT 7SM CLR 30/27 A3003 -80 82 1700 230/03 RMK AO2 T03000267
53917KNEW NEW20190909050010709/09/19 05:00:31  5-MIN KNEW 091100Z AUTO 19003KT 7SM CLR 30/26 A3003 -80 79 1700 190/03 RMK AO2 T03000261
53917KNEW NEW20190909050510709/09/19 05:05:31  5-MIN KNEW 091105Z AUTO 18004KT 7SM CLR 29/26 A3003 -80 82 1600 180/04 RMK AO2 T02940261
53917KNEW NEW20190909051011009/09/19 05:10:31  5-MIN KNEW 091110Z AUTO 17004KT 7SM FEW055 29/26 A3003 -80 82 1600 170/04 RMK AO2 T02940261
53917KNEW NEW20190909051511009/09/19 05:15:31  5-MIN KNEW 091115Z AUTO 17005KT 7SM SCT055 29/26 A3003 -90 82 1500 170/05 RMK AO2 T02890256
53917KNEW NEW20190909052011009/09/19 05:20:31  5-MIN KNEW 091120Z AUTO 18004KT 7SM BKN050 29/26 A3003 -90 79 1600 180/04 RMK AO2 T02940256
53917KNEW NEW20190909052511009/09/19 05:25:31  5-MIN KNEW 091125Z AUTO 18004KT 7SM BKN055 29/26 A3003 -90 79 1600 180/04 RMK AO2 T02940256
53917KNEW NEW20190909053011709/09/19 05:30:31  5-MIN KNEW 091130Z AUTO 19003KT 7SM BKN055 BKN070 29/26 A3003 -90 82 1500 190/03 RMK AO2 T02890256
53917KNEW NEW20190909053511709/09/19 05:35:31  5-MIN KNEW 091135Z AUTO 00000KT 7SM BKN055 BKN070 29/26 A3003 -90 79 1600 000/00 RMK AO2 T02940256
53917KNEW NEW20190909054011009/09/19 05:40:31  5-MIN KNEW 091140Z AUTO 25003KT 7SM BKN060 30/26 A3004 -90 79 1600 250/03 RMK AO2 T03000261
53917KNEW NEW20190909054511009/09/19 05:45:31  5-MIN KNEW 091145Z AUTO 23003KT 7SM BKN055 30/26 A3004 -90 79 1600 230/03 RMK AO2 T03000261
53917KNEW NEW20190909055013509/09/19 05:50:31  5-MIN KNEW 091150Z AUTO 00000KT 7SM BKN060 30/26 A3004 -90 79 1600 000/00 RMK AO2 SLP166 T03000261 10311 20289 53003
53917KNEW NEW20190909055510509/09/19 05:55:31  5-MIN KNEW 091155Z 00000KT 7SM BKN060 30/26 A3004 -90 79 1600 000/00 RMK AO2 T03000261
53917KNEW NEW20190909060010909/09/19 06:00:31  5-MIN KNEW 091200Z 00000KT 6SM HZ SCT060 31/26 A3004 -100 77 1700 000/00 RMK AO2 T03060261
53917KNEW NEW20190909060510909/09/19 06:05:31  5-MIN KNEW 091205Z 00000KT 6SM HZ SCT060 31/26 A3004 -100 77 1700 000/00 RMK AO2 T03060261
53917KNEW NEW20190909061010909/09/19 06:10:31  5-MIN KNEW 091210Z 00000KT 6SM HZ FEW060 30/26 A3005 -100 79 1600 000/00 RMK AO2 T03000261
53917KNEW NEW20190909061510909/09/19 06:15:31  5-MIN KNEW 091215Z 17004KT 6SM HZ FEW060 30/26 A3005 -100 79 1600 170/04 RMK AO2 T03000261
53917KNEW NEW20190909062010609/09/19 06:20:31  5-MIN KNEW 091220Z 17003KT 6SM HZ CLR 30/26 A3005 -100 79 1600 170/03 RMK AO2 T03000261
53917KNEW NEW20190909062510609/09/19 06:25:31  5-MIN KNEW 091225Z 16004KT 6SM HZ CLR 30/26 A3005 -100 79 1600 160/04 RMK AO2 T03000261
53917KNEW NEW20190909063010609/09/19 06:30:31  5-MIN KNEW 091230Z 16004KT 6SM HZ CLR 30/26 A3005 -110 79 1600 160/04 RMK AO2 T03000261
53917KNEW NEW20190909063510609/09/19 06:35:31  5-MIN KNEW 091235Z 16006KT 6SM HZ CLR 30/26 A3006 -110 79 1600 160/06 RMK AO2 T03000261
53917KNEW NEW20190909064010609/09/19 06:40:31  5-MIN KNEW 091240Z 17006KT 5SM HZ CLR 29/26 A3006 -110 79 1600 170/06 RMK AO2 T02940256
53917KNEW NEW20190909064510609/09/19 06:45:31  5-MIN KNEW 091245Z 17005KT 5SM HZ CLR 29/26 A3006 -120 79 1600 170/05 RMK AO2 T02940256
53917KNEW NEW20190909065011309/09/19 06:50:31  5-MIN KNEW 091250Z 19005KT 5SM HZ CLR 29/26 A3007 -120 79 1500 190/05 RMK AO2 SLP174 T02940256
53917KNEW NEW20190909065510909/09/19 06:55:31  5-MIN KNEW 091255Z 18006KT 5SM HZ FEW070 29/25 A3007 -120 76 1500 180/06 RMK AO2 T02940250
53917KNEW NEW20190909070010909/09/19 07:00:31  5-MIN KNEW 091300Z 18005KT 5SM HZ FEW070 29/25 A3006 -120 76 1600 180/05 RMK AO2 T02940250
53917KNEW NEW20190909070510909/09/19 07:05:31  5-MIN KNEW 091305Z 18005KT 5SM HZ FEW070 29/25 A3006 -120 76 1600 180/05 RMK AO2 T02940250
53917KNEW NEW20190909071010909/09/19 07:10:31  5-MIN KNEW 091310Z 18004KT 5SM HZ FEW070 30/25 A3006 -120 74 1600 180/04 RMK AO2 T03000250
53917KNEW NEW20190909071510909/09/19 07:15:31  5-MIN KNEW 091315Z 18005KT 5SM HZ FEW070 30/25 A3007 -120 74 1600 180/05 RMK AO2 T03000250
53917KNEW NEW20190909072010909/09/19 07:20:31  5-MIN KNEW 091320Z 19005KT 5SM HZ FEW070 30/26 A3007 -120 77 1600 190/05 RMK AO2 T03000256
53917KNEW NEW20190909072510609/09/19 07:25:31  5-MIN KNEW 091325Z 19005KT 5SM HZ CLR 30/26 A3007 -120 77 1600 190/05 RMK AO2 T03000256
53917KNEW NEW20190909073010609/09/19 07:30:31  5-MIN KNEW 091330Z 18004KT 5SM HZ CLR 31/26 A3007 -120 74 1700 180/04 RMK AO2 T03060256
53917KNEW NEW20190909073510609/09/19 07:35:31  5-MIN KNEW 091335Z 19003KT 5SM HZ CLR 31/26 A3007 -120 74 1700 190/03 RMK AO2 T03060256
53917KNEW NEW20190909074010609/09/19 07:40:31  5-MIN KNEW 091340Z 22003KT 5SM HZ CLR 31/26 A3007 -120 74 1700 220/03 RMK AO2 T03060256
53917KNEW NEW20190909074510609/09/19 07:45:31  5-MIN KNEW 091345Z 00000KT 5SM HZ CLR 31/26 A3007 -120 74 1700 000/00 RMK AO2 T03110261
53917KNEW NEW20190909075011309/09/19 07:50:31  5-MIN KNEW 091350Z 24003KT 5SM HZ CLR 31/26 A3007 -120 74 1700 240/03 RMK AO2 SLP176 T03110261
53917KNEW NEW20190909075510609/09/19 07:55:31  5-MIN KNEW 091355Z 23003KT 5SM HZ CLR 31/26 A3007 -120 74 1700 230/03 RMK AO2 T03110261
53917KNEW NEW20190909080010609/09/19 08:00:31  5-MIN KNEW 091400Z 24003KT 5SM HZ CLR 31/26 A3007 -120 74 1700 240/03 RMK AO2 T03110261
53917KNEW NEW20190909080510609/09/19 08:05:31  5-MIN KNEW 091405Z 00000KT 5SM HZ CLR 31/26 A3007 -120 74 1700 000/00 RMK AO2 T03110261
53917KNEW NEW20190909081010609/09/19 08:10:31  5-MIN KNEW 091410Z 00000KT 5SM HZ CLR 31/26 A3008 -130 72 1700 000/00 RMK AO2 T03110256
53917KNEW NEW20190909081510609/09/19 08:15:31  5-MIN KNEW 091415Z 28003KT 5SM HZ CLR 31/26 A3008 -130 74 1700 280/03 RMK AO2 T03110261
53917KNEW NEW20190909082010609/09/19 08:20:31  5-MIN KNEW 091420Z 31003KT 5SM HZ CLR 31/26 A3008 -130 72 1700 310/03 RMK AO2 T03110256
53917KNEW NEW20190909082510609/09/19 08:25:31  5-MIN KNEW 091425Z 31003KT 5SM HZ CLR 32/26 A3008 -130 72 1800 310/03 RMK AO2 T03170261
53917KNEW NEW20190909083010609/09/19 08:30:31  5-MIN KNEW 091430Z 30003KT 5SM HZ CLR 32/26 A3008 -130 69 1800 300/03 RMK AO2 T03220261
53917KNEW NEW20190909083510609/09/19 08:35:31  5-MIN KNEW 091435Z 32003KT 5SM HZ CLR 32/26 A3008 -130 69 1800 320/03 RMK AO2 T03220261
53917KNEW NEW20190909084010609/09/19 08:40:31  5-MIN KNEW 091440Z 01005KT 5SM HZ CLR 32/26 A3008 -130 69 1800 010/05 RMK AO2 T03220261
53917KNEW NEW20190909084510609/09/19 08:45:31  5-MIN KNEW 091445Z 02008KT 5SM HZ CLR 32/26 A3008 -130 67 1800 020/08 RMK AO2 T03220256
53917KNEW NEW20190909085011909/09/19 08:50:31  5-MIN KNEW 091450Z 02007KT 6SM HZ CLR 32/26 A3008 -130 67 1800 020/07 RMK AO2 SLP179 T03220256 53011
53917KNEW NEW20190909085510609/09/19 08:55:31  5-MIN KNEW 091455Z 02009KT 6SM HZ CLR 32/26 A3008 -130 69 1800 020/09 RMK AO2 T03170256
53917KNEW NEW20190909090010609/09/19 09:00:31  5-MIN KNEW 091500Z 03008KT 6SM HZ CLR 32/26 A3008 -130 69 1800 030/08 RMK AO2 T03170256
53917KNEW NEW20190909090510609/09/19 09:05:31  5-MIN KNEW 091505Z 03006KT 6SM HZ CLR 31/25 A3008 -130 69 1700 030/06 RMK AO2 T03110250
53917KNEW NEW20190909091010609/09/19 09:10:31  5-MIN KNEW 091510Z 03005KT 6SM HZ CLR 31/26 A3008 -140 72 1700 030/05 RMK AO2 T03110256
53917KNEW NEW20190909091510609/09/19 09:15:31  5-MIN KNEW 091515Z 03006KT 6SM HZ CLR 31/26 A3009 -140 72 1700 030/06 RMK AO2 T03110256
53917KNEW NEW20190909092010609/09/19 09:20:31  5-MIN KNEW 091520Z 03005KT 6SM HZ CLR 31/25 A3009 -140 69 1700 030/05 RMK AO2 T03110250
53917KNEW NEW20190909092510609/09/19 09:25:31  5-MIN KNEW 091525Z 05005KT 6SM HZ CLR 31/26 A3009 -140 72 1700 050/05 RMK AO2 T03110256
53917KNEW NEW20190909093010609/09/19 09:30:31  5-MIN KNEW 091530Z 06004KT 6SM HZ CLR 31/26 A3009 -140 72 1700 060/04 RMK AO2 T03110256
53917KNEW NEW20190909093510609/09/19 09:35:31  5-MIN KNEW 091535Z 05004KT 5SM HZ CLR 31/26 A3009 -140 72 1700 050/04 RMK AO2 T03110256
53917KNEW NEW20190909094010609/09/19 09:40:31  5-MIN KNEW 091540Z 06004KT 5SM HZ CLR 31/26 A3009 -140 72 1700 060/04 RMK AO2 T03110256
53917KNEW NEW20190909094510609/09/19 09:45:31  5-MIN KNEW 091545Z 05004KT 5SM HZ CLR 31/26 A3009 -140 72 1700 050/04 RMK AO2 T03110256
53917KNEW NEW20190909095011309/09/19 09:50:31  5-MIN KNEW 091550Z 05004KT 5SM HZ CLR 32/26 A3009 -140 72 1800 050/04 RMK AO2 SLP182 T03170261
53917KNEW NEW20190909095510609/09/19 09:55:31  5-MIN KNEW 091555Z 04004KT 5SM HZ CLR 32/26 A3009 -140 72 1800 040/04 RMK AO2 T03170261
53917KNEW NEW20190909100010609/09/19 10:00:31  5-MIN KNEW 091600Z 05004KT 5SM HZ CLR 32/26 A3009 -140 72 1800 050/04 RMK AO2 T03170261
53917KNEW NEW20190909100510609/09/19 10:05:31  5-MIN KNEW 091605Z 04004KT 5SM HZ CLR 32/26 A3008 -130 72 1800 040/04 RMK AO2 T03170261
53917KNEW NEW20190909101010609/09/19 10:10:31  5-MIN KNEW 091610Z 02005KT 5SM HZ CLR 32/26 A3008 -130 72 1800 020/05 RMK AO2 T03170261
53917KNEW NEW20190909101510609/09/19 10:15:31  5-MIN KNEW 091615Z 02005KT 5SM HZ CLR 32/26 A3008 -130 72 1800 020/05 RMK AO2 T03170261
53917KNEW NEW20190909102011809/09/19 10:20:31  5-MIN KNEW 091620Z 03004KT 5SM HZ CLR 32/26 A3008 -130 69 1800 030/04 RMK AO2 LTG DSNT SW T03220261
53917KNEW NEW20190909102512309/09/19 10:25:31  5-MIN KNEW 091625Z 05004KT 5SM VCTS HZ CLR 32/26 A3007 -120 69 1900 050/04 RMK AO2 LTG DSNT SW T03220261
53917KNEW NEW20190909103012309/09/19 10:30:31  5-MIN KNEW 091630Z 02003KT 5SM VCTS HZ CLR 32/26 A3008 -130 69 1800 020/03 RMK AO2 LTG DSNT SW T03220261
53917KNEW NEW20190909103512909/09/19 10:35:31  5-MIN KNEW 091635Z 00000KT 5SM VCTS HZ CLR 32/26 A3009 -140 69 1800 000/00 RMK AO2 LTG DSNT SW AND W T03220261
53917KNEW NEW20190909104013209/09/19 10:40:31  5-MIN KNEW 091640Z 00000KT 5SM VCTS HZ FEW046 32/26 A3008 -140 69 1800 000/00 RMK AO2 LTG DSNT SW AND W T03220261
53917KNEW NEW20190909104513209/09/19 10:45:31  5-MIN KNEW 091645Z 02004KT 5SM VCTS HZ FEW028 33/26 A3008 -130 65 2000 020/04 RMK AO2 LTG DSNT SW AND W T03330261
53917KNEW NEW20190909105012109/09/19 10:50:31  5-MIN KNEW 091650Z 02004KT 5SM VCTS HZ FEW030 33/26 A3008 -130 65 2000 020/04 RMK AO2 SLP180 T03330261
53917KNEW NEW20190909105512509/09/19 10:55:31  5-MIN KNEW 091655Z 01004KT 5SM TS HZ FEW032 FEW047 33/26 A3008 -130 65 2000 010/04 RMK AO2 TSB55 T03330261
53917KNEW NEW20190909110013409/09/19 11:00:31  5-MIN KNEW 091700Z 02005KT 5SM TS HZ FEW030 SCT036 SCT047 33/26 A3008 -130 67 1900 020/05 RMK AO2 TSB1655 T03280261
53917KNEW NEW20190909110513409/09/19 11:05:31  5-MIN KNEW 091705Z 03007KT 5SM TS HZ FEW030 SCT036 BKN047 33/26 A3007 -130 67 1900 030/07 RMK AO2 TSB1655 T03280261
53917KNEW NEW20190909111012409/09/19 11:10:31  5-MIN KNEW 091710Z 04005KT 5SM HZ SCT036 BKN049 33/26 A3007 -120 67 1900 040/05 RMK AO2 TSB1655 T03280261
53917KNEW NEW20190909111512409/09/19 11:15:31  5-MIN KNEW 091715Z 04005KT 5SM HZ SCT036 BKN049 33/26 A3007 -120 67 1900 040/05 RMK AO2 TSB1655 T03280261
53917KNEW NEW20190909112013509/09/19 11:20:31  5-MIN KNEW 091720Z 05005KT 5SM HZ SCT036 SCT049 32/26 A3007 -120 69 1900 050/05 RMK AO2 LTG DSNT N TSB1655 T03220261
53917KNEW NEW20190909112514209/09/19 11:25:31  5-MIN KNEW 091725Z 05005KT 5SM HZ FEW031 SCT038 BKN047 32/26 A3007 -120 69 1900 050/05 RMK AO2 LTG DSNT N TSB1655 T03220261
53917KNEW NEW20190909113014209/09/19 11:30:31  5-MIN KNEW 091730Z 05005KT 5SM HZ SCT038 BKN047 BKN070 33/27 A3007 -120 70 1900 050/05 RMK AO2 LTG DSNT N TSB1655 T03280267
53917KNEW NEW20190909113514209/09/19 11:35:31  5-MIN KNEW 091735Z 05005KT 5SM HZ FEW038 SCT046 BKN065 33/26 A3007 -120 67 1900 050/05 RMK AO2 LTG DSNT N TSB1655 T03280261
53917KNEW NEW20190909114014709/09/19 11:40:31  5-MIN KNEW 091740Z 04005KT 5SM VCTS HZ FEW037 SCT044 BKN065 33/27 A3006 -120 70 1900 040/05 RMK AO2 LTG DSNT N TSB1655 T03280267
53917KNEW NEW20190909114515409/09/19 11:45:31  5-MIN KNEW 091745Z 03005KT 5SM VCTS HZ SCT036 SCT046 BKN055 33/26 A3006 -120 65 2000 030/05 RMK AO2 LTG DSNT N AND SE TSB1655 T03330261
53917KNEW NEW20190909115017909/09/19 11:50:31  5-MIN KNEW 091750Z 04003KT 5SM VCTS HZ FEW034 SCT050 BKN065 33/26 A3006 -120 65 2000 040/03 RMK AO2 LTG DSNT N AND SE TSB1655 SLP174 T03330261 10333 20294 51014
53917KNEW NEW20190909115514609/09/19 11:55:31  5-MIN KNEW 091755Z 04004KT 6SM VCTS HZ FEW039 SCT050 SCT065 33/25 A3007 -120 61 2000 040/04 RMK AO2 LTG DSNT N AND SE T03330250
53917KNEW NEW20190909120014609/09/19 12:00:31  5-MIN KNEW 091800Z 02004KT 6SM VCTS HZ FEW037 SCT046 BKN060 33/25 A3006 -120 61 2000 020/04 RMK AO2 LTG DSNT N AND SE T03330250
53917KNEW NEW20190909120514609/09/19 12:05:31  5-MIN KNEW 091805Z 00000KT 6SM VCTS HZ FEW037 SCT046 BKN060 34/24 A3006 -120 57 2000 000/00 RMK AO2 LTG DSNT N AND SE T03390244
53917KNEW NEW20190909121012709/09/19 12:10:31  5-MIN KNEW 091810Z VRB06KT 6SM HZ SCT041 BKN060 33/24 A3007 -120 59 2000 VRB/06 RMK AO2 LTG DSNT N T03330244
53917KNEW NEW20190909121512409/09/19 12:15:31  5-MIN KNEW 091815Z 14009KT 7SM SCT041 BKN050 34/24 A3006 -120 57 2000 140/09 RMK AO2 LTG DSNT N T03390244
53917KNEW NEW20190909122011909/09/19 12:20:31  5-MIN KNEW 091820Z 13012G18KT 7SM SCT041 BKN050 33/24 A3007 -120 57 2000 130/12G18 RMK AO2 T03330239
53917KNEW NEW20190909122511909/09/19 12:25:31  5-MIN KNEW 091825Z 13012G18KT 7SM SCT041 BKN050 33/24 A3007 -120 57 2000 130/12G18 RMK AO2 T03330239
53917KNEW NEW20190909123011309/09/19 12:30:31  5-MIN KNEW 091830Z 13011KT 8SM FEW041 SCT050 33/23 A3007 -120 55 2000 130/11 RMK AO2 T03330233
53917KNEW NEW20190909123511309/09/19 12:35:31  5-MIN KNEW 091835Z 12010KT 8SM FEW039 SCT050 33/23 A3007 -120 53 2000 120/10 RMK AO2 T03330228
53917KNEW NEW20190909124011309/09/19 12:40:31  5-MIN KNEW 091840Z 12010KT 8SM FEW039 FEW050 34/22 A3006 -120 50 2000 120/10 RMK AO2 T03390222
53917KNEW NEW20190909124510309/09/19 12:45:31  5-MIN KNEW 091845Z 14011KT 9SM CLR 34/21 A3006 -120 46 2000 140/11 RMK AO2 T03390211
53917KNEW NEW20190909125011109/09/19 12:50:31  5-MIN KNEW 091850Z 12010KT 10SM CLR 34/21 A3006 -110 45 2000 120/10 RMK AO2 SLP173 T03390206
53917KNEW NEW20190909125510409/09/19 12:55:31  5-MIN KNEW 091855Z 12009KT 10SM CLR 34/21 A3006 -110 46 2000 120/09 RMK AO2 T03390211
53917KNEW NEW20190909130010409/09/19 13:00:31  5-MIN KNEW 091900Z 11007KT 10SM CLR 34/22 A3006 -110 50 2100 110/07 RMK AO2 T03390222
53917KNEW NEW20190909130510309/09/19 13:05:31  5-MIN KNEW 091905Z 14007KT 9SM CLR 34/22 A3005 -110 46 2100 140/07 RMK AO2 T03440217
53917KNEW NEW20190909131010409/09/19 13:10:31  5-MIN KNEW 091910Z 15009KT 10SM CLR 34/21 A3005 -110 45 2100 150/09 RMK AO2 T03440211
53917KNEW NEW20190909131511409/09/19 13:15:31  5-MIN KNEW 091915Z 14009KT 9SM CLR 34/23 A3005 -100 50 2100 140/09 RMK AO2 LTG DSNT W T03440228
53917KNEW NEW20190909132011409/09/19 13:20:31  5-MIN KNEW 091920Z 14007KT 9SM CLR 34/23 A3005 -100 50 2100 140/07 RMK AO2 LTG DSNT W T03440228
53917KNEW NEW20190909132511409/09/19 13:25:31  5-MIN KNEW 091925Z 16010KT 9SM CLR 34/23 A3004 -100 53 2100 160/10 RMK AO2 LTG DSNT W T03390233
53917KNEW NEW20190909133011409/09/19 13:30:31  5-MIN KNEW 091930Z 14008KT 8SM CLR 34/23 A3004 -100 53 2100 140/08 RMK AO2 LTG DSNT W T03390233
53917KNEW NEW20190909133511309/09/19 13:35:31  5-MIN KNEW 091935Z 13010KT 8SM CLR 33/23 A3004 -90 53 2000 130/10 RMK AO2 LTG DSNT W T03330228
53917KNEW NEW20190909134012009/09/19 13:40:31  5-MIN KNEW 091940Z 14010KT 8SM CLR 33/23 A3003 -90 53 2000 140/10 RMK AO2 LTG DSNT W AND NW T03330228
53917KNEW NEW20190909134512009/09/19 13:45:31  5-MIN KNEW 091945Z 14010KT 8SM CLR 33/23 A3003 -90 53 2000 140/10 RMK AO2 LTG DSNT W AND NW T03330228
53917KNEW NEW20190909135012109/09/19 13:50:31  5-MIN KNEW 091950Z 14009KT 8SM CLR 33/23 A3003 -90 53 2000 140/09 RMK AO2 LTG DSNT NW SLP162 T03330228
53917KNEW NEW20190909135510209/09/19 13:55:31  5-MIN KNEW 091955Z 15010KT 8SM CLR 33/23 A3003 -80 55 2000 150/10 RMK AO2 T03330233
53917KNEW NEW20190909140010509/09/19 14:00:31  5-MIN KNEW 092000Z VRB06KT 8SM FEW041 33/23 A3003 -80 53 2000 VRB/06 RMK AO2 T03330228
53917KNEW NEW20190909140511609/09/19 14:05:31  5-MIN KNEW 092005Z 15009KT 8SM FEW041 33/23 A3002 -80 55 2000 150/09 RMK AO2 LTG DSNT W T03330233
53917KNEW NEW20190909141011309/09/19 14:10:31  5-MIN KNEW 092010Z 13009KT 8SM CLR 33/23 A3002 -80 55 2000 130/09 RMK AO2 LTG DSNT W T03330233
53917KNEW NEW20190909141511309/09/19 14:15:31  5-MIN KNEW 092015Z 16012KT 8SM CLR 33/22 A3002 -80 51 2000 160/12 RMK AO2 LTG DSNT W T03330222
53917KNEW NEW20190909142011309/09/19 14:20:31  5-MIN KNEW 092020Z 15010KT 9SM CLR 33/22 A3002 -70 51 2000 150/10 RMK AO2 LTG DSNT W T03330222
53917KNEW NEW20190909142511309/09/19 14:25:31  5-MIN KNEW 092025Z 15011KT 9SM CLR 33/22 A3001 -70 51 2000 150/11 RMK AO2 LTG DSNT W T03330222
53917KNEW NEW20190909143011309/09/19 14:30:31  5-MIN KNEW 092030Z 15009KT 9SM CLR 33/22 A3001 -70 50 2000 150/09 RMK AO2 LTG DSNT W T03330217
53917KNEW NEW20190909143511309/09/19 14:35:31  5-MIN KNEW 092035Z 14007KT 9SM CLR 34/22 A3001 -70 46 2200 140/07 RMK AO2 LTG DSNT W T03440217
53917KNEW NEW20190909144011309/09/19 14:40:31  5-MIN KNEW 092040Z 13009KT 9SM CLR 34/22 A3001 -70 46 2200 130/09 RMK AO2 LTG DSNT W T03440217
53917KNEW NEW20190909144511309/09/19 14:45:31  5-MIN KNEW 092045Z 11009KT 9SM CLR 34/22 A3001 -70 48 2100 110/09 RMK AO2 LTG DSNT W T03390217
53917KNEW NEW20190909145012609/09/19 14:50:31  5-MIN KNEW 092050Z 14009KT 9SM CLR 34/22 A3001 -60 48 2100 140/09 RMK AO2 LTG DSNT W SLP155 T03390217 58004
53917KNEW NEW20190909145511309/09/19 14:55:31  5-MIN KNEW 092055Z 15010KT 9SM CLR 34/22 A3001 -60 48 2100 150/10 RMK AO2 LTG DSNT W T03390217
53917KNEW NEW20190909150011309/09/19 15:00:31  5-MIN KNEW 092100Z 16009KT 9SM CLR 34/22 A3001 -60 48 2100 160/09 RMK AO2 LTG DSNT W T03390217
53917KNEW NEW20190909150511309/09/19 15:05:31  5-MIN KNEW 092105Z 15011KT 9SM CLR 34/22 A3000 -60 48 2200 150/11 RMK AO2 LTG DSNT W T03440222
53917KNEW NEW20190909151011309/09/19 15:10:31  5-MIN KNEW 092110Z 14007KT 9SM CLR 34/22 A3000 -60 50 2100 140/07 RMK AO2 LTG DSNT W T03390222
53917KNEW NEW20190909151511909/09/19 15:15:31  5-MIN KNEW 092115Z 12007G14KT 9SM CLR 34/23 A3000 -60 51 2100 120/07G14 RMK AO2 LTG DSNT W T03390228
53917KNEW NEW20190909152011309/09/19 15:20:31  5-MIN KNEW 092120Z 14012KT 9SM CLR 34/23 A3000 -60 51 2100 140/12 RMK AO2 LTG DSNT W T03390228
53917KNEW NEW20190909152510209/09/19 15:25:31  5-MIN KNEW 092125Z 13008KT 9SM CLR 33/23 A3000 -60 55 2100 130/08 RMK AO2 T03330233
53917KNEW NEW20190909153010209/09/19 15:30:31  5-MIN KNEW 092130Z 12008KT 9SM CLR 34/23 A3000 -60 53 2100 120/08 RMK AO2 T03390233
53917KNEW NEW20190909153510509/09/19 15:35:31  5-MIN KNEW 092135Z 12010KT 9SM FEW043 34/23 A3000 -60 53 2100 120/10 RMK AO2 T03390233
53917KNEW NEW20190909154010509/09/19 15:40:31  5-MIN KNEW 092140Z 12012KT 9SM FEW043 33/23 A3000 -60 55 2100 120/12 RMK AO2 T03330233
53917KNEW NEW20190909154511109/09/19 15:45:31  5-MIN KNEW 092145Z 13009G18KT 9SM SCT041 33/23 A3000 -60 55 2100 130/09G18 RMK AO2 T03330233
53917KNEW NEW20190909155011809/09/19 15:50:31  5-MIN KNEW 092150Z 14011G18KT 9SM FEW041 33/22 A3000 -60 50 2100 140/11G18 RMK AO2 SLP152 T03330217
53917KNEW NEW20190909155510509/09/19 15:55:31  5-MIN KNEW 092155Z 14011KT 9SM FEW042 34/22 A3000 -60 48 2100 140/11 RMK AO2 T03390217
53917KNEW NEW20190909160010609/09/19 16:00:31  5-MIN KNEW 092200Z 13012KT 10SM FEW042 33/21 A3000 -60 48 2100 130/12 RMK AO2 T03330211
53917KNEW NEW20190909160510609/09/19 16:05:31  5-MIN KNEW 092205Z 14013KT 10SM FEW042 34/21 A3000 -60 45 2100 140/13 RMK AO2 T03390206
53917KNEW NEW20190909161010609/09/19 16:10:31  5-MIN KNEW 092210Z 13011KT 10SM FEW042 33/22 A3000 -60 50 2100 130/11 RMK AO2 T03330217
53917KNEW NEW20190909161510309/09/19 16:15:31  5-MIN KNEW 092215Z 16011KT 10SM CLR 33/22 A3000 -60 50 2000 160/11 RMK AO2 T03330217
53917KNEW NEW20190909162010309/09/19 16:20:31  5-MIN KNEW 092220Z 15010KT 10SM CLR 33/22 A3000 -60 50 2100 150/10 RMK AO2 T03330217
53917KNEW NEW20190909162510309/09/19 16:25:31  5-MIN KNEW 092225Z 14011KT 10SM CLR 33/22 A3000 -60 50 2100 140/11 RMK AO2 T03330217
53917KNEW NEW20190909163010309/09/19 16:30:31  5-MIN KNEW 092230Z 14009KT 10SM CLR 33/22 A3001 -60 50 2000 140/09 RMK AO2 T03330217
53917KNEW NEW20190909163510309/09/19 16:35:31  5-MIN KNEW 092235Z 13010KT 10SM CLR 33/22 A3001 -60 51 2000 130/10 RMK AO2 T03330222
53917KNEW NEW20190909164010309/09/19 16:40:31  5-MIN KNEW 092240Z 14012KT 10SM CLR 33/21 A3001 -70 48 2000 140/12 RMK AO2 T03330211
53917KNEW NEW20190909164510309/09/19 16:45:31  5-MIN KNEW 092245Z 14011KT 10SM CLR 33/21 A3001 -70 48 2000 140/11 RMK AO2 T03330211
53917KNEW NEW20190909165011009/09/19 16:50:31  5-MIN KNEW 092250Z 14011KT 10SM CLR 33/22 A3002 -70 53 2000 140/11 RMK AO2 SLP157 T03280222
53917KNEW NEW20190909165510309/09/19 16:55:31  5-MIN KNEW 092255Z 14010KT 10SM CLR 33/23 A3001 -70 55 2000 140/10 RMK AO2 T03280228
53917KNEW NEW20190909170010309/09/19 17:00:31  5-MIN KNEW 092300Z 14012KT 10SM CLR 33/23 A3002 -70 55 2000 140/12 RMK AO2 T03280228
53917KNEW NEW20190909170510309/09/19 17:05:31  5-MIN KNEW 092305Z 14010KT 10SM CLR 32/22 A3002 -80 55 1900 140/10 RMK AO2 T03220222
53917KNEW NEW20190909171010309/09/19 17:10:31  5-MIN KNEW 092310Z 14008KT 10SM CLR 33/22 A3002 -80 53 2000 140/08 RMK AO2 T03280222
53917KNEW NEW20190909171510309/09/19 17:15:31  5-MIN KNEW 092315Z 13009KT 10SM CLR 33/23 A3002 -80 55 2000 130/09 RMK AO2 T03280228
53917KNEW NEW20190909172010309/09/19 17:20:31  5-MIN KNEW 092320Z 13008KT 10SM CLR 32/23 A3003 -80 57 1900 130/08 RMK AO2 T03220228
53917KNEW NEW20190909172510209/09/19 17:25:31  5-MIN KNEW 092325Z 12009KT 9SM CLR 32/23 A3003 -80 57 1900 120/09 RMK AO2 T03220228
53917KNEW NEW20190909173010209/09/19 17:30:31  5-MIN KNEW 092330Z 13009KT 9SM CLR 32/23 A3003 -80 57 1900 130/09 RMK AO2 T03220228
53917KNEW NEW20190909173510209/09/19 17:35:31  5-MIN KNEW 092335Z 13009KT 9SM CLR 32/23 A3003 -90 61 1800 130/09 RMK AO2 T03170233
53917KNEW NEW20190909174010209/09/19 17:40:31  5-MIN KNEW 092340Z 13009KT 9SM CLR 32/23 A3003 -90 61 1800 130/09 RMK AO2 T03170233
53917KNEW NEW20190909174510209/09/19 17:45:31  5-MIN KNEW 092345Z 13010KT 9SM CLR 32/23 A3003 -90 61 1800 130/10 RMK AO2 T03170233
53917KNEW NEW20190909175012709/09/19 17:50:31  5-MIN KNEW 092350Z 13008KT 9SM CLR 32/23 A3003 -90 61 1800 130/08 RMK AO2 SLP163 T03170233 10344 20317 58021
53917KNEW NEW20190909175510209/09/19 17:55:31  5-MIN KNEW 092355Z 14009KT 9SM CLR 32/23 A3003 -90 61 1800 140/09 RMK AO2 T03170233
53917KNEW NEW20190909180010209/09/19 18:00:31  5-MIN KNEW 100000Z 13007KT 9SM CLR 31/23 A3003 -90 63 1800 130/07 RMK AO2 T03110233
53917KNEW NEW20190909180510209/09/19 18:05:31  5-MIN KNEW 100005Z 13006KT 9SM CLR 31/23 A3003 -90 63 1800 130/06 RMK AO2 T03110233
53917KNEW NEW20190909181012009/09/19 18:10:31  5-MIN KNEW 100010Z 12010KT 9SM CLR 31/23 A3003 -90 63 1800 120/10 RMK AO2 LTG DSNT W AND NW T03110233
53917KNEW NEW20190909181512009/09/19 18:15:31  5-MIN KNEW 100015Z 11008KT 9SM CLR 31/23 A3003 -90 63 1800 110/08 RMK AO2 LTG DSNT W AND NW T03110233
53917KNEW NEW20190909182012009/09/19 18:20:31  5-MIN KNEW 100020Z 12009KT 9SM CLR 31/24 A3003 -90 65 1800 120/09 RMK AO2 LTG DSNT W AND NW T03110239
53917KNEW NEW20190909182512109/09/19 18:25:31  5-MIN KNEW 100025Z 12009KT 10SM CLR 31/24 A3004 -90 65 1800 120/09 RMK AO2 LTG DSNT W AND NW T03110239
53917KNEW NEW20190909183011509/09/19 18:30:31  5-MIN KNEW 100030Z 12009KT 10SM CLR 31/23 A3004 -90 63 1800 120/09 RMK AO2 LTG DSNT NW T03110233
53917KNEW NEW20190909183511509/09/19 18:35:31  5-MIN KNEW 100035Z 12008KT 9SM CLR 31/23 A3004 -100 63 1800 120/08 RMK AO2 LTG DSNT NW T03110233
53917KNEW NEW20190909184011509/09/19 18:40:31  5-MIN KNEW 100040Z 13006KT 8SM CLR 31/23 A3004 -100 63 1800 130/06 RMK AO2 LTG DSNT NW T03110233
53917KNEW NEW20190909184511509/09/19 18:45:31  5-MIN KNEW 100045Z 12008KT 7SM CLR 31/23 A3005 -100 65 1700 120/08 RMK AO2 LTG DSNT NW T03060233
53917KNEW NEW20190909185012209/09/19 18:50:31  5-MIN KNEW 100050Z 13005KT 7SM CLR 31/24 A3005 -110 67 1700 130/05 RMK AO2 LTG DSNT NW SLP170 T03060239
53917KNEW NEW20190909185511509/09/19 18:55:31  5-MIN KNEW 100055Z 12008KT 8SM CLR 31/24 A3006 -110 67 1700 120/08 RMK AO2 LTG DSNT NW T03060239
53917KNEW NEW20190909190011509/09/19 19:00:31  5-MIN KNEW 100100Z 13007KT 7SM CLR 31/23 A3006 -110 65 1700 130/07 RMK AO2 LTG DSNT NW T03060233
53917KNEW NEW20190909190511509/09/19 19:05:31  5-MIN KNEW 100105Z 14006KT 7SM CLR 31/24 A3006 -110 67 1700 140/06 RMK AO2 LTG DSNT NW T03060239
53917KNEW NEW20190909191011509/09/19 19:10:31  5-MIN KNEW 100110Z 13006KT 7SM CLR 31/24 A3006 -110 67 1700 130/06 RMK AO2 LTG DSNT NW T03060239
53917KNEW NEW20190909191510309/09/19 19:15:31  5-MIN KNEW 100115Z 12005KT 7SM CLR 31/24 A3006 -110 67 1700 120/05 RMK AO2 T03060239
53917KNEW NEW20190909192010309/09/19 19:20:31  5-MIN KNEW 100120Z 12007KT 7SM CLR 31/24 A3006 -110 67 1700 120/07 RMK AO2 T03060239
53917KNEW NEW20190909192510309/09/19 19:25:31  5-MIN KNEW 100125Z 13007KT 7SM CLR 31/24 A3006 -110 67 1700 130/07 RMK AO2 T03060239
53917KNEW NEW20190909193010309/09/19 19:30:31  5-MIN KNEW 100130Z 12008KT 8SM CLR 31/24 A3006 -110 67 1700 120/08 RMK AO2 T03060239
53917KNEW NEW20190909193510309/09/19 19:35:31  5-MIN KNEW 100135Z 12007KT 8SM CLR 31/24 A3006 -110 67 1700 120/07 RMK AO2 T03060239
53917KNEW NEW20190909194010309/09/19 19:40:31  5-MIN KNEW 100140Z 12008KT 8SM CLR 31/24 A3006 -110 67 1700 120/08 RMK AO2 T03060239
53917KNEW NEW20190909194510309/09/19 19:45:31  5-MIN KNEW 100145Z 12007KT 8SM CLR 31/24 A3006 -110 67 1700 120/07 RMK AO2 T03060239
53917KNEW NEW20190909195011009/09/19 19:50:31  5-MIN KNEW 100150Z 12008KT 8SM CLR 31/24 A3006 -110 67 1700 120/08 RMK AO2 SLP172 T03060239
53917KNEW NEW20190909195510809/09/19 19:55:31  5-MIN KNEW 100155Z AUTO 12008KT 8SM CLR 31/24 A3006 -110 67 1700 120/08 RMK AO2 T03060239
53917KNEW NEW20190909200010809/09/19 20:00:31  5-MIN KNEW 100200Z AUTO 13007KT 8SM CLR 31/24 A3006 -110 67 1700 130/07 RMK AO2 T03060239
53917KNEW NEW20190909200510809/09/19 20:05:31  5-MIN KNEW 100205Z AUTO 13007KT 8SM CLR 30/24 A3006 -110 69 1600 130/07 RMK AO2 T03000239
53917KNEW NEW20190909201010809/09/19 20:10:31  5-MIN KNEW 100210Z AUTO 14004KT 8SM CLR 30/24 A3006 -110 69 1600 140/04 RMK AO2 T03000239
53917KNEW NEW20190909201510809/09/19 20:15:31  5-MIN KNEW 100215Z AUTO 14006KT 8SM CLR 30/24 A3006 -110 69 1600 140/06 RMK AO2 T03000239
53917KNEW NEW20190909202010809/09/19 20:20:31  5-MIN KNEW 100220Z AUTO 13006KT 8SM CLR 30/24 A3006 -110 69 1600 130/06 RMK AO2 T03000239
53917KNEW NEW20190909202510809/09/19 20:25:31  5-MIN KNEW 100225Z AUTO 13005KT 8SM CLR 30/24 A3006 -120 69 1600 130/05 RMK AO2 T03000239
53917KNEW NEW20190909203010809/09/19 20:30:31  5-MIN KNEW 100230Z AUTO 13006KT 8SM CLR 30/24 A3006 -120 69 1600 130/06 RMK AO2 T03000239
53917KNEW NEW20190909203510809/09/19 20:35:31  5-MIN KNEW 100235Z AUTO 13005KT 7SM CLR 30/24 A3006 -120 69 1600 130/05 RMK AO2 T03000239
53917KNEW NEW20190909204010809/09/19 20:40:31  5-MIN KNEW 100240Z AUTO 12005KT 7SM CLR 30/24 A3006 -120 69 1600 120/05 RMK AO2 T03000239
53917KNEW NEW20190909204510809/09/19 20:45:31  5-MIN KNEW 100245Z AUTO 11006KT 7SM CLR 30/24 A3007 -120 72 1600 110/06 RMK AO2 T03000244
53917KNEW NEW20190909205012109/09/19 20:50:31  5-MIN KNEW 100250Z AUTO 12005KT 8SM CLR 30/24 A3007 -120 72 1600 120/05 RMK AO2 SLP176 T03000244 53008
53917KNEW NEW20190909205510809/09/19 20:55:31  5-MIN KNEW 100255Z AUTO 12006KT 8SM CLR 30/24 A3007 -120 72 1600 120/06 RMK AO2 T03000244
53917KNEW NEW20190909210010809/09/19 21:00:31  5-MIN KNEW 100300Z AUTO 12006KT 8SM CLR 30/24 A3007 -120 72 1600 120/06 RMK AO2 T03000244
53917KNEW NEW20190909210510809/09/19 21:05:31  5-MIN KNEW 100305Z AUTO 12006KT 8SM CLR 30/24 A3007 -120 72 1600 120/06 RMK AO2 T03000244
53917KNEW NEW20190909211010809/09/19 21:10:31  5-MIN KNEW 100310Z AUTO 12007KT 8SM CLR 30/24 A3007 -120 72 1600 120/07 RMK AO2 T03000244
53917KNEW NEW20190909211510809/09/19 21:15:31  5-MIN KNEW 100315Z AUTO 12006KT 8SM CLR 30/24 A3007 -130 72 1600 120/06 RMK AO2 T03000244
53917KNEW NEW20190909212010809/09/19 21:20:31  5-MIN KNEW 100320Z AUTO 13007KT 9SM CLR 30/24 A3007 -120 72 1600 130/07 RMK AO2 T03000244
53917KNEW NEW20190909212510809/09/19 21:25:31  5-MIN KNEW 100325Z AUTO 13006KT 9SM CLR 30/24 A3007 -130 72 1600 130/06 RMK AO2 T03000244
53917KNEW NEW20190909213010809/09/19 21:30:31  5-MIN KNEW 100330Z AUTO 14005KT 9SM CLR 30/24 A3007 -130 72 1600 140/05 RMK AO2 T03000244
53917KNEW NEW20190909213510809/09/19 21:35:31  5-MIN KNEW 100335Z AUTO 13005KT 9SM CLR 29/24 A3007 -120 74 1500 130/05 RMK AO2 T02940244
53917KNEW NEW20190909214010809/09/19 21:40:31  5-MIN KNEW 100340Z AUTO 13007KT 9SM CLR 29/24 A3007 -130 74 1500 130/07 RMK AO2 T02940244
53917KNEW NEW20190909214510809/09/19 21:45:31  5-MIN KNEW 100345Z AUTO 13006KT 9SM CLR 30/25 A3007 -120 74 1600 130/06 RMK AO2 T03000250
53917KNEW NEW20190909215011809/09/19 21:50:31  5-MIN KNEW 100350Z AUTO 13005KT 9SM FEW060 29/25 A3007 -120 76 1500 130/05 RMK AO2 SLP177 T02940250
53917KNEW NEW20190909215511109/09/19 21:55:31  5-MIN KNEW 100355Z AUTO 13005KT 8SM FEW060 29/25 A3007 -120 76 1500 130/05 RMK AO2 T02940250
53917KNEW NEW20190909220010809/09/19 22:00:31  5-MIN KNEW 100400Z AUTO 13004KT 8SM CLR 29/25 A3007 -120 76 1500 130/04 RMK AO2 T02940250
53917KNEW NEW20190909220510809/09/19 22:05:31  5-MIN KNEW 100405Z AUTO 13004KT 8SM CLR 29/25 A3007 -120 76 1500 130/04 RMK AO2 T02940250
53917KNEW NEW20190909221010809/09/19 22:10:31  5-MIN KNEW 100410Z AUTO 13004KT 8SM CLR 29/25 A3007 -120 76 1500 130/04 RMK AO2 T02940250
53917KNEW NEW20190909221510809/09/19 22:15:31  5-MIN KNEW 100415Z AUTO 12006KT 8SM CLR 29/25 A3007 -120 76 1500 120/06 RMK AO2 T02940250
53917KNEW NEW20190909222010809/09/19 22:20:31  5-MIN KNEW 100420Z AUTO 13006KT 8SM CLR 30/25 A3007 -120 74 1600 130/06 RMK AO2 T03000250
53917KNEW NEW20190909222510809/09/19 22:25:31  5-MIN KNEW 100425Z AUTO 13006KT 8SM CLR 29/26 A3007 -120 79 1500 130/06 RMK AO2 T02940256
53917KNEW NEW20190909223010809/09/19 22:30:31  5-MIN KNEW 100430Z AUTO 13006KT 8SM CLR 29/26 A3007 -120 79 1500 130/06 RMK AO2 T02940256
53917KNEW NEW20190909223510809/09/19 22:35:31  5-MIN KNEW 100435Z AUTO 14006KT 8SM CLR 29/25 A3007 -120 76 1500 140/06 RMK AO2 T02940250
53917KNEW NEW20190909224010809/09/19 22:40:31  5-MIN KNEW 100440Z AUTO 13007KT 8SM CLR 29/25 A3007 -120 76 1500 130/07 RMK AO2 T02940250
53917KNEW NEW20190909224510809/09/19 22:45:31  5-MIN KNEW 100445Z AUTO 13007KT 8SM CLR 29/25 A3007 -120 76 1500 130/07 RMK AO2 T02940250
53917KNEW NEW20190909225011509/09/19 22:50:31  5-MIN KNEW 100450Z AUTO 13007KT 8SM CLR 29/25 A3007 -120 76 1500 130/07 RMK AO2 SLP176 T02940250
53917KNEW NEW20190909225510809/09/19 22:55:31  5-MIN KNEW 100455Z AUTO 12008KT 8SM CLR 29/25 A3007 -120 76 1500 120/08 RMK AO2 T02940250
53917KNEW NEW20190909230010809/09/19 23:00:31  5-MIN KNEW 100500Z AUTO 12006KT 8SM CLR 29/25 A3007 -120 76 1500 120/06 RMK AO2 T02940250
53917KNEW NEW20190909230510809/09/19 23:05:31  5-MIN KNEW 100505Z AUTO 11006KT 8SM CLR 29/25 A3007 -120 76 1500 110/06 RMK AO2 T02940250
53917KNEW NEW20190909231010809/09/19 23:10:31  5-MIN KNEW 100510Z AUTO 11007KT 8SM CLR 29/25 A3007 -120 76 1500 110/07 RMK AO2 T02940250
53917KNEW NEW20190909231510809/09/19 23:15:31  5-MIN KNEW 100515Z AUTO 12007KT 8SM CLR 29/25 A3007 -120 76 1500 120/07 RMK AO2 T02940250
53917KNEW NEW20190909232010809/09/19 23:20:31  5-MIN KNEW 100520Z AUTO 13006KT 8SM CLR 29/25 A3007 -120 76 1500 130/06 RMK AO2 T02940250
53917KNEW NEW20190909232510809/09/19 23:25:31  5-MIN KNEW 100525Z AUTO 13006KT 8SM CLR 29/24 A3007 -120 74 1500 130/06 RMK AO2 T02940244
53917KNEW NEW20190909233011109/09/19 23:30:31  5-MIN KNEW 100530Z AUTO 14006KT 8SM FEW055 29/24 A3007 -120 76 1500 140/06 RMK AO2 T02890244
53917KNEW NEW20190909233511109/09/19 23:35:31  5-MIN KNEW 100535Z AUTO 13008KT 8SM FEW055 29/24 A3007 -120 76 1500 130/08 RMK AO2 T02890244
53917KNEW NEW20190909234010809/09/19 23:40:31  5-MIN KNEW 100540Z AUTO 12010KT 8SM CLR 29/24 A3007 -130 76 1500 120/10 RMK AO2 T02890244
53917KNEW NEW20190909234510809/09/19 23:45:31  5-MIN KNEW 100545Z AUTO 12009KT 9SM CLR 29/24 A3007 -130 74 1500 120/09 RMK AO2 T02890239
53917KNEW NEW20190909235014609/09/19 23:50:31  5-MIN KNEW 100550Z AUTO 12010KT 9SM FEW036 29/24 A3007 -130 74 1500 120/10 RMK AO2 SLP177 T02890239 10317 20289 403440289 51013
53917KNEW NEW20190909235510909/09/19 23:55:31  5-MIN KNEW 100555Z AUTO 12009KT 10SM CLR 29/24 A3007 -130 74 1500 120/09 RMK AO2 T02890239
53917KNEW NEW20190910000011209/10/19 00:00:31  5-MIN KNEW 100600Z AUTO 13009KT 10SM FEW028 29/23 A3008 -130 71 1500 130/09 RMK AO2 T02890233
53917KNEW NEW20190910000511909/10/19 00:05:31  5-MIN KNEW 100605Z AUTO 12010KT 10SM FEW028 SCT038 29/23 A3008 -130 71 1500 120/10 RMK AO2 T02890233
53917KNEW NEW20190910001011909/10/19 00:10:31  5-MIN KNEW 100610Z AUTO 12009KT 10SM FEW030 FEW038 29/23 A3008 -130 71 1500 120/09 RMK AO2 T02890233
53917KNEW NEW20190910001511209/10/19 00:15:31  5-MIN KNEW 100615Z AUTO 13007KT 10SM FEW030 29/23 A3008 -130 71 1500 130/07 RMK AO2 T02890233
53917KNEW NEW20190910002011209/10/19 00:20:31  5-MIN KNEW 100620Z AUTO 13009KT 10SM FEW029 29/23 A3008 -130 71 1500 130/09 RMK AO2 T02890233
53917KNEW NEW20190910002511209/10/19 00:25:31  5-MIN KNEW 100625Z AUTO 13008KT 10SM FEW029 29/23 A3008 -130 71 1500 130/08 RMK AO2 T02890233
53917KNEW NEW20190910003010909/10/19 00:30:31  5-MIN KNEW 100630Z AUTO 12008KT 10SM CLR 29/23 A3008 -130 69 1500 120/08 RMK AO2 T02890228
53917KNEW NEW20190910003510909/10/19 00:35:31  5-MIN KNEW 100635Z AUTO 12008KT 10SM CLR 29/23 A3008 -130 69 1500 120/08 RMK AO2 T02890228
53917KNEW NEW20190910004010909/10/19 00:40:31  5-MIN KNEW 100640Z AUTO 12008KT 10SM CLR 29/23 A3008 -130 69 1500 120/08 RMK AO2 T02890228
53917KNEW NEW20190910004510909/10/19 00:45:31  5-MIN KNEW 100645Z AUTO 13009KT 10SM CLR 29/22 A3008 -130 67 1500 130/09 RMK AO2 T02890222
53917KNEW NEW20190910005011609/10/19 00:50:31  5-MIN KNEW 100650Z AUTO 12009KT 10SM CLR 29/22 A3007 -130 64 1500 120/09 RMK AO2 SLP177 T02890217
53917KNEW NEW20190910005510909/10/19 00:55:31  5-MIN KNEW 100655Z AUTO 12009KT 10SM CLR 29/22 A3008 -130 64 1500 120/09 RMK AO2 T02890217
53917KNEW NEW20190910010010909/10/19 01:00:31  5-MIN KNEW 100700Z AUTO 13008KT 10SM CLR 28/22 A3008 -130 69 1400 130/08 RMK AO2 T02830222
53917KNEW NEW20190910010511409/10/19 01:05:31  5-MIN KNEW 100705Z AUTO 13009KT 10SM VCTS CLR 28/22 A3007 -120 69 1400 130/09 RMK AO2 T02830222
53917KNEW NEW20190910011011409/10/19 01:10:31  5-MIN KNEW 100710Z AUTO 13009KT 10SM VCTS CLR 28/22 A3007 -130 66 1400 130/09 RMK AO2 T02830217
53917KNEW NEW20190910011511409/10/19 01:15:31  5-MIN KNEW 100715Z AUTO 13007KT 10SM VCTS CLR 28/22 A3007 -120 66 1400 130/07 RMK AO2 T02830217
53917KNEW NEW20190910012010909/10/19 01:20:31  5-MIN KNEW 100720Z AUTO 13008KT 10SM CLR 28/22 A3007 -120 66 1400 130/08 RMK AO2 T02830217
53917KNEW NEW20190910012510909/10/19 01:25:31  5-MIN KNEW 100725Z AUTO 13007KT 10SM CLR 28/22 A3007 -130 66 1400 130/07 RMK AO2 T02830217
53917KNEW NEW20190910013010909/10/19 01:30:31  5-MIN KNEW 100730Z AUTO 14008KT 10SM CLR 28/22 A3008 -130 66 1400 140/08 RMK AO2 T02830217
53917KNEW NEW20190910013511909/10/19 01:35:31  5-MIN KNEW 100735Z AUTO 13006KT 10SM FEW029 SCT035 28/22 A3008 -130 66 1400 130/06 RMK AO2 T02830217
53917KNEW NEW20190910014011909/10/19 01:40:31  5-MIN KNEW 100740Z AUTO 13005KT 10SM SCT033 SCT044 28/22 A3008 -130 66 1400 130/05 RMK AO2 T02830217
53917KNEW NEW20190910014511909/10/19 01:45:31  5-MIN KNEW 100745Z AUTO 13007KT 10SM FEW033 SCT043 28/22 A3008 -130 66 1400 130/07 RMK AO2 T02830217
53917KNEW NEW20190910015012609/10/19 01:50:31  5-MIN KNEW 100750Z AUTO 12007KT 10SM FEW030 SCT038 28/22 A3007 -120 66 1400 120/07 RMK AO2 SLP176 T02830217
53917KNEW NEW20190910015512609/10/19 01:55:31  5-MIN KNEW 100755Z AUTO 12007KT 10SM FEW030 SCT038 BKN046 28/22 A3007 -120 66 1400 120/07 RMK AO2 T02830217
53917KNEW NEW20190910020011909/10/19 02:00:31  5-MIN KNEW 100800Z AUTO 12008KT 10SM FEW033 BKN046 28/22 A3007 -120 69 1400 120/08 RMK AO2 T02830222
53917KNEW NEW20190910020511209/10/19 02:05:31  5-MIN KNEW 100805Z AUTO 12007KT 10SM BKN044 28/22 A3007 -120 69 1400 120/07 RMK AO2 T02830222
53917KNEW NEW20190910021011209/10/19 02:10:31  5-MIN KNEW 100810Z AUTO 12007KT 10SM BKN044 28/22 A3007 -120 66 1400 120/07 RMK AO2 T02830217
53917KNEW NEW20190910021511209/10/19 02:15:31  5-MIN KNEW 100815Z AUTO 12006KT 10SM BKN044 28/22 A3007 -120 66 1400 120/06 RMK AO2 T02830217
53917KNEW NEW20190910022011209/10/19 02:20:31  5-MIN KNEW 100820Z AUTO 12006KT 10SM BKN044 28/22 A3007 -120 66 1400 120/06 RMK AO2 T02830217
53917KNEW NEW20190910022511209/10/19 02:25:31  5-MIN KNEW 100825Z AUTO 12006KT 10SM SCT044 28/22 A3007 -120 66 1400 120/06 RMK AO2 T02830217
53917KNEW NEW20190910023011209/10/19 02:30:31  5-MIN KNEW 100830Z AUTO 12006KT 10SM SCT044 28/22 A3007 -120 66 1400 120/06 RMK AO2 T02830217
53917KNEW NEW20190910023511209/10/19 02:35:31  5-MIN KNEW 100835Z AUTO 12007KT 10SM FEW044 28/22 A3007 -120 66 1400 120/07 RMK AO2 T02830217
53917KNEW NEW20190910024011209/10/19 02:40:31  5-MIN KNEW 100840Z AUTO 12007KT 10SM FEW044 28/22 A3007 -120 66 1400 120/07 RMK AO2 T02830217
53917KNEW NEW20190910024511209/10/19 02:45:31  5-MIN KNEW 100845Z AUTO 12006KT 10SM FEW044 28/22 A3007 -120 69 1400 120/06 RMK AO2 T02830222
53917KNEW NEW20190910025012209/10/19 02:50:31  5-MIN KNEW 100850Z AUTO 13005KT 10SM CLR 28/22 A3007 -120 69 1400 130/05 RMK AO2 SLP175 T02830222 52001
53917KNEW NEW20190910025510909/10/19 02:55:31  5-MIN KNEW 100855Z AUTO 13007KT 10SM CLR 28/22 A3007 -120 69 1400 130/07 RMK AO2 T02830222
53917KNEW NEW20190910030010909/10/19 03:00:31  5-MIN KNEW 100900Z AUTO 13007KT 10SM CLR 28/22 A3007 -120 69 1400 130/07 RMK AO2 T02830222
53917KNEW NEW20190910030510909/10/19 03:05:31  5-MIN KNEW 100905Z AUTO 13006KT 10SM CLR 28/22 A3007 -120 71 1400 130/06 RMK AO2 T02780222
53917KNEW NEW20190910031010909/10/19 03:10:31  5-MIN KNEW 100910Z AUTO 13007KT 10SM CLR 28/22 A3007 -120 71 1400 130/07 RMK AO2 T02780222
53917KNEW NEW20190910031510909/10/19 03:15:31  5-MIN KNEW 100915Z AUTO 13006KT 10SM CLR 28/23 A3007 -130 74 1400 130/06 RMK AO2 T02780228
53917KNEW NEW20190910032010909/10/19 03:20:31  5-MIN KNEW 100920Z AUTO 14007KT 10SM CLR 28/23 A3007 -130 74 1400 140/07 RMK AO2 T02780228
53917KNEW NEW20190910032510909/10/19 03:25:31  5-MIN KNEW 100925Z AUTO 14006KT 10SM CLR 28/23 A3007 -130 74 1400 140/06 RMK AO2 T02780228
53917KNEW NEW20190910033010909/10/19 03:30:31  5-MIN KNEW 100930Z AUTO 14007KT 10SM CLR 27/22 A3007 -130 74 1300 140/07 RMK AO2 T02720222
53917KNEW NEW20190910033510909/10/19 03:35:31  5-MIN KNEW 100935Z AUTO 14006KT 10SM CLR 28/22 A3008 -130 71 1400 140/06 RMK AO2 T02780222
53917KNEW NEW20190910034010909/10/19 03:40:31  5-MIN KNEW 100940Z AUTO 15006KT 10SM CLR 27/22 A3008 -130 74 1300 150/06 RMK AO2 T02720222
53917KNEW NEW20190910034510909/10/19 03:45:31  5-MIN KNEW 100945Z AUTO 16005KT 10SM CLR 27/23 A3008 -130 76 1300 160/05 RMK AO2 T02720228
53917KNEW NEW20190910035011609/10/19 03:50:31  5-MIN KNEW 100950Z AUTO 15005KT 10SM CLR 27/23 A3008 -130 76 1300 150/05 RMK AO2 SLP179 T02720228
53917KNEW NEW20190910035510809/10/19 03:55:31  5-MIN KNEW 100955Z AUTO 15005KT 9SM CLR 27/23 A3008 -130 76 1300 150/05 RMK AO2 T02720228
53917KNEW NEW20190910040010809/10/19 04:00:31  5-MIN KNEW 101000Z AUTO 15006KT 9SM CLR 27/23 A3008 -130 76 1300 150/06 RMK AO2 T02720228
53917KNEW NEW20190910040510909/10/19 04:05:31  5-MIN KNEW 101005Z AUTO 14005KT 10SM CLR 27/23 A3008 -130 76 1300 140/05 RMK AO2 T02720228
53917KNEW NEW20190910041010909/10/19 04:10:31  5-MIN KNEW 101010Z AUTO 14006KT 10SM CLR 27/23 A3008 -140 76 1300 140/06 RMK AO2 T02720228
53917KNEW NEW20190910041510909/10/19 04:15:31  5-MIN KNEW 101015Z AUTO 14006KT 10SM CLR 27/23 A3009 -140 79 1200 140/06 RMK AO2 T02670228
53917KNEW NEW20190910042010909/10/19 04:20:31  5-MIN KNEW 101020Z AUTO 13006KT 10SM CLR 27/23 A3009 -140 79 1300 130/06 RMK AO2 T02720233
53917KNEW NEW20190910042510909/10/19 04:25:31  5-MIN KNEW 101025Z AUTO 13006KT 10SM CLR 27/23 A3009 -140 79 1300 130/06 RMK AO2 T02720233
53917KNEW NEW20190910043010909/10/19 04:30:31  5-MIN KNEW 101030Z AUTO 13007KT 10SM CLR 27/23 A3009 -140 79 1300 130/07 RMK AO2 T02720233
53917KNEW NEW20190910043510909/10/19 04:35:31  5-MIN KNEW 101035Z AUTO 13006KT 10SM CLR 27/23 A3009 -140 79 1300 130/06 RMK AO2 T02720233
53917KNEW NEW20190910044010809/10/19 04:40:31  5-MIN KNEW 101040Z AUTO 14006KT 9SM CLR 27/23 A3009 -140 79 1300 140/06 RMK AO2 T02720233
53917KNEW NEW20190910044510809/10/19 04:45:31  5-MIN KNEW 101045Z AUTO 13006KT 9SM CLR 27/23 A3009 -140 79 1300 130/06 RMK AO2 T02720233
53917KNEW NEW20190910045011509/10/19 04:50:31  5-MIN KNEW 101050Z AUTO 13006KT 9SM CLR 27/23 A3009 -140 79 1300 130/06 RMK AO2 SLP183 T02720233
53917KNEW NEW20190910045510809/10/19 04:55:31  5-MIN KNEW 101055Z AUTO 13007KT 9SM CLR 27/23 A3009 -140 79 1300 130/07 RMK AO2 T02720233
53917KNEW NEW20190910050010909/10/19 05:00:31  5-MIN KNEW 101100Z AUTO 13006KT 10SM CLR 27/23 A3009 -140 79 1300 130/06 RMK AO2 T02720233
53917KNEW NEW20190910050510909/10/19 05:05:31  5-MIN KNEW 101105Z AUTO 14005KT 10SM CLR 27/23 A3009 -140 79 1300 140/05 RMK AO2 T02720233
53917KNEW NEW20190910051010909/10/19 05:10:31  5-MIN KNEW 101110Z AUTO 14006KT 10SM CLR 27/23 A3009 -140 79 1300 140/06 RMK AO2 T02720233
53917KNEW NEW20190910051510909/10/19 05:15:31  5-MIN KNEW 101115Z AUTO 14006KT 10SM CLR 27/23 A3009 -140 76 1300 140/06 RMK AO2 T02720228
53917KNEW NEW20190910052010909/10/19 05:20:31  5-MIN KNEW 101120Z AUTO 15005KT 10SM CLR 27/23 A3010 -150 76 1300 150/05 RMK AO2 T02720228
53917KNEW NEW20190910052510909/10/19 05:25:31  5-MIN KNEW 101125Z AUTO 14005KT 10SM CLR 27/23 A3010 -150 79 1300 140/05 RMK AO2 T02720233
53917KNEW NEW20190910053010909/10/19 05:30:31  5-MIN KNEW 101130Z AUTO 15005KT 10SM CLR 27/23 A3010 -150 79 1300 150/05 RMK AO2 T02720233
53917KNEW NEW20190910053510909/10/19 05:35:31  5-MIN KNEW 101135Z AUTO 15004KT 10SM CLR 27/23 A3010 -150 79 1300 150/04 RMK AO2 T02720233
53917KNEW NEW20190910054010809/10/19 05:40:31  5-MIN KNEW 101140Z AUTO 14005KT 9SM CLR 27/23 A3011 -160 79 1300 140/05 RMK AO2 T02720233
53917KNEW NEW20190910054510309/10/19 05:45:31  5-MIN KNEW 101145Z 16005KT 9SM CLR 27/23 A3011 -160 79 1200 160/05 RMK AO2 T02720233
53917KNEW NEW20190910055012809/10/19 05:50:31  5-MIN KNEW 101150Z 16004KT 9SM CLR 27/23 A3011 -160 79 1200 160/04 RMK AO2 SLP190 T02720233 10289 20267 58002
53917KNEW NEW20190910055510309/10/19 05:55:31  5-MIN KNEW 101155Z 15004KT 9SM CLR 27/23 A3011 -160 79 1200 150/04 RMK AO2 T02720233
53917KNEW NEW20190910060010309/10/19 06:00:31  5-MIN KNEW 101200Z 15004KT 9SM CLR 27/23 A3012 -160 79 1200 150/04 RMK AO2 T02720233
53917KNEW NEW20190910060510309/10/19 06:05:31  5-MIN KNEW 101205Z 15004KT 9SM CLR 27/23 A3012 -170 79 1200 150/04 RMK AO2 T02720233
53917KNEW NEW20190910061010309/10/19 06:10:31  5-MIN KNEW 101210Z 14004KT 9SM CLR 28/23 A3012 -170 76 1300 140/04 RMK AO2 T02780233
53917KNEW NEW20190910061510309/10/19 06:15:31  5-MIN KNEW 101215Z 15004KT 9SM CLR 28/23 A3013 -170 76 1300 150/04 RMK AO2 T02780233
53917KNEW NEW20190910062010309/10/19 06:20:31  5-MIN KNEW 101220Z 15005KT 9SM CLR 28/23 A3013 -170 76 1300 150/05 RMK AO2 T02780233
53917KNEW NEW20190910062510309/10/19 06:25:31  5-MIN KNEW 101225Z 15005KT 9SM CLR 28/23 A3013 -170 76 1300 150/05 RMK AO2 T02780233
53917KNEW NEW20190910063010309/10/19 06:30:31  5-MIN KNEW 101230Z 15005KT 9SM CLR 28/23 A3013 -180 74 1400 150/05 RMK AO2 T02830233
53917KNEW NEW20190910063510709/10/19 06:35:31  5-MIN KNEW 101235Z 15006KT 10SM FEW060 28/23 A3013 -180 74 1400 150/06 RMK AO2 T02830233
53917KNEW NEW20190910064010709/10/19 06:40:31  5-MIN KNEW 101240Z 15006KT 10SM SCT060 28/23 A3013 -180 74 1300 150/06 RMK AO2 T02830233
53917KNEW NEW20190910064510709/10/19 06:45:31  5-MIN KNEW 101245Z 15005KT 10SM SCT060 29/23 A3014 -180 71 1400 150/05 RMK AO2 T02890233
53917KNEW NEW20190910065011409/10/19 06:50:31  5-MIN KNEW 101250Z 15006KT 10SM SCT060 29/23 A3014 -180 71 1400 150/06 RMK AO2 SLP198 T02890233
53917KNEW NEW20190910065510709/10/19 06:55:31  5-MIN KNEW 101255Z 15006KT 10SM FEW060 29/23 A3014 -180 71 1400 150/06 RMK AO2 T02890233
53917KNEW NEW20190910070010709/10/19 07:00:31  5-MIN KNEW 101300Z 14006KT 10SM FEW060 29/23 A3014 -180 69 1400 140/06 RMK AO2 T02890228
53917KNEW NEW20190910070510709/10/19 07:05:31  5-MIN KNEW 101305Z 15005KT 10SM FEW060 29/23 A3014 -190 69 1400 150/05 RMK AO2 T02890228
53917KNEW NEW20190910071010709/10/19 07:10:31  5-MIN KNEW 101310Z 15006KT 10SM FEW060 29/23 A3014 -190 69 1500 150/06 RMK AO2 T02940233
53917KNEW NEW20190910071510409/10/19 07:15:31  5-MIN KNEW 101315Z 17006KT 10SM CLR 29/23 A3014 -190 69 1500 170/06 RMK AO2 T02940233
53917KNEW NEW20190910072010409/10/19 07:20:31  5-MIN KNEW 101320Z 15007KT 10SM CLR 29/23 A3014 -190 67 1500 150/07 RMK AO2 T02940228
53917KNEW NEW20190910072510409/10/19 07:25:31  5-MIN KNEW 101325Z 15007KT 10SM CLR 29/23 A3014 -190 67 1500 150/07 RMK AO2 T02940228
53917KNEW NEW20190910073010409/10/19 07:30:31  5-MIN KNEW 101330Z 15008KT 10SM CLR 29/23 A3014 -190 67 1500 150/08 RMK AO2 T02940228
53917KNEW NEW20190910073510409/10/19 07:35:31  5-MIN KNEW 101335Z 15006KT 10SM CLR 30/23 A3014 -190 65 1500 150/06 RMK AO2 T03000228
53917KNEW NEW20190910074010409/10/19 07:40:31  5-MIN KNEW 101340Z 13008KT 10SM CLR 30/23 A3014 -190 65 1500 130/08 RMK AO2 T03000228
53917KNEW NEW20190910074510409/10/19 07:45:31  5-MIN KNEW 101345Z 13008KT 10SM CLR 30/23 A3014 -190 65 1500 130/08 RMK AO2 T03000228
53917KNEW NEW20190910075011109/10/19 07:50:31  5-MIN KNEW 101350Z 15007KT 10SM CLR 30/23 A3014 -190 65 1500 150/07 RMK AO2 SLP200 T03000228
53917KNEW NEW20190910075510409/10/19 07:55:31  5-MIN KNEW 101355Z 16008KT 10SM CLR 30/23 A3014 -190 65 1500 160/08 RMK AO2 T03000228
53917KNEW NEW20190910080010709/10/19 08:00:31  5-MIN KNEW 101400Z 17008KT 10SM FEW028 30/23 A3015 -190 65 1500 170/08 RMK AO2 T03000228
53917KNEW NEW20190910080510709/10/19 08:05:31  5-MIN KNEW 101405Z 16007KT 10SM FEW028 31/23 A3014 -190 62 1600 160/07 RMK AO2 T03060228
53917KNEW NEW20190910081010409/10/19 08:10:31  5-MIN KNEW 101410Z 15009KT 10SM CLR 31/23 A3014 -190 62 1600 150/09 RMK AO2 T03060228
53917KNEW NEW20190910081510409/10/19 08:15:31  5-MIN KNEW 101415Z 14009KT 10SM CLR 31/22 A3014 -190 58 1600 140/09 RMK AO2 T03060217
53917KNEW NEW20190910082010709/10/19 08:20:31  5-MIN KNEW 101420Z 13009KT 10SM FEW029 31/22 A3014 -190 58 1600 130/09 RMK AO2 T03060217
53917KNEW NEW20190910082510709/10/19 08:25:31  5-MIN KNEW 101425Z 13007KT 10SM FEW029 31/22 A3015 -190 60 1600 130/07 RMK AO2 T03060222
53917KNEW NEW20190910083010709/10/19 08:30:31  5-MIN KNEW 101430Z 14007KT 10SM FEW032 31/23 A3015 -190 60 1600 140/07 RMK AO2 T03110228
53917KNEW NEW20190910083510709/10/19 08:35:31  5-MIN KNEW 101435Z 13009KT 10SM FEW032 31/22 A3015 -190 58 1600 130/09 RMK AO2 T03110222
53917KNEW NEW20190910084010709/10/19 08:40:31  5-MIN KNEW 101440Z 12006KT 10SM FEW032 31/22 A3015 -200 60 1600 120/06 RMK AO2 T03060222
53917KNEW NEW20190910084510709/10/19 08:45:31  5-MIN KNEW 101445Z 13007KT 10SM FEW032 31/22 A3015 -200 60 1600 130/07 RMK AO2 T03060222
53917KNEW NEW20190910085012009/10/19 08:50:31  5-MIN KNEW 101450Z 16007KT 10SM FEW032 31/22 A3015 -190 60 1600 160/07 RMK AO2 SLP202 T03060222 53015
53917KNEW NEW20190910085510709/10/19 08:55:31  5-MIN KNEW 101455Z 11007KT 10SM FEW032 31/22 A3015 -190 58 1600 110/07 RMK AO2 T03110222
53917KNEW NEW20190910090010709/10/19 09:00:31  5-MIN KNEW 101500Z 16007KT 10SM FEW032 31/22 A3015 -200 58 1600 160/07 RMK AO2 T03110222
53917KNEW NEW20190910090510709/10/19 09:05:31  5-MIN KNEW 101505Z 13011KT 10SM FEW032 31/22 A3015 -200 60 1600 130/11 RMK AO2 T03060222
53917KNEW NEW20190910091010709/10/19 09:10:31  5-MIN KNEW 101510Z 14010KT 10SM FEW032 31/22 A3015 -200 58 1600 140/10 RMK AO2 T03110222
53917KNEW NEW20190910091510709/10/19 09:15:31  5-MIN KNEW 101515Z 13010KT 10SM FEW033 31/22 A3015 -200 58 1600 130/10 RMK AO2 T03110222
53917KNEW NEW20190910092010709/10/19 09:20:31  5-MIN KNEW 101520Z 16005KT 10SM FEW033 31/22 A3016 -200 60 1600 160/05 RMK AO2 T03060222
53917KNEW NEW20190910092510709/10/19 09:25:31  5-MIN KNEW 101525Z 16009KT 10SM FEW037 31/22 A3016 -200 58 1600 160/09 RMK AO2 T03060217
53917KNEW NEW20190910093010709/10/19 09:30:31  5-MIN KNEW 101530Z 13008KT 10SM SCT037 31/22 A3015 -200 56 1600 130/08 RMK AO2 T03110217
53917KNEW NEW20190910093510709/10/19 09:35:31  5-MIN KNEW 101535Z 12007KT 10SM SCT037 32/22 A3015 -200 55 1700 120/07 RMK AO2 T03170217
53917KNEW NEW20190910094010709/10/19 09:40:31  5-MIN KNEW 101540Z 14010KT 10SM FEW037 32/22 A3016 -200 55 1700 140/10 RMK AO2 T03170217
53917KNEW NEW20190910094510709/10/19 09:45:31  5-MIN KNEW 101545Z 12008KT 10SM FEW036 32/21 A3016 -200 53 1700 120/08 RMK AO2 T03170211
53917KNEW NEW20190910095011409/10/19 09:50:31  5-MIN KNEW 101550Z 12007KT 10SM FEW038 32/21 A3016 -200 53 1700 120/07 RMK AO2 SLP205 T03170211
53917KNEW NEW20190910095510709/10/19 09:55:31  5-MIN KNEW 101555Z 14009KT 10SM FEW038 32/22 A3016 -200 53 1800 140/09 RMK AO2 T03220217
53917KNEW NEW20190910100010709/10/19 10:00:31  5-MIN KNEW 101600Z 13008KT 10SM FEW038 32/22 A3016 -200 55 1700 130/08 RMK AO2 T03170217
53917KNEW NEW20190910100510709/10/19 10:05:31  5-MIN KNEW 101605Z 13006KT 10SM FEW040 32/22 A3015 -200 56 1700 130/06 RMK AO2 T03170222
53917KNEW NEW20190910101010709/10/19 10:10:31  5-MIN KNEW 101610Z 12010KT 10SM SCT040 32/22 A3016 -200 55 1700 120/10 RMK AO2 T03170217
53917KNEW NEW20190910101510709/10/19 10:15:31  5-MIN KNEW 101615Z 13010KT 10SM SCT040 32/22 A3016 -200 53 1800 130/10 RMK AO2 T03220217
53917KNEW NEW20190910102011309/10/19 10:20:31  5-MIN KNEW 101620Z 15007G16KT 10SM FEW038 32/21 A3016 -200 51 1800 150/07G16 RMK AO2 T03220211
53917KNEW NEW20190910102510709/10/19 10:25:31  5-MIN KNEW 101625Z 14010KT 10SM FEW038 32/22 A3016 -200 53 1800 140/10 RMK AO2 T03220217
53917KNEW NEW20190910103010709/10/19 10:30:31  5-MIN KNEW 101630Z 13007KT 10SM FEW038 32/21 A3016 -200 51 1800 130/07 RMK AO2 T03220211
53917KNEW NEW20190910103510709/10/19 10:35:31  5-MIN KNEW 101635Z VRB06KT 10SM FEW040 32/21 A3015 -200 51 1800 VRB/06 RMK AO2 T03220211
53917KNEW NEW20190910104010409/10/19 10:40:31  5-MIN KNEW 101640Z 16007KT 10SM CLR 33/21 A3015 -200 49 1800 160/07 RMK AO2 T03280211
53917KNEW NEW20190910104510409/10/19 10:45:31  5-MIN KNEW 101645Z 15010KT 10SM CLR 33/21 A3015 -200 49 1800 150/10 RMK AO2 T03280211
53917KNEW NEW20190910105011409/10/19 10:50:31  5-MIN KNEW 101650Z 15007KT 10SM FEW045 32/21 A3015 -200 51 1800 150/07 RMK AO2 SLP204 T03220211
53917KNEW NEW20190910105510709/10/19 10:55:31  5-MIN KNEW 101655Z 11008KT 10SM FEW047 32/21 A3015 -200 51 1800 110/08 RMK AO2 T03220211
53917KNEW NEW20190910110011409/10/19 11:00:31  5-MIN KNEW 101700Z 12008KT 10SM FEW045 SCT055 32/21 A3015 -200 51 1800 120/08 RMK AO2 T03220211
53917KNEW NEW20190910110511409/10/19 11:05:31  5-MIN KNEW 101705Z 11009KT 10SM SCT042 SCT050 32/22 A3015 -200 53 1800 110/09 RMK AO2 T03220217
53917KNEW NEW20190910111010709/10/19 11:10:31  5-MIN KNEW 101710Z 14006KT 10SM SCT042 32/22 A3015 -200 55 1700 140/06 RMK AO2 T03170217
53917KNEW NEW20190910111510709/10/19 11:15:31  5-MIN KNEW 101715Z 10006KT 10SM FEW042 32/22 A3015 -200 55 1700 100/06 RMK AO2 T03170217
53917KNEW NEW20190910112010709/10/19 11:20:31  5-MIN KNEW 101720Z 10006KT 10SM SCT042 32/22 A3015 -200 55 1800 100/06 RMK AO2 T03220222
53917KNEW NEW20190910112510709/10/19 11:25:31  5-MIN KNEW 101725Z 11008KT 10SM FEW042 33/22 A3015 -200 53 1800 110/08 RMK AO2 T03280222
53917KNEW NEW20190910113010709/10/19 11:30:31  5-MIN KNEW 101730Z 09006KT 10SM SCT042 32/22 A3015 -200 53 1800 090/06 RMK AO2 T03220217
53917KNEW NEW20190910113511409/10/19 11:35:31  5-MIN KNEW 101735Z 09009KT 10SM SCT040 SCT049 32/22 A3015 -190 55 1800 090/09 RMK AO2 T03220222
53917KNEW NEW20190910114011409/10/19 11:40:31  5-MIN KNEW 101740Z 11010KT 10SM SCT040 SCT049 32/22 A3015 -190 55 1800 110/10 RMK AO2 T03220222
53917KNEW NEW20190910114510709/10/19 11:45:31  5-MIN KNEW 101745Z 12010KT 10SM SCT042 32/22 A3015 -190 55 1700 120/10 RMK AO2 T03170217
53917KNEW NEW20190910115013209/10/19 11:50:31  5-MIN KNEW 101750Z 11009KT 10SM FEW040 32/22 A3015 -190 53 1800 110/09 RMK AO2 SLP202 T03220217 10328 20267 51011
53917KNEW NEW20190910115510709/10/19 11:55:31  5-MIN KNEW 101755Z 08007KT 10SM FEW040 32/22 A3015 -190 55 1800 080/07 RMK AO2 T03220222
53917KNEW NEW20190910120010709/10/19 12:00:31  5-MIN KNEW 101800Z 09008KT 10SM FEW040 33/22 A3015 -190 53 1800 090/08 RMK AO2 T03280222
53917KNEW NEW20190910120510709/10/19 12:05:31  5-MIN KNEW 101805Z 11007KT 10SM FEW040 32/22 A3015 -190 55 1800 110/07 RMK AO2 T03220222
53917KNEW NEW20190910121010409/10/19 12:10:31  5-MIN KNEW 101810Z 11009KT 10SM CLR 32/22 A3015 -190 55 1800 110/09 RMK AO2 T03220222
53917KNEW NEW20190910121510709/10/19 12:15:31  5-MIN KNEW 101815Z 12011KT 10SM FEW043 32/22 A3015 -190 55 1800 120/11 RMK AO2 T03220222
53917KNEW NEW20190910122010709/10/19 12:20:31  5-MIN KNEW 101820Z 13007KT 10SM FEW043 33/22 A3014 -190 53 1800 130/07 RMK AO2 T03280222
53917KNEW NEW20190910122510709/10/19 12:25:31  5-MIN KNEW 101825Z 10009KT 10SM FEW041 32/22 A3015 -190 55 1800 100/09 RMK AO2 T03220222
53917KNEW NEW20190910123010709/10/19 12:30:31  5-MIN KNEW 101830Z 12008KT 10SM FEW043 33/22 A3014 -190 53 1800 120/08 RMK AO2 T03280222
53917KNEW NEW20190910123510709/10/19 12:35:31  5-MIN KNEW 101835Z 12007KT 10SM FEW043 33/22 A3014 -190 53 1800 120/07 RMK AO2 T03280222
53917KNEW NEW20190910124010709/10/19 12:40:31  5-MIN KNEW 101840Z 09007KT 10SM FEW043 33/22 A3014 -190 53 1800 090/07 RMK AO2 T03280222
53917KNEW NEW20190910124510709/10/19 12:45:31  5-MIN KNEW 101845Z 10010KT 10SM FEW045 33/23 A3014 -190 55 1800 100/10 RMK AO2 T03280228
53917KNEW NEW20190910125011409/10/19 12:50:31  5-MIN KNEW 101850Z 10008KT 10SM FEW045 32/22 A3014 -190 55 1800 100/08 RMK AO2 SLP200 T03220222
53917KNEW NEW20190910125510709/10/19 12:55:31  5-MIN KNEW 101855Z 11007KT 10SM FEW043 32/22 A3014 -190 55 1800 110/07 RMK AO2 T03220222
53917KNEW NEW20190910130010709/10/19 13:00:31  5-MIN KNEW 101900Z 10008KT 10SM FEW041 33/23 A3014 -180 53 1900 100/08 RMK AO2 T03330228
53917KNEW NEW20190910130510709/10/19 13:05:31  5-MIN KNEW 101905Z 11008KT 10SM SCT044 32/22 A3014 -180 55 1800 110/08 RMK AO2 T03220222
53917KNEW NEW20190910131011409/10/19 13:10:31  5-MIN KNEW 101910Z 11007KT 10SM FEW042 SCT050 32/23 A3013 -180 57 1800 110/07 RMK AO2 T03220228
53917KNEW NEW20190910131511409/10/19 13:15:31  5-MIN KNEW 101915Z 10009KT 10SM SCT039 SCT048 32/23 A3013 -180 57 1800 100/09 RMK AO2 T03220228
53917KNEW NEW20190910132010709/10/19 13:20:31  5-MIN KNEW 101920Z 09011KT 10SM BKN039 32/23 A3013 -180 59 1800 090/11 RMK AO2 T03220233
53917KNEW NEW20190910132511409/10/19 13:25:31  5-MIN KNEW 101925Z 08009KT 10SM BKN039 BKN050 33/23 A3013 -170 55 1900 080/09 RMK AO2 T03280228
53917KNEW NEW20190910133011409/10/19 13:30:31  5-MIN KNEW 101930Z 10011KT 10SM SCT040 BKN055 33/23 A3013 -170 57 1900 100/11 RMK AO2 T03280233
53917KNEW NEW20190910133511309/10/19 13:35:31  5-MIN KNEW 101935Z 11007KT 9SM SCT040 SCT050 32/23 A3013 -180 57 1800 110/07 RMK AO2 T03220228
53917KNEW NEW20190910134011309/10/19 13:40:31  5-MIN KNEW 101940Z 10007KT 9SM SCT040 SCT050 32/23 A3013 -180 57 1800 100/07 RMK AO2 T03220228
53917KNEW NEW20190910134511409/10/19 13:45:31  5-MIN KNEW 101945Z 09009KT 10SM FEW040 SCT050 32/23 A3013 -180 57 1800 090/09 RMK AO2 T03220228
53917KNEW NEW20190910135012109/10/19 13:50:31  5-MIN KNEW 101950Z 10010KT 10SM FEW044 SCT055 32/23 A3013 -170 57 1800 100/10 RMK AO2 SLP195 T03220228
53917KNEW NEW20190910135511409/10/19 13:55:31  5-MIN KNEW 101955Z 09012KT 10SM FEW044 SCT060 32/23 A3013 -170 57 1800 090/12 RMK AO2 T03220228
53917KNEW NEW20190910140011409/10/19 14:00:31  5-MIN KNEW 102000Z 11011KT 10SM SCT043 SCT055 33/23 A3012 -170 55 1900 110/11 RMK AO2 T03280228
53917KNEW NEW20190910140511409/10/19 14:05:31  5-MIN KNEW 102005Z 10012KT 10SM SCT043 SCT055 33/23 A3012 -170 55 1900 100/12 RMK AO2 T03280228
53917KNEW NEW20190910141012109/10/19 14:10:31  5-MIN KNEW 102010Z 10012KT 10SM SCT040 BKN049 BKN060 33/23 A3012 -170 55 1900 100/12 RMK AO2 T03280228
53917KNEW NEW20190910141512109/10/19 14:15:31  5-MIN KNEW 102015Z 10010KT 10SM SCT040 SCT047 BKN060 32/22 A3012 -170 55 1800 100/10 RMK AO2 T03220222
53917KNEW NEW20190910142011409/10/19 14:20:31  5-MIN KNEW 102020Z 10013KT 10SM SCT043 BKN060 32/22 A3012 -170 55 1800 100/13 RMK AO2 T03220222
53917KNEW NEW20190910142511409/10/19 14:25:31  5-MIN KNEW 102025Z 12013KT 10SM FEW040 SCT060 33/22 A3012 -170 53 1900 120/13 RMK AO2 T03280222
53917KNEW NEW20190910143011409/10/19 14:30:31  5-MIN KNEW 102030Z 11014KT 10SM FEW040 FEW060 33/22 A3012 -160 51 1900 110/14 RMK AO2 T03280217
53917KNEW NEW20190910143510709/10/19 14:35:31  5-MIN KNEW 102035Z 11011KT 10SM FEW060 33/22 A3011 -160 53 1900 110/11 RMK AO2 T03280222
53917KNEW NEW20190910144010409/10/19 14:40:31  5-MIN KNEW 102040Z 11010KT 10SM CLR 33/22 A3011 -160 53 1900 110/10 RMK AO2 T03280222
53917KNEW NEW20190910144510409/10/19 14:45:31  5-MIN KNEW 102045Z 10011KT 10SM CLR 33/22 A3011 -160 51 1900 100/11 RMK AO2 T03280217
53917KNEW NEW20190910145012009/10/19 14:50:31  5-MIN KNEW 102050Z 10011KT 10SM FEW042 33/22 A3011 -160 51 1900 100/11 RMK AO2 SLP190 T03280217 50001
53917KNEW NEW20190910145511309/10/19 14:55:31  5-MIN KNEW 102055Z 10009G17KT 10SM FEW042 33/22 A3011 -160 51 1900 100/09G17 RMK AO2 T03280217
53917KNEW NEW20190910150010409/10/19 15:00:31  5-MIN KNEW 102100Z 10010KT 10SM CLR 33/22 A3011 -160 51 1900 100/10 RMK AO2 T03280217
53917KNEW NEW20190910150510409/10/19 15:05:31  5-MIN KNEW 102105Z 11010KT 10SM CLR 33/22 A3011 -160 51 1900 110/10 RMK AO2 T03280217
53917KNEW NEW20190910151010409/10/19 15:10:31  5-MIN KNEW 102110Z 11009KT 10SM CLR 33/22 A3011 -160 51 1900 110/09 RMK AO2 T03280217
53917KNEW NEW20190910151510409/10/19 15:15:31  5-MIN KNEW 102115Z 11010KT 10SM CLR 33/22 A3011 -160 51 1900 110/10 RMK AO2 T03280217
53917KNEW NEW20190910152010409/10/19 15:20:31  5-MIN KNEW 102120Z 10011KT 10SM CLR 33/22 A3011 -160 51 1900 100/11 RMK AO2 T03280217
53917KNEW NEW20190910152510409/10/19 15:25:31  5-MIN KNEW 102125Z 10010KT 10SM CLR 33/22 A3011 -160 51 1900 100/10 RMK AO2 T03280217
53917KNEW NEW20190910153010409/10/19 15:30:31  5-MIN KNEW 102130Z 11008KT 10SM CLR 33/22 A3011 -160 51 1900 110/08 RMK AO2 T03280217
53917KNEW NEW20190910153511009/10/19 15:35:31  5-MIN KNEW 102135Z 09009G18KT 10SM CLR 33/22 A3011 -160 51 1900 090/09G18 RMK AO2 T03280217
53917KNEW NEW20190910154011009/10/19 15:40:31  5-MIN KNEW 102140Z 09010G18KT 10SM CLR 33/22 A3011 -160 51 1900 090/10G18 RMK AO2 T03280217
53917KNEW NEW20190910154510409/10/19 15:45:31  5-MIN KNEW 102145Z 11010KT 10SM CLR 33/21 A3011 -160 49 1900 110/10 RMK AO2 T03280211
53917KNEW NEW20190910155011109/10/19 15:50:31  5-MIN KNEW 102150Z 09010KT 10SM CLR 32/21 A3011 -160 51 1800 090/10 RMK AO2 SLP190 T03220211
53917KNEW NEW20190910155510409/10/19 15:55:31  5-MIN KNEW 102155Z 11011KT 10SM CLR 32/21 A3011 -160 51 1800 110/11 RMK AO2 T03220211
53917KNEW NEW20190910160010409/10/19 16:00:31  5-MIN KNEW 102200Z 11011KT 10SM CLR 32/21 A3011 -160 51 1800 110/11 RMK AO2 T03220211
53917KNEW NEW20190910160510409/10/19 16:05:31  5-MIN KNEW 102205Z 09010KT 10SM CLR 32/22 A3011 -160 53 1800 090/10 RMK AO2 T03220217
53917KNEW NEW20190910161010409/10/19 16:10:31  5-MIN KNEW 102210Z 11010KT 10SM CLR 32/22 A3011 -160 55 1800 110/10 RMK AO2 T03220222
53917KNEW NEW20190910161510409/10/19 16:15:31  5-MIN KNEW 102215Z 10010KT 10SM CLR 32/22 A3011 -160 53 1800 100/10 RMK AO2 T03220217
53917KNEW NEW20190910162010409/10/19 16:20:31  5-MIN KNEW 102220Z 10009KT 10SM CLR 32/22 A3011 -160 53 1800 100/09 RMK AO2 T03220217
53917KNEW NEW20190910162510409/10/19 16:25:31  5-MIN KNEW 102225Z 11010KT 10SM CLR 32/22 A3011 -160 53 1800 110/10 RMK AO2 T03220217
53917KNEW NEW20190910163010409/10/19 16:30:31  5-MIN KNEW 102230Z 10010KT 10SM CLR 32/22 A3011 -160 53 1800 100/10 RMK AO2 T03220217
53917KNEW NEW20190910163510409/10/19 16:35:31  5-MIN KNEW 102235Z 10010KT 10SM CLR 32/22 A3011 -160 53 1800 100/10 RMK AO2 T03220217
53917KNEW NEW20190910164010409/10/19 16:40:31  5-MIN KNEW 102240Z 10010KT 10SM CLR 32/22 A3011 -160 53 1800 100/10 RMK AO2 T03220217
53917KNEW NEW20190910164510409/10/19 16:45:31  5-MIN KNEW 102245Z 10010KT 10SM CLR 32/22 A3011 -160 55 1800 100/10 RMK AO2 T03170217
53917KNEW NEW20190910165011109/10/19 16:50:31  5-MIN KNEW 102250Z 10012KT 10SM CLR 32/22 A3011 -160 56 1700 100/12 RMK AO2 SLP189 T03170222
53917KNEW NEW20190910165510409/10/19 16:55:31  5-MIN KNEW 102255Z 10011KT 10SM CLR 32/22 A3011 -160 55 1700 100/11 RMK AO2 T03170217
53917KNEW NEW20190910170010409/10/19 17:00:31  5-MIN KNEW 102300Z 10011KT 10SM CLR 32/22 A3011 -160 56 1700 100/11 RMK AO2 T03170222
53917KNEW NEW20190910170510409/10/19 17:05:31  5-MIN KNEW 102305Z 11009KT 10SM CLR 32/22 A3011 -160 56 1800 110/09 RMK AO2 T03170222
53917KNEW NEW20190910171010409/10/19 17:10:31  5-MIN KNEW 102310Z 10011KT 10SM CLR 32/22 A3011 -160 55 1800 100/11 RMK AO2 T03170217
53917KNEW NEW20190910171510409/10/19 17:15:31  5-MIN KNEW 102315Z 11010KT 10SM CLR 32/22 A3011 -160 55 1800 110/10 RMK AO2 T03170217
53917KNEW NEW20190910172010409/10/19 17:20:31  5-MIN KNEW 102320Z 11009KT 10SM CLR 31/22 A3010 -150 56 1700 110/09 RMK AO2 T03110217
53917KNEW NEW20190910172510409/10/19 17:25:31  5-MIN KNEW 102325Z 12010KT 10SM CLR 31/21 A3011 -150 54 1700 120/10 RMK AO2 T03110211
53917KNEW NEW20190910173010409/10/19 17:30:31  5-MIN KNEW 102330Z 12011KT 10SM CLR 31/21 A3011 -160 54 1700 120/11 RMK AO2 T03110211
53917KNEW NEW20190910173510409/10/19 17:35:31  5-MIN KNEW 102335Z 13010KT 10SM CLR 31/21 A3011 -160 54 1700 130/10 RMK AO2 T03110211
53917KNEW NEW20190910174010409/10/19 17:40:31  5-MIN KNEW 102340Z 12009KT 10SM CLR 31/21 A3011 -160 54 1700 120/09 RMK AO2 T03110211
53917KNEW NEW20190910174510409/10/19 17:45:31  5-MIN KNEW 102345Z 12008KT 10SM CLR 31/21 A3011 -160 56 1600 120/08 RMK AO2 T03060211
53917KNEW NEW20190910175012909/10/19 17:50:31  5-MIN KNEW 102350Z 12008KT 10SM CLR 31/21 A3011 -160 56 1600 120/08 RMK AO2 SLP190 T03060211 10333 20306 58012
53917KNEW NEW20190910175510409/10/19 17:55:31  5-MIN KNEW 102355Z 13010KT 10SM CLR 31/21 A3011 -160 56 1600 130/10 RMK AO2 T03060211
53917KNEW NEW20190910180010409/10/19 18:00:31  5-MIN KNEW 110000Z 12009KT 10SM CLR 31/21 A3011 -160 56 1600 120/09 RMK AO2 T03060211
53917KNEW NEW20190910180510409/10/19 18:05:31  5-MIN KNEW 110005Z 12009KT 10SM CLR 31/21 A3011 -160 56 1600 120/09 RMK AO2 T03060211
53917KNEW NEW20190910181010409/10/19 18:10:31  5-MIN KNEW 110010Z 13009KT 10SM CLR 31/22 A3010 -150 58 1600 130/09 RMK AO2 T03060217
53917KNEW NEW20190910181510409/10/19 18:15:31  5-MIN KNEW 110015Z 13009KT 10SM CLR 30/22 A3011 -150 60 1600 130/09 RMK AO2 T03000217
53917KNEW NEW20190910182010409/10/19 18:20:31  5-MIN KNEW 110020Z 13007KT 10SM CLR 30/22 A3011 -150 60 1600 130/07 RMK AO2 T03000217
53917KNEW NEW20190910182510409/10/19 18:25:31  5-MIN KNEW 110025Z 14007KT 10SM CLR 30/22 A3011 -150 60 1600 140/07 RMK AO2 T03000217
53917KNEW NEW20190910183010409/10/19 18:30:31  5-MIN KNEW 110030Z 14007KT 10SM CLR 30/22 A3011 -160 60 1600 140/07 RMK AO2 T03000217
53917KNEW NEW20190910183510409/10/19 18:35:31  5-MIN KNEW 110035Z 14007KT 10SM CLR 30/22 A3011 -160 60 1600 140/07 RMK AO2 T03000217
53917KNEW NEW20190910184010409/10/19 18:40:31  5-MIN KNEW 110040Z 14009KT 10SM CLR 29/22 A3011 -160 64 1500 140/09 RMK AO2 T02940222
53917KNEW NEW20190910184510409/10/19 18:45:31  5-MIN KNEW 110045Z 14008KT 10SM CLR 29/22 A3011 -160 64 1500 140/08 RMK AO2 T02940222
53917KNEW NEW20190910185011109/10/19 18:50:31  5-MIN KNEW 110050Z 13009KT 10SM CLR 29/22 A3011 -160 64 1500 130/09 RMK AO2 SLP189 T02940222
53917KNEW NEW20190910185510409/10/19 18:55:31  5-MIN KNEW 110055Z 13008KT 10SM CLR 29/22 A3011 -160 64 1500 130/08 RMK AO2 T02940222
53917KNEW NEW20190910190010409/10/19 19:00:31  5-MIN KNEW 110100Z 13009KT 10SM CLR 29/22 A3011 -160 64 1500 130/09 RMK AO2 T02940222
53917KNEW NEW20190910190510409/10/19 19:05:31  5-MIN KNEW 110105Z 13008KT 10SM CLR 29/22 A3011 -160 64 1500 130/08 RMK AO2 T02940222
53917KNEW NEW20190910191010409/10/19 19:10:31  5-MIN KNEW 110110Z 13010KT 10SM CLR 29/22 A3011 -160 64 1500 130/10 RMK AO2 T02940222
53917KNEW NEW20190910191510409/10/19 19:15:31  5-MIN KNEW 110115Z 13010KT 10SM CLR 29/22 A3011 -160 64 1500 130/10 RMK AO2 T02940222
53917KNEW NEW20190910192010409/10/19 19:20:31  5-MIN KNEW 110120Z 13009KT 10SM CLR 29/22 A3011 -160 64 1500 130/09 RMK AO2 T02940222
53917KNEW NEW20190910192510409/10/19 19:25:31  5-MIN KNEW 110125Z 13009KT 10SM CLR 29/23 A3012 -160 67 1500 130/09 RMK AO2 T02940228
53917KNEW NEW20190910193010409/10/19 19:30:31  5-MIN KNEW 110130Z 13010KT 10SM CLR 29/23 A3012 -170 69 1400 130/10 RMK AO2 T02890228
53917KNEW NEW20190910193510409/10/19 19:35:31  5-MIN KNEW 110135Z 14008KT 10SM CLR 29/23 A3012 -170 69 1400 140/08 RMK AO2 T02890228
53917KNEW NEW20190910194010409/10/19 19:40:31  5-MIN KNEW 110140Z 14007KT 10SM CLR 29/23 A3012 -170 69 1400 140/07 RMK AO2 T02890228
53917KNEW NEW20190910194510409/10/19 19:45:31  5-MIN KNEW 110145Z 14007KT 10SM CLR 29/22 A3012 -170 67 1400 140/07 RMK AO2 T02890222
53917KNEW NEW20190910195011609/10/19 19:50:31  5-MIN KNEW 110150Z AUTO 14008KT 10SM CLR 29/22 A3012 -170 67 1400 140/08 RMK AO2 SLP194 T02890222
53917KNEW NEW20190910195510909/10/19 19:55:31  5-MIN KNEW 110155Z AUTO 14008KT 10SM CLR 29/22 A3013 -170 67 1400 140/08 RMK AO2 T02890222
53917KNEW NEW20190910200010909/10/19 20:00:31  5-MIN KNEW 110200Z AUTO 14007KT 10SM CLR 29/22 A3013 -180 67 1400 140/07 RMK AO2 T02890222
53917KNEW NEW20190910200510909/10/19 20:05:31  5-MIN KNEW 110205Z AUTO 14008KT 10SM CLR 29/22 A3013 -180 67 1400 140/08 RMK AO2 T02890222
53917KNEW NEW20190910201010909/10/19 20:10:31  5-MIN KNEW 110210Z AUTO 14007KT 10SM CLR 29/22 A3013 -180 67 1400 140/07 RMK AO2 T02890222
53917KNEW NEW20190910201510909/10/19 20:15:31  5-MIN KNEW 110215Z AUTO 14007KT 10SM CLR 28/22 A3013 -180 69 1300 140/07 RMK AO2 T02830222
53917KNEW NEW20190910202010909/10/19 20:20:31  5-MIN KNEW 110220Z AUTO 14007KT 10SM CLR 28/22 A3014 -180 69 1300 140/07 RMK AO2 T02830222
53917KNEW NEW20190910202510909/10/19 20:25:31  5-MIN KNEW 110225Z AUTO 14006KT 10SM CLR 28/22 A3014 -180 69 1300 140/06 RMK AO2 T02830222
53917KNEW NEW20190910203010909/10/19 20:30:31  5-MIN KNEW 110230Z AUTO 14006KT 10SM CLR 28/23 A3014 -180 71 1300 140/06 RMK AO2 T02830228
53917KNEW NEW20190910203510909/10/19 20:35:31  5-MIN KNEW 110235Z AUTO 14007KT 10SM CLR 28/23 A3014 -180 71 1300 140/07 RMK AO2 T02830228
53917KNEW NEW20190910204010909/10/19 20:40:31  5-MIN KNEW 110240Z AUTO 14006KT 10SM CLR 28/23 A3014 -180 71 1300 140/06 RMK AO2 T02830228
53917KNEW NEW20190910204510909/10/19 20:45:31  5-MIN KNEW 110245Z AUTO 13006KT 10SM CLR 28/23 A3014 -180 71 1300 130/06 RMK AO2 T02830228
53917KNEW NEW20190910205012209/10/19 20:50:31  5-MIN KNEW 110250Z AUTO 13007KT 10SM CLR 28/23 A3014 -180 71 1300 130/07 RMK AO2 SLP198 T02830228 55001
53917KNEW NEW20190910205510909/10/19 20:55:31  5-MIN KNEW 110255Z AUTO 13007KT 10SM CLR 28/23 A3013 -180 71 1300 130/07 RMK AO2 T02830228
53917KNEW NEW20190910210010909/10/19 21:00:31  5-MIN KNEW 110300Z AUTO 13006KT 10SM CLR 28/23 A3013 -180 71 1300 130/06 RMK AO2 T02830228
53917KNEW NEW20190910210510909/10/19 21:05:31  5-MIN KNEW 110305Z AUTO 12006KT 10SM CLR 28/23 A3014 -180 71 1300 120/06 RMK AO2 T02830228
53917KNEW NEW20190910211010909/10/19 21:10:31  5-MIN KNEW 110310Z AUTO 12006KT 10SM CLR 29/23 A3014 -180 69 1400 120/06 RMK AO2 T02890228
53917KNEW NEW20190910211510909/10/19 21:15:31  5-MIN KNEW 110315Z AUTO 11007KT 10SM CLR 29/23 A3014 -180 69 1400 110/07 RMK AO2 T02890228
53917KNEW NEW20190910212010909/10/19 21:20:31  5-MIN KNEW 110320Z AUTO 11007KT 10SM CLR 29/23 A3014 -180 69 1400 110/07 RMK AO2 T02890228
53917KNEW NEW20190910212510909/10/19 21:25:31  5-MIN KNEW 110325Z AUTO 12007KT 10SM CLR 29/23 A3014 -180 69 1400 120/07 RMK AO2 T02890228
53917KNEW NEW20190910213010909/10/19 21:30:31  5-MIN KNEW 110330Z AUTO 12005KT 10SM CLR 28/23 A3014 -190 74 1300 120/05 RMK AO2 T02830233
53917KNEW NEW20190910213510909/10/19 21:35:31  5-MIN KNEW 110335Z AUTO 12005KT 10SM CLR 28/23 A3014 -190 74 1300 120/05 RMK AO2 T02830233
53917KNEW NEW20190910214010909/10/19 21:40:31  5-MIN KNEW 110340Z AUTO 13007KT 10SM CLR 28/23 A3014 -190 74 1300 130/07 RMK AO2 T02830233
53917KNEW NEW20190910214510909/10/19 21:45:31  5-MIN KNEW 110345Z AUTO 13007KT 10SM CLR 28/23 A3014 -190 74 1300 130/07 RMK AO2 T02830233
53917KNEW NEW20190910215011609/10/19 21:50:31  5-MIN KNEW 110350Z AUTO 13007KT 10SM CLR 28/23 A3014 -190 74 1300 130/07 RMK AO2 SLP199 T02830233
53917KNEW NEW20190910215510909/10/19 21:55:31  5-MIN KNEW 110355Z AUTO 13006KT 10SM CLR 28/23 A3014 -190 74 1300 130/06 RMK AO2 T02830233
53917KNEW NEW20190910220010909/10/19 22:00:31  5-MIN KNEW 110400Z AUTO 12007KT 10SM CLR 28/23 A3014 -180 74 1300 120/07 RMK AO2 T02830233
53917KNEW NEW20190910220510909/10/19 22:05:31  5-MIN KNEW 110405Z AUTO 12007KT 10SM CLR 28/23 A3014 -180 74 1300 120/07 RMK AO2 T02830233
53917KNEW NEW20190910221010909/10/19 22:10:31  5-MIN KNEW 110410Z AUTO 13006KT 10SM CLR 28/23 A3014 -190 74 1300 130/06 RMK AO2 T02830233
53917KNEW NEW20190910221510909/10/19 22:15:31  5-MIN KNEW 110415Z AUTO 13007KT 10SM CLR 28/23 A3014 -190 74 1300 130/07 RMK AO2 T02830233
53917KNEW NEW20190910222010909/10/19 22:20:31  5-MIN KNEW 110420Z AUTO 13006KT 10SM CLR 27/23 A3014 -190 79 1200 130/06 RMK AO2 T02720233
53917KNEW NEW20190910222510909/10/19 22:25:31  5-MIN KNEW 110425Z AUTO 13006KT 10SM CLR 28/23 A3014 -190 74 1300 130/06 RMK AO2 T02830233
53917KNEW NEW20190910223010909/10/19 22:30:31  5-MIN KNEW 110430Z AUTO 13006KT 10SM CLR 28/23 A3014 -190 74 1300 130/06 RMK AO2 T02830233
53917KNEW NEW20190910223510909/10/19 22:35:31  5-MIN KNEW 110435Z AUTO 13007KT 10SM CLR 28/23 A3014 -190 74 1300 130/07 RMK AO2 T02830233
53917KNEW NEW20190910224010909/10/19 22:40:31  5-MIN KNEW 110440Z AUTO 13006KT 10SM CLR 28/23 A3014 -190 74 1300 130/06 RMK AO2 T02830233
53917KNEW NEW20190910224510909/10/19 22:45:31  5-MIN KNEW 110445Z AUTO 12006KT 10SM CLR 28/23 A3014 -190 74 1300 120/06 RMK AO2 T02830233
53917KNEW NEW20190910225011609/10/19 22:50:31  5-MIN KNEW 110450Z AUTO 13005KT 10SM CLR 28/23 A3014 -190 74 1300 130/05 RMK AO2 SLP201 T02830233
53917KNEW NEW20190910225510909/10/19 22:55:31  5-MIN KNEW 110455Z AUTO 14004KT 10SM CLR 28/23 A3014 -190 74 1300 140/04 RMK AO2 T02830233
53917KNEW NEW20190910230010909/10/19 23:00:31  5-MIN KNEW 110500Z AUTO 14005KT 10SM CLR 28/23 A3014 -190 76 1300 140/05 RMK AO2 T02780233
53917KNEW NEW20190910230510909/10/19 23:05:31  5-MIN KNEW 110505Z AUTO 15004KT 10SM CLR 28/23 A3015 -190 74 1300 150/04 RMK AO2 T02780228
53917KNEW NEW20190910231010909/10/19 23:10:31  5-MIN KNEW 110510Z AUTO 17004KT 10SM CLR 28/23 A3015 -190 74 1300 170/04 RMK AO2 T02780228
53917KNEW NEW20190910231510909/10/19 23:15:31  5-MIN KNEW 110515Z AUTO 16003KT 10SM CLR 27/23 A3015 -190 76 1200 160/03 RMK AO2 T02720228
53917KNEW NEW20190910232010909/10/19 23:20:31  5-MIN KNEW 110520Z AUTO 17003KT 10SM CLR 27/23 A3014 -190 76 1200 170/03 RMK AO2 T02720228
53917KNEW NEW20190910232510909/10/19 23:25:31  5-MIN KNEW 110525Z AUTO 17003KT 10SM CLR 27/23 A3014 -190 76 1200 170/03 RMK AO2 T02720228
53917KNEW NEW20190910233010909/10/19 23:30:31  5-MIN KNEW 110530Z AUTO 16003KT 10SM CLR 27/23 A3014 -190 79 1200 160/03 RMK AO2 T02720233
53917KNEW NEW20190910233510909/10/19 23:35:31  5-MIN KNEW 110535Z AUTO 00000KT 10SM CLR 27/23 A3014 -190 79 1200 000/00 RMK AO2 T02720233
53917KNEW NEW20190910234010909/10/19 23:40:31  5-MIN KNEW 110540Z AUTO 18003KT 10SM CLR 27/23 A3014 -190 79 1200 180/03 RMK AO2 T02720233
53917KNEW NEW20190910234510909/10/19 23:45:31  5-MIN KNEW 110545Z AUTO 16003KT 10SM CLR 28/23 A3014 -190 76 1300 160/03 RMK AO2 T02780233
53917KNEW NEW20190910235014409/10/19 23:50:31  5-MIN KNEW 110550Z AUTO 15004KT 10SM CLR 27/23 A3014 -180 79 1200 150/04 RMK AO2 SLP198 T02720233 10306 20272 403330267 53008
53917KNEW NEW20190910235510909/10/19 23:55:31  5-MIN KNEW 110555Z AUTO 14003KT 10SM CLR 27/23 A3014 -180 79 1200 140/03 RMK AO2 T02720233
53917KNEW NEW20190911000010909/11/19 00:00:31  5-MIN KNEW 110600Z AUTO 12004KT 10SM CLR 27/23 A3013 -180 79 1200 120/04 RMK AO2 T02720233
53917KNEW NEW20190911000510909/11/19 00:05:31  5-MIN KNEW 110605Z AUTO 13004KT 10SM CLR 27/23 A3014 -180 79 1200 130/04 RMK AO2 T02720233
53917KNEW NEW20190911001010909/11/19 00:10:31  5-MIN KNEW 110610Z AUTO 12005KT 10SM CLR 27/23 A3014 -180 79 1200 120/05 RMK AO2 T02720233
53917KNEW NEW20190911001510909/11/19 00:15:31  5-MIN KNEW 110615Z AUTO 12003KT 10SM CLR 28/24 A3014 -180 79 1300 120/03 RMK AO2 T02780239
53917KNEW NEW20190911002010909/11/19 00:20:31  5-MIN KNEW 110620Z AUTO 12003KT 10SM CLR 28/24 A3014 -180 79 1300 120/03 RMK AO2 T02780239
53917KNEW NEW20190911002510909/11/19 00:25:31  5-MIN KNEW 110625Z AUTO 12003KT 10SM CLR 28/24 A3014 -180 79 1300 120/03 RMK AO2 T02780239
53917KNEW NEW20190911003010909/11/19 00:30:31  5-MIN KNEW 110630Z AUTO 13003KT 10SM CLR 28/24 A3014 -180 79 1300 130/03 RMK AO2 T02780239
53917KNEW NEW20190911003510909/11/19 00:35:31  5-MIN KNEW 110635Z AUTO 14003KT 10SM CLR 28/24 A3014 -180 79 1300 140/03 RMK AO2 T02780239
53917KNEW NEW20190911004010909/11/19 00:40:31  5-MIN KNEW 110640Z AUTO 15003KT 10SM CLR 27/24 A3014 -180 82 1200 150/03 RMK AO2 T02720239
53917KNEW NEW20190911004510909/11/19 00:45:31  5-MIN KNEW 110645Z AUTO 15003KT 10SM CLR 27/23 A3014 -180 79 1200 150/03 RMK AO2 T02720233
53917KNEW NEW20190911005011609/11/19 00:50:31  5-MIN KNEW 110650Z AUTO 15003KT 10SM CLR 27/23 A3014 -180 79 1200 150/03 RMK AO2 SLP198 T02720233
53917KNEW NEW20190911005510909/11/19 00:55:31  5-MIN KNEW 110655Z AUTO 15003KT 10SM CLR 28/23 A3014 -180 76 1300 150/03 RMK AO2 T02780233
53917KNEW NEW20190911010010909/11/19 01:00:31  5-MIN KNEW 110700Z AUTO 14003KT 10SM CLR 28/23 A3014 -180 76 1300 140/03 RMK AO2 T02780233
53917KNEW NEW20190911010510909/11/19 01:05:31  5-MIN KNEW 110705Z AUTO 14003KT 10SM CLR 28/23 A3013 -180 76 1300 140/03 RMK AO2 T02780233
53917KNEW NEW20190911011010909/11/19 01:10:31  5-MIN KNEW 110710Z AUTO 14004KT 10SM CLR 28/23 A3013 -180 76 1300 140/04 RMK AO2 T02780233
53917KNEW NEW20190911011510909/11/19 01:15:31  5-MIN KNEW 110715Z AUTO 16003KT 10SM CLR 27/23 A3013 -180 79 1200 160/03 RMK AO2 T02720233
53917KNEW NEW20190911012010909/11/19 01:20:31  5-MIN KNEW 110720Z AUTO 00000KT 10SM CLR 27/23 A3013 -180 79 1200 000/00 RMK AO2 T02720233
53917KNEW NEW20190911012511409/11/19 01:25:31  5-MIN KNEW 110725Z AUTO 16003KT 10SM CLR 27/23 A3013 -180 79 1200 160/03 RMK AO2 T02720233 TSNO
53917KNEW NEW20190911013010909/11/19 01:30:31  5-MIN KNEW 110730Z AUTO 00000KT 10SM CLR 28/23 A3013 -170 76 1300 000/00 RMK AO2 T02780233
53917KNEW NEW20190911013510909/11/19 01:35:31  5-MIN KNEW 110735Z AUTO 00000KT 10SM CLR 28/23 A3012 -170 76 1300 000/00 RMK AO2 T02780233
53917KNEW NEW20190911014010909/11/19 01:40:31  5-MIN KNEW 110740Z AUTO 00000KT 10SM CLR 28/23 A3012 -170 76 1300 000/00 RMK AO2 T02780233
53917KNEW NEW20190911014510909/11/19 01:45:31  5-MIN KNEW 110745Z AUTO 00000KT 10SM CLR 28/23 A3012 -170 76 1300 000/00 RMK AO2 T02780233
53917KNEW NEW20190911015011609/11/19 01:50:31  5-MIN KNEW 110750Z AUTO 00000KT 10SM CLR 28/24 A3012 -170 79 1300 000/00 RMK AO2 SLP193 T02780239
53917KNEW NEW20190911015510909/11/19 01:55:31  5-MIN KNEW 110755Z AUTO 12003KT 10SM CLR 28/24 A3012 -170 79 1300 120/03 RMK AO2 T02780239
53917KNEW NEW20190911020010909/11/19 02:00:31  5-MIN KNEW 110800Z AUTO 13003KT 10SM CLR 28/24 A3012 -170 79 1300 130/03 RMK AO2 T02780239
53917KNEW NEW20190911020510909/11/19 02:05:31  5-MIN KNEW 110805Z AUTO 13003KT 10SM CLR 28/24 A3012 -170 79 1300 130/03 RMK AO2 T02780239
53917KNEW NEW20190911021010909/11/19 02:10:31  5-MIN KNEW 110810Z AUTO 13004KT 10SM CLR 28/24 A3012 -170 79 1300 130/04 RMK AO2 T02780239
53917KNEW NEW20190911021510909/11/19 02:15:31  5-MIN KNEW 110815Z AUTO 12004KT 10SM CLR 28/24 A3012 -160 79 1300 120/04 RMK AO2 T02780239
53917KNEW NEW20190911022010909/11/19 02:20:31  5-MIN KNEW 110820Z AUTO 12004KT 10SM CLR 28/24 A3012 -160 79 1300 120/04 RMK AO2 T02780239
53917KNEW NEW20190911022510909/11/19 02:25:31  5-MIN KNEW 110825Z AUTO 11004KT 10SM CLR 28/24 A3011 -160 79 1300 110/04 RMK AO2 T02780239
53917KNEW NEW20190911023010909/11/19 02:30:31  5-MIN KNEW 110830Z AUTO 11004KT 10SM CLR 28/24 A3011 -160 79 1300 110/04 RMK AO2 T02780239
53917KNEW NEW20190911023510909/11/19 02:35:31  5-MIN KNEW 110835Z AUTO 11005KT 10SM CLR 28/24 A3011 -160 82 1300 110/05 RMK AO2 T02780244
53917KNEW NEW20190911024010909/11/19 02:40:31  5-MIN KNEW 110840Z AUTO 12004KT 10SM CLR 28/24 A3011 -160 82 1300 120/04 RMK AO2 T02780244
53917KNEW NEW20190911024510909/11/19 02:45:31  5-MIN KNEW 110845Z AUTO 13005KT 10SM CLR 28/24 A3011 -160 82 1300 130/05 RMK AO2 T02780244
53917KNEW NEW20190911025012209/11/19 02:50:31  5-MIN KNEW 110850Z AUTO 14003KT 10SM CLR 28/24 A3011 -160 82 1300 140/03 RMK AO2 SLP190 T02780244 50001
53917KNEW NEW20190911025510909/11/19 02:55:31  5-MIN KNEW 110855Z AUTO 13004KT 10SM CLR 28/24 A3011 -160 82 1300 130/04 RMK AO2 T02780244
53917KNEW NEW20190911030010909/11/19 03:00:31  5-MIN KNEW 110900Z AUTO 14003KT 10SM CLR 27/24 A3011 -160 82 1200 140/03 RMK AO2 T02720239
53917KNEW NEW20190911030510909/11/19 03:05:31  5-MIN KNEW 110905Z AUTO 14004KT 10SM CLR 27/24 A3012 -160 82 1200 140/04 RMK AO2 T02720239
53917KNEW NEW20190911031010909/11/19 03:10:31  5-MIN KNEW 110910Z AUTO 14003KT 10SM CLR 27/24 A3012 -160 82 1200 140/03 RMK AO2 T02720239
53917KNEW NEW20190911031510909/11/19 03:15:31  5-MIN KNEW 110915Z AUTO 14003KT 10SM CLR 27/24 A3012 -170 82 1200 140/03 RMK AO2 T02720239
53917KNEW NEW20190911032010909/11/19 03:20:31  5-MIN KNEW 110920Z AUTO 15003KT 10SM CLR 27/24 A3012 -170 84 1200 150/03 RMK AO2 T02670239
53917KNEW NEW20190911032510909/11/19 03:25:31  5-MIN KNEW 110925Z AUTO 15003KT 10SM CLR 27/24 A3012 -170 82 1200 150/03 RMK AO2 T02720239
53917KNEW NEW20190911033010909/11/19 03:30:31  5-MIN KNEW 110930Z AUTO 16003KT 10SM CLR 27/24 A3012 -170 84 1200 160/03 RMK AO2 T02670239
53917KNEW NEW20190911033510909/11/19 03:35:31  5-MIN KNEW 110935Z AUTO 15003KT 10SM CLR 27/24 A3012 -160 84 1200 150/03 RMK AO2 T02670239
53917KNEW NEW20190911034010909/11/19 03:40:31  5-MIN KNEW 110940Z AUTO 14004KT 10SM CLR 27/24 A3011 -160 84 1200 140/04 RMK AO2 T02670239
53917KNEW NEW20190911034510809/11/19 03:45:31  5-MIN KNEW 110945Z AUTO 14003KT 9SM CLR 27/24 A3011 -160 84 1200 140/03 RMK AO2 T02670239
53917KNEW NEW20190911035011509/11/19 03:50:31  5-MIN KNEW 110950Z AUTO 14003KT 9SM CLR 27/24 A3012 -160 82 1200 140/03 RMK AO2 SLP191 T02720239
53917KNEW NEW20190911035510809/11/19 03:55:31  5-MIN KNEW 110955Z AUTO 14004KT 9SM CLR 27/24 A3012 -170 84 1200 140/04 RMK AO2 T02670239
53917KNEW NEW20190911040010809/11/19 04:00:31  5-MIN KNEW 111000Z AUTO 14003KT 9SM CLR 27/24 A3012 -170 82 1200 140/03 RMK AO2 T02720239
53917KNEW NEW20190911040510809/11/19 04:05:31  5-MIN KNEW 111005Z AUTO 15003KT 9SM CLR 27/24 A3012 -170 84 1200 150/03 RMK AO2 T02720244
53917KNEW NEW20190911041010809/11/19 04:10:31  5-MIN KNEW 111010Z AUTO 14003KT 9SM CLR 27/24 A3012 -170 87 1200 140/03 RMK AO2 T02670244
53917KNEW NEW20190911041511109/11/19 04:15:31  5-MIN KNEW 111015Z AUTO 14003KT 9SM FEW023 27/24 A3012 -170 84 1200 140/03 RMK AO2 T02720244
53917KNEW NEW20190911042011809/11/19 04:20:31  5-MIN KNEW 111020Z AUTO 12004KT 9SM FEW023 SCT055 27/24 A3013 -170 82 1200 120/04 RMK AO2 T02720239
53917KNEW NEW20190911042512509/11/19 04:25:31  5-MIN KNEW 111025Z AUTO 11004KT 9SM SCT023 SCT034 SCT055 27/24 A3013 -180 84 1200 110/04 RMK AO2 T02720244
53917KNEW NEW20190911043012609/11/19 04:30:31  5-MIN KNEW 111030Z AUTO 12004KT 10SM SCT023 SCT034 SCT050 28/24 A3013 -180 82 1300 120/04 RMK AO2 T02780244
53917KNEW NEW20190911043511909/11/19 04:35:31  5-MIN KNEW 111035Z AUTO 13004KT 10SM FEW022 SCT055 28/24 A3013 -180 82 1300 130/04 RMK AO2 T02780244
53917KNEW NEW20190911044011909/11/19 04:40:31  5-MIN KNEW 111040Z AUTO 12004KT 10SM SCT024 SCT039 28/24 A3013 -180 82 1300 120/04 RMK AO2 T02780244
53917KNEW NEW20190911044511909/11/19 04:45:31  5-MIN KNEW 111045Z AUTO 13004KT 10SM SCT024 BKN039 28/24 A3014 -180 82 1300 130/04 RMK AO2 T02780244
53917KNEW NEW20190911045012609/11/19 04:50:31  5-MIN KNEW 111050Z AUTO 13004KT 10SM SCT024 SCT034 28/24 A3014 -180 82 1300 130/04 RMK AO2 SLP199 T02780244
53917KNEW NEW20190911045511209/11/19 04:55:31  5-MIN KNEW 111055Z AUTO 12005KT 10SM FEW024 28/24 A3014 -180 82 1300 120/05 RMK AO2 T02780244
53917KNEW NEW20190911050011209/11/19 05:00:31  5-MIN KNEW 111100Z AUTO 11005KT 10SM FEW024 28/24 A3013 -180 82 1300 110/05 RMK AO2 T02780244
53917KNEW NEW20190911050511209/11/19 05:05:31  5-MIN KNEW 111105Z AUTO 11006KT 10SM FEW025 28/24 A3014 -180 82 1300 110/06 RMK AO2 T02780244
53917KNEW NEW20190911051010909/11/19 05:10:31  5-MIN KNEW 111110Z AUTO 10006KT 10SM CLR 28/25 A3014 -180 84 1300 100/06 RMK AO2 T02780250
53917KNEW NEW20190911051510909/11/19 05:15:31  5-MIN KNEW 111115Z AUTO 11004KT 10SM CLR 28/25 A3014 -180 82 1300 110/04 RMK AO2 T02830250
53917KNEW NEW20190911052010809/11/19 05:20:31  5-MIN KNEW 111120Z AUTO 11005KT 9SM CLR 28/25 A3014 -190 82 1300 110/05 RMK AO2 T02830250
53917KNEW NEW20190911052510809/11/19 05:25:31  5-MIN KNEW 111125Z AUTO 11004KT 9SM CLR 28/25 A3014 -190 84 1300 110/04 RMK AO2 T02780250
53917KNEW NEW20190911053010809/11/19 05:30:31  5-MIN KNEW 111130Z AUTO 12003KT 9SM CLR 28/25 A3014 -190 84 1300 120/03 RMK AO2 T02780250
53917KNEW NEW20190911053510809/11/19 05:35:31  5-MIN KNEW 111135Z AUTO 12003KT 9SM CLR 28/25 A3014 -190 84 1300 120/03 RMK AO2 T02780250
53917KNEW NEW20190911054010809/11/19 05:40:31  5-MIN KNEW 111140Z AUTO 00000KT 9SM CLR 28/25 A3015 -190 84 1300 000/00 RMK AO2 T02780250
53917KNEW NEW20190911054510809/11/19 05:45:31  5-MIN KNEW 111145Z AUTO 12003KT 9SM CLR 28/25 A3015 -190 84 1300 120/03 RMK AO2 T02780250
53917KNEW NEW20190911055013309/11/19 05:50:31  5-MIN KNEW 111150Z AUTO 11004KT 8SM CLR 28/24 A3015 -200 82 1300 110/04 RMK AO2 SLP203 T02780244 10283 20267 58008
53917KNEW NEW20190911055510809/11/19 05:55:31  5-MIN KNEW 111155Z AUTO 12003KT 8SM CLR 28/24 A3015 -200 82 1300 120/03 RMK AO2 T02780244
53917KNEW NEW20190911060010809/11/19 06:00:31  5-MIN KNEW 111200Z AUTO 11003KT 8SM CLR 28/25 A3015 -200 84 1300 110/03 RMK AO2 T02780250
53917KNEW NEW20190911060510309/11/19 06:05:31  5-MIN KNEW 111205Z 11003KT 8SM CLR 28/25 A3015 -200 84 1300 110/03 RMK AO2 T02780250
53917KNEW NEW20190911061010609/11/19 06:10:31  5-MIN KNEW 111210Z 11004KT 8SM FEW046 28/24 A3015 -200 79 1300 110/04 RMK AO2 T02830244
53917KNEW NEW20190911061512009/11/19 06:15:31  5-MIN KNEW 111215Z 11006KT 8SM FEW026 SCT034 SCT046 28/25 A3015 -200 82 1300 110/06 RMK AO2 T02830250
53917KNEW NEW20190911062011309/11/19 06:20:31  5-MIN KNEW 111220Z 09006KT 8SM SCT026 SCT038 29/25 A3016 -200 79 1400 090/06 RMK AO2 T02890250
53917KNEW NEW20190911062511309/11/19 06:25:31  5-MIN KNEW 111225Z 08006KT 8SM FEW026 SCT038 29/24 A3016 -200 76 1400 080/06 RMK AO2 T02890244
53917KNEW NEW20190911063011309/11/19 06:30:31  5-MIN KNEW 111230Z 08007KT 8SM FEW026 FEW038 28/24 A3015 -200 79 1300 080/07 RMK AO2 T02830244
53917KNEW NEW20190911063511309/11/19 06:35:31  5-MIN KNEW 111235Z 08006KT 8SM FEW026 FEW038 28/24 A3016 -200 79 1300 080/06 RMK AO2 T02830244
53917KNEW NEW20190911064011309/11/19 06:40:31  5-MIN KNEW 111240Z 09007KT 8SM FEW027 FEW038 28/24 A3016 -200 79 1300 090/07 RMK AO2 T02830244
53917KNEW NEW20190911064510309/11/19 06:45:31  5-MIN KNEW 111245Z 09007KT 8SM CLR 29/25 A3016 -200 79 1400 090/07 RMK AO2 T02890250
53917KNEW NEW20190911065011009/11/19 06:50:31  5-MIN KNEW 111250Z 10008KT 8SM CLR 29/25 A3016 -210 79 1400 100/08 RMK AO2 SLP206 T02890250
53917KNEW NEW20190911065510309/11/19 06:55:31  5-MIN KNEW 111255Z 08007KT 8SM CLR 29/25 A3016 -210 79 1400 080/07 RMK AO2 T02890250
53917KNEW NEW20190911070010309/11/19 07:00:31  5-MIN KNEW 111300Z 08008KT 8SM CLR 29/25 A3016 -210 79 1400 080/08 RMK AO2 T02890250
53917KNEW NEW20190911070510309/11/19 07:05:31  5-MIN KNEW 111305Z 09006KT 8SM CLR 29/25 A3016 -210 79 1400 090/06 RMK AO2 T02890250
53917KNEW NEW20190911071010309/11/19 07:10:31  5-MIN KNEW 111310Z 10006KT 8SM CLR 29/25 A3017 -210 79 1400 100/06 RMK AO2 T02890250
53917KNEW NEW20190911071510309/11/19 07:15:31  5-MIN KNEW 111315Z 10005KT 8SM CLR 29/25 A3016 -210 76 1400 100/05 RMK AO2 T02940250
53917KNEW NEW20190911072010309/11/19 07:20:31  5-MIN KNEW 111320Z 11006KT 9SM CLR 29/25 A3017 -210 76 1400 110/06 RMK AO2 T02940250
53917KNEW NEW20190911072510309/11/19 07:25:31  5-MIN KNEW 111325Z 11006KT 9SM CLR 29/24 A3017 -210 74 1400 110/06 RMK AO2 T02940244
53917KNEW NEW20190911073010309/11/19 07:30:31  5-MIN KNEW 111330Z 12010KT 9SM CLR 30/24 A3017 -210 69 1500 120/10 RMK AO2 T03000239
53917KNEW NEW20190911073510309/11/19 07:35:31  5-MIN KNEW 111335Z 11011KT 9SM CLR 30/24 A3017 -210 69 1500 110/11 RMK AO2 T03000239
53917KNEW NEW20190911074010409/11/19 07:40:31  5-MIN KNEW 111340Z 13008KT 10SM CLR 30/24 A3017 -210 69 1500 130/08 RMK AO2 T03000239
53917KNEW NEW20190911074510409/11/19 07:45:31  5-MIN KNEW 111345Z 13009KT 10SM CLR 30/23 A3017 -220 67 1500 130/09 RMK AO2 T03000233
53917KNEW NEW20190911075011409/11/19 07:50:31  5-MIN KNEW 111350Z 12007KT 10SM FEW029 30/23 A3018 -220 67 1500 120/07 RMK AO2 SLP211 T03000233
53917KNEW NEW20190911075510709/11/19 07:55:31  5-MIN KNEW 111355Z 11010KT 10SM FEW031 30/23 A3018 -220 67 1500 110/10 RMK AO2 T03000233
53917KNEW NEW20190911080010709/11/19 08:00:31  5-MIN KNEW 111400Z 12009KT 10SM SCT031 31/23 A3018 -220 65 1500 120/09 RMK AO2 T03060233
53917KNEW NEW20190911080510709/11/19 08:05:31  5-MIN KNEW 111405Z 11009KT 10SM SCT031 30/23 A3018 -220 67 1500 110/09 RMK AO2 T03000233
53917KNEW NEW20190911081010709/11/19 08:10:31  5-MIN KNEW 111410Z 12010KT 10SM BKN031 31/23 A3018 -220 65 1500 120/10 RMK AO2 T03060233
53917KNEW NEW20190911081510709/11/19 08:15:31  5-MIN KNEW 111415Z 12010KT 10SM BKN031 31/23 A3018 -230 65 1500 120/10 RMK AO2 T03060233
53917KNEW NEW20190911082010709/11/19 08:20:31  5-MIN KNEW 111420Z 13011KT 10SM SCT031 31/23 A3018 -230 60 1600 130/11 RMK AO2 T03110228
53917KNEW NEW20190911082510709/11/19 08:25:31  5-MIN KNEW 111425Z 11008KT 10SM SCT031 31/22 A3018 -230 58 1600 110/08 RMK AO2 T03110222
53917KNEW NEW20190911083010709/11/19 08:30:31  5-MIN KNEW 111430Z 11011KT 10SM FEW030 31/22 A3018 -220 58 1600 110/11 RMK AO2 T03110222
53917KNEW NEW20190911083510709/11/19 08:35:31  5-MIN KNEW 111435Z 11009KT 10SM FEW030 31/22 A3018 -220 58 1600 110/09 RMK AO2 T03110222
53917KNEW NEW20190911084010409/11/19 08:40:31  5-MIN KNEW 111440Z 12009KT 10SM CLR 31/22 A3018 -230 58 1600 120/09 RMK AO2 T03110222
53917KNEW NEW20190911084510409/11/19 08:45:31  5-MIN KNEW 111445Z 10010KT 10SM CLR 31/22 A3018 -220 58 1600 100/10 RMK AO2 T03110222
53917KNEW NEW20190911085011709/11/19 08:50:31  5-MIN KNEW 111450Z 10010KT 10SM CLR 32/22 A3018 -230 56 1700 100/10 RMK AO2 SLP214 T03170222 53013
53917KNEW NEW20190911085510709/11/19 08:55:31  5-MIN KNEW 111455Z 09010KT 10SM FEW035 31/23 A3018 -230 60 1600 090/10 RMK AO2 T03110228
53917KNEW NEW20190911090010709/11/19 09:00:31  5-MIN KNEW 111500Z 12011KT 10SM FEW035 31/23 A3018 -230 60 1600 120/11 RMK AO2 T03110228
53917KNEW NEW20190911090510709/11/19 09:05:31  5-MIN KNEW 111505Z 12007KT 10SM FEW037 31/22 A3018 -230 58 1600 120/07 RMK AO2 T03110222
53917KNEW NEW20190911091010709/11/19 09:10:31  5-MIN KNEW 111510Z 09008KT 10SM SCT035 31/23 A3018 -230 60 1600 090/08 RMK AO2 T03110228
53917KNEW NEW20190911091510709/11/19 09:15:31  5-MIN KNEW 111515Z 09009KT 10SM SCT035 32/23 A3018 -230 58 1700 090/09 RMK AO2 T03170228
53917KNEW NEW20190911092010709/11/19 09:20:31  5-MIN KNEW 111520Z 10008KT 10SM SCT035 31/22 A3018 -230 58 1600 100/08 RMK AO2 T03110222
53917KNEW NEW20190911092510709/11/19 09:25:31  5-MIN KNEW 111525Z 09011KT 10SM BKN035 32/23 A3018 -220 58 1700 090/11 RMK AO2 T03170228
53917KNEW NEW20190911093010709/11/19 09:30:31  5-MIN KNEW 111530Z 10009KT 10SM BKN035 31/22 A3018 -220 58 1600 100/09 RMK AO2 T03110222
53917KNEW NEW20190911093510709/11/19 09:35:31  5-MIN KNEW 111535Z 12011KT 10SM BKN035 32/22 A3018 -220 56 1700 120/11 RMK AO2 T03170222
53917KNEW NEW20190911094010709/11/19 09:40:31  5-MIN KNEW 111540Z 12009KT 10SM SCT035 32/22 A3018 -220 56 1700 120/09 RMK AO2 T03170222
53917KNEW NEW20190911094510709/11/19 09:45:31  5-MIN KNEW 111545Z 10008KT 10SM SCT035 32/22 A3018 -220 56 1700 100/08 RMK AO2 T03170222
53917KNEW NEW20190911095011409/11/19 09:50:31  5-MIN KNEW 111550Z 10011KT 10SM FEW035 32/23 A3018 -220 58 1700 100/11 RMK AO2 SLP213 T03170228
53917KNEW NEW20190911095510709/11/19 09:55:31  5-MIN KNEW 111555Z 10010KT 10SM SCT035 32/23 A3018 -220 58 1700 100/10 RMK AO2 T03170228
53917KNEW NEW20190911100010709/11/19 10:00:31  5-MIN KNEW 111600Z 10010KT 10SM SCT035 32/22 A3018 -220 56 1700 100/10 RMK AO2 T03170222
53917KNEW NEW20190911100510709/11/19 10:05:31  5-MIN KNEW 111605Z 10009KT 10SM SCT035 32/22 A3018 -220 56 1700 100/09 RMK AO2 T03170222
53917KNEW NEW20190911101010709/11/19 10:10:31  5-MIN KNEW 111610Z 10009KT 10SM SCT036 32/22 A3018 -220 56 1700 100/09 RMK AO2 T03170222
53917KNEW NEW20190911101510709/11/19 10:15:31  5-MIN KNEW 111615Z 08009KT 10SM SCT036 32/22 A3018 -220 55 1700 080/09 RMK AO2 T03220222
53917KNEW NEW20190911102010709/11/19 10:20:31  5-MIN KNEW 111620Z 08010KT 10SM SCT036 32/22 A3018 -220 56 1700 080/10 RMK AO2 T03170222
53917KNEW NEW20190911102510709/11/19 10:25:31  5-MIN KNEW 111625Z 09008KT 10SM SCT036 32/23 A3018 -220 57 1700 090/08 RMK AO2 T03220228
53917KNEW NEW20190911103010709/11/19 10:30:31  5-MIN KNEW 111630Z 10011KT 10SM FEW038 32/22 A3018 -220 55 1700 100/11 RMK AO2 T03220222
53917KNEW NEW20190911103510709/11/19 10:35:31  5-MIN KNEW 111635Z 11011KT 10SM FEW038 32/22 A3018 -220 53 1700 110/11 RMK AO2 T03220217
53917KNEW NEW20190911104010709/11/19 10:40:31  5-MIN KNEW 111640Z 09010KT 10SM FEW039 33/22 A3018 -220 51 1800 090/10 RMK AO2 T03280217
53917KNEW NEW20190911104510709/11/19 10:45:31  5-MIN KNEW 111645Z 11011KT 10SM FEW039 33/22 A3017 -220 53 1800 110/11 RMK AO2 T03280222
53917KNEW NEW20190911105011409/11/19 10:50:31  5-MIN KNEW 111650Z 10010KT 10SM FEW039 33/22 A3017 -220 51 1800 100/10 RMK AO2 SLP210 T03280217
53917KNEW NEW20190911105510709/11/19 10:55:31  5-MIN KNEW 111655Z 10010KT 10SM FEW039 32/22 A3017 -220 53 1700 100/10 RMK AO2 T03220217
53917KNEW NEW20190911110010709/11/19 11:00:31  5-MIN KNEW 111700Z 09013KT 10SM FEW040 33/22 A3017 -210 51 1800 090/13 RMK AO2 T03280217
53917KNEW NEW20190911110510709/11/19 11:05:31  5-MIN KNEW 111705Z 09012KT 10SM SCT040 32/22 A3017 -210 53 1700 090/12 RMK AO2 T03220217
53917KNEW NEW20190911111010709/11/19 11:10:31  5-MIN KNEW 111710Z 09011KT 10SM SCT040 33/22 A3017 -210 51 1800 090/11 RMK AO2 T03280217
53917KNEW NEW20190911111510709/11/19 11:15:31  5-MIN KNEW 111715Z 10011KT 10SM FEW040 33/22 A3016 -210 51 1800 100/11 RMK AO2 T03280217
53917KNEW NEW20190911112010709/11/19 11:20:31  5-MIN KNEW 111720Z 10009KT 10SM FEW040 33/22 A3016 -210 50 1900 100/09 RMK AO2 T03330217
53917KNEW NEW20190911112510709/11/19 11:25:31  5-MIN KNEW 111725Z 08010KT 10SM SCT040 33/22 A3016 -210 53 1800 080/10 RMK AO2 T03280222
53917KNEW NEW20190911113010709/11/19 11:30:31  5-MIN KNEW 111730Z 10011KT 10SM SCT040 32/22 A3016 -200 53 1800 100/11 RMK AO2 T03220217
53917KNEW NEW20190911113510709/11/19 11:35:31  5-MIN KNEW 111735Z 09010KT 10SM FEW043 32/21 A3016 -200 49 1800 090/10 RMK AO2 T03220206
53917KNEW NEW20190911114010709/11/19 11:40:31  5-MIN KNEW 111740Z 09010KT 10SM FEW043 33/22 A3016 -200 51 1800 090/10 RMK AO2 T03280217
53917KNEW NEW20190911114510709/11/19 11:45:31  5-MIN KNEW 111745Z 10009KT 10SM FEW043 33/22 A3015 -200 51 1800 100/09 RMK AO2 T03280217
53917KNEW NEW20190911115013209/11/19 11:50:31  5-MIN KNEW 111750Z 10012KT 10SM FEW043 33/22 A3015 -200 50 1900 100/12 RMK AO2 SLP204 T03330217 10333 20278 51011
53917KNEW NEW20190911115510409/11/19 11:55:31  5-MIN KNEW 111755Z 09011KT 10SM CLR 33/22 A3015 -200 50 1900 090/11 RMK AO2 T03330217
53917KNEW NEW20190911120010409/11/19 12:00:31  5-MIN KNEW 111800Z 09011KT 10SM CLR 33/22 A3015 -200 53 1800 090/11 RMK AO2 T03280222
53917KNEW NEW20190911120511009/11/19 12:05:31  5-MIN KNEW 111805Z 11010G19KT 10SM CLR 33/22 A3015 -200 53 1800 110/10G19 RMK AO2 T03280222
53917KNEW NEW20190911121011309/11/19 12:10:31  5-MIN KNEW 111810Z 10012G19KT 10SM FEW043 33/21 A3015 -200 49 1800 100/12G19 RMK AO2 T03280211
53917KNEW NEW20190911121510709/11/19 12:15:31  5-MIN KNEW 111815Z 11010KT 10SM FEW043 33/22 A3015 -190 51 1800 110/10 RMK AO2 T03280217
53917KNEW NEW20190911122011309/11/19 12:20:31  5-MIN KNEW 111820Z 10011G17KT 10SM FEW043 33/22 A3015 -190 51 1900 100/11G17 RMK AO2 T03330222
53917KNEW NEW20190911122510709/11/19 12:25:31  5-MIN KNEW 111825Z 09011KT 10SM FEW043 33/22 A3015 -190 50 1900 090/11 RMK AO2 T03330217
53917KNEW NEW20190911123010709/11/19 12:30:31  5-MIN KNEW 111830Z 10014KT 10SM SCT042 33/22 A3014 -190 51 1900 100/14 RMK AO2 T03330222
53917KNEW NEW20190911123510709/11/19 12:35:31  5-MIN KNEW 111835Z 08009KT 10SM SCT042 33/22 A3014 -190 50 1900 080/09 RMK AO2 T03330217
53917KNEW NEW20190911124010709/11/19 12:40:31  5-MIN KNEW 111840Z 10011KT 10SM SCT042 33/22 A3014 -190 51 1800 100/11 RMK AO2 T03280217
53917KNEW NEW20190911124510709/11/19 12:45:31  5-MIN KNEW 111845Z 09011KT 10SM FEW042 33/22 A3014 -180 53 1800 090/11 RMK AO2 T03280222
53917KNEW NEW20190911125011409/11/19 12:50:31  5-MIN KNEW 111850Z 09010KT 10SM FEW042 33/22 A3014 -180 53 1800 090/10 RMK AO2 SLP198 T03280222
53917KNEW NEW20190911125510709/11/19 12:55:31  5-MIN KNEW 111855Z 09012KT 10SM FEW042 33/22 A3013 -180 51 1900 090/12 RMK AO2 T03330222
53917KNEW NEW20190911130010709/11/19 13:00:31  5-MIN KNEW 111900Z 11013KT 10SM FEW041 33/22 A3013 -180 51 1800 110/13 RMK AO2 T03280217
53917KNEW NEW20190911130510409/11/19 13:05:31  5-MIN KNEW 111905Z 10010KT 10SM CLR 33/22 A3013 -180 51 1800 100/10 RMK AO2 T03280217
53917KNEW NEW20190911131010709/11/19 13:10:31  5-MIN KNEW 111910Z 09012KT 10SM FEW044 32/22 A3013 -180 55 1800 090/12 RMK AO2 T03220222
53917KNEW NEW20190911131510709/11/19 13:15:31  5-MIN KNEW 111915Z 10013KT 10SM FEW044 32/22 A3013 -170 55 1800 100/13 RMK AO2 T03220222
53917KNEW NEW20190911132010709/11/19 13:20:31  5-MIN KNEW 111920Z 10012KT 10SM FEW042 33/22 A3012 -170 53 1900 100/12 RMK AO2 T03280222
53917KNEW NEW20190911132510709/11/19 13:25:31  5-MIN KNEW 111925Z 10012KT 10SM FEW042 33/22 A3012 -170 51 1900 100/12 RMK AO2 T03280217
53917KNEW NEW20190911133010709/11/19 13:30:31  5-MIN KNEW 111930Z 10009KT 10SM FEW042 33/21 A3012 -170 48 1900 100/09 RMK AO2 T03330211
53917KNEW NEW20190911133510709/11/19 13:35:31  5-MIN KNEW 111935Z 11012KT 10SM FEW042 33/22 A3012 -160 51 1900 110/12 RMK AO2 T03280217
53917KNEW NEW20190911134010409/11/19 13:40:31  5-MIN KNEW 111940Z 10010KT 10SM CLR 33/22 A3011 -160 50 1900 100/10 RMK AO2 T03330217
53917KNEW NEW20190911134510409/11/19 13:45:31  5-MIN KNEW 111945Z 09011KT 10SM CLR 33/22 A3011 -160 50 1900 090/11 RMK AO2 T03330217
53917KNEW NEW20190911135011109/11/19 13:50:31  5-MIN KNEW 111950Z 09011KT 10SM CLR 33/22 A3011 -160 53 1900 090/11 RMK AO2 SLP188 T03280222
53917KNEW NEW20190911135510409/11/19 13:55:31  5-MIN KNEW 111955Z 11009KT 10SM CLR 33/22 A3010 -150 51 1900 110/09 RMK AO2 T03280217
53917KNEW NEW20190911140011009/11/19 14:00:31  5-MIN KNEW 112000Z 10010G16KT 10SM CLR 33/22 A3010 -150 50 1900 100/10G16 RMK AO2 T03330217
53917KNEW NEW20190911140510409/11/19 14:05:31  5-MIN KNEW 112005Z 10011KT 10SM CLR 33/22 A3010 -150 50 1900 100/11 RMK AO2 T03330217
53917KNEW NEW20190911141010709/11/19 14:10:31  5-MIN KNEW 112010Z 09010KT 10SM FEW042 33/22 A3010 -150 51 1900 090/10 RMK AO2 T03280217
53917KNEW NEW20190911141510709/11/19 14:15:31  5-MIN KNEW 112015Z 10013KT 10SM FEW042 33/22 A3010 -150 51 1900 100/13 RMK AO2 T03280217
53917KNEW NEW20190911142010709/11/19 14:20:31  5-MIN KNEW 112020Z 10010KT 10SM FEW044 33/22 A3010 -150 51 1900 100/10 RMK AO2 T03280217
53917KNEW NEW20190911142510709/11/19 14:25:31  5-MIN KNEW 112025Z 08011KT 10SM FEW041 33/22 A3010 -150 53 1900 080/11 RMK AO2 T03280222
53917KNEW NEW20190911143010709/11/19 14:30:31  5-MIN KNEW 112030Z 09010KT 10SM SCT043 33/22 A3010 -150 53 1900 090/10 RMK AO2 T03280222
53917KNEW NEW20190911143510709/11/19 14:35:31  5-MIN KNEW 112035Z 10011KT 10SM SCT043 33/22 A3010 -150 50 1900 100/11 RMK AO2 T03330217
53917KNEW NEW20190911144010709/11/19 14:40:31  5-MIN KNEW 112040Z 10010KT 10SM FEW043 33/22 A3010 -150 51 1900 100/10 RMK AO2 T03280217
53917KNEW NEW20190911144510709/11/19 14:45:31  5-MIN KNEW 112045Z 09009KT 10SM FEW043 33/22 A3010 -150 51 1900 090/09 RMK AO2 T03280217
53917KNEW NEW20190911145012009/11/19 14:50:31  5-MIN KNEW 112050Z 10009KT 10SM FEW043 33/22 A3010 -150 51 1900 100/09 RMK AO2 SLP185 T03280217 58010
53917KNEW NEW20190911145510709/11/19 14:55:31  5-MIN KNEW 112055Z 09009KT 10SM FEW042 33/22 A3010 -150 51 1900 090/09 RMK AO2 T03280217
53917KNEW NEW20190911150010709/11/19 15:00:31  5-MIN KNEW 112100Z 11010KT 10SM FEW042 33/22 A3010 -150 50 1900 110/10 RMK AO2 T03330217
53917KNEW NEW20190911150510709/11/19 15:05:31  5-MIN KNEW 112105Z 08010KT 10SM FEW042 33/22 A3009 -140 51 1900 080/10 RMK AO2 T03330222
53917KNEW NEW20190911151010709/11/19 15:10:31  5-MIN KNEW 112110Z 10010KT 10SM FEW042 33/22 A3009 -140 51 2000 100/10 RMK AO2 T03330222
53917KNEW NEW20190911151510709/11/19 15:15:31  5-MIN KNEW 112115Z 10008KT 10SM FEW042 33/22 A3009 -140 50 2000 100/08 RMK AO2 T03330217
53917KNEW NEW20190911152010709/11/19 15:20:31  5-MIN KNEW 112120Z 11010KT 10SM FEW042 33/22 A3009 -140 51 1900 110/10 RMK AO2 T03280217
53917KNEW NEW20190911152510709/11/19 15:25:31  5-MIN KNEW 112125Z 10010KT 10SM FEW042 33/22 A3009 -140 51 1900 100/10 RMK AO2 T03280217
53917KNEW NEW20190911153010709/11/19 15:30:31  5-MIN KNEW 112130Z 10009KT 10SM FEW042 33/22 A3008 -140 53 1900 100/09 RMK AO2 T03280222
53917KNEW NEW20190911153510709/11/19 15:35:31  5-MIN KNEW 112135Z 09009KT 10SM FEW042 33/22 A3008 -140 53 1900 090/09 RMK AO2 T03280222
53917KNEW NEW20190911154010409/11/19 15:40:31  5-MIN KNEW 112140Z 10009KT 10SM CLR 33/22 A3008 -140 51 1900 100/09 RMK AO2 T03280217
53917KNEW NEW20190911154510409/11/19 15:45:31  5-MIN KNEW 112145Z 10012KT 10SM CLR 33/22 A3008 -130 53 1900 100/12 RMK AO2 T03280222
53917KNEW NEW20190911155011109/11/19 15:50:31  5-MIN KNEW 112150Z 08009KT 10SM CLR 33/22 A3008 -130 53 1900 080/09 RMK AO2 SLP179 T03280222
53917KNEW NEW20190911155510409/11/19 15:55:31  5-MIN KNEW 112155Z 11011KT 10SM CLR 32/23 A3008 -130 57 1800 110/11 RMK AO2 T03220228
53917KNEW NEW20190911160010409/11/19 16:00:31  5-MIN KNEW 112200Z 09011KT 10SM CLR 33/23 A3008 -130 55 1900 090/11 RMK AO2 T03280228
53917KNEW NEW20190911160510409/11/19 16:05:31  5-MIN KNEW 112205Z 10011KT 10SM CLR 32/23 A3008 -130 57 1800 100/11 RMK AO2 T03220228
53917KNEW NEW20190911161010409/11/19 16:10:31  5-MIN KNEW 112210Z 09011KT 10SM CLR 32/22 A3008 -130 55 1800 090/11 RMK AO2 T03220222
53917KNEW NEW20190911161510409/11/19 16:15:31  5-MIN KNEW 112215Z 10013KT 10SM CLR 32/22 A3008 -130 53 1800 100/13 RMK AO2 T03220217
53917KNEW NEW20190911162010409/11/19 16:20:31  5-MIN KNEW 112220Z 10010KT 10SM CLR 32/21 A3008 -130 51 1800 100/10 RMK AO2 T03220211
53917KNEW NEW20190911162510409/11/19 16:25:31  5-MIN KNEW 112225Z 10010KT 10SM CLR 32/21 A3008 -130 49 1800 100/10 RMK AO2 T03220206
53917KNEW NEW20190911163010409/11/19 16:30:31  5-MIN KNEW 112230Z 10010KT 10SM CLR 32/21 A3008 -130 49 1800 100/10 RMK AO2 T03220206
53917KNEW NEW20190911163510409/11/19 16:35:31  5-MIN KNEW 112235Z 12012KT 10SM CLR 32/21 A3007 -130 49 1800 120/12 RMK AO2 T03220206
53917KNEW NEW20190911164010409/11/19 16:40:31  5-MIN KNEW 112240Z 11012KT 10SM CLR 32/22 A3007 -120 55 1800 110/12 RMK AO2 T03170217
53917KNEW NEW20190911164510409/11/19 16:45:31  5-MIN KNEW 112245Z 11012KT 10SM CLR 32/21 A3007 -120 51 1900 110/12 RMK AO2 T03220211
53917KNEW NEW20190911170510409/11/19 17:05:31  5-MIN KNEW 112305Z 11010KT 10SM CLR 32/23 A3007 -130 61 1800 110/10 RMK AO2 T03170233
53917KNEW NEW20190911171010409/11/19 17:10:31  5-MIN KNEW 112310Z 09011KT 10SM CLR 32/23 A3007 -120 58 1800 090/11 RMK AO2 T03170228
53917KNEW NEW20190911171511009/11/19 17:15:31  5-MIN KNEW 112315Z 11011G18KT 10SM CLR 32/23 A3007 -130 58 1800 110/11G18 RMK AO2 T03170228
53917KNEW NEW20190911172011009/11/19 17:20:31  5-MIN KNEW 112320Z 10012G18KT 10SM CLR 31/23 A3007 -130 60 1700 100/12G18 RMK AO2 T03110228
53917KNEW NEW20190911172510409/11/19 17:25:31  5-MIN KNEW 112325Z 10012KT 10SM CLR 31/23 A3007 -130 60 1700 100/12 RMK AO2 T03110228
53917KNEW NEW20190911173010409/11/19 17:30:31  5-MIN KNEW 112330Z 10010KT 10SM CLR 31/23 A3007 -120 63 1700 100/10 RMK AO2 T03110233
53917KNEW NEW20190911173510409/11/19 17:35:31  5-MIN KNEW 112335Z 10012KT 10SM CLR 31/23 A3007 -120 63 1700 100/12 RMK AO2 T03110233
53917KNEW NEW20190911174010409/11/19 17:40:31  5-MIN KNEW 112340Z 11010KT 10SM CLR 31/23 A3007 -120 63 1700 110/10 RMK AO2 T03110233
53917KNEW NEW20190911174510309/11/19 17:45:31  5-MIN KNEW 112345Z 11010KT 9SM CLR 31/23 A3007 -120 65 1700 110/10 RMK AO2 T03060233
53917KNEW NEW20190911175012809/11/19 17:50:31  5-MIN KNEW 112350Z 10011KT 9SM CLR 31/23 A3007 -120 65 1700 100/11 RMK AO2 SLP176 T03060233 10333 20306 56018
53917KNEW NEW20190911175510309/11/19 17:55:31  5-MIN KNEW 112355Z 10008KT 9SM CLR 31/23 A3007 -120 65 1700 100/08 RMK AO2 T03060233
53917KNEW NEW20190911180010309/11/19 18:00:31  5-MIN KNEW 120000Z 10010KT 9SM CLR 31/23 A3007 -120 65 1700 100/10 RMK AO2 T03060233
53917KNEW NEW20190911180510309/11/19 18:05:31  5-MIN KNEW 120005Z 10009KT 9SM CLR 31/23 A3007 -130 65 1700 100/09 RMK AO2 T03060233
53917KNEW NEW20190911181010309/11/19 18:10:31  5-MIN KNEW 120010Z 10010KT 9SM CLR 31/23 A3008 -130 65 1700 100/10 RMK AO2 T03060233
53917KNEW NEW20190911181510309/11/19 18:15:31  5-MIN KNEW 120015Z 10010KT 9SM CLR 31/23 A3008 -130 65 1700 100/10 RMK AO2 T03060233
53917KNEW NEW20190911182010409/11/19 18:20:31  5-MIN KNEW 120020Z 10008KT 10SM CLR 31/23 A3008 -130 65 1700 100/08 RMK AO2 T03060233
53917KNEW NEW20190911182510409/11/19 18:25:31  5-MIN KNEW 120025Z 11008KT 10SM CLR 30/23 A3008 -130 67 1600 110/08 RMK AO2 T03000233
53917KNEW NEW20190911183010409/11/19 18:30:31  5-MIN KNEW 120030Z 12007KT 10SM CLR 30/23 A3008 -140 67 1600 120/07 RMK AO2 T03000233
53917KNEW NEW20190911183510409/11/19 18:35:31  5-MIN KNEW 120035Z 12009KT 10SM CLR 30/23 A3009 -140 65 1600 120/09 RMK AO2 T03000228
53917KNEW NEW20190911184010409/11/19 18:40:31  5-MIN KNEW 120040Z 12009KT 10SM CLR 30/23 A3009 -140 65 1600 120/09 RMK AO2 T03000228
53917KNEW NEW20190911184510409/11/19 18:45:31  5-MIN KNEW 120045Z 13007KT 10SM CLR 30/23 A3009 -140 65 1600 130/07 RMK AO2 T03000228
53917KNEW NEW20190911185011109/11/19 18:50:31  5-MIN KNEW 120050Z 13005KT 10SM CLR 30/23 A3009 -140 65 1600 130/05 RMK AO2 SLP183 T03000228
53917KNEW NEW20190911185510409/11/19 18:55:31  5-MIN KNEW 120055Z 14006KT 10SM CLR 29/23 A3009 -140 67 1500 140/06 RMK AO2 T02940228
53917KNEW NEW20190911190010409/11/19 19:00:31  5-MIN KNEW 120100Z 13006KT 10SM CLR 29/23 A3009 -140 67 1500 130/06 RMK AO2 T02940228
53917KNEW NEW20190911190510709/11/19 19:05:31  5-MIN KNEW 120105Z 14005KT 10SM FEW029 29/23 A3009 -140 67 1500 140/05 RMK AO2 T02940228
53917KNEW NEW20190911191010709/11/19 19:10:31  5-MIN KNEW 120110Z 13006KT 10SM FEW029 29/23 A3009 -140 67 1500 130/06 RMK AO2 T02940228
53917KNEW NEW20190911191510709/11/19 19:15:31  5-MIN KNEW 120115Z 13007KT 10SM FEW031 29/23 A3009 -140 67 1500 130/07 RMK AO2 T02940228
53917KNEW NEW20190911192010709/11/19 19:20:31  5-MIN KNEW 120120Z 13006KT 10SM FEW031 29/23 A3009 -140 69 1500 130/06 RMK AO2 T02940233
53917KNEW NEW20190911192510709/11/19 19:25:31  5-MIN KNEW 120125Z 13006KT 10SM FEW031 29/23 A3009 -140 69 1500 130/06 RMK AO2 T02940233
53917KNEW NEW20190911193010709/11/19 19:30:31  5-MIN KNEW 120130Z 13005KT 10SM FEW030 29/23 A3010 -150 69 1500 130/05 RMK AO2 T02940233
53917KNEW NEW20190911193510709/11/19 19:35:31  5-MIN KNEW 120135Z 14006KT 10SM FEW030 29/23 A3010 -150 69 1500 140/06 RMK AO2 T02940233
53917KNEW NEW20190911194010409/11/19 19:40:31  5-MIN KNEW 120140Z 14006KT 10SM CLR 29/23 A3010 -150 69 1500 140/06 RMK AO2 T02940233
53917KNEW NEW20190911194510409/11/19 19:45:31  5-MIN KNEW 120145Z 14007KT 10SM CLR 29/23 A3010 -150 71 1400 140/07 RMK AO2 T02890233
53917KNEW NEW20190911195011109/11/19 19:50:31  5-MIN KNEW 120150Z 14006KT 10SM CLR 29/23 A3011 -160 71 1400 140/06 RMK AO2 SLP188 T02890233
53917KNEW NEW20190911195510909/11/19 19:55:31  5-MIN KNEW 120155Z AUTO 13004KT 10SM CLR 29/23 A3011 -160 71 1400 130/04 RMK AO2 T02890233
53917KNEW NEW20190911200010909/11/19 20:00:31  5-MIN KNEW 120200Z AUTO 14006KT 10SM CLR 29/23 A3011 -160 71 1400 140/06 RMK AO2 T02890233
53917KNEW NEW20190911200510909/11/19 20:05:31  5-MIN KNEW 120205Z AUTO 14007KT 10SM CLR 29/23 A3011 -160 71 1400 140/07 RMK AO2 T02890233
53917KNEW NEW20190911201010909/11/19 20:10:31  5-MIN KNEW 120210Z AUTO 14005KT 10SM CLR 29/23 A3011 -160 71 1400 140/05 RMK AO2 T02890233
53917KNEW NEW20190911201510909/11/19 20:15:31  5-MIN KNEW 120215Z AUTO 13004KT 10SM CLR 29/24 A3011 -160 74 1400 130/04 RMK AO2 T02890239
53917KNEW NEW20190911202010909/11/19 20:20:31  5-MIN KNEW 120220Z AUTO 13005KT 10SM CLR 29/24 A3011 -160 74 1400 130/05 RMK AO2 T02890239
53917KNEW NEW20190911202510909/11/19 20:25:31  5-MIN KNEW 120225Z AUTO 13005KT 10SM CLR 29/24 A3011 -160 74 1400 130/05 RMK AO2 T02890239
53917KNEW NEW20190911203010909/11/19 20:30:31  5-MIN KNEW 120230Z AUTO 12007KT 10SM CLR 29/23 A3011 -160 71 1400 120/07 RMK AO2 T02890233
53917KNEW NEW20190911203510909/11/19 20:35:31  5-MIN KNEW 120235Z AUTO 13007KT 10SM CLR 29/23 A3011 -160 71 1400 130/07 RMK AO2 T02890233
53917KNEW NEW20190911204010909/11/19 20:40:31  5-MIN KNEW 120240Z AUTO 14006KT 10SM CLR 29/23 A3011 -160 71 1400 140/06 RMK AO2 T02890233
53917KNEW NEW20190911204510909/11/19 20:45:31  5-MIN KNEW 120245Z AUTO 13005KT 10SM CLR 29/23 A3011 -160 71 1400 130/05 RMK AO2 T02890233
53917KNEW NEW20190911205012209/11/19 20:50:31  5-MIN KNEW 120250Z AUTO 12006KT 10SM CLR 29/23 A3012 -170 71 1400 120/06 RMK AO2 SLP192 T02890233 56009
53917KNEW NEW20190911205510909/11/19 20:55:31  5-MIN KNEW 120255Z AUTO 13005KT 10SM CLR 29/23 A3012 -170 71 1400 130/05 RMK AO2 T02890233
53917KNEW NEW20190911210010909/11/19 21:00:31  5-MIN KNEW 120300Z AUTO 13005KT 10SM CLR 29/23 A3012 -170 71 1400 130/05 RMK AO2 T02890233
53917KNEW NEW20190911210510909/11/19 21:05:31  5-MIN KNEW 120305Z AUTO 13004KT 10SM CLR 29/23 A3012 -170 71 1400 130/04 RMK AO2 T02890233
53917KNEW NEW20190911211010909/11/19 21:10:31  5-MIN KNEW 120310Z AUTO 14005KT 10SM CLR 28/23 A3012 -170 74 1400 140/05 RMK AO2 T02830233
53917KNEW NEW20190911211510909/11/19 21:15:31  5-MIN KNEW 120315Z AUTO 14005KT 10SM CLR 28/23 A3012 -170 74 1400 140/05 RMK AO2 T02830233
53917KNEW NEW20190911212010909/11/19 21:20:31  5-MIN KNEW 120320Z AUTO 13004KT 10SM CLR 29/23 A3012 -170 71 1400 130/04 RMK AO2 T02890233
53917KNEW NEW20190911212510909/11/19 21:25:31  5-MIN KNEW 120325Z AUTO 13005KT 10SM CLR 28/23 A3012 -170 74 1400 130/05 RMK AO2 T02830233
53917KNEW NEW20190911213010909/11/19 21:30:31  5-MIN KNEW 120330Z AUTO 14005KT 10SM CLR 29/23 A3012 -170 71 1400 140/05 RMK AO2 T02890233
53917KNEW NEW20190911213510909/11/19 21:35:31  5-MIN KNEW 120335Z AUTO 13004KT 10SM CLR 28/23 A3012 -170 74 1400 130/04 RMK AO2 T02830233
53917KNEW NEW20190911214010909/11/19 21:40:31  5-MIN KNEW 120340Z AUTO 14004KT 10SM CLR 28/23 A3012 -170 74 1400 140/04 RMK AO2 T02830233
53917KNEW NEW20190911214510909/11/19 21:45:31  5-MIN KNEW 120345Z AUTO 14005KT 10SM CLR 28/23 A3012 -160 74 1400 140/05 RMK AO2 T02830233
53917KNEW NEW20190911215011609/11/19 21:50:31  5-MIN KNEW 120350Z AUTO 14005KT 10SM CLR 28/23 A3011 -160 71 1400 140/05 RMK AO2 SLP191 T02830228
53917KNEW NEW20190911215510909/11/19 21:55:31  5-MIN KNEW 120355Z AUTO 14006KT 10SM CLR 28/23 A3011 -160 71 1400 140/06 RMK AO2 T02830228
53917KNEW NEW20190911220010909/11/19 22:00:31  5-MIN KNEW 120400Z AUTO 14005KT 10SM CLR 28/23 A3011 -160 71 1400 140/05 RMK AO2 T02830228
53917KNEW NEW20190911220510909/11/19 22:05:31  5-MIN KNEW 120405Z AUTO 14006KT 10SM CLR 28/23 A3011 -160 71 1400 140/06 RMK AO2 T02830228
53917KNEW NEW20190911221010909/11/19 22:10:31  5-MIN KNEW 120410Z AUTO 14006KT 10SM CLR 28/23 A3010 -150 71 1400 140/06 RMK AO2 T02830228
53917KNEW NEW20190911221510909/11/19 22:15:31  5-MIN KNEW 120415Z AUTO 13006KT 10SM CLR 28/23 A3010 -150 71 1400 130/06 RMK AO2 T02830228
53917KNEW NEW20190911222010909/11/19 22:20:31  5-MIN KNEW 120420Z AUTO 14005KT 10SM CLR 28/23 A3010 -150 71 1400 140/05 RMK AO2 T02830228
53917KNEW NEW20190911222510909/11/19 22:25:31  5-MIN KNEW 120425Z AUTO 14005KT 10SM CLR 28/23 A3010 -150 71 1400 140/05 RMK AO2 T02830228
53917KNEW NEW20190911223010909/11/19 22:30:31  5-MIN KNEW 120430Z AUTO 13005KT 10SM CLR 28/23 A3010 -150 71 1400 130/05 RMK AO2 T02830228
53917KNEW NEW20190911223510909/11/19 22:35:31  5-MIN KNEW 120435Z AUTO 12005KT 10SM CLR 28/23 A3010 -150 71 1400 120/05 RMK AO2 T02830228
53917KNEW NEW20190911224010909/11/19 22:40:31  5-MIN KNEW 120440Z AUTO 12006KT 10SM CLR 28/23 A3010 -150 71 1400 120/06 RMK AO2 T02830228
53917KNEW NEW20190911224510909/11/19 22:45:31  5-MIN KNEW 120445Z AUTO 12006KT 10SM CLR 28/23 A3010 -150 71 1400 120/06 RMK AO2 T02830228
53917KNEW NEW20190911225011609/11/19 22:50:31  5-MIN KNEW 120450Z AUTO 12005KT 10SM CLR 28/23 A3009 -140 71 1400 120/05 RMK AO2 SLP183 T02830228
53917KNEW NEW20190911225510909/11/19 22:55:31  5-MIN KNEW 120455Z AUTO 12006KT 10SM CLR 28/23 A3009 -140 71 1400 120/06 RMK AO2 T02830228
53917KNEW NEW20190911230010909/11/19 23:00:31  5-MIN KNEW 120500Z AUTO 12005KT 10SM CLR 28/23 A3009 -140 71 1400 120/05 RMK AO2 T02830228
53917KNEW NEW20190911230510909/11/19 23:05:31  5-MIN KNEW 120505Z AUTO 12005KT 10SM CLR 28/23 A3009 -140 71 1400 120/05 RMK AO2 T02830228
53917KNEW NEW20190911231010909/11/19 23:10:31  5-MIN KNEW 120510Z AUTO 12005KT 10SM CLR 28/23 A3009 -140 71 1400 120/05 RMK AO2 T02830228
53917KNEW NEW20190911231510909/11/19 23:15:31  5-MIN KNEW 120515Z AUTO 12005KT 10SM CLR 28/23 A3008 -140 71 1400 120/05 RMK AO2 T02830228
53917KNEW NEW20190911232010909/11/19 23:20:31  5-MIN KNEW 120520Z AUTO 12005KT 10SM CLR 28/23 A3008 -140 71 1400 120/05 RMK AO2 T02830228
53917KNEW NEW20190911232510909/11/19 23:25:31  5-MIN KNEW 120525Z AUTO 12005KT 10SM CLR 28/23 A3008 -130 71 1400 120/05 RMK AO2 T02830228
53917KNEW NEW20190911233010909/11/19 23:30:31  5-MIN KNEW 120530Z AUTO 12005KT 10SM CLR 28/23 A3008 -130 71 1400 120/05 RMK AO2 T02830228
53917KNEW NEW20190911233510909/11/19 23:35:31  5-MIN KNEW 120535Z AUTO 12004KT 10SM CLR 28/23 A3008 -130 71 1400 120/04 RMK AO2 T02830228
53917KNEW NEW20190911234010909/11/19 23:40:31  5-MIN KNEW 120540Z AUTO 14003KT 10SM CLR 28/23 A3008 -130 74 1300 140/03 RMK AO2 T02780228
53917KNEW NEW20190911234510909/11/19 23:45:31  5-MIN KNEW 120545Z AUTO 14004KT 10SM CLR 28/23 A3008 -130 74 1300 140/04 RMK AO2 T02780228
53917KNEW NEW20190911235014409/11/19 23:50:31  5-MIN KNEW 120550Z AUTO 13004KT 10SM CLR 28/23 A3008 -130 74 1300 130/04 RMK AO2 SLP179 T02780228 10306 20278 403330267 51016
53917KNEW NEW20190911235510909/11/19 23:55:31  5-MIN KNEW 120555Z AUTO 12004KT 10SM CLR 28/23 A3008 -130 74 1300 120/04 RMK AO2 T02780228
53917KNEW NEW20190912000010909/12/19 00:00:31  5-MIN KNEW 120600Z AUTO 12004KT 10SM CLR 28/23 A3008 -130 74 1300 120/04 RMK AO2 T02780228
53917KNEW NEW20190912000510909/12/19 00:05:31  5-MIN KNEW 120605Z AUTO 13004KT 10SM CLR 28/23 A3008 -130 74 1300 130/04 RMK AO2 T02780228
53917KNEW NEW20190912001010909/12/19 00:10:31  5-MIN KNEW 120610Z AUTO 13005KT 10SM CLR 28/23 A3008 -130 74 1300 130/05 RMK AO2 T02780228
53917KNEW NEW20190912001510909/12/19 00:15:31  5-MIN KNEW 120615Z AUTO 13004KT 10SM CLR 28/23 A3008 -130 74 1300 130/04 RMK AO2 T02780228
53917KNEW NEW20190912002010909/12/19 00:20:31  5-MIN KNEW 120620Z AUTO 13003KT 10SM CLR 28/23 A3008 -130 74 1300 130/03 RMK AO2 T02780228
53917KNEW NEW20190912002510909/12/19 00:25:31  5-MIN KNEW 120625Z AUTO 11004KT 10SM CLR 28/23 A3008 -130 74 1300 110/04 RMK AO2 T02780228
53917KNEW NEW20190912003010909/12/19 00:30:31  5-MIN KNEW 120630Z AUTO 11005KT 10SM CLR 28/23 A3008 -130 74 1400 110/05 RMK AO2 T02780228
53917KNEW NEW20190912003510909/12/19 00:35:31  5-MIN KNEW 120635Z AUTO 11005KT 10SM CLR 28/23 A3007 -130 76 1400 110/05 RMK AO2 T02780233
53917KNEW NEW20190912004010909/12/19 00:40:31  5-MIN KNEW 120640Z AUTO 10005KT 10SM CLR 28/23 A3007 -130 74 1400 100/05 RMK AO2 T02830233
53917KNEW NEW20190912004510909/12/19 00:45:31  5-MIN KNEW 120645Z AUTO 10004KT 10SM CLR 28/23 A3007 -130 74 1400 100/04 RMK AO2 T02830233
53917KNEW NEW20190912005011509/12/19 00:50:31  5-MIN KNEW 120650Z AUTO 11005KT 9SM CLR 28/23 A3007 -130 74 1400 110/05 RMK AO2 SLP177 T02830233
53917KNEW NEW20190912005510909/12/19 00:55:31  5-MIN KNEW 120655Z AUTO 11003KT 10SM CLR 28/23 A3007 -130 74 1400 110/03 RMK AO2 T02830233
53917KNEW NEW20190912010010909/12/19 01:00:31  5-MIN KNEW 120700Z AUTO 09005KT 10SM CLR 28/23 A3007 -130 74 1400 090/05 RMK AO2 T02830233
53917KNEW NEW20190912010510909/12/19 01:05:31  5-MIN KNEW 120705Z AUTO 10004KT 10SM CLR 28/23 A3007 -120 74 1400 100/04 RMK AO2 T02830233
53917KNEW NEW20190912011010909/12/19 01:10:31  5-MIN KNEW 120710Z AUTO 10004KT 10SM CLR 28/23 A3007 -120 74 1400 100/04 RMK AO2 T02830233
53917KNEW NEW20190912011510909/12/19 01:15:31  5-MIN KNEW 120715Z AUTO 10006KT 10SM CLR 28/23 A3007 -120 74 1400 100/06 RMK AO2 T02830233
53917KNEW NEW20190912012010909/12/19 01:20:31  5-MIN KNEW 120720Z AUTO 10005KT 10SM CLR 28/23 A3007 -120 71 1400 100/05 RMK AO2 T02830228
53917KNEW NEW20190912012510909/12/19 01:25:31  5-MIN KNEW 120725Z AUTO 10005KT 10SM CLR 28/23 A3007 -120 74 1400 100/05 RMK AO2 T02830233
53917KNEW NEW20190912013010909/12/19 01:30:31  5-MIN KNEW 120730Z AUTO 10005KT 10SM CLR 28/23 A3007 -120 74 1400 100/05 RMK AO2 T02830233
53917KNEW NEW20190912013510909/12/19 01:35:31  5-MIN KNEW 120735Z AUTO 10005KT 10SM CLR 28/23 A3007 -120 74 1400 100/05 RMK AO2 T02830233
53917KNEW NEW20190912014010909/12/19 01:40:31  5-MIN KNEW 120740Z AUTO 10004KT 10SM CLR 28/23 A3006 -120 74 1400 100/04 RMK AO2 T02830233
53917KNEW NEW20190912014510909/12/19 01:45:31  5-MIN KNEW 120745Z AUTO 10004KT 10SM CLR 28/23 A3006 -120 74 1400 100/04 RMK AO2 T02830233
53917KNEW NEW20190912015011609/12/19 01:50:31  5-MIN KNEW 120750Z AUTO 10004KT 10SM CLR 28/23 A3006 -120 71 1400 100/04 RMK AO2 SLP174 T02830228
53917KNEW NEW20190912015510909/12/19 01:55:31  5-MIN KNEW 120755Z AUTO 09004KT 10SM CLR 28/23 A3006 -110 71 1400 090/04 RMK AO2 T02830228
53917KNEW NEW20190912020010909/12/19 02:00:31  5-MIN KNEW 120800Z AUTO 11003KT 10SM CLR 28/23 A3006 -110 74 1400 110/03 RMK AO2 T02780228
53917KNEW NEW20190912020510909/12/19 02:05:31  5-MIN KNEW 120805Z AUTO 11004KT 10SM CLR 28/23 A3006 -120 74 1400 110/04 RMK AO2 T02780228
53917KNEW NEW20190912021010909/12/19 02:10:31  5-MIN KNEW 120810Z AUTO 11004KT 10SM CLR 28/23 A3006 -110 74 1400 110/04 RMK AO2 T02780228
53917KNEW NEW20190912021510909/12/19 02:15:31  5-MIN KNEW 120815Z AUTO 11004KT 10SM CLR 28/23 A3006 -110 74 1400 110/04 RMK AO2 T02780228
53917KNEW NEW20190912022010909/12/19 02:20:31  5-MIN KNEW 120820Z AUTO 11004KT 10SM CLR 28/23 A3006 -110 74 1400 110/04 RMK AO2 T02780228
53917KNEW NEW20190912022510909/12/19 02:25:31  5-MIN KNEW 120825Z AUTO 11003KT 10SM CLR 28/23 A3006 -110 74 1400 110/03 RMK AO2 T02780228
53917KNEW NEW20190912023010909/12/19 02:30:31  5-MIN KNEW 120830Z AUTO 12003KT 10SM CLR 28/23 A3006 -110 74 1400 120/03 RMK AO2 T02780228
53917KNEW NEW20190912023510909/12/19 02:35:31  5-MIN KNEW 120835Z AUTO 15004KT 10SM CLR 27/23 A3006 -110 76 1300 150/04 RMK AO2 T02720228
53917KNEW NEW20190912024010909/12/19 02:40:31  5-MIN KNEW 120840Z AUTO 14003KT 10SM CLR 27/23 A3006 -110 76 1300 140/03 RMK AO2 T02720228
53917KNEW NEW20190912024510909/12/19 02:45:31  5-MIN KNEW 120845Z AUTO 13003KT 10SM CLR 27/23 A3005 -110 76 1300 130/03 RMK AO2 T02720228
53917KNEW NEW20190912025012209/12/19 02:50:31  5-MIN KNEW 120850Z AUTO 13003KT 10SM CLR 27/23 A3006 -110 76 1300 130/03 RMK AO2 SLP171 T02720228 58013
53917KNEW NEW20190912025510909/12/19 02:55:31  5-MIN KNEW 120855Z AUTO 13004KT 10SM CLR 27/23 A3006 -110 76 1300 130/04 RMK AO2 T02720228
53917KNEW NEW20190912030010909/12/19 03:00:31  5-MIN KNEW 120900Z AUTO 12004KT 10SM CLR 27/23 A3006 -110 76 1300 120/04 RMK AO2 T02720228
53917KNEW NEW20190912030510909/12/19 03:05:31  5-MIN KNEW 120905Z AUTO 13004KT 10SM CLR 27/23 A3006 -110 76 1300 130/04 RMK AO2 T02720228
53917KNEW NEW20190912031010909/12/19 03:10:31  5-MIN KNEW 120910Z AUTO 14004KT 10SM CLR 27/23 A3006 -110 79 1200 140/04 RMK AO2 T02670228
53917KNEW NEW20190912031510909/12/19 03:15:31  5-MIN KNEW 120915Z AUTO 14004KT 10SM CLR 27/23 A3006 -110 79 1200 140/04 RMK AO2 T02670228
53917KNEW NEW20190912032010909/12/19 03:20:31  5-MIN KNEW 120920Z AUTO 13004KT 10SM CLR 27/23 A3006 -110 79 1200 130/04 RMK AO2 T02670228
53917KNEW NEW20190912032510909/12/19 03:25:31  5-MIN KNEW 120925Z AUTO 14003KT 10SM CLR 27/23 A3006 -110 79 1200 140/03 RMK AO2 T02670228
53917KNEW NEW20190912033010909/12/19 03:30:31  5-MIN KNEW 120930Z AUTO 16003KT 10SM CLR 26/23 A3006 -110 81 1200 160/03 RMK AO2 T02610228
53917KNEW NEW20190912033510909/12/19 03:35:31  5-MIN KNEW 120935Z AUTO 16003KT 10SM CLR 26/22 A3006 -110 79 1200 160/03 RMK AO2 T02610222
53917KNEW NEW20190912034010909/12/19 03:40:31  5-MIN KNEW 120940Z AUTO 16003KT 10SM CLR 26/22 A3006 -120 81 1100 160/03 RMK AO2 T02560222
53917KNEW NEW20190912034510909/12/19 03:45:31  5-MIN KNEW 120945Z AUTO 16003KT 10SM CLR 26/23 A3007 -120 81 1200 160/03 RMK AO2 T02610228
53917KNEW NEW20190912035011609/12/19 03:50:31  5-MIN KNEW 120950Z AUTO 16003KT 10SM CLR 27/23 A3007 -120 79 1200 160/03 RMK AO2 SLP176 T02670228
53917KNEW NEW20190912035510909/12/19 03:55:31  5-MIN KNEW 120955Z AUTO 14003KT 10SM CLR 27/23 A3007 -120 79 1200 140/03 RMK AO2 T02670228
53917KNEW NEW20190912040010909/12/19 04:00:31  5-MIN KNEW 121000Z AUTO 00000KT 10SM CLR 27/23 A3007 -120 79 1200 000/00 RMK AO2 T02670228
53917KNEW NEW20190912040510909/12/19 04:05:31  5-MIN KNEW 121005Z AUTO 00000KT 10SM CLR 27/23 A3007 -120 79 1200 000/00 RMK AO2 T02670228
53917KNEW NEW20190912041010909/12/19 04:10:31  5-MIN KNEW 121010Z AUTO 06005KT 10SM CLR 27/23 A3007 -120 79 1300 060/05 RMK AO2 T02720233
53917KNEW NEW20190912041510909/12/19 04:15:31  5-MIN KNEW 121015Z AUTO 07005KT 10SM CLR 28/24 A3007 -120 76 1400 070/05 RMK AO2 T02830239
53917KNEW NEW20190912042010909/12/19 04:20:31  5-MIN KNEW 121020Z AUTO 07005KT 10SM CLR 28/24 A3007 -120 76 1400 070/05 RMK AO2 T02830239
53917KNEW NEW20190912042510909/12/19 04:25:31  5-MIN KNEW 121025Z AUTO 07004KT 10SM CLR 28/24 A3007 -120 76 1400 070/04 RMK AO2 T02830239
53917KNEW NEW20190912043010909/12/19 04:30:31  5-MIN KNEW 121030Z AUTO 08005KT 10SM CLR 28/24 A3007 -120 76 1400 080/05 RMK AO2 T02830239
53917KNEW NEW20190912043510909/12/19 04:35:31  5-MIN KNEW 121035Z AUTO 07005KT 10SM CLR 28/24 A3007 -120 76 1400 070/05 RMK AO2 T02830239
53917KNEW NEW20190912044010909/12/19 04:40:31  5-MIN KNEW 121040Z AUTO 06006KT 10SM CLR 28/24 A3007 -130 76 1400 060/06 RMK AO2 T02830239
53917KNEW NEW20190912044510909/12/19 04:45:31  5-MIN KNEW 121045Z AUTO 08005KT 10SM CLR 28/24 A3008 -130 76 1400 080/05 RMK AO2 T02830239
53917KNEW NEW20190912045011609/12/19 04:50:31  5-MIN KNEW 121050Z AUTO 07006KT 10SM CLR 28/24 A3008 -130 76 1400 070/06 RMK AO2 SLP178 T02830239
53917KNEW NEW20190912045510909/12/19 04:55:31  5-MIN KNEW 121055Z AUTO 07006KT 10SM CLR 28/24 A3008 -130 76 1400 070/06 RMK AO2 T02830239
53917KNEW NEW20190912050010909/12/19 05:00:31  5-MIN KNEW 121100Z AUTO 07006KT 10SM CLR 28/24 A3008 -130 76 1400 070/06 RMK AO2 T02830239
53917KNEW NEW20190912050510909/12/19 05:05:31  5-MIN KNEW 121105Z AUTO 07006KT 10SM CLR 28/24 A3008 -130 76 1400 070/06 RMK AO2 T02830239
53917KNEW NEW20190912051010909/12/19 05:10:31  5-MIN KNEW 121110Z AUTO 07005KT 10SM CLR 28/23 A3008 -130 74 1400 070/05 RMK AO2 T02830233
53917KNEW NEW20190912051510909/12/19 05:15:31  5-MIN KNEW 121115Z AUTO 07006KT 10SM CLR 28/24 A3008 -130 76 1400 070/06 RMK AO2 T02830239
53917KNEW NEW20190912052010909/12/19 05:20:31  5-MIN KNEW 121120Z AUTO 07006KT 10SM CLR 28/24 A3008 -130 76 1400 070/06 RMK AO2 T02830239
53917KNEW NEW20190912052510909/12/19 05:25:31  5-MIN KNEW 121125Z AUTO 07006KT 10SM CLR 28/24 A3008 -130 76 1400 070/06 RMK AO2 T02830239
53917KNEW NEW20190912053010909/12/19 05:30:31  5-MIN KNEW 121130Z AUTO 07006KT 10SM CLR 28/24 A3008 -130 76 1400 070/06 RMK AO2 T02830239
53917KNEW NEW20190912053510909/12/19 05:35:31  5-MIN KNEW 121135Z AUTO 06006KT 10SM CLR 28/24 A3008 -140 76 1400 060/06 RMK AO2 T02830239
53917KNEW NEW20190912054010909/12/19 05:40:31  5-MIN KNEW 121140Z AUTO 06006KT 10SM CLR 28/24 A3009 -140 76 1400 060/06 RMK AO2 T02830239
53917KNEW NEW20190912054510809/12/19 05:45:31  5-MIN KNEW 121145Z AUTO 05006KT 9SM CLR 28/24 A3009 -140 76 1400 050/06 RMK AO2 T02830239
53917KNEW NEW20190912055013309/12/19 05:50:31  5-MIN KNEW 121150Z AUTO 05007KT 9SM CLR 28/24 A3009 -140 76 1400 050/07 RMK AO2 SLP182 T02830239 10283 20256 58008
53917KNEW NEW20190912055510309/12/19 05:55:31  5-MIN KNEW 121155Z 05007KT 8SM CLR 28/24 A3009 -140 76 1400 050/07 RMK AO2 T02830239
53917KNEW NEW20190912060010309/12/19 06:00:31  5-MIN KNEW 121200Z 06006KT 8SM CLR 28/24 A3009 -140 76 1400 060/06 RMK AO2 T02830239
53917KNEW NEW20190912060510309/12/19 06:05:31  5-MIN KNEW 121205Z 06007KT 8SM CLR 28/24 A3009 -140 76 1400 060/07 RMK AO2 T02830239
53917KNEW NEW20190912061010309/12/19 06:10:31  5-MIN KNEW 121210Z 06006KT 8SM CLR 28/24 A3009 -140 76 1400 060/06 RMK AO2 T02830239
53917KNEW NEW20190912061510309/12/19 06:15:31  5-MIN KNEW 121215Z 06006KT 8SM CLR 28/24 A3009 -140 76 1400 060/06 RMK AO2 T02830239
53917KNEW NEW20190912062010309/12/19 06:20:31  5-MIN KNEW 121220Z 07007KT 9SM CLR 28/24 A3009 -140 76 1400 070/07 RMK AO2 T02830239
53917KNEW NEW20190912062510309/12/19 06:25:31  5-MIN KNEW 121225Z 05008KT 9SM CLR 28/24 A3009 -140 76 1400 050/08 RMK AO2 T02830239
53917KNEW NEW20190912063010309/12/19 06:30:31  5-MIN KNEW 121230Z 06008KT 9SM CLR 29/24 A3009 -140 74 1500 060/08 RMK AO2 T02890239
53917KNEW NEW20190912063510309/12/19 06:35:31  5-MIN KNEW 121235Z 06008KT 9SM CLR 29/23 A3009 -140 71 1500 060/08 RMK AO2 T02890233
53917KNEW NEW20190912064010309/12/19 06:40:31  5-MIN KNEW 121240Z 06009KT 9SM CLR 29/23 A3009 -140 71 1500 060/09 RMK AO2 T02890233
53917KNEW NEW20190912064510309/12/19 06:45:31  5-MIN KNEW 121245Z 06008KT 9SM CLR 29/23 A3009 -140 71 1500 060/08 RMK AO2 T02890233
53917KNEW NEW20190912065011009/12/19 06:50:31  5-MIN KNEW 121250Z 05007KT 9SM CLR 29/23 A3009 -140 71 1500 050/07 RMK AO2 SLP184 T02890233
53917KNEW NEW20190912065510309/12/19 06:55:31  5-MIN KNEW 121255Z 04007KT 9SM CLR 29/24 A3010 -150 74 1500 040/07 RMK AO2 T02890239
53917KNEW NEW20190912070010309/12/19 07:00:31  5-MIN KNEW 121300Z 06008KT 9SM CLR 29/24 A3010 -150 74 1500 060/08 RMK AO2 T02890239
53917KNEW NEW20190912070510309/12/19 07:05:31  5-MIN KNEW 121305Z 06008KT 9SM CLR 29/23 A3010 -150 71 1500 060/08 RMK AO2 T02890233
53917KNEW NEW20190912071010309/12/19 07:10:31  5-MIN KNEW 121310Z 06007KT 9SM CLR 29/23 A3010 -150 71 1400 060/07 RMK AO2 T02890233
53917KNEW NEW20190912071510309/12/19 07:15:31  5-MIN KNEW 121315Z 05008KT 9SM CLR 29/23 A3010 -150 69 1500 050/08 RMK AO2 T02940233
53917KNEW NEW20190912072010309/12/19 07:20:31  5-MIN KNEW 121320Z 05008KT 9SM CLR 29/23 A3011 -150 69 1500 050/08 RMK AO2 T02940233
53917KNEW NEW20190912072510309/12/19 07:25:31  5-MIN KNEW 121325Z 05007KT 9SM CLR 29/23 A3011 -150 69 1500 050/07 RMK AO2 T02940233
53917KNEW NEW20190912073010309/12/19 07:30:31  5-MIN KNEW 121330Z 05007KT 9SM CLR 29/23 A3011 -160 67 1500 050/07 RMK AO2 T02940228
53917KNEW NEW20190912073510409/12/19 07:35:31  5-MIN KNEW 121335Z 06008KT 10SM CLR 29/23 A3011 -160 67 1500 060/08 RMK AO2 T02940228
53917KNEW NEW20190912074010309/12/19 07:40:31  5-MIN KNEW 121340Z 05008KT 9SM CLR 29/23 A3011 -160 69 1500 050/08 RMK AO2 T02940233
53917KNEW NEW20190912074510309/12/19 07:45:31  5-MIN KNEW 121345Z 05008KT 9SM CLR 29/23 A3011 -160 69 1500 050/08 RMK AO2 T02940233
53917KNEW NEW20190912075011009/12/19 07:50:31  5-MIN KNEW 121350Z 06008KT 9SM CLR 30/23 A3011 -160 67 1600 060/08 RMK AO2 SLP189 T03000233
53917KNEW NEW20190912075510309/12/19 07:55:31  5-MIN KNEW 121355Z 05008KT 9SM CLR 30/23 A3011 -160 67 1600 050/08 RMK AO2 T03000233
53917KNEW NEW20190912080010309/12/19 08:00:31  5-MIN KNEW 121400Z 06009KT 9SM CLR 30/23 A3011 -160 67 1600 060/09 RMK AO2 T03000233
53917KNEW NEW20190912080510309/12/19 08:05:31  5-MIN KNEW 121405Z 06008KT 9SM CLR 30/23 A3011 -160 67 1600 060/08 RMK AO2 T03000233
53917KNEW NEW20190912081010309/12/19 08:10:31  5-MIN KNEW 121410Z 05008KT 9SM CLR 30/23 A3012 -160 67 1600 050/08 RMK AO2 T03000233
53917KNEW NEW20190912081510309/12/19 08:15:31  5-MIN KNEW 121415Z 05007KT 9SM CLR 30/23 A3012 -170 67 1600 050/07 RMK AO2 T03000233
53917KNEW NEW20190912082010309/12/19 08:20:31  5-MIN KNEW 121420Z 05006KT 9SM CLR 30/23 A3012 -170 67 1600 050/06 RMK AO2 T03000233
53917KNEW NEW20190912082510309/12/19 08:25:31  5-MIN KNEW 121425Z 05007KT 9SM CLR 30/23 A3012 -170 67 1600 050/07 RMK AO2 T03000233
53917KNEW NEW20190912083010309/12/19 08:30:31  5-MIN KNEW 121430Z 05007KT 9SM CLR 30/23 A3012 -170 67 1600 050/07 RMK AO2 T03000233
53917KNEW NEW20190912083510309/12/19 08:35:31  5-MIN KNEW 121435Z 05007KT 9SM CLR 31/23 A3012 -170 62 1600 050/07 RMK AO2 T03060228
53917KNEW NEW20190912084010309/12/19 08:40:31  5-MIN KNEW 121440Z 04006KT 9SM CLR 31/23 A3012 -170 62 1600 040/06 RMK AO2 T03060228
53917KNEW NEW20190912084510309/12/19 08:45:31  5-MIN KNEW 121445Z 04006KT 8SM CLR 31/23 A3012 -170 62 1600 040/06 RMK AO2 T03060228
53917KNEW NEW20190912085011609/12/19 08:50:31  5-MIN KNEW 121450Z 03007KT 8SM CLR 31/23 A3012 -170 62 1600 030/07 RMK AO2 SLP194 T03060228 51012
53917KNEW NEW20190912085510309/12/19 08:55:31  5-MIN KNEW 121455Z 05007KT 9SM CLR 31/22 A3012 -170 58 1600 050/07 RMK AO2 T03060217
53917KNEW NEW20190912090010309/12/19 09:00:31  5-MIN KNEW 121500Z 05006KT 9SM CLR 31/22 A3013 -170 58 1700 050/06 RMK AO2 T03110222
53917KNEW NEW20190912090510309/12/19 09:05:31  5-MIN KNEW 121505Z 03006KT 9SM CLR 31/23 A3012 -170 65 1600 030/06 RMK AO2 T03060233
53917KNEW NEW20190912091010309/12/19 09:10:31  5-MIN KNEW 121510Z 02006KT 9SM CLR 31/23 A3012 -170 65 1600 020/06 RMK AO2 T03060233
53917KNEW NEW20190912091510309/12/19 09:15:31  5-MIN KNEW 121515Z 03006KT 9SM CLR 31/23 A3012 -170 63 1700 030/06 RMK AO2 T03110233
53917KNEW NEW20190912092010309/12/19 09:20:31  5-MIN KNEW 121520Z 01006KT 9SM CLR 31/23 A3012 -170 63 1700 010/06 RMK AO2 T03110233
53917KNEW NEW20190912092510309/12/19 09:25:31  5-MIN KNEW 121525Z 01006KT 9SM CLR 31/23 A3012 -170 63 1700 010/06 RMK AO2 T03110233
53917KNEW NEW20190912093010309/12/19 09:30:31  5-MIN KNEW 121530Z 01006KT 9SM CLR 31/23 A3012 -170 63 1700 010/06 RMK AO2 T03110233
53917KNEW NEW20190912093510309/12/19 09:35:31  5-MIN KNEW 121535Z 01006KT 9SM CLR 31/23 A3012 -170 63 1700 010/06 RMK AO2 T03110233
53917KNEW NEW20190912094010309/12/19 09:40:31  5-MIN KNEW 121540Z 01006KT 9SM CLR 31/23 A3013 -170 63 1700 010/06 RMK AO2 T03110233
53917KNEW NEW20190912094510309/12/19 09:45:31  5-MIN KNEW 121545Z 02006KT 9SM CLR 31/23 A3012 -170 63 1700 020/06 RMK AO2 T03110233
53917KNEW NEW20190912095011009/12/19 09:50:31  5-MIN KNEW 121550Z 01007KT 9SM CLR 32/23 A3012 -170 61 1700 010/07 RMK AO2 SLP194 T03170233
53917KNEW NEW20190912095510309/12/19 09:55:31  5-MIN KNEW 121555Z 02007KT 9SM CLR 32/23 A3012 -170 61 1700 020/07 RMK AO2 T03170233
53917KNEW NEW20190912100010309/12/19 10:00:31  5-MIN KNEW 121600Z 02007KT 9SM CLR 32/23 A3012 -170 58 1700 020/07 RMK AO2 T03170228
53917KNEW NEW20190912100510309/12/19 10:05:31  5-MIN KNEW 121605Z 02007KT 9SM CLR 32/23 A3012 -170 58 1700 020/07 RMK AO2 T03170228
53917KNEW NEW20190912101010309/12/19 10:10:31  5-MIN KNEW 121610Z 02007KT 9SM CLR 32/23 A3012 -170 58 1700 020/07 RMK AO2 T03170228
53917KNEW NEW20190912101510309/12/19 10:15:31  5-MIN KNEW 121615Z 02008KT 9SM CLR 32/23 A3012 -170 58 1700 020/08 RMK AO2 T03170228
53917KNEW NEW20190912102010309/12/19 10:20:31  5-MIN KNEW 121620Z 01007KT 9SM CLR 32/23 A3012 -160 57 1800 010/07 RMK AO2 T03220228
53917KNEW NEW20190912102510309/12/19 10:25:31  5-MIN KNEW 121625Z 36007KT 9SM CLR 32/23 A3012 -160 59 1800 360/07 RMK AO2 T03220233
53917KNEW NEW20190912103010309/12/19 10:30:31  5-MIN KNEW 121630Z 02008KT 9SM CLR 32/23 A3012 -170 59 1800 020/08 RMK AO2 T03220233
53917KNEW NEW20190912103510309/12/19 10:35:31  5-MIN KNEW 121635Z 36007KT 9SM CLR 32/23 A3012 -170 59 1800 360/07 RMK AO2 T03220233
53917KNEW NEW20190912104010309/12/19 10:40:31  5-MIN KNEW 121640Z 36008KT 9SM CLR 32/23 A3012 -170 59 1800 360/08 RMK AO2 T03220233
53917KNEW NEW20190912104510309/12/19 10:45:31  5-MIN KNEW 121645Z 35007KT 9SM CLR 32/23 A3012 -160 59 1800 350/07 RMK AO2 T03220233
53917KNEW NEW20190912105011009/12/19 10:50:31  5-MIN KNEW 121650Z 36008KT 9SM CLR 33/23 A3012 -160 57 1900 360/08 RMK AO2 SLP191 T03280233
53917KNEW NEW20190912105510309/12/19 10:55:31  5-MIN KNEW 121655Z 35007KT 9SM CLR 32/23 A3011 -160 59 1800 350/07 RMK AO2 T03220233
53917KNEW NEW20190912110010309/12/19 11:00:31  5-MIN KNEW 121700Z 01009KT 8SM CLR 32/23 A3011 -160 59 1800 010/09 RMK AO2 T03220233
53917KNEW NEW20190912110510309/12/19 11:05:31  5-MIN KNEW 121705Z 01007KT 8SM CLR 32/23 A3011 -160 59 1800 010/07 RMK AO2 T03220233
53917KNEW NEW20190912111010309/12/19 11:10:31  5-MIN KNEW 121710Z 02008KT 9SM CLR 32/23 A3012 -160 59 1800 020/08 RMK AO2 T03220233
53917KNEW NEW20190912111510309/12/19 11:15:31  5-MIN KNEW 121715Z 03008KT 9SM CLR 33/23 A3011 -160 57 1900 030/08 RMK AO2 T03280233
53917KNEW NEW20190912112010309/12/19 11:20:31  5-MIN KNEW 121720Z 01008KT 9SM CLR 33/23 A3011 -160 57 1900 010/08 RMK AO2 T03280233
53917KNEW NEW20190912112510309/12/19 11:25:31  5-MIN KNEW 121725Z 01007KT 9SM CLR 33/23 A3011 -160 57 1900 010/07 RMK AO2 T03280233
53917KNEW NEW20190912113010309/12/19 11:30:31  5-MIN KNEW 121730Z 36008KT 8SM CLR 33/24 A3011 -160 59 1900 360/08 RMK AO2 T03280239
53917KNEW NEW20190912113510309/12/19 11:35:31  5-MIN KNEW 121735Z 01008KT 8SM CLR 33/24 A3011 -160 59 1900 010/08 RMK AO2 T03280239
53917KNEW NEW20190912114010609/12/19 11:40:31  5-MIN KNEW 121740Z 36008KT 8SM FEW055 32/24 A3011 -160 61 1800 360/08 RMK AO2 T03220239
53917KNEW NEW20190912114510309/12/19 11:45:31  5-MIN KNEW 121745Z 36009KT 8SM CLR 33/24 A3011 -150 59 1900 360/09 RMK AO2 T03280239
53917KNEW NEW20190912115012809/12/19 11:50:31  5-MIN KNEW 121750Z 36009KT 8SM CLR 33/24 A3010 -150 61 1900 360/09 RMK AO2 SLP187 T03280244 10328 20283 53012
53917KNEW NEW20190912115510309/12/19 11:55:31  5-MIN KNEW 121755Z 36009KT 9SM CLR 33/24 A3010 -150 59 1900 360/09 RMK AO2 T03330244
53917KNEW NEW20190912120010609/12/19 12:00:31  5-MIN KNEW 121800Z 36009KT 9SM FEW060 33/24 A3010 -150 59 1900 360/09 RMK AO2 T03330244
53917KNEW NEW20190912120510609/12/19 12:05:31  5-MIN KNEW 121805Z 35008KT 9SM FEW060 32/24 A3010 -150 61 1800 350/08 RMK AO2 T03220239
53917KNEW NEW20190912121010609/12/19 12:10:31  5-MIN KNEW 121810Z 36008KT 9SM FEW060 32/24 A3010 -150 61 1800 360/08 RMK AO2 T03220239
53917KNEW NEW20190912121510609/12/19 12:15:31  5-MIN KNEW 121815Z 01007KT 9SM FEW060 33/24 A3010 -150 59 1900 010/07 RMK AO2 T03280239
53917KNEW NEW20190912122010609/12/19 12:20:31  5-MIN KNEW 121820Z 03007KT 9SM FEW060 33/23 A3010 -150 55 1900 030/07 RMK AO2 T03280228
53917KNEW NEW20190912122510609/12/19 12:25:31  5-MIN KNEW 121825Z 07007KT 9SM FEW060 33/22 A3009 -140 50 1900 070/07 RMK AO2 T03330217
53917KNEW NEW20190912123010609/12/19 12:30:31  5-MIN KNEW 121830Z 05006KT 9SM FEW060 33/21 A3009 -140 46 1900 050/06 RMK AO2 T03330206
53917KNEW NEW20190912123510709/12/19 12:35:31  5-MIN KNEW 121835Z 06008KT 10SM FEW055 34/21 A3009 -140 46 2000 060/08 RMK AO2 T03390211
53917KNEW NEW20190912124010709/12/19 12:40:31  5-MIN KNEW 121840Z 06008KT 10SM FEW055 34/21 A3009 -140 46 2000 060/08 RMK AO2 T03390211
53917KNEW NEW20190912124510709/12/19 12:45:31  5-MIN KNEW 121845Z 07009KT 10SM FEW055 34/21 A3009 -140 45 2000 070/09 RMK AO2 T03390206
53917KNEW NEW20190912125011409/12/19 12:50:31  5-MIN KNEW 121850Z 06010KT 10SM FEW055 34/20 A3008 -140 42 2100 060/10 RMK AO2 SLP181 T03440200
53917KNEW NEW20190912125510709/12/19 12:55:31  5-MIN KNEW 121855Z 09006KT 10SM FEW055 34/20 A3008 -130 42 2100 090/06 RMK AO2 T03440200
53917KNEW NEW20190912130010709/12/19 13:00:31  5-MIN KNEW 121900Z 07008KT 10SM FEW055 34/19 A3008 -130 42 2000 070/08 RMK AO2 T03390194
53917KNEW NEW20190912130510709/12/19 13:05:31  5-MIN KNEW 121905Z 07009KT 10SM FEW055 34/20 A3008 -130 42 2100 070/09 RMK AO2 T03440200
53917KNEW NEW20190912131010709/12/19 13:10:31  5-MIN KNEW 121910Z 08010KT 10SM FEW055 35/20 A3008 -130 40 2200 080/10 RMK AO2 T03500200
53917KNEW NEW20190912131510409/12/19 13:15:31  5-MIN KNEW 121915Z 08010KT 10SM CLR 34/18 A3007 -130 38 2100 080/10 RMK AO2 T03440183
53917KNEW NEW20190912132010709/12/19 13:20:31  5-MIN KNEW 121920Z 07010KT 10SM FEW060 34/19 A3007 -130 39 2100 070/10 RMK AO2 T03440189
53917KNEW NEW20190912132510409/12/19 13:25:31  5-MIN KNEW 121925Z 06011KT 10SM CLR 35/18 A3007 -120 36 2200 060/11 RMK AO2 T03500183
53917KNEW NEW20190912133011209/12/19 13:30:31  5-MIN KNEW 121930Z AUTO 08009KT 10SM FEW060 35/18 A3007 -120 36 2200 080/09 RMK AO2 T03500183
53917KNEW NEW20190912133511209/12/19 13:35:31  5-MIN KNEW 121935Z AUTO 07011KT 10SM FEW060 34/18 A3007 -120 38 2100 070/11 RMK AO2 T03440183
53917KNEW NEW20190912134011809/12/19 13:40:31  5-MIN KNEW 121940Z AUTO 08010G18KT 10SM FEW060 34/18 A3007 -120 38 2100 080/10G18 RMK AO2 T03440183
53917KNEW NEW20190912134511309/12/19 13:45:31  5-MIN KNEW 121945Z 09008G18KT 10SM FEW060 34/18 A3006 -120 38 2100 090/08G18 RMK AO2 T03440183
53917KNEW NEW20190912135011409/12/19 13:50:31  5-MIN KNEW 121950Z 07011KT 10SM FEW060 34/18 A3006 -120 36 2100 070/11 RMK AO2 SLP173 T03440178
53917KNEW NEW20190912135510709/12/19 13:55:31  5-MIN KNEW 121955Z 08011KT 10SM FEW060 34/17 A3006 -110 35 2100 080/11 RMK AO2 T03440172
53917KNEW NEW20190912140010709/12/19 14:00:31  5-MIN KNEW 122000Z 08012KT 10SM FEW060 34/18 A3006 -110 36 2100 080/12 RMK AO2 T03440178
53917KNEW NEW20190912140510409/12/19 14:05:31  5-MIN KNEW 122005Z 07010KT 10SM CLR 34/17 A3006 -110 35 2100 070/10 RMK AO2 T03440172
53917KNEW NEW20190912141010409/12/19 14:10:31  5-MIN KNEW 122010Z 07010KT 10SM CLR 34/19 A3005 -110 39 2100 070/10 RMK AO2 T03440189
53917KNEW NEW20190912141510409/12/19 14:15:31  5-MIN KNEW 122015Z 09008KT 10SM CLR 34/19 A3005 -110 39 2100 090/08 RMK AO2 T03440189
53917KNEW NEW20190912142010409/12/19 14:20:31  5-MIN KNEW 122020Z 11010KT 10SM CLR 34/18 A3005 -110 38 2100 110/10 RMK AO2 T03440183
53917KNEW NEW20190912142510409/12/19 14:25:31  5-MIN KNEW 122025Z 11009KT 10SM CLR 34/18 A3005 -110 37 2100 110/09 RMK AO2 T03390178
53917KNEW NEW20190912143010409/12/19 14:30:31  5-MIN KNEW 122030Z 09009KT 10SM CLR 34/17 A3005 -110 36 2100 090/09 RMK AO2 T03390172
53917KNEW NEW20190912143510409/12/19 14:35:31  5-MIN KNEW 122035Z 11010KT 10SM CLR 34/18 A3005 -100 39 2100 110/10 RMK AO2 T03390183
53917KNEW NEW20190912144010409/12/19 14:40:31  5-MIN KNEW 122040Z 11008KT 10SM CLR 34/18 A3005 -100 38 2100 110/08 RMK AO2 T03440183
53917KNEW NEW20190912144510409/12/19 14:45:31  5-MIN KNEW 122045Z 13009KT 10SM CLR 34/18 A3005 -100 37 2100 130/09 RMK AO2 T03390178
53917KNEW NEW20190912145011709/12/19 14:50:31  5-MIN KNEW 122050Z 12010KT 10SM CLR 34/18 A3004 -100 37 2100 120/10 RMK AO2 SLP167 T03390178 58007
53917KNEW NEW20190912145510409/12/19 14:55:31  5-MIN KNEW 122055Z 11009KT 10SM CLR 34/18 A3004 -100 39 2100 110/09 RMK AO2 T03390183
53917KNEW NEW20190912150010409/12/19 15:00:31  5-MIN KNEW 122100Z 12010KT 10SM CLR 34/18 A3004 -100 39 2100 120/10 RMK AO2 T03390183
53917KNEW NEW20190912150510409/12/19 15:05:31  5-MIN KNEW 122105Z 13009KT 10SM CLR 34/18 A3004 -100 37 2100 130/09 RMK AO2 T03390178
53917KNEW NEW20190912151010409/12/19 15:10:31  5-MIN KNEW 122110Z 13010KT 10SM CLR 34/18 A3004 -100 39 2100 130/10 RMK AO2 T03390183
53917KNEW NEW20190912151510409/12/19 15:15:31  5-MIN KNEW 122115Z 11010KT 10SM CLR 34/18 A3004 -100 39 2100 110/10 RMK AO2 T03390183
53917KNEW NEW20190912152010409/12/19 15:20:31  5-MIN KNEW 122120Z 10007KT 10SM CLR 33/18 A3004 -100 40 2000 100/07 RMK AO2 T03330183
53917KNEW NEW20190912152510409/12/19 15:25:31  5-MIN KNEW 122125Z 13009KT 10SM CLR 34/19 A3004 -100 42 2100 130/09 RMK AO2 T03390194
53917KNEW NEW20190912153010309/12/19 15:30:31  5-MIN KNEW 122130Z 12010KT 10SM CLR 33/19 A3004 -90 42 2000 120/10 RMK AO2 T03330189
53917KNEW NEW20190912153510309/12/19 15:35:31  5-MIN KNEW 122135Z 10008KT 10SM CLR 33/19 A3004 -90 42 2000 100/08 RMK AO2 T03330189
53917KNEW NEW20190912154010309/12/19 15:40:31  5-MIN KNEW 122140Z 10009KT 10SM CLR 33/19 A3004 -90 43 2000 100/09 RMK AO2 T03330194
53917KNEW NEW20190912154510309/12/19 15:45:31  5-MIN KNEW 122145Z 13008KT 10SM CLR 33/19 A3004 -90 43 2000 130/08 RMK AO2 T03330194
53917KNEW NEW20190912155011009/12/19 15:50:31  5-MIN KNEW 122150Z 12008KT 10SM CLR 34/19 A3004 -90 40 2100 120/08 RMK AO2 SLP164 T03390189
53917KNEW NEW20190912155510309/12/19 15:55:31  5-MIN KNEW 122155Z 10010KT 10SM CLR 33/19 A3004 -90 43 2000 100/10 RMK AO2 T03330194
53917KNEW NEW20190912160010209/12/19 16:00:31  5-MIN KNEW 122200Z 10008KT 9SM CLR 33/19 A3004 -90 42 2000 100/08 RMK AO2 T03330189
53917KNEW NEW20190912160510209/12/19 16:05:31  5-MIN KNEW 122205Z 12010KT 9SM CLR 33/19 A3004 -90 43 2000 120/10 RMK AO2 T03330194
53917KNEW NEW20190912161010309/12/19 16:10:31  5-MIN KNEW 122210Z 12009KT 10SM CLR 33/19 A3004 -90 43 2000 120/09 RMK AO2 T03330194
53917KNEW NEW20190912161510309/12/19 16:15:31  5-MIN KNEW 122215Z 13009KT 10SM CLR 33/19 A3003 -90 43 2000 130/09 RMK AO2 T03330194
53917KNEW NEW20190912162010209/12/19 16:20:31  5-MIN KNEW 122220Z 13009KT 9SM CLR 33/20 A3003 -90 45 2000 130/09 RMK AO2 T03330200
53917KNEW NEW20190912162510209/12/19 16:25:31  5-MIN KNEW 122225Z 13009KT 9SM CLR 33/20 A3003 -90 46 2000 130/09 RMK AO2 T03280200
53917KNEW NEW20190912163010209/12/19 16:30:31  5-MIN KNEW 122230Z 11008KT 9SM CLR 33/20 A3003 -90 46 2000 110/08 RMK AO2 T03280200
53917KNEW NEW20190912163510209/12/19 16:35:31  5-MIN KNEW 122235Z 11009KT 9SM CLR 33/21 A3003 -90 48 2000 110/09 RMK AO2 T03280206
53917KNEW NEW20190912164010209/12/19 16:40:31  5-MIN KNEW 122240Z 13008KT 9SM CLR 33/20 A3003 -90 46 2000 130/08 RMK AO2 T03280200
53917KNEW NEW20190912164510209/12/19 16:45:31  5-MIN KNEW 122245Z 14009KT 9SM CLR 33/20 A3003 -90 46 2000 140/09 RMK AO2 T03280200
53917KNEW NEW20190912165010909/12/19 16:50:31  5-MIN KNEW 122250Z 12010KT 9SM CLR 33/20 A3003 -90 46 2000 120/10 RMK AO2 SLP162 T03280200
53917KNEW NEW20190912165511309/12/19 16:55:31  5-MIN KNEW 122255Z 12009KT 9SM CLR 33/20 A3002 -80 46 2000 120/09 RMK AO2 LTG DSNT N T03280200
53917KNEW NEW20190912170011309/12/19 17:00:31  5-MIN KNEW 122300Z 14009KT 9SM CLR 33/20 A3002 -80 46 2000 140/09 RMK AO2 LTG DSNT N T03280200
53917KNEW NEW20190912170511309/12/19 17:05:31  5-MIN KNEW 122305Z 13009KT 9SM CLR 33/21 A3003 -80 48 2000 130/09 RMK AO2 LTG DSNT N T03280206
53917KNEW NEW20190912171010209/12/19 17:10:31  5-MIN KNEW 122310Z 13008KT 9SM CLR 33/20 A3002 -80 46 2000 130/08 RMK AO2 T03280200
53917KNEW NEW20190912171510209/12/19 17:15:31  5-MIN KNEW 122315Z 12007KT 9SM CLR 32/20 A3003 -80 48 1900 120/07 RMK AO2 T03220200
53917KNEW NEW20190912172010209/12/19 17:20:31  5-MIN KNEW 122320Z 14008KT 9SM CLR 32/21 A3002 -80 49 1900 140/08 RMK AO2 T03220206
53917KNEW NEW20190912172510209/12/19 17:25:31  5-MIN KNEW 122325Z 12008KT 9SM CLR 32/21 A3002 -80 49 1900 120/08 RMK AO2 T03220206
53917KNEW NEW20190912173010209/12/19 17:30:31  5-MIN KNEW 122330Z 12009KT 9SM CLR 32/20 A3003 -80 48 1900 120/09 RMK AO2 T03220200
53917KNEW NEW20190912173510209/12/19 17:35:31  5-MIN KNEW 122335Z 11008KT 9SM CLR 32/20 A3003 -80 48 1900 110/08 RMK AO2 T03220200
53917KNEW NEW20190912174010209/12/19 17:40:31  5-MIN KNEW 122340Z 11008KT 9SM CLR 32/21 A3002 -80 49 1900 110/08 RMK AO2 T03220206
53917KNEW NEW20190912174510209/12/19 17:45:31  5-MIN KNEW 122345Z 12007KT 9SM CLR 32/21 A3003 -90 49 1900 120/07 RMK AO2 T03220206
53917KNEW NEW20190912175012709/12/19 17:50:31  5-MIN KNEW 122350Z 12006KT 9SM CLR 32/21 A3003 -90 51 1800 120/06 RMK AO2 SLP163 T03170206 10350 20317 57021
53917KNEW NEW20190912175510209/12/19 17:55:31  5-MIN KNEW 122355Z 12006KT 9SM CLR 32/21 A3004 -90 51 1800 120/06 RMK AO2 T03170206
53917KNEW NEW20190912180010209/12/19 18:00:31  5-MIN KNEW 130000Z 11007KT 9SM CLR 32/20 A3003 -90 49 1800 110/07 RMK AO2 T03170200
53917KNEW NEW20190912180510209/12/19 18:05:31  5-MIN KNEW 130005Z 12006KT 9SM CLR 32/20 A3003 -90 49 1800 120/06 RMK AO2 T03170200
53917KNEW NEW20190912181010509/12/19 18:10:31  5-MIN KNEW 130010Z 12007KT 9SM FEW065 32/21 A3004 -90 51 1800 120/07 RMK AO2 T03170206
53917KNEW NEW20190912181510209/12/19 18:15:31  5-MIN KNEW 130015Z 12008KT 9SM CLR 32/20 A3004 -90 49 1800 120/08 RMK AO2 T03170200
53917KNEW NEW20190912182010309/12/19 18:20:31  5-MIN KNEW 130020Z 12007KT 9SM CLR 32/21 A3004 -100 51 1800 120/07 RMK AO2 T03170206
53917KNEW NEW20190912182510409/12/19 18:25:31  5-MIN KNEW 130025Z 13006KT 10SM CLR 32/21 A3004 -100 51 1800 130/06 RMK AO2 T03170206
53917KNEW NEW20190912183010409/12/19 18:30:31  5-MIN KNEW 130030Z 12006KT 10SM CLR 31/21 A3004 -100 53 1800 120/06 RMK AO2 T03110206
53917KNEW NEW20190912183510409/12/19 18:35:31  5-MIN KNEW 130035Z 13006KT 10SM CLR 31/21 A3004 -100 53 1800 130/06 RMK AO2 T03110206
53917KNEW NEW20190912184010409/12/19 18:40:31  5-MIN KNEW 130040Z 12005KT 10SM CLR 31/20 A3004 -100 51 1800 120/05 RMK AO2 T03110200
53917KNEW NEW20190912184510609/12/19 18:45:31  5-MIN KNEW 130045Z 11005KT 9SM SCT060 31/21 A3004 -100 53 1800 110/05 RMK AO2 T03110206
53917KNEW NEW20190912185011309/12/19 18:50:31  5-MIN KNEW 130050Z 11005KT 9SM BKN060 31/21 A3004 -100 53 1800 110/05 RMK AO2 SLP166 T03110206
53917KNEW NEW20190912185510609/12/19 18:55:31  5-MIN KNEW 130055Z 11005KT 9SM BKN060 31/21 A3004 -100 53 1800 110/05 RMK AO2 T03110206
53917KNEW NEW20190912190010609/12/19 19:00:31  5-MIN KNEW 130100Z 12005KT 9SM BKN060 31/21 A3004 -100 53 1800 120/05 RMK AO2 T03110206
53917KNEW NEW20190912190511309/12/19 19:05:31  5-MIN KNEW 130105Z 11005KT 9SM BKN060 BKN070 31/21 A3004 -100 54 1800 110/05 RMK AO2 T03110211
53917KNEW NEW20190912191010609/12/19 19:10:31  5-MIN KNEW 130110Z 11004KT 9SM SCT060 31/21 A3004 -100 54 1800 110/04 RMK AO2 T03110211
53917KNEW NEW20190912191510609/12/19 19:15:31  5-MIN KNEW 130115Z 10005KT 9SM SCT065 31/21 A3005 -100 56 1700 100/05 RMK AO2 T03060211
53917KNEW NEW20190912192010609/12/19 19:20:31  5-MIN KNEW 130120Z 10006KT 9SM FEW065 31/22 A3005 -100 58 1700 100/06 RMK AO2 T03060217
53917KNEW NEW20190912192510609/12/19 19:25:31  5-MIN KNEW 130125Z 10006KT 9SM FEW065 31/22 A3005 -110 58 1700 100/06 RMK AO2 T03060217
53917KNEW NEW20190912193010309/12/19 19:30:31  5-MIN KNEW 130130Z 11005KT 9SM CLR 31/21 A3005 -110 54 1700 110/05 RMK AO2 T03110211
53917KNEW NEW20190912193510309/12/19 19:35:31  5-MIN KNEW 130135Z 11006KT 9SM CLR 31/22 A3005 -110 58 1700 110/06 RMK AO2 T03060217
53917KNEW NEW20190912194010309/12/19 19:40:31  5-MIN KNEW 130140Z 11005KT 9SM CLR 31/21 A3005 -110 56 1700 110/05 RMK AO2 T03060211
53917KNEW NEW20190912194510309/12/19 19:45:31  5-MIN KNEW 130145Z 10006KT 9SM CLR 31/21 A3005 -110 56 1700 100/06 RMK AO2 T03060211
53917KNEW NEW20190912195011009/12/19 19:50:31  5-MIN KNEW 130150Z 06008KT 9SM CLR 31/22 A3005 -110 60 1700 060/08 RMK AO2 SLP170 T03060222
53917KNEW NEW20190912195510809/12/19 19:55:31  5-MIN KNEW 130155Z AUTO 05008KT 9SM CLR 31/24 A3005 -110 67 1700 050/08 RMK AO2 T03060239
53917KNEW NEW20190912200010809/12/19 20:00:31  5-MIN KNEW 130200Z AUTO 06007KT 9SM CLR 30/24 A3006 -110 69 1600 060/07 RMK AO2 T03000239
53917KNEW NEW20190912200510809/12/19 20:05:31  5-MIN KNEW 130205Z AUTO 06007KT 9SM CLR 30/24 A3006 -110 69 1600 060/07 RMK AO2 T03000239
53917KNEW NEW20190912201010809/12/19 20:10:31  5-MIN KNEW 130210Z AUTO 07007KT 9SM CLR 30/24 A3006 -110 69 1600 070/07 RMK AO2 T03000239
53917KNEW NEW20190912201510809/12/19 20:15:31  5-MIN KNEW 130215Z AUTO 07007KT 9SM CLR 30/24 A3006 -110 69 1600 070/07 RMK AO2 T03000239
53917KNEW NEW20190912202010809/12/19 20:20:31  5-MIN KNEW 130220Z AUTO 09005KT 9SM CLR 30/24 A3006 -110 72 1600 090/05 RMK AO2 T03000244
53917KNEW NEW20190912202510809/12/19 20:25:31  5-MIN KNEW 130225Z AUTO 09006KT 9SM CLR 29/24 A3006 -110 74 1600 090/06 RMK AO2 T02940244
53917KNEW NEW20190912203010809/12/19 20:30:31  5-MIN KNEW 130230Z AUTO 09006KT 9SM CLR 29/24 A3006 -110 71 1600 090/06 RMK AO2 T02940239
53917KNEW NEW20190912203510809/12/19 20:35:31  5-MIN KNEW 130235Z AUTO 09005KT 9SM CLR 29/24 A3006 -110 71 1600 090/05 RMK AO2 T02940239
53917KNEW NEW20190912204010809/12/19 20:40:31  5-MIN KNEW 130240Z AUTO 10004KT 9SM CLR 29/23 A3006 -110 67 1600 100/04 RMK AO2 T02940228
53917KNEW NEW20190912204510809/12/19 20:45:31  5-MIN KNEW 130245Z AUTO 10004KT 9SM CLR 29/23 A3006 -110 67 1600 100/04 RMK AO2 T02940228
53917KNEW NEW20190912205012109/12/19 20:50:31  5-MIN KNEW 130250Z AUTO 09005KT 9SM CLR 29/23 A3006 -110 69 1600 090/05 RMK AO2 SLP172 T02940233 55002
53917KNEW NEW20190912205510809/12/19 20:55:31  5-MIN KNEW 130255Z AUTO 10005KT 9SM CLR 29/23 A3006 -120 69 1500 100/05 RMK AO2 T02940233
53917KNEW NEW20190912210010809/12/19 21:00:31  5-MIN KNEW 130300Z AUTO 10005KT 9SM CLR 29/23 A3007 -120 69 1500 100/05 RMK AO2 T02940233
53917KNEW NEW20190912210510809/12/19 21:05:31  5-MIN KNEW 130305Z AUTO 12004KT 9SM CLR 29/23 A3007 -120 69 1500 120/04 RMK AO2 T02940233
53917KNEW NEW20190912211010809/12/19 21:10:31  5-MIN KNEW 130310Z AUTO 12003KT 9SM CLR 29/23 A3007 -120 69 1500 120/03 RMK AO2 T02940233
53917KNEW NEW20190912211510809/12/19 21:15:31  5-MIN KNEW 130315Z AUTO 00000KT 9SM CLR 29/23 A3007 -120 69 1500 000/00 RMK AO2 T02940233
53917KNEW NEW20190912212010809/12/19 21:20:31  5-MIN KNEW 130320Z AUTO 12003KT 9SM CLR 29/23 A3007 -120 69 1500 120/03 RMK AO2 T02940233
53917KNEW NEW20190912212510809/12/19 21:25:31  5-MIN KNEW 130325Z AUTO 13003KT 9SM CLR 29/23 A3007 -120 69 1500 130/03 RMK AO2 T02940233
53917KNEW NEW20190912213010809/12/19 21:30:31  5-MIN KNEW 130330Z AUTO 13003KT 9SM CLR 29/23 A3007 -120 69 1500 130/03 RMK AO2 T02940233
53917KNEW NEW20190912213510809/12/19 21:35:31  5-MIN KNEW 130335Z AUTO 00000KT 9SM CLR 29/23 A3007 -120 71 1500 000/00 RMK AO2 T02890233
53917KNEW NEW20190912214010809/12/19 21:40:31  5-MIN KNEW 130340Z AUTO 00000KT 9SM CLR 29/23 A3007 -120 69 1500 000/00 RMK AO2 T02940233
53917KNEW NEW20190912214510809/12/19 21:45:31  5-MIN KNEW 130345Z AUTO 14003KT 9SM CLR 29/23 A3007 -120 69 1500 140/03 RMK AO2 T02890228
53917KNEW NEW20190912215011509/12/19 21:50:31  5-MIN KNEW 130350Z AUTO 15003KT 9SM CLR 29/23 A3007 -120 69 1500 150/03 RMK AO2 SLP175 T02890228
53917KNEW NEW20190912215510809/12/19 21:55:31  5-MIN KNEW 130355Z AUTO 14003KT 9SM CLR 29/23 A3007 -120 69 1500 140/03 RMK AO2 T02890228
53917KNEW NEW20190912220010809/12/19 22:00:31  5-MIN KNEW 130400Z AUTO 14003KT 9SM CLR 29/23 A3007 -120 69 1500 140/03 RMK AO2 T02890228
53917KNEW NEW20190912220511109/12/19 22:05:31  5-MIN KNEW 130405Z AUTO 14003KT 9SM FEW070 29/23 A3007 -120 69 1500 140/03 RMK AO2 T02890228
53917KNEW NEW20190912221011109/12/19 22:10:31  5-MIN KNEW 130410Z AUTO 15003KT 9SM SCT070 29/23 A3007 -130 69 1500 150/03 RMK AO2 T02890228
53917KNEW NEW20190912221511109/12/19 22:15:31  5-MIN KNEW 130415Z AUTO 15003KT 9SM BKN070 29/23 A3007 -130 69 1500 150/03 RMK AO2 T02890228
53917KNEW NEW20190912222011109/12/19 22:20:31  5-MIN KNEW 130420Z AUTO 14004KT 9SM BKN070 29/23 A3007 -130 71 1500 140/04 RMK AO2 T02890233
53917KNEW NEW20190912222511109/12/19 22:25:31  5-MIN KNEW 130425Z AUTO 13003KT 9SM BKN070 29/23 A3007 -120 71 1500 130/03 RMK AO2 T02890233
53917KNEW NEW20190912223011109/12/19 22:30:31  5-MIN KNEW 130430Z AUTO 13003KT 9SM BKN070 29/23 A3007 -130 71 1500 130/03 RMK AO2 T02890233
53917KNEW NEW20190912223511109/12/19 22:35:31  5-MIN KNEW 130435Z AUTO 14003KT 9SM BKN070 29/23 A3007 -120 71 1500 140/03 RMK AO2 T02890233
53917KNEW NEW20190912224011109/12/19 22:40:31  5-MIN KNEW 130440Z AUTO 14003KT 9SM BKN070 29/23 A3007 -120 71 1500 140/03 RMK AO2 T02890233
53917KNEW NEW20190912224511109/12/19 22:45:31  5-MIN KNEW 130445Z AUTO 14003KT 9SM BKN070 29/23 A3007 -120 71 1500 140/03 RMK AO2 T02890233
53917KNEW NEW20190912225011809/12/19 22:50:31  5-MIN KNEW 130450Z AUTO 13003KT 9SM SCT070 29/23 A3007 -120 71 1500 130/03 RMK AO2 SLP174 T02890233
53917KNEW NEW20190912225511109/12/19 22:55:31  5-MIN KNEW 130455Z AUTO 13003KT 9SM FEW070 29/23 A3007 -120 71 1500 130/03 RMK AO2 T02890233
53917KNEW NEW20190912230011109/12/19 23:00:31  5-MIN KNEW 130500Z AUTO 14003KT 9SM FEW070 29/23 A3007 -120 71 1500 140/03 RMK AO2 T02890233
53917KNEW NEW20190912230511109/12/19 23:05:31  5-MIN KNEW 130505Z AUTO 13003KT 9SM FEW070 29/23 A3007 -120 71 1500 130/03 RMK AO2 T02890233
53917KNEW NEW20190912231011109/12/19 23:10:31  5-MIN KNEW 130510Z AUTO 14004KT 9SM FEW070 29/23 A3006 -120 71 1500 140/04 RMK AO2 T02890233
53917KNEW NEW20190912231510809/12/19 23:15:31  5-MIN KNEW 130515Z AUTO 13003KT 9SM CLR 29/23 A3007 -120 71 1500 130/03 RMK AO2 T02890233
53917KNEW NEW20190912232010809/12/19 23:20:31  5-MIN KNEW 130520Z AUTO 00000KT 9SM CLR 29/23 A3007 -120 71 1500 000/00 RMK AO2 T02890233
53917KNEW NEW20190912232510809/12/19 23:25:31  5-MIN KNEW 130525Z AUTO 13003KT 9SM CLR 29/23 A3007 -120 71 1500 130/03 RMK AO2 T02890233
53917KNEW NEW20190912233010809/12/19 23:30:31  5-MIN KNEW 130530Z AUTO 14003KT 9SM CLR 29/23 A3007 -120 71 1500 140/03 RMK AO2 T02890233
53917KNEW NEW20190912233510809/12/19 23:35:31  5-MIN KNEW 130535Z AUTO 13003KT 9SM CLR 29/23 A3007 -120 71 1500 130/03 RMK AO2 T02890233
53917KNEW NEW20190912234010809/12/19 23:40:31  5-MIN KNEW 130540Z AUTO 13003KT 9SM CLR 29/23 A3007 -120 71 1500 130/03 RMK AO2 T02890233
53917KNEW NEW20190912234511109/12/19 23:45:31  5-MIN KNEW 130545Z AUTO 14003KT 9SM FEW075 29/23 A3007 -120 71 1500 140/03 RMK AO2 T02890233
53917KNEW NEW20190912235014609/12/19 23:50:31  5-MIN KNEW 130550Z AUTO 00000KT 9SM FEW075 29/23 A3007 -120 71 1500 000/00 RMK AO2 SLP176 T02890233 10317 20289 403500256 53009
53917KNEW NEW20190912235511109/12/19 23:55:31  5-MIN KNEW 130555Z AUTO 00000KT 9SM FEW075 29/23 A3007 -120 69 1500 000/00 RMK AO2 T02940233
53917KNEW NEW20190913000011109/13/19 00:00:31  5-MIN KNEW 130600Z AUTO 00000KT 9SM FEW075 29/23 A3007 -120 69 1500 000/00 RMK AO2 T02940233
53917KNEW NEW20190913000511109/13/19 00:05:31  5-MIN KNEW 130605Z AUTO 00000KT 9SM FEW075 29/23 A3007 -120 69 1500 000/00 RMK AO2 T02940233
53917KNEW NEW20190913001011109/13/19 00:10:31  5-MIN KNEW 130610Z AUTO 00000KT 9SM FEW075 29/23 A3007 -120 69 1500 000/00 RMK AO2 T02940233
53917KNEW NEW20190913001510809/13/19 00:15:31  5-MIN KNEW 130615Z AUTO 00000KT 9SM CLR 29/23 A3007 -130 69 1500 000/00 RMK AO2 T02940233
53917KNEW NEW20190913002011109/13/19 00:20:31  5-MIN KNEW 130620Z AUTO 00000KT 9SM FEW075 29/23 A3007 -130 69 1500 000/00 RMK AO2 T02940233
53917KNEW NEW20190913002511109/13/19 00:25:31  5-MIN KNEW 130625Z AUTO 00000KT 9SM FEW075 29/23 A3007 -130 69 1500 000/00 RMK AO2 T02940233
53917KNEW NEW20190913003010809/13/19 00:30:31  5-MIN KNEW 130630Z AUTO 00000KT 9SM CLR 29/23 A3007 -130 69 1500 000/00 RMK AO2 T02940233
53917KNEW NEW20190913003510809/13/19 00:35:31  5-MIN KNEW 130635Z AUTO 00000KT 9SM CLR 29/23 A3007 -130 69 1500 000/00 RMK AO2 T02940233
53917KNEW NEW20190913004011109/13/19 00:40:31  5-MIN KNEW 130640Z AUTO 00000KT 9SM FEW075 29/23 A3007 -130 69 1500 000/00 RMK AO2 T02940233
53917KNEW NEW20190913004511109/13/19 00:45:31  5-MIN KNEW 130645Z AUTO 00000KT 9SM FEW075 29/23 A3007 -130 71 1500 000/00 RMK AO2 T02890233
53917KNEW NEW20190913005011509/13/19 00:50:31  5-MIN KNEW 130650Z AUTO 00000KT 9SM CLR 29/23 A3007 -130 69 1500 000/00 RMK AO2 SLP176 T02940233
53917KNEW NEW20190913005510809/13/19 00:55:31  5-MIN KNEW 130655Z AUTO 00000KT 9SM CLR 29/23 A3007 -130 69 1500 000/00 RMK AO2 T02940233
53917KNEW NEW20190913010010809/13/19 01:00:31  5-MIN KNEW 130700Z AUTO 07003KT 9SM CLR 29/23 A3007 -130 69 1500 070/03 RMK AO2 T02940233
53917KNEW NEW20190913010510809/13/19 01:05:31  5-MIN KNEW 130705Z AUTO 03003KT 9SM CLR 29/23 A3007 -130 69 1500 030/03 RMK AO2 T02940233
53917KNEW NEW20190913011011109/13/19 01:10:31  5-MIN KNEW 130710Z AUTO 04003KT 9SM FEW075 29/23 A3007 -130 69 1500 040/03 RMK AO2 T02940233
53917KNEW NEW20190913011511109/13/19 01:15:31  5-MIN KNEW 130715Z AUTO 04003KT 9SM FEW075 29/24 A3007 -120 71 1500 040/03 RMK AO2 T02940239
53917KNEW NEW20190913012011109/13/19 01:20:31  5-MIN KNEW 130720Z AUTO 03004KT 9SM FEW075 29/23 A3007 -130 69 1500 030/04 RMK AO2 T02940233
53917KNEW NEW20190913012511109/13/19 01:25:31  5-MIN KNEW 130725Z AUTO 03004KT 9SM SCT050 29/24 A3007 -130 71 1500 030/04 RMK AO2 T02940239
53917KNEW NEW20190913013011109/13/19 01:30:31  5-MIN KNEW 130730Z AUTO 01004KT 9SM SCT050 29/24 A3007 -120 71 1500 010/04 RMK AO2 T02940239
53917KNEW NEW20190913023012509/13/19 02:30:31  5-MIN KNEW 130830Z AUTO 02007KT 9SM FEW047 FEW055 FEW095 29/24 A3005 -110 74 1600 020/07 RMK AO2 T02940244
53917KNEW NEW20190913023512509/13/19 02:35:31  5-MIN KNEW 130835Z AUTO 02006KT 9SM FEW047 FEW055 FEW095 29/24 A3006 -110 76 1500 020/06 RMK AO2 T02890244
53917KNEW NEW20190913024011109/13/19 02:40:31  5-MIN KNEW 130840Z AUTO 02006KT 9SM FEW047 29/24 A3006 -110 76 1500 020/06 RMK AO2 T02890244
53917KNEW NEW20190913024510809/13/19 02:45:31  5-MIN KNEW 130845Z AUTO 02007KT 9SM CLR 29/24 A3006 -110 74 1600 020/07 RMK AO2 T02940244
53917KNEW NEW20190913025012109/13/19 02:50:31  5-MIN KNEW 130850Z AUTO 03007KT 9SM CLR 29/24 A3006 -110 76 1500 030/07 RMK AO2 SLP171 T02890244 51003
53917KNEW NEW20190913025510809/13/19 02:55:31  5-MIN KNEW 130855Z AUTO 03007KT 9SM CLR 29/24 A3006 -110 74 1600 030/07 RMK AO2 T02940244
53917KNEW NEW20190913030010809/13/19 03:00:31  5-MIN KNEW 130900Z AUTO 02007KT 9SM CLR 29/24 A3005 -110 74 1600 020/07 RMK AO2 T02940244
53917KNEW NEW20190913030510809/13/19 03:05:31  5-MIN KNEW 130905Z AUTO 02007KT 9SM CLR 29/24 A3005 -110 76 1500 020/07 RMK AO2 T02890244
53917KNEW NEW20190913031010809/13/19 03:10:31  5-MIN KNEW 130910Z AUTO 02007KT 9SM CLR 29/24 A3005 -110 74 1600 020/07 RMK AO2 T02940244
53917KNEW NEW20190913031510809/13/19 03:15:31  5-MIN KNEW 130915Z AUTO 02007KT 9SM CLR 29/24 A3005 -110 76 1500 020/07 RMK AO2 T02890244
53917KNEW NEW20190913032010809/13/19 03:20:31  5-MIN KNEW 130920Z AUTO 03006KT 9SM CLR 29/24 A3005 -110 76 1500 030/06 RMK AO2 T02890244
53917KNEW NEW20190913032510809/13/19 03:25:31  5-MIN KNEW 130925Z AUTO 03007KT 9SM CLR 29/24 A3006 -110 76 1500 030/07 RMK AO2 T02890244
53917KNEW NEW20190913033010809/13/19 03:30:31  5-MIN KNEW 130930Z AUTO 03006KT 9SM CLR 29/24 A3006 -110 76 1500 030/06 RMK AO2 T02890244
53917KNEW NEW20190913033510809/13/19 03:35:31  5-MIN KNEW 130935Z AUTO 04008KT 9SM CLR 29/24 A3006 -110 76 1500 040/08 RMK AO2 T02890244
53917KNEW NEW20190913034010809/13/19 03:40:31  5-MIN KNEW 130940Z AUTO 03007KT 9SM CLR 29/24 A3006 -110 76 1500 030/07 RMK AO2 T02890244
53917KNEW NEW20190913034510809/13/19 03:45:31  5-MIN KNEW 130945Z AUTO 03007KT 9SM CLR 29/24 A3006 -110 76 1500 030/07 RMK AO2 T02890244
53917KNEW NEW20190913035011509/13/19 03:50:31  5-MIN KNEW 130950Z AUTO 04008KT 9SM CLR 29/24 A3006 -110 76 1500 040/08 RMK AO2 SLP171 T02890244
53917KNEW NEW20190913035510809/13/19 03:55:31  5-MIN KNEW 130955Z AUTO 04007KT 9SM CLR 29/24 A3006 -110 76 1500 040/07 RMK AO2 T02890244
53917KNEW NEW20190913040010809/13/19 04:00:31  5-MIN KNEW 131000Z AUTO 04007KT 9SM CLR 29/24 A3006 -110 76 1500 040/07 RMK AO2 T02890244
53917KNEW NEW20190913040510809/13/19 04:05:31  5-MIN KNEW 131005Z AUTO 04007KT 9SM CLR 29/24 A3006 -110 76 1500 040/07 RMK AO2 T02890244
53917KNEW NEW20190913041010809/13/19 04:10:31  5-MIN KNEW 131010Z AUTO 03007KT 9SM CLR 29/24 A3006 -110 76 1500 030/07 RMK AO2 T02890244
53917KNEW NEW20190913041510809/13/19 04:15:31  5-MIN KNEW 131015Z AUTO 03007KT 9SM CLR 29/24 A3006 -110 76 1500 030/07 RMK AO2 T02890244
53917KNEW NEW20190913042010809/13/19 04:20:31  5-MIN KNEW 131020Z AUTO 03008KT 9SM CLR 29/24 A3006 -120 76 1500 030/08 RMK AO2 T02890244
53917KNEW NEW20190913042510809/13/19 04:25:31  5-MIN KNEW 131025Z AUTO 03007KT 9SM CLR 29/24 A3006 -120 76 1500 030/07 RMK AO2 T02890244
53917KNEW NEW20190913043010809/13/19 04:30:31  5-MIN KNEW 131030Z AUTO 03007KT 9SM CLR 29/24 A3006 -120 76 1500 030/07 RMK AO2 T02890244
53917KNEW NEW20190913043510809/13/19 04:35:31  5-MIN KNEW 131035Z AUTO 03008KT 9SM CLR 29/24 A3006 -120 76 1500 030/08 RMK AO2 T02890244
53917KNEW NEW20190913044010809/13/19 04:40:31  5-MIN KNEW 131040Z AUTO 03007KT 9SM CLR 29/24 A3006 -120 76 1500 030/07 RMK AO2 T02890244
53917KNEW NEW20190913044510809/13/19 04:45:31  5-MIN KNEW 131045Z AUTO 03007KT 9SM CLR 29/24 A3006 -120 74 1500 030/07 RMK AO2 T02890239
53917KNEW NEW20190913045011509/13/19 04:50:31  5-MIN KNEW 131050Z AUTO 03007KT 9SM CLR 29/24 A3006 -120 74 1500 030/07 RMK AO2 SLP174 T02890239
53917KNEW NEW20190913045510809/13/19 04:55:31  5-MIN KNEW 131055Z AUTO 03008KT 9SM CLR 29/24 A3007 -120 74 1500 030/08 RMK AO2 T02890239
53917KNEW NEW20190913050010809/13/19 05:00:31  5-MIN KNEW 131100Z AUTO 03007KT 9SM CLR 29/24 A3007 -120 74 1500 030/07 RMK AO2 T02890239
53917KNEW NEW20190913050510809/13/19 05:05:31  5-MIN KNEW 131105Z AUTO 03008KT 9SM CLR 29/24 A3007 -120 74 1500 030/08 RMK AO2 T02890239
53917KNEW NEW20190913051010809/13/19 05:10:31  5-MIN KNEW 131110Z AUTO 03008KT 9SM CLR 29/24 A3007 -120 74 1500 030/08 RMK AO2 T02890239
53917KNEW NEW20190913051510809/13/19 05:15:31  5-MIN KNEW 131115Z AUTO 04007KT 9SM CLR 29/24 A3007 -120 74 1500 040/07 RMK AO2 T02890239
53917KNEW NEW20190913052010809/13/19 05:20:31  5-MIN KNEW 131120Z AUTO 03007KT 9SM CLR 29/24 A3007 -120 74 1500 030/07 RMK AO2 T02890239
53917KNEW NEW20190913052510809/13/19 05:25:31  5-MIN KNEW 131125Z AUTO 04007KT 9SM CLR 29/24 A3007 -120 74 1500 040/07 RMK AO2 T02890239
53917KNEW NEW20190913053010809/13/19 05:30:31  5-MIN KNEW 131130Z AUTO 04008KT 9SM CLR 29/24 A3007 -120 74 1500 040/08 RMK AO2 T02890239
53917KNEW NEW20190913053510809/13/19 05:35:31  5-MIN KNEW 131135Z AUTO 03008KT 9SM CLR 29/24 A3007 -120 74 1500 030/08 RMK AO2 T02890239
53917KNEW NEW20190913054010809/13/19 05:40:31  5-MIN KNEW 131140Z AUTO 03008KT 9SM CLR 29/24 A3007 -130 74 1500 030/08 RMK AO2 T02890239
53917KNEW NEW20190913054510809/13/19 05:45:31  5-MIN KNEW 131145Z AUTO 02009KT 9SM CLR 29/24 A3007 -130 74 1500 020/09 RMK AO2 T02890239
53917KNEW NEW20190913055013309/13/19 05:50:31  5-MIN KNEW 131150Z AUTO 03008KT 8SM CLR 29/23 A3008 -130 71 1500 030/08 RMK AO2 SLP178 T02890233 10294 20289 58005
53917KNEW NEW20190913055510309/13/19 05:55:31  5-MIN KNEW 131155Z 02008KT 8SM CLR 29/24 A3008 -130 74 1500 020/08 RMK AO2 T02890239
53917KNEW NEW20190913060010309/13/19 06:00:31  5-MIN KNEW 131200Z 03008KT 8SM CLR 29/23 A3008 -130 71 1500 030/08 RMK AO2 T02890233
53917KNEW NEW20190913060510309/13/19 06:05:31  5-MIN KNEW 131205Z 03007KT 8SM CLR 29/23 A3008 -130 71 1500 030/07 RMK AO2 T02890233
53917KNEW NEW20190913061010309/13/19 06:10:31  5-MIN KNEW 131210Z 04008KT 8SM CLR 29/23 A3008 -130 71 1500 040/08 RMK AO2 T02890233
53917KNEW NEW20190913061510309/13/19 06:15:31  5-MIN KNEW 131215Z 04008KT 8SM CLR 29/23 A3008 -130 69 1500 040/08 RMK AO2 T02890228
53917KNEW NEW20190913062010309/13/19 06:20:31  5-MIN KNEW 131220Z 04007KT 8SM CLR 29/22 A3008 -140 67 1500 040/07 RMK AO2 T02890222
53917KNEW NEW20190913062510309/13/19 06:25:31  5-MIN KNEW 131225Z 03007KT 8SM CLR 29/22 A3008 -140 67 1500 030/07 RMK AO2 T02890222
53917KNEW NEW20190913063010309/13/19 06:30:31  5-MIN KNEW 131230Z 03007KT 8SM CLR 29/22 A3008 -140 67 1500 030/07 RMK AO2 T02890222
53917KNEW NEW20190913063510309/13/19 06:35:31  5-MIN KNEW 131235Z 04006KT 8SM CLR 29/22 A3008 -140 64 1500 040/06 RMK AO2 T02940222
53917KNEW NEW20190913064010309/13/19 06:40:31  5-MIN KNEW 131240Z 03006KT 8SM CLR 29/22 A3009 -140 64 1500 030/06 RMK AO2 T02940222
53917KNEW NEW20190913064510309/13/19 06:45:31  5-MIN KNEW 131245Z 04007KT 8SM CLR 29/22 A3009 -140 64 1500 040/07 RMK AO2 T02940222
53917KNEW NEW20190913065011009/13/19 06:50:31  5-MIN KNEW 131250Z 04007KT 9SM CLR 29/22 A3009 -140 62 1500 040/07 RMK AO2 SLP182 T02940217
53917KNEW NEW20190913065510309/13/19 06:55:31  5-MIN KNEW 131255Z 03007KT 8SM CLR 29/22 A3009 -140 64 1500 030/07 RMK AO2 T02940222
53917KNEW NEW20190913070010309/13/19 07:00:31  5-MIN KNEW 131300Z 04007KT 8SM CLR 29/22 A3009 -140 64 1500 040/07 RMK AO2 T02940222
53917KNEW NEW20190913070510309/13/19 07:05:31  5-MIN KNEW 131305Z 04006KT 8SM CLR 29/22 A3009 -140 64 1500 040/06 RMK AO2 T02940222
53917KNEW NEW20190913071010309/13/19 07:10:31  5-MIN KNEW 131310Z 04006KT 8SM CLR 29/22 A3009 -140 64 1500 040/06 RMK AO2 T02940222
53917KNEW NEW20190913071510309/13/19 07:15:31  5-MIN KNEW 131315Z 05006KT 8SM CLR 29/22 A3010 -150 64 1500 050/06 RMK AO2 T02940222
53917KNEW NEW20190913072010309/13/19 07:20:31  5-MIN KNEW 131320Z 06005KT 8SM CLR 29/23 A3010 -150 67 1500 060/05 RMK AO2 T02940228
53917KNEW NEW20190913072510309/13/19 07:25:31  5-MIN KNEW 131325Z 05006KT 8SM CLR 29/23 A3010 -150 67 1500 050/06 RMK AO2 T02940228
53917KNEW NEW20190913073010309/13/19 07:30:31  5-MIN KNEW 131330Z 05006KT 8SM CLR 30/23 A3010 -150 65 1600 050/06 RMK AO2 T03000228
53917KNEW NEW20190913073510309/13/19 07:35:31  5-MIN KNEW 131335Z 05007KT 8SM CLR 30/23 A3010 -150 65 1600 050/07 RMK AO2 T03000228
53917KNEW NEW20190913074010309/13/19 07:40:31  5-MIN KNEW 131340Z 05007KT 8SM CLR 30/23 A3010 -150 65 1600 050/07 RMK AO2 T03000228
53917KNEW NEW20190913074510309/13/19 07:45:31  5-MIN KNEW 131345Z 05006KT 8SM CLR 29/23 A3010 -150 67 1500 050/06 RMK AO2 T02940228
53917KNEW NEW20190913075011009/13/19 07:50:31  5-MIN KNEW 131350Z 05005KT 8SM CLR 30/23 A3010 -150 65 1600 050/05 RMK AO2 SLP187 T03000228
53917KNEW NEW20190913075510309/13/19 07:55:31  5-MIN KNEW 131355Z 04006KT 8SM CLR 30/23 A3010 -150 65 1600 040/06 RMK AO2 T03000228
53917KNEW NEW20190913080010309/13/19 08:00:31  5-MIN KNEW 131400Z 05005KT 8SM CLR 30/23 A3010 -150 65 1600 050/05 RMK AO2 T03000228
53917KNEW NEW20190913080510309/13/19 08:05:31  5-MIN KNEW 131405Z 04006KT 8SM CLR 30/22 A3010 -150 62 1600 040/06 RMK AO2 T03000222
53917KNEW NEW20190913081010309/13/19 08:10:31  5-MIN KNEW 131410Z 04005KT 8SM CLR 30/23 A3010 -150 65 1600 040/05 RMK AO2 T03000228
53917KNEW NEW20190913081510309/13/19 08:15:31  5-MIN KNEW 131415Z 04006KT 8SM CLR 30/23 A3010 -150 65 1600 040/06 RMK AO2 T03000228
53917KNEW NEW20190913082010309/13/19 08:20:31  5-MIN KNEW 131420Z 03005KT 8SM CLR 30/23 A3010 -160 65 1600 030/05 RMK AO2 T03000228
53917KNEW NEW20190913082510309/13/19 08:25:31  5-MIN KNEW 131425Z 03006KT 8SM CLR 30/23 A3010 -160 65 1600 030/06 RMK AO2 T03000228
53917KNEW NEW20190913083010309/13/19 08:30:31  5-MIN KNEW 131430Z 03006KT 8SM CLR 30/23 A3010 -160 65 1600 030/06 RMK AO2 T03000228
53917KNEW NEW20190913083510309/13/19 08:35:31  5-MIN KNEW 131435Z 02006KT 8SM CLR 30/23 A3011 -160 65 1600 020/06 RMK AO2 T03000228
53917KNEW NEW20190913084010309/13/19 08:40:31  5-MIN KNEW 131440Z 02006KT 8SM CLR 31/23 A3010 -160 62 1600 020/06 RMK AO2 T03060228
53917KNEW NEW20190913084510309/13/19 08:45:31  5-MIN KNEW 131445Z 02006KT 8SM CLR 31/23 A3010 -160 65 1600 020/06 RMK AO2 T03060233
53917KNEW NEW20190913085011609/13/19 08:50:31  5-MIN KNEW 131450Z 02006KT 8SM CLR 31/23 A3010 -150 65 1600 020/06 RMK AO2 SLP187 T03060233 53006
53917KNEW NEW20190913085510309/13/19 08:55:31  5-MIN KNEW 131455Z 02006KT 8SM CLR 31/23 A3010 -160 62 1600 020/06 RMK AO2 T03060228
53917KNEW NEW20190913090010309/13/19 09:00:31  5-MIN KNEW 131500Z 03006KT 8SM CLR 31/23 A3010 -160 65 1600 030/06 RMK AO2 T03060233
53917KNEW NEW20190913090510309/13/19 09:05:31  5-MIN KNEW 131505Z 02005KT 8SM CLR 31/23 A3011 -160 65 1600 020/05 RMK AO2 T03060233
53917KNEW NEW20190913091010309/13/19 09:10:31  5-MIN KNEW 131510Z 02005KT 8SM CLR 31/23 A3011 -160 65 1600 020/05 RMK AO2 T03060233
53917KNEW NEW20190913091510309/13/19 09:15:31  5-MIN KNEW 131515Z 02006KT 8SM CLR 31/23 A3011 -160 63 1700 020/06 RMK AO2 T03110233
53917KNEW NEW20190913092010309/13/19 09:20:31  5-MIN KNEW 131520Z 02005KT 8SM CLR 31/23 A3011 -160 63 1700 020/05 RMK AO2 T03110233
53917KNEW NEW20190913092510309/13/19 09:25:31  5-MIN KNEW 131525Z 02004KT 7SM CLR 31/23 A3011 -160 63 1700 020/04 RMK AO2 T03110233
53917KNEW NEW20190913093010309/13/19 09:30:31  5-MIN KNEW 131530Z 02006KT 7SM CLR 31/23 A3011 -160 63 1700 020/06 RMK AO2 T03110233
53917KNEW NEW20190913093510309/13/19 09:35:31  5-MIN KNEW 131535Z 03005KT 7SM CLR 31/23 A3011 -160 63 1700 030/05 RMK AO2 T03110233
53917KNEW NEW20190913094010309/13/19 09:40:31  5-MIN KNEW 131540Z 02006KT 7SM CLR 31/23 A3011 -160 63 1700 020/06 RMK AO2 T03110233
53917KNEW NEW20190913094510309/13/19 09:45:31  5-MIN KNEW 131545Z 03006KT 7SM CLR 32/23 A3011 -160 61 1700 030/06 RMK AO2 T03170233
53917KNEW NEW20190913095011009/13/19 09:50:31  5-MIN KNEW 131550Z 02006KT 7SM CLR 32/23 A3010 -160 61 1800 020/06 RMK AO2 SLP187 T03170233
53917KNEW NEW20190913095510309/13/19 09:55:31  5-MIN KNEW 131555Z 03006KT 8SM CLR 32/23 A3011 -160 59 1800 030/06 RMK AO2 T03220233
53917KNEW NEW20190913100010309/13/19 10:00:31  5-MIN KNEW 131600Z 03006KT 8SM CLR 32/23 A3011 -160 61 1700 030/06 RMK AO2 T03170233
53917KNEW NEW20190913100510309/13/19 10:05:31  5-MIN KNEW 131605Z 02006KT 8SM CLR 32/23 A3010 -160 59 1800 020/06 RMK AO2 T03220233
53917KNEW NEW20190913101010309/13/19 10:10:31  5-MIN KNEW 131610Z 03008KT 8SM CLR 32/23 A3010 -150 61 1800 030/08 RMK AO2 T03170233
53917KNEW NEW20190913101510309/13/19 10:15:31  5-MIN KNEW 131615Z 02007KT 8SM CLR 32/23 A3010 -150 59 1800 020/07 RMK AO2 T03220233
53917KNEW NEW20190913102010309/13/19 10:20:31  5-MIN KNEW 131620Z 03007KT 8SM CLR 32/23 A3010 -150 59 1800 030/07 RMK AO2 T03220233
53917KNEW NEW20190913102510309/13/19 10:25:31  5-MIN KNEW 131625Z 03008KT 8SM CLR 32/23 A3010 -150 59 1800 030/08 RMK AO2 T03220233
53917KNEW NEW20190913103010309/13/19 10:30:31  5-MIN KNEW 131630Z 04007KT 8SM CLR 32/23 A3010 -150 57 1800 040/07 RMK AO2 T03220228
53917KNEW NEW20190913103510309/13/19 10:35:31  5-MIN KNEW 131635Z 02007KT 8SM CLR 33/23 A3010 -150 57 1900 020/07 RMK AO2 T03280233
53917KNEW NEW20190913104010309/13/19 10:40:31  5-MIN KNEW 131640Z 03006KT 8SM CLR 33/23 A3010 -150 55 1900 030/06 RMK AO2 T03280228
53917KNEW NEW20190913104510309/13/19 10:45:31  5-MIN KNEW 131645Z 03007KT 8SM CLR 33/23 A3010 -150 55 1900 030/07 RMK AO2 T03280228
53917KNEW NEW20190913105011009/13/19 10:50:31  5-MIN KNEW 131650Z 02007KT 9SM CLR 33/23 A3010 -150 55 1900 020/07 RMK AO2 SLP186 T03280228
53917KNEW NEW20190913105510309/13/19 10:55:31  5-MIN KNEW 131655Z 03006KT 9SM CLR 33/22 A3010 -150 53 1900 030/06 RMK AO2 T03280222
53917KNEW NEW20190913110010309/13/19 11:00:31  5-MIN KNEW 131700Z 03007KT 9SM CLR 33/23 A3009 -150 53 1900 030/07 RMK AO2 T03330228
53917KNEW NEW20190913110510309/13/19 11:05:31  5-MIN KNEW 131705Z 03009KT 9SM CLR 33/23 A3009 -140 53 1900 030/09 RMK AO2 T03330228
53917KNEW NEW20190913111010309/13/19 11:10:31  5-MIN KNEW 131710Z 03007KT 9SM CLR 33/23 A3009 -140 53 2000 030/07 RMK AO2 T03330228
53917KNEW NEW20190913111510309/13/19 11:15:31  5-MIN KNEW 131715Z 02007KT 9SM CLR 33/23 A3009 -140 53 2000 020/07 RMK AO2 T03330228
53917KNEW NEW20190913112010309/13/19 11:20:31  5-MIN KNEW 131720Z 03007KT 9SM CLR 33/23 A3009 -140 53 2000 030/07 RMK AO2 T03330228
53917KNEW NEW20190913112510309/13/19 11:25:31  5-MIN KNEW 131725Z 04008KT 9SM CLR 33/22 A3009 -140 53 1900 040/08 RMK AO2 T03280222
53917KNEW NEW20190913113010309/13/19 11:30:31  5-MIN KNEW 131730Z 04008KT 9SM CLR 33/22 A3009 -140 51 2000 040/08 RMK AO2 T03330222
53917KNEW NEW20190913113510309/13/19 11:35:31  5-MIN KNEW 131735Z 04008KT 9SM CLR 33/22 A3009 -140 51 2000 040/08 RMK AO2 T03330222
53917KNEW NEW20190913114010309/13/19 11:40:31  5-MIN KNEW 131740Z 04008KT 9SM CLR 33/22 A3008 -140 51 2000 040/08 RMK AO2 T03330222
53917KNEW NEW20190913114510309/13/19 11:45:31  5-MIN KNEW 131745Z 03008KT 9SM CLR 34/22 A3008 -140 50 2000 030/08 RMK AO2 T03390222
53917KNEW NEW20190913115012809/13/19 11:50:31  5-MIN KNEW 131750Z 04008KT 9SM CLR 33/22 A3008 -140 51 2000 040/08 RMK AO2 SLP180 T03330222 10339 20289 51010
53917KNEW NEW20190913115510309/13/19 11:55:31  5-MIN KNEW 131755Z 04007KT 9SM CLR 34/22 A3008 -130 48 2000 040/07 RMK AO2 T03390217
53917KNEW NEW20190913120010309/13/19 12:00:31  5-MIN KNEW 131800Z 04008KT 9SM CLR 34/22 A3008 -130 48 2000 040/08 RMK AO2 T03390217
53917KNEW NEW20190913120510309/13/19 12:05:31  5-MIN KNEW 131805Z 04008KT 9SM CLR 34/22 A3008 -130 48 2000 040/08 RMK AO2 T03390217
53917KNEW NEW20190913121010409/13/19 12:10:31  5-MIN KNEW 131810Z 04007KT 10SM CLR 34/21 A3008 -130 46 2000 040/07 RMK AO2 T03390211
53917KNEW NEW20190913121510409/13/19 12:15:31  5-MIN KNEW 131815Z 04008KT 10SM CLR 34/22 A3008 -130 48 2000 040/08 RMK AO2 T03390217
53917KNEW NEW20190913122010709/13/19 12:20:31  5-MIN KNEW 131820Z 04009KT 10SM FEW060 34/21 A3008 -130 46 2000 040/09 RMK AO2 T03390211
53917KNEW NEW20190913122510709/13/19 12:25:31  5-MIN KNEW 131825Z 06011KT 10SM FEW060 34/21 A3007 -130 45 2100 060/11 RMK AO2 T03440211
53917KNEW NEW20190913123010709/13/19 12:30:31  5-MIN KNEW 131830Z 05010KT 10SM SCT060 34/21 A3007 -130 43 2100 050/10 RMK AO2 T03440206
53917KNEW NEW20190913123510709/13/19 12:35:31  5-MIN KNEW 131835Z 08014KT 10SM SCT060 34/20 A3007 -120 42 2100 080/14 RMK AO2 T03440200
53917KNEW NEW20190913124010709/13/19 12:40:31  5-MIN KNEW 131840Z 06010KT 10SM SCT060 34/18 A3007 -120 38 2100 060/10 RMK AO2 T03440183
53917KNEW NEW20190913124510709/13/19 12:45:31  5-MIN KNEW 131845Z 09011KT 10SM SCT060 35/19 A3007 -120 38 2200 090/11 RMK AO2 T03500189
53917KNEW NEW20190913125011409/13/19 12:50:31  5-MIN KNEW 131850Z 10014KT 10SM SCT060 34/18 A3007 -120 38 2100 100/14 RMK AO2 SLP175 T03440183
53917KNEW NEW20190913125510709/13/19 12:55:31  5-MIN KNEW 131855Z 10014KT 10SM FEW060 34/18 A3006 -120 36 2100 100/14 RMK AO2 T03440178
53917KNEW NEW20190913130010709/13/19 13:00:31  5-MIN KNEW 131900Z 09012KT 10SM FEW060 34/18 A3007 -120 36 2100 090/12 RMK AO2 T03440178
53917KNEW NEW20190913130510409/13/19 13:05:31  5-MIN KNEW 131905Z 09014KT 10SM CLR 34/18 A3006 -120 36 2100 090/14 RMK AO2 T03440178
53917KNEW NEW20190913131010409/13/19 13:10:31  5-MIN KNEW 131910Z 09013KT 10SM CLR 34/18 A3006 -120 36 2100 090/13 RMK AO2 T03440178
53917KNEW NEW20190913131510409/13/19 13:15:31  5-MIN KNEW 131915Z 10011KT 10SM CLR 34/18 A3006 -110 36 2100 100/11 RMK AO2 T03440178
53917KNEW NEW20190913132011009/13/19 13:20:31  5-MIN KNEW 131920Z 10010G18KT 10SM CLR 35/17 A3006 -120 34 2200 100/10G18 RMK AO2 T03500172
53917KNEW NEW20190913132511009/13/19 13:25:31  5-MIN KNEW 131925Z 09013G18KT 10SM CLR 34/18 A3006 -110 36 2100 090/13G18 RMK AO2 T03440178
53917KNEW NEW20190913133010409/13/19 13:30:31  5-MIN KNEW 131930Z 10013KT 10SM CLR 34/18 A3006 -110 36 2100 100/13 RMK AO2 T03440178
53917KNEW NEW20190913133510409/13/19 13:35:31  5-MIN KNEW 131935Z 09011KT 10SM CLR 34/18 A3006 -110 38 2100 090/11 RMK AO2 T03440183
53917KNEW NEW20190913134010409/13/19 13:40:31  5-MIN KNEW 131940Z 09013KT 10SM CLR 34/18 A3005 -110 38 2100 090/13 RMK AO2 T03440183
53917KNEW NEW20190913134510409/13/19 13:45:31  5-MIN KNEW 131945Z 09013KT 10SM CLR 35/17 A3005 -110 33 2200 090/13 RMK AO2 T03500167
53917KNEW NEW20190913135011109/13/19 13:50:31  5-MIN KNEW 131950Z 10011KT 10SM CLR 35/17 A3005 -110 33 2200 100/11 RMK AO2 SLP170 T03500167
53917KNEW NEW20190913135510409/13/19 13:55:31  5-MIN KNEW 131955Z 11012KT 10SM CLR 34/17 A3005 -100 35 2100 110/12 RMK AO2 T03440172
53917KNEW NEW20190913140010409/13/19 14:00:31  5-MIN KNEW 132000Z 10012KT 10SM CLR 34/16 A3005 -110 33 2100 100/12 RMK AO2 T03440161
53917KNEW NEW20190913140510409/13/19 14:05:31  5-MIN KNEW 132005Z 09009KT 10SM CLR 34/17 A3005 -100 34 2100 090/09 RMK AO2 T03440167
53917KNEW NEW20190913141010409/13/19 14:10:31  5-MIN KNEW 132010Z 09009KT 10SM CLR 35/17 A3005 -100 34 2200 090/09 RMK AO2 T03500172
53917KNEW NEW20190913141510409/13/19 14:15:31  5-MIN KNEW 132015Z 09011KT 10SM CLR 34/17 A3004 -100 34 2100 090/11 RMK AO2 T03440167
53917KNEW NEW20190913142010409/13/19 14:20:31  5-MIN KNEW 132020Z 11010KT 10SM CLR 34/17 A3005 -100 34 2100 110/10 RMK AO2 T03440167
53917KNEW NEW20190913142510409/13/19 14:25:31  5-MIN KNEW 132025Z 11011KT 10SM CLR 35/17 A3004 -100 34 2200 110/11 RMK AO2 T03500172
53917KNEW NEW20190913143010409/13/19 14:30:31  5-MIN KNEW 132030Z 11012KT 10SM CLR 35/16 A3004 -100 32 2200 110/12 RMK AO2 T03500161
53917KNEW NEW20190913143510309/13/19 14:35:31  5-MIN KNEW 132035Z 10010KT 10SM CLR 34/16 A3004 -90 33 2100 100/10 RMK AO2 T03440161
53917KNEW NEW20190913144010309/13/19 14:40:31  5-MIN KNEW 132040Z 11011KT 10SM CLR 34/16 A3003 -90 33 2100 110/11 RMK AO2 T03440161
53917KNEW NEW20190913144510309/13/19 14:45:31  5-MIN KNEW 132045Z 10009KT 10SM CLR 34/17 A3003 -90 34 2100 100/09 RMK AO2 T03440167
53917KNEW NEW20190913145011609/13/19 14:50:31  5-MIN KNEW 132050Z 11009KT 10SM CLR 34/16 A3003 -90 33 2100 110/09 RMK AO2 SLP163 T03440161 58008
53917KNEW NEW20190913145510309/13/19 14:55:31  5-MIN KNEW 132055Z 11009KT 10SM CLR 34/17 A3003 -90 35 2100 110/09 RMK AO2 T03440172
53917KNEW NEW20190913150010309/13/19 15:00:31  5-MIN KNEW 132100Z 10009KT 10SM CLR 34/18 A3003 -80 38 2100 100/09 RMK AO2 T03440183
53917KNEW NEW20190913150510309/13/19 15:05:31  5-MIN KNEW 132105Z 09009KT 10SM CLR 34/19 A3002 -80 40 2100 090/09 RMK AO2 T03390189
53917KNEW NEW20190913151010309/13/19 15:10:31  5-MIN KNEW 132110Z 12009KT 10SM CLR 34/19 A3002 -80 40 2100 120/09 RMK AO2 T03440194
53917KNEW NEW20190913151510309/13/19 15:15:31  5-MIN KNEW 132115Z 11010KT 10SM CLR 34/19 A3003 -80 40 2100 110/10 RMK AO2 T03390189
53917KNEW NEW20190913152010309/13/19 15:20:31  5-MIN KNEW 132120Z 11009KT 10SM CLR 34/19 A3003 -80 42 2100 110/09 RMK AO2 T03390194
53917KNEW NEW20190913152510309/13/19 15:25:31  5-MIN KNEW 132125Z 12011KT 10SM CLR 34/19 A3003 -80 42 2100 120/11 RMK AO2 T03390194
53917KNEW NEW20190913153010309/13/19 15:30:31  5-MIN KNEW 132130Z 10011KT 10SM CLR 34/20 A3003 -80 43 2100 100/11 RMK AO2 T03390200
53917KNEW NEW20190913153510309/13/19 15:35:31  5-MIN KNEW 132135Z 11011KT 10SM CLR 34/20 A3003 -80 43 2100 110/11 RMK AO2 T03390200
53917KNEW NEW20190913154010309/13/19 15:40:31  5-MIN KNEW 132140Z 10012KT 10SM CLR 33/20 A3003 -80 45 2000 100/12 RMK AO2 T03330200
53917KNEW NEW20190913154510309/13/19 15:45:31  5-MIN KNEW 132145Z 12012KT 10SM CLR 34/20 A3003 -90 43 2100 120/12 RMK AO2 T03390200
53917KNEW NEW20190913155011009/13/19 15:50:31  5-MIN KNEW 132150Z 10011KT 10SM CLR 33/20 A3003 -90 45 2000 100/11 RMK AO2 SLP162 T03330200
53917KNEW NEW20190913155510309/13/19 15:55:31  5-MIN KNEW 132155Z 12009KT 10SM CLR 33/20 A3003 -90 45 2000 120/09 RMK AO2 T03330200
53917KNEW NEW20190913160010309/13/19 16:00:31  5-MIN KNEW 132200Z 13012KT 10SM CLR 33/19 A3003 -90 43 2000 130/12 RMK AO2 T03330194
53917KNEW NEW20190913160510309/13/19 16:05:31  5-MIN KNEW 132205Z 12011KT 10SM CLR 33/19 A3003 -90 42 2000 120/11 RMK AO2 T03330189
53917KNEW NEW20190913161010309/13/19 16:10:31  5-MIN KNEW 132210Z 12012KT 10SM CLR 33/19 A3003 -90 42 2000 120/12 RMK AO2 T03330189
53917KNEW NEW20190913161510309/13/19 16:15:31  5-MIN KNEW 132215Z 12010KT 10SM CLR 33/19 A3003 -90 43 2000 120/10 RMK AO2 T03330194
53917KNEW NEW20190913162010309/13/19 16:20:31  5-MIN KNEW 132220Z 11010KT 10SM CLR 33/19 A3003 -90 42 2000 110/10 RMK AO2 T03330189
53917KNEW NEW20190913162510309/13/19 16:25:31  5-MIN KNEW 132225Z 10013KT 10SM CLR 33/19 A3003 -90 43 2000 100/13 RMK AO2 T03280189
53917KNEW NEW20190913163010309/13/19 16:30:31  5-MIN KNEW 132230Z 12012KT 10SM CLR 33/19 A3003 -90 43 2000 120/12 RMK AO2 T03280189
53917KNEW NEW20190913163510309/13/19 16:35:31  5-MIN KNEW 132235Z 12012KT 10SM CLR 33/18 A3003 -80 40 2000 120/12 RMK AO2 T03280178
53917KNEW NEW20190913164010309/13/19 16:40:31  5-MIN KNEW 132240Z 12010KT 10SM CLR 33/18 A3003 -80 41 2000 120/10 RMK AO2 T03280183
53917KNEW NEW20190913164510309/13/19 16:45:31  5-MIN KNEW 132245Z 12012KT 10SM CLR 33/19 A3002 -80 43 2000 120/12 RMK AO2 T03280189
53917KNEW NEW20190913165011009/13/19 16:50:31  5-MIN KNEW 132250Z 12012KT 10SM CLR 33/19 A3002 -80 43 2000 120/12 RMK AO2 SLP160 T03280189
53917KNEW NEW20190913165510309/13/19 16:55:31  5-MIN KNEW 132255Z 12011KT 10SM CLR 33/19 A3002 -80 43 2000 120/11 RMK AO2 T03280189
53917KNEW NEW20190913170010309/13/19 17:00:31  5-MIN KNEW 132300Z 13012KT 10SM CLR 32/18 A3002 -80 43 1900 130/12 RMK AO2 T03220183
53917KNEW NEW20190913170510309/13/19 17:05:31  5-MIN KNEW 132305Z 11011KT 10SM CLR 32/18 A3002 -80 43 1900 110/11 RMK AO2 T03220183
53917KNEW NEW20190913171010309/13/19 17:10:31  5-MIN KNEW 132310Z 13010KT 10SM CLR 32/18 A3002 -80 43 1900 130/10 RMK AO2 T03220183
53917KNEW NEW20190913171510309/13/19 17:15:31  5-MIN KNEW 132315Z 13012KT 10SM CLR 32/18 A3002 -80 41 1900 130/12 RMK AO2 T03220178
53917KNEW NEW20190913172010309/13/19 17:20:31  5-MIN KNEW 132320Z 13009KT 10SM CLR 32/18 A3002 -80 43 1900 130/09 RMK AO2 T03220183
53917KNEW NEW20190913172510309/13/19 17:25:31  5-MIN KNEW 132325Z 12010KT 10SM CLR 32/19 A3002 -80 44 1900 120/10 RMK AO2 T03220189
53917KNEW NEW20190913173010309/13/19 17:30:31  5-MIN KNEW 132330Z 12007KT 10SM CLR 32/19 A3002 -80 47 1800 120/07 RMK AO2 T03170194
53917KNEW NEW20190913173510309/13/19 17:35:31  5-MIN KNEW 132335Z 13009KT 10SM CLR 32/19 A3002 -80 47 1800 130/09 RMK AO2 T03170194
53917KNEW NEW20190913174010309/13/19 17:40:31  5-MIN KNEW 132340Z 13009KT 10SM CLR 32/19 A3002 -80 47 1800 130/09 RMK AO2 T03170194
53917KNEW NEW20190913174510309/13/19 17:45:31  5-MIN KNEW 132345Z 13006KT 10SM CLR 32/19 A3003 -80 47 1800 130/06 RMK AO2 T03170194
53917KNEW NEW20190913175012809/13/19 17:50:31  5-MIN KNEW 132350Z 14009KT 10SM CLR 32/19 A3003 -80 47 1800 140/09 RMK AO2 SLP161 T03170194 10350 20317 58017
53917KNEW NEW20190913175510309/13/19 17:55:31  5-MIN KNEW 132355Z 14008KT 10SM CLR 32/19 A3003 -80 46 1800 140/08 RMK AO2 T03170189
53917KNEW NEW20190913180010309/13/19 18:00:31  5-MIN KNEW 140000Z 14009KT 10SM CLR 31/19 A3003 -80 47 1800 140/09 RMK AO2 T03110189
53917KNEW NEW20190913180510309/13/19 18:05:31  5-MIN KNEW 140005Z 13006KT 10SM CLR 31/19 A3003 -80 47 1800 130/06 RMK AO2 T03110189
53917KNEW NEW20190913181010309/13/19 18:10:31  5-MIN KNEW 140010Z 13008KT 10SM CLR 31/19 A3003 -80 49 1800 130/08 RMK AO2 T03110194
53917KNEW NEW20190913181510309/13/19 18:15:31  5-MIN KNEW 140015Z 14007KT 10SM CLR 31/19 A3003 -80 49 1800 140/07 RMK AO2 T03110194
53917KNEW NEW20190913182010309/13/19 18:20:31  5-MIN KNEW 140020Z 14007KT 10SM CLR 31/19 A3003 -90 51 1700 140/07 RMK AO2 T03060194
53917KNEW NEW20190913182510309/13/19 18:25:31  5-MIN KNEW 140025Z 14007KT 10SM CLR 31/19 A3003 -90 51 1700 140/07 RMK AO2 T03060194
53917KNEW NEW20190913183010309/13/19 18:30:31  5-MIN KNEW 140030Z 14006KT 10SM CLR 31/19 A3003 -90 51 1700 140/06 RMK AO2 T03060194
53917KNEW NEW20190913183510309/13/19 18:35:31  5-MIN KNEW 140035Z 14005KT 10SM CLR 31/20 A3003 -90 52 1700 140/05 RMK AO2 T03060200
53917KNEW NEW20190913184010309/13/19 18:40:31  5-MIN KNEW 140040Z 14006KT 10SM CLR 31/20 A3003 -90 52 1700 140/06 RMK AO2 T03060200
53917KNEW NEW20190913184510309/13/19 18:45:31  5-MIN KNEW 140045Z 15005KT 10SM CLR 30/20 A3003 -90 54 1600 150/05 RMK AO2 T03000200
53917KNEW NEW20190913185011009/13/19 18:50:31  5-MIN KNEW 140050Z 14005KT 10SM CLR 30/20 A3003 -90 54 1600 140/05 RMK AO2 SLP163 T03000200
53917KNEW NEW20190913185510309/13/19 18:55:31  5-MIN KNEW 140055Z 14004KT 10SM CLR 30/20 A3003 -90 54 1600 140/04 RMK AO2 T03000200
53917KNEW NEW20190913190010309/13/19 19:00:31  5-MIN KNEW 140100Z 14004KT 10SM CLR 30/20 A3003 -90 54 1600 140/04 RMK AO2 T03000200
53917KNEW NEW20190913190510309/13/19 19:05:31  5-MIN KNEW 140105Z 15003KT 10SM CLR 30/20 A3003 -90 54 1600 150/03 RMK AO2 T03000200
53917KNEW NEW20190913191010309/13/19 19:10:31  5-MIN KNEW 140110Z 15003KT 10SM CLR 30/20 A3003 -90 54 1600 150/03 RMK AO2 T03000200
53917KNEW NEW20190913191510309/13/19 19:15:31  5-MIN KNEW 140115Z 15003KT 10SM CLR 29/20 A3004 -90 56 1600 150/03 RMK AO2 T02940200
53917KNEW NEW20190913192010309/13/19 19:20:31  5-MIN KNEW 140120Z 15003KT 10SM CLR 30/20 A3004 -90 54 1600 150/03 RMK AO2 T03000200
53917KNEW NEW20190913192510409/13/19 19:25:31  5-MIN KNEW 140125Z 14004KT 10SM CLR 30/20 A3004 -100 54 1600 140/04 RMK AO2 T03000200
53917KNEW NEW20190913193010409/13/19 19:30:31  5-MIN KNEW 140130Z 14004KT 10SM CLR 29/20 A3004 -100 56 1600 140/04 RMK AO2 T02940200
53917KNEW NEW20190913193510409/13/19 19:35:31  5-MIN KNEW 140135Z 15004KT 10SM CLR 30/20 A3005 -100 54 1600 150/04 RMK AO2 T03000200
53917KNEW NEW20190913194010409/13/19 19:40:31  5-MIN KNEW 140140Z 14004KT 10SM CLR 29/21 A3005 -110 58 1600 140/04 RMK AO2 T02940206
53917KNEW NEW20190913194510709/13/19 19:45:31  5-MIN KNEW 140145Z 15004KT 10SM FEW080 29/21 A3006 -110 58 1600 150/04 RMK AO2 T02940206
53917KNEW NEW20190913195011409/13/19 19:50:31  5-MIN KNEW 140150Z 15004KT 10SM FEW080 29/21 A3006 -110 58 1600 150/04 RMK AO2 SLP171 T02940206
53917KNEW NEW20190913195510709/13/19 19:55:31  5-MIN KNEW 140155Z 14005KT 10SM FEW080 29/21 A3006 -110 58 1600 140/05 RMK AO2 T02940206
53917KNEW NEW20190913200011209/13/19 20:00:31  5-MIN KNEW 140200Z AUTO 14005KT 10SM FEW080 29/21 A3006 -120 58 1600 140/05 RMK AO2 T02940206
53917KNEW NEW20190913200511209/13/19 20:05:31  5-MIN KNEW 140205Z AUTO 14005KT 10SM FEW080 29/21 A3006 -120 60 1600 140/05 RMK AO2 T02940211
53917KNEW NEW20190913201011209/13/19 20:10:31  5-MIN KNEW 140210Z AUTO 14004KT 10SM FEW080 29/21 A3006 -120 60 1600 140/04 RMK AO2 T02940211
53917KNEW NEW20190913201510909/13/19 20:15:31  5-MIN KNEW 140215Z AUTO 13004KT 10SM CLR 29/21 A3006 -120 60 1500 130/04 RMK AO2 T02940211
53917KNEW NEW20190913202010909/13/19 20:20:31  5-MIN KNEW 140220Z AUTO 13003KT 10SM CLR 29/22 A3007 -120 62 1500 130/03 RMK AO2 T02940217
53917KNEW NEW20190913202510909/13/19 20:25:31  5-MIN KNEW 140225Z AUTO 13004KT 10SM CLR 29/22 A3007 -120 62 1500 130/04 RMK AO2 T02940217
53917KNEW NEW20190913203010909/13/19 20:30:31  5-MIN KNEW 140230Z AUTO 13004KT 10SM CLR 29/22 A3007 -120 62 1500 130/04 RMK AO2 T02940217
53917KNEW NEW20190913203510909/13/19 20:35:31  5-MIN KNEW 140235Z AUTO 13004KT 10SM CLR 29/22 A3007 -120 62 1500 130/04 RMK AO2 T02940217
53917KNEW NEW20190913204010909/13/19 20:40:31  5-MIN KNEW 140240Z AUTO 14003KT 10SM CLR 29/22 A3007 -120 62 1500 140/03 RMK AO2 T02940217
53917KNEW NEW20190913204510909/13/19 20:45:31  5-MIN KNEW 140245Z AUTO 13004KT 10SM CLR 29/21 A3007 -130 60 1500 130/04 RMK AO2 T02940211
53917KNEW NEW20190913205012209/13/19 20:50:31  5-MIN KNEW 140250Z AUTO 13005KT 10SM CLR 29/21 A3007 -130 60 1500 130/05 RMK AO2 SLP176 T02940211 55002
53917KNEW NEW20190913205510909/13/19 20:55:31  5-MIN KNEW 140255Z AUTO 13005KT 10SM CLR 29/21 A3007 -130 62 1500 130/05 RMK AO2 T02890211
53917KNEW NEW20190913210010909/13/19 21:00:31  5-MIN KNEW 140300Z AUTO 13006KT 10SM CLR 29/21 A3007 -120 62 1500 130/06 RMK AO2 T02890211
53917KNEW NEW20190913210511209/13/19 21:05:31  5-MIN KNEW 140305Z AUTO 14006KT 10SM FEW075 29/22 A3007 -120 64 1500 140/06 RMK AO2 T02890217
53917KNEW NEW20190913211011209/13/19 21:10:31  5-MIN KNEW 140310Z AUTO 14005KT 10SM FEW080 29/22 A3007 -130 64 1500 140/05 RMK AO2 T02890217
53917KNEW NEW20190913211511209/13/19 21:15:31  5-MIN KNEW 140315Z AUTO 14005KT 10SM SCT080 29/22 A3007 -130 64 1500 140/05 RMK AO2 T02890217
53917KNEW NEW20190913212011209/13/19 21:20:31  5-MIN KNEW 140320Z AUTO 14006KT 10SM SCT080 29/22 A3007 -130 64 1500 140/06 RMK AO2 T02890217
53917KNEW NEW20190913212511209/13/19 21:25:31  5-MIN KNEW 140325Z AUTO 14006KT 10SM SCT075 29/22 A3007 -130 64 1500 140/06 RMK AO2 T02890217
53917KNEW NEW20190913213011209/13/19 21:30:31  5-MIN KNEW 140330Z AUTO 14005KT 10SM BKN080 29/22 A3007 -130 64 1500 140/05 RMK AO2 T02890217
53917KNEW NEW20190913213511209/13/19 21:35:31  5-MIN KNEW 140335Z AUTO 13004KT 10SM BKN075 29/22 A3007 -130 64 1500 130/04 RMK AO2 T02890217
53917KNEW NEW20190913214011209/13/19 21:40:31  5-MIN KNEW 140340Z AUTO 14004KT 10SM SCT075 29/22 A3008 -130 67 1500 140/04 RMK AO2 T02890222
53917KNEW NEW20190913214511209/13/19 21:45:31  5-MIN KNEW 140345Z AUTO 13004KT 10SM FEW075 29/22 A3007 -130 67 1500 130/04 RMK AO2 T02890222
53917KNEW NEW20190913215011909/13/19 21:50:31  5-MIN KNEW 140350Z AUTO 12004KT 10SM FEW075 29/22 A3008 -130 67 1500 120/04 RMK AO2 SLP178 T02890222
53917KNEW NEW20190913215511209/13/19 21:55:31  5-MIN KNEW 140355Z AUTO 12004KT 10SM FEW075 29/22 A3008 -130 67 1500 120/04 RMK AO2 T02890222
53917KNEW NEW20190913220011209/13/19 22:00:31  5-MIN KNEW 140400Z AUTO 13005KT 10SM FEW075 28/22 A3008 -130 69 1400 130/05 RMK AO2 T02830222
53917KNEW NEW20190913220511209/13/19 22:05:31  5-MIN KNEW 140405Z AUTO 14004KT 10SM FEW075 28/23 A3007 -130 71 1400 140/04 RMK AO2 T02830228
53917KNEW NEW20190913221011209/13/19 22:10:31  5-MIN KNEW 140410Z AUTO 13004KT 10SM SCT075 28/23 A3008 -130 71 1400 130/04 RMK AO2 T02830228
53917KNEW NEW20190913221511209/13/19 22:15:31  5-MIN KNEW 140415Z AUTO 13003KT 10SM SCT075 29/23 A3008 -130 69 1500 130/03 RMK AO2 T02890228
53917KNEW NEW20190913222011209/13/19 22:20:31  5-MIN KNEW 140420Z AUTO 13004KT 10SM FEW075 29/23 A3008 -130 69 1500 130/04 RMK AO2 T02890228
53917KNEW NEW20190913222511209/13/19 22:25:31  5-MIN KNEW 140425Z AUTO 13004KT 10SM FEW075 28/23 A3008 -130 71 1400 130/04 RMK AO2 T02830228
53917KNEW NEW20190913223011209/13/19 22:30:31  5-MIN KNEW 140430Z AUTO 13004KT 10SM FEW075 28/23 A3008 -130 71 1400 130/04 RMK AO2 T02830228
53917KNEW NEW20190913223511209/13/19 22:35:31  5-MIN KNEW 140435Z AUTO 14004KT 10SM FEW075 28/23 A3008 -130 71 1400 140/04 RMK AO2 T02830228
53917KNEW NEW20190913224010909/13/19 22:40:31  5-MIN KNEW 140440Z AUTO 13004KT 10SM CLR 28/23 A3008 -130 71 1400 130/04 RMK AO2 T02830228
53917KNEW NEW20190913224511909/13/19 22:45:31  5-MIN KNEW 140445Z AUTO 12004KT 10SM FEW070 FEW090 28/23 A3008 -130 71 1400 120/04 RMK AO2 T02830228
53917KNEW NEW20190913225012609/13/19 22:50:31  5-MIN KNEW 140450Z AUTO 12005KT 10SM FEW070 SCT090 29/23 A3008 -130 71 1500 120/05 RMK AO2 SLP179 T02890233
53917KNEW NEW20190913225511909/13/19 22:55:31  5-MIN KNEW 140455Z AUTO 12005KT 10SM FEW070 FEW085 29/23 A3008 -130 71 1500 120/05 RMK AO2 T02890233
53917KNEW NEW20190913230011909/13/19 23:00:31  5-MIN KNEW 140500Z AUTO 12005KT 10SM FEW070 SCT090 29/23 A3007 -130 71 1500 120/05 RMK AO2 T02890233
53917KNEW NEW20190913230511909/13/19 23:05:31  5-MIN KNEW 140505Z AUTO 11004KT 10SM FEW070 SCT090 29/23 A3007 -130 71 1500 110/04 RMK AO2 T02890233
53917KNEW NEW20190913231011909/13/19 23:10:31  5-MIN KNEW 140510Z AUTO 11004KT 10SM FEW070 SCT090 29/23 A3007 -120 71 1500 110/04 RMK AO2 T02890233
53917KNEW NEW20190913231511909/13/19 23:15:31  5-MIN KNEW 140515Z AUTO 11005KT 10SM FEW070 FEW090 29/23 A3007 -120 71 1500 110/05 RMK AO2 T02890233
53917KNEW NEW20190913232011909/13/19 23:20:31  5-MIN KNEW 140520Z AUTO 10006KT 10SM FEW070 FEW090 29/23 A3006 -120 71 1500 100/06 RMK AO2 T02890233
53917KNEW NEW20190913232511909/13/19 23:25:31  5-MIN KNEW 140525Z AUTO 10005KT 10SM FEW075 FEW090 29/23 A3006 -120 71 1500 100/05 RMK AO2 T02890233
53917KNEW NEW20190913233011209/13/19 23:30:31  5-MIN KNEW 140530Z AUTO 11005KT 10SM FEW070 29/23 A3006 -120 69 1500 110/05 RMK AO2 T02890228
53917KNEW NEW20190913233510909/13/19 23:35:31  5-MIN KNEW 140535Z AUTO 11005KT 10SM CLR 29/23 A3006 -120 69 1500 110/05 RMK AO2 T02890228
53917KNEW NEW20190913234010909/13/19 23:40:31  5-MIN KNEW 140540Z AUTO 10004KT 10SM CLR 29/23 A3006 -120 69 1500 100/04 RMK AO2 T02890228
53917KNEW NEW20190913234510909/13/19 23:45:31  5-MIN KNEW 140545Z AUTO 09005KT 10SM CLR 29/23 A3007 -120 69 1500 090/05 RMK AO2 T02890228
53917KNEW NEW20190913235014409/13/19 23:50:31  5-MIN KNEW 140550Z AUTO 09005KT 10SM CLR 29/23 A3006 -120 69 1500 090/05 RMK AO2 SLP174 T02890228 10317 20283 403500283 53016
53917KNEW NEW20190913235510909/13/19 23:55:31  5-MIN KNEW 140555Z AUTO 08005KT 10SM CLR 29/23 A3006 -120 67 1600 080/05 RMK AO2 T02940228
53917KNEW NEW20190914000010909/14/19 00:00:31  5-MIN KNEW 140600Z AUTO 08005KT 10SM CLR 29/23 A3006 -120 69 1500 080/05 RMK AO2 T02890228
53917KNEW NEW20190914000510909/14/19 00:05:31  5-MIN KNEW 140605Z AUTO 09005KT 10SM CLR 29/23 A3006 -120 69 1500 090/05 RMK AO2 T02890228
53917KNEW NEW20190914001010909/14/19 00:10:31  5-MIN KNEW 140610Z AUTO 08005KT 10SM CLR 29/22 A3006 -120 67 1500 080/05 RMK AO2 T02890222
53917KNEW NEW20190914001510909/14/19 00:15:31  5-MIN KNEW 140615Z AUTO 09005KT 10SM CLR 29/22 A3006 -120 67 1500 090/05 RMK AO2 T02890222
53917KNEW NEW20190914002010909/14/19 00:20:31  5-MIN KNEW 140620Z AUTO 09006KT 10SM CLR 29/22 A3006 -120 67 1500 090/06 RMK AO2 T02890222
53917KNEW NEW20190914002510909/14/19 00:25:31  5-MIN KNEW 140625Z AUTO 09005KT 10SM CLR 29/22 A3006 -120 64 1600 090/05 RMK AO2 T02940222
53917KNEW NEW20190914003010909/14/19 00:30:31  5-MIN KNEW 140630Z AUTO 08006KT 10SM CLR 29/22 A3006 -120 67 1500 080/06 RMK AO2 T02890222
53917KNEW NEW20190914003510909/14/19 00:35:31  5-MIN KNEW 140635Z AUTO 08005KT 10SM CLR 29/22 A3006 -110 62 1600 080/05 RMK AO2 T02940217
53917KNEW NEW20190914004010909/14/19 00:40:31  5-MIN KNEW 140640Z AUTO 08005KT 10SM CLR 29/22 A3006 -110 67 1500 080/05 RMK AO2 T02890222
53917KNEW NEW20190914004510909/14/19 00:45:31  5-MIN KNEW 140645Z AUTO 08005KT 10SM CLR 29/22 A3006 -110 67 1500 080/05 RMK AO2 T02890222
53917KNEW NEW20190914005011609/14/19 00:50:31  5-MIN KNEW 140650Z AUTO 08006KT 10SM CLR 29/22 A3005 -110 64 1600 080/06 RMK AO2 SLP171 T02940222
53917KNEW NEW20190914005510909/14/19 00:55:31  5-MIN KNEW 140655Z AUTO 08007KT 10SM CLR 29/22 A3006 -110 62 1600 080/07 RMK AO2 T02940217
53917KNEW NEW20190914010010909/14/19 01:00:31  5-MIN KNEW 140700Z AUTO 08006KT 10SM CLR 29/22 A3006 -110 62 1600 080/06 RMK AO2 T02940217
53917KNEW NEW20190914010510909/14/19 01:05:31  5-MIN KNEW 140705Z AUTO 08006KT 10SM CLR 29/22 A3006 -110 62 1600 080/06 RMK AO2 T02940217
53917KNEW NEW20190914011010909/14/19 01:10:31  5-MIN KNEW 140710Z AUTO 08006KT 10SM CLR 29/22 A3006 -110 62 1600 080/06 RMK AO2 T02940217
53917KNEW NEW20190914011510909/14/19 01:15:31  5-MIN KNEW 140715Z AUTO 08006KT 10SM CLR 29/22 A3005 -110 62 1600 080/06 RMK AO2 T02940217
53917KNEW NEW20190914012010909/14/19 01:20:31  5-MIN KNEW 140720Z AUTO 08006KT 10SM CLR 29/22 A3005 -110 62 1600 080/06 RMK AO2 T02940217
53917KNEW NEW20190914012510909/14/19 01:25:31  5-MIN KNEW 140725Z AUTO 08006KT 10SM CLR 29/22 A3005 -110 64 1500 080/06 RMK AO2 T02890217
53917KNEW NEW20190914013010909/14/19 01:30:31  5-MIN KNEW 140730Z AUTO 08006KT 10SM CLR 29/22 A3005 -110 64 1500 080/06 RMK AO2 T02890217
53917KNEW NEW20190914013510909/14/19 01:35:31  5-MIN KNEW 140735Z AUTO 08006KT 10SM CLR 29/22 A3005 -110 62 1600 080/06 RMK AO2 T02940217
53917KNEW NEW20190914014010909/14/19 01:40:31  5-MIN KNEW 140740Z AUTO 08006KT 10SM CLR 29/22 A3005 -110 64 1500 080/06 RMK AO2 T02890217
53917KNEW NEW20190914014510909/14/19 01:45:31  5-MIN KNEW 140745Z AUTO 08005KT 10SM CLR 29/22 A3005 -100 62 1600 080/05 RMK AO2 T02940217
53917KNEW NEW20190914015011609/14/19 01:50:31  5-MIN KNEW 140750Z AUTO 07006KT 10SM CLR 29/22 A3005 -100 64 1500 070/06 RMK AO2 SLP168 T02890217
53917KNEW NEW20190914015510909/14/19 01:55:31  5-MIN KNEW 140755Z AUTO 07007KT 10SM CLR 29/22 A3005 -100 62 1600 070/07 RMK AO2 T02940217
53917KNEW NEW20190914020010909/14/19 02:00:31  5-MIN KNEW 140800Z AUTO 07006KT 10SM CLR 29/22 A3004 -100 62 1600 070/06 RMK AO2 T02940217
53917KNEW NEW20190914020510909/14/19 02:05:31  5-MIN KNEW 140805Z AUTO 07006KT 10SM CLR 29/22 A3004 -100 62 1600 070/06 RMK AO2 T02940217
53917KNEW NEW20190914021010909/14/19 02:10:31  5-MIN KNEW 140810Z AUTO 06006KT 10SM CLR 29/22 A3004 -100 62 1600 060/06 RMK AO2 T02940217
53917KNEW NEW20190914021510909/14/19 02:15:31  5-MIN KNEW 140815Z AUTO 05007KT 10SM CLR 29/23 A3004 -100 67 1600 050/07 RMK AO2 T02940228
53917KNEW NEW20190914022010909/14/19 02:20:31  5-MIN KNEW 140820Z AUTO 06007KT 10SM CLR 29/23 A3004 -100 67 1600 060/07 RMK AO2 T02940228
53917KNEW NEW20190914022510909/14/19 02:25:31  5-MIN KNEW 140825Z AUTO 06008KT 10SM CLR 29/23 A3004 -100 67 1600 060/08 RMK AO2 T02940228
53917KNEW NEW20190914023010809/14/19 02:30:31  5-MIN KNEW 140830Z AUTO 06008KT 10SM CLR 29/23 A3004 -90 67 1600 060/08 RMK AO2 T02940228
53917KNEW NEW20190914023510909/14/19 02:35:31  5-MIN KNEW 140835Z AUTO 05008KT 10SM CLR 29/23 A3004 -100 67 1600 050/08 RMK AO2 T02940228
53917KNEW NEW20190914024010909/14/19 02:40:31  5-MIN KNEW 140840Z AUTO 04009KT 10SM CLR 29/24 A3004 -100 71 1600 040/09 RMK AO2 T02940239
53917KNEW NEW20190914024510909/14/19 02:45:31  5-MIN KNEW 140845Z AUTO 04008KT 10SM CLR 29/24 A3004 -100 74 1500 040/08 RMK AO2 T02890239
53917KNEW NEW20190914025012209/14/19 02:50:31  5-MIN KNEW 140850Z AUTO 04009KT 10SM CLR 29/24 A3004 -100 74 1500 040/09 RMK AO2 SLP166 T02890239 58003
53917KNEW NEW20190914025510909/14/19 02:55:31  5-MIN KNEW 140855Z AUTO 04009KT 10SM CLR 29/24 A3004 -100 74 1500 040/09 RMK AO2 T02890239
53917KNEW NEW20190914030010909/14/19 03:00:31  5-MIN KNEW 140900Z AUTO 04009KT 10SM CLR 29/23 A3005 -100 71 1500 040/09 RMK AO2 T02890233
53917KNEW NEW20190914030510909/14/19 03:05:31  5-MIN KNEW 140905Z AUTO 05008KT 10SM CLR 29/23 A3005 -100 71 1500 050/08 RMK AO2 T02890233
53917KNEW NEW20190914031010909/14/19 03:10:31  5-MIN KNEW 140910Z AUTO 04008KT 10SM CLR 29/24 A3005 -100 74 1500 040/08 RMK AO2 T02890239
53917KNEW NEW20190914031510909/14/19 03:15:31  5-MIN KNEW 140915Z AUTO 05008KT 10SM CLR 29/24 A3005 -100 74 1500 050/08 RMK AO2 T02890239
53917KNEW NEW20190914032010909/14/19 03:20:31  5-MIN KNEW 140920Z AUTO 05009KT 10SM CLR 29/23 A3005 -110 71 1500 050/09 RMK AO2 T02890233
53917KNEW NEW20190914032510909/14/19 03:25:31  5-MIN KNEW 140925Z AUTO 05008KT 10SM CLR 29/23 A3005 -110 71 1500 050/08 RMK AO2 T02890233
53917KNEW NEW20190914033010909/14/19 03:30:31  5-MIN KNEW 140930Z AUTO 05009KT 10SM CLR 29/23 A3005 -110 71 1500 050/09 RMK AO2 T02890233
53917KNEW NEW20190914033510909/14/19 03:35:31  5-MIN KNEW 140935Z AUTO 05009KT 10SM CLR 29/23 A3006 -110 71 1500 050/09 RMK AO2 T02890233
53917KNEW NEW20190914034010909/14/19 03:40:31  5-MIN KNEW 140940Z AUTO 05010KT 10SM CLR 29/24 A3006 -120 74 1500 050/10 RMK AO2 T02890239
53917KNEW NEW20190914034510909/14/19 03:45:31  5-MIN KNEW 140945Z AUTO 05010KT 10SM CLR 29/23 A3006 -110 71 1500 050/10 RMK AO2 T02890233
53917KNEW NEW20190914035011609/14/19 03:50:31  5-MIN KNEW 140950Z AUTO 05010KT 10SM CLR 29/23 A3006 -110 71 1500 050/10 RMK AO2 SLP171 T02890233
53917KNEW NEW20190914035510909/14/19 03:55:31  5-MIN KNEW 140955Z AUTO 05010KT 10SM CLR 29/24 A3005 -110 74 1500 050/10 RMK AO2 T02890239
53917KNEW NEW20190914040010909/14/19 04:00:31  5-MIN KNEW 141000Z AUTO 05011KT 10SM CLR 29/24 A3005 -110 74 1500 050/11 RMK AO2 T02890239
53917KNEW NEW20190914040510909/14/19 04:05:31  5-MIN KNEW 141005Z AUTO 04010KT 10SM CLR 29/24 A3005 -110 74 1500 040/10 RMK AO2 T02890239
53917KNEW NEW20190914041010909/14/19 04:10:31  5-MIN KNEW 141010Z AUTO 05011KT 10SM CLR 29/24 A3005 -110 74 1500 050/11 RMK AO2 T02890239
53917KNEW NEW20190914041510909/14/19 04:15:31  5-MIN KNEW 141015Z AUTO 04010KT 10SM CLR 29/24 A3006 -110 74 1500 040/10 RMK AO2 T02890239
53917KNEW NEW20190914042010909/14/19 04:20:31  5-MIN KNEW 141020Z AUTO 05011KT 10SM CLR 29/23 A3006 -110 71 1500 050/11 RMK AO2 T02890233
53917KNEW NEW20190914042510909/14/19 04:25:31  5-MIN KNEW 141025Z AUTO 05011KT 10SM CLR 29/24 A3006 -110 74 1500 050/11 RMK AO2 T02890239
53917KNEW NEW20190914043010909/14/19 04:30:31  5-MIN KNEW 141030Z AUTO 04011KT 10SM CLR 29/24 A3006 -110 74 1500 040/11 RMK AO2 T02890239
53917KNEW NEW20190914043510909/14/19 04:35:31  5-MIN KNEW 141035Z AUTO 04011KT 10SM CLR 29/24 A3006 -110 74 1500 040/11 RMK AO2 T02890239
53917KNEW NEW20190914044010909/14/19 04:40:31  5-MIN KNEW 141040Z AUTO 04012KT 10SM CLR 29/23 A3006 -110 71 1500 040/12 RMK AO2 T02890233
53917KNEW NEW20190914044510809/14/19 04:45:31  5-MIN KNEW 141045Z AUTO 03011KT 9SM CLR 28/24 A3006 -110 76 1400 030/11 RMK AO2 T02830239
53917KNEW NEW20190914045011509/14/19 04:50:31  5-MIN KNEW 141050Z AUTO 04011KT 8SM CLR 28/24 A3006 -120 76 1400 040/11 RMK AO2 SLP173 T02830239
53917KNEW NEW20190914045510809/14/19 04:55:31  5-MIN KNEW 141055Z AUTO 04010KT 9SM CLR 28/24 A3006 -120 76 1400 040/10 RMK AO2 T02830239
53917KNEW NEW20190914050010809/14/19 05:00:31  5-MIN KNEW 141100Z AUTO 04010KT 9SM CLR 28/24 A3006 -120 76 1400 040/10 RMK AO2 T02830239
53917KNEW NEW20190914050510909/14/19 05:05:31  5-MIN KNEW 141105Z AUTO 04012KT 10SM CLR 28/24 A3006 -110 76 1400 040/12 RMK AO2 T02830239
53917KNEW NEW20190914051010909/14/19 05:10:31  5-MIN KNEW 141110Z AUTO 03011KT 10SM CLR 28/24 A3006 -110 76 1400 030/11 RMK AO2 T02830239
53917KNEW NEW20190914051510809/14/19 05:15:31  5-MIN KNEW 141115Z AUTO 04012KT 9SM CLR 28/24 A3006 -110 76 1400 040/12 RMK AO2 T02830239
53917KNEW NEW20190914052010909/14/19 05:20:31  5-MIN KNEW 141120Z AUTO 04012KT 10SM CLR 28/24 A3006 -110 76 1400 040/12 RMK AO2 T02830239
53917KNEW NEW20190914052512709/14/19 05:25:31  5-MIN KNEW 141125Z AUTO 04012KT 10SM CLR 28/24 A3006 -120 76 1400 040/12 RMK AO2 LTG DSNT SE AND S T02830239
53917KNEW NEW20190914053012709/14/19 05:30:31  5-MIN KNEW 141130Z AUTO 04012KT 10SM CLR 28/24 A3006 -120 76 1400 040/12 RMK AO2 LTG DSNT SE AND S T02830239
53917KNEW NEW20190914053512709/14/19 05:35:31  5-MIN KNEW 141135Z AUTO 04014KT 10SM CLR 28/23 A3006 -120 74 1400 040/14 RMK AO2 LTG DSNT SE AND S T02830233
53917KNEW NEW20190914054012709/14/19 05:40:31  5-MIN KNEW 141140Z AUTO 04011KT 10SM CLR 28/24 A3006 -110 76 1400 040/11 RMK AO2 LTG DSNT SE AND S T02830239
53917KNEW NEW20190914054512709/14/19 05:45:31  5-MIN KNEW 141145Z AUTO 05011KT 10SM CLR 28/24 A3006 -120 76 1400 050/11 RMK AO2 LTG DSNT SE AND S T02830239
53917KNEW NEW20190914055014009/14/19 05:50:31  5-MIN KNEW 141150Z 04013KT 10SM CLR 28/23 A3006 -120 74 1400 040/13 RMK AO2 LTG DSNT S SLP173 T02830233 10294 20283 56007
53917KNEW NEW20190914055512109/14/19 05:55:31  5-MIN KNEW 141155Z 04013KT 9SM CLR 28/23 A3006 -120 74 1400 040/13 RMK AO2 LTG DSNT S AND SW T02830233
53917KNEW NEW20190914060012109/14/19 06:00:31  5-MIN KNEW 141200Z 05012KT 9SM CLR 28/23 A3006 -110 74 1400 050/12 RMK AO2 LTG DSNT S AND SW T02830233
53917KNEW NEW20190914060511709/14/19 06:05:31  5-MIN KNEW 141205Z 04012KT 9SM CLR 28/23 A3006 -120 74 1400 040/12 RMK AO2 LTG DSNT E-SW T02830233
53917KNEW NEW20190914061011709/14/19 06:10:31  5-MIN KNEW 141210Z 04012KT 9SM CLR 28/24 A3006 -120 76 1400 040/12 RMK AO2 LTG DSNT E-SW T02830239
53917KNEW NEW20190914061511709/14/19 06:15:31  5-MIN KNEW 141215Z 05012KT 9SM CLR 29/23 A3007 -120 71 1500 050/12 RMK AO2 LTG DSNT E-SW T02890233
53917KNEW NEW20190914062011809/14/19 06:20:31  5-MIN KNEW 141220Z 04012KT 10SM CLR 29/23 A3007 -120 71 1500 040/12 RMK AO2 LTG DSNT E-SW T02890233
53917KNEW NEW20190914062512409/14/19 06:25:31  5-MIN KNEW 141225Z 05010KT 9SM CLR 29/23 A3008 -130 71 1500 050/10 RMK AO2 LTG DSNT E-SW PRESRR T02890233
53917KNEW NEW20190914063012209/14/19 06:30:31  5-MIN KNEW 141230Z 05011KT 9SM VCTS CLR 29/23 A3009 -140 71 1500 050/11 RMK AO2 LTG DSNT E-SW T02890233
53917KNEW NEW20190914063512209/14/19 06:35:31  5-MIN KNEW 141235Z 04012KT 9SM VCTS CLR 29/23 A3009 -140 71 1500 040/12 RMK AO2 LTG DSNT E-SW T02890233
53917KNEW NEW20190914064012009/14/19 06:40:31  5-MIN KNEW 141240Z 05011KT 9SM VCTS CLR 29/23 A3009 -140 71 1500 050/11 RMK AO2 LTG DSNT SE T02890233
53917KNEW NEW20190914064511509/14/19 06:45:31  5-MIN KNEW 141245Z 05013KT 9SM CLR 29/23 A3009 -140 71 1500 050/13 RMK AO2 LTG DSNT SE T02890233
53917KNEW NEW20190914065011009/14/19 06:50:31  5-MIN KNEW 141250Z 05013KT 9SM CLR 29/23 A3009 -140 71 1500 050/13 RMK AO2 SLP182 T02890233
53917KNEW NEW20190914065510309/14/19 06:55:31  5-MIN KNEW 141255Z 04012KT 9SM CLR 29/23 A3009 -140 71 1500 040/12 RMK AO2 T02890233
53917KNEW NEW20190914070010309/14/19 07:00:31  5-MIN KNEW 141300Z 05013KT 9SM CLR 28/23 A3009 -140 74 1400 050/13 RMK AO2 T02830233
53917KNEW NEW20190914070510309/14/19 07:05:31  5-MIN KNEW 141305Z 05012KT 9SM CLR 28/24 A3009 -140 76 1400 050/12 RMK AO2 T02830239
53917KNEW NEW20190914071010309/14/19 07:10:31  5-MIN KNEW 141310Z 06012KT 9SM CLR 28/23 A3009 -140 74 1400 060/12 RMK AO2 T02830233
53917KNEW NEW20190914071511909/14/19 07:15:31  5-MIN KNEW 141315Z 13010KT 080V180 9SM CLR 28/23 A3009 -140 74 1400 130/10 080V180 RMK AO2 T02830233
53917KNEW NEW20190914072010309/14/19 07:20:31  5-MIN KNEW 141320Z 16008KT 9SM CLR 27/23 A3010 -150 76 1300 160/08 RMK AO2 T02720228
53917KNEW NEW20190914072510309/14/19 07:25:31  5-MIN KNEW 141325Z VRB05KT 9SM CLR 28/23 A3010 -150 74 1300 VRB/05 RMK AO2 T02780228
53917KNEW NEW20190914073010309/14/19 07:30:31  5-MIN KNEW 141330Z 08006KT 9SM CLR 28/23 A3009 -150 71 1400 080/06 RMK AO2 T02830228
53917KNEW NEW20190914073510309/14/19 07:35:31  5-MIN KNEW 141335Z 06008KT 9SM CLR 28/22 A3009 -150 69 1400 060/08 RMK AO2 T02830222
53917KNEW NEW20190914074010309/14/19 07:40:31  5-MIN KNEW 141340Z 11006KT 9SM CLR 28/22 A3010 -150 69 1400 110/06 RMK AO2 T02830222
53917KNEW NEW20190914074510309/14/19 07:45:31  5-MIN KNEW 141345Z 14004KT 9SM CLR 28/23 A3010 -150 74 1300 140/04 RMK AO2 T02780228
53917KNEW NEW20190914075011009/14/19 07:50:31  5-MIN KNEW 141350Z 11005KT 9SM CLR 28/23 A3010 -150 74 1300 110/05 RMK AO2 SLP185 T02780228
53917KNEW NEW20190914075510309/14/19 07:55:31  5-MIN KNEW 141355Z 10005KT 9SM CLR 28/22 A3010 -150 71 1300 100/05 RMK AO2 T02780222
53917KNEW NEW20190914080010309/14/19 08:00:31  5-MIN KNEW 141400Z VRB03KT 9SM CLR 28/23 A3010 -150 74 1300 VRB/03 RMK AO2 T02780228
53917KNEW NEW20190914080510309/14/19 08:05:31  5-MIN KNEW 141405Z 09008KT 9SM CLR 28/22 A3010 -150 69 1400 090/08 RMK AO2 T02830222
53917KNEW NEW20190914081010309/14/19 08:10:31  5-MIN KNEW 141410Z 09007KT 9SM CLR 28/22 A3010 -150 69 1400 090/07 RMK AO2 T02830222
53917KNEW NEW20190914081510309/14/19 08:15:31  5-MIN KNEW 141415Z 08008KT 9SM CLR 28/23 A3010 -150 71 1400 080/08 RMK AO2 T02830228
53917KNEW NEW20190914082010309/14/19 08:20:31  5-MIN KNEW 141420Z 08006KT 9SM CLR 28/23 A3010 -150 71 1400 080/06 RMK AO2 T02830228
53917KNEW NEW20190914082510309/14/19 08:25:31  5-MIN KNEW 141425Z 09007KT 9SM CLR 28/23 A3010 -150 71 1400 090/07 RMK AO2 T02830228
53917KNEW NEW20190914083010309/14/19 08:30:31  5-MIN KNEW 141430Z 08008KT 9SM CLR 29/23 A3010 -150 69 1400 080/08 RMK AO2 T02890228
53917KNEW NEW20190914083510309/14/19 08:35:31  5-MIN KNEW 141435Z 09007KT 9SM CLR 29/23 A3010 -150 69 1400 090/07 RMK AO2 T02890228
53917KNEW NEW20190914084010309/14/19 08:40:31  5-MIN KNEW 141440Z 08008KT 9SM CLR 29/23 A3010 -150 69 1400 080/08 RMK AO2 T02890228
53917KNEW NEW20190914084510309/14/19 08:45:31  5-MIN KNEW 141445Z 08009KT 9SM CLR 29/23 A3010 -150 67 1500 080/09 RMK AO2 T02940228
53917KNEW NEW20190914085011709/14/19 08:50:31  5-MIN KNEW 141450Z 07009KT 10SM CLR 29/23 A3010 -150 67 1500 070/09 RMK AO2 SLP186 T02940228 51007
53917KNEW NEW20190914085510409/14/19 08:55:31  5-MIN KNEW 141455Z 05012KT 10SM CLR 30/23 A3010 -150 65 1600 050/12 RMK AO2 T03000228
53917KNEW NEW20190914090010409/14/19 09:00:31  5-MIN KNEW 141500Z 05013KT 10SM CLR 30/23 A3010 -150 65 1600 050/13 RMK AO2 T03000228
53917KNEW NEW20190914090511609/14/19 09:05:31  5-MIN KNEW 141505Z 05014KT 10SM CLR 30/23 A3010 -150 65 1600 050/14 RMK AO2 LTG DSNT SE T03000228
53917KNEW NEW20190914091011609/14/19 09:10:31  5-MIN KNEW 141510Z 05012KT 10SM CLR 30/22 A3010 -150 62 1600 050/12 RMK AO2 LTG DSNT SE T03000222
53917KNEW NEW20190914091511609/14/19 09:15:31  5-MIN KNEW 141515Z 05012KT 10SM CLR 30/23 A3010 -150 65 1600 050/12 RMK AO2 LTG DSNT SE T03000228
53917KNEW NEW20190914092011609/14/19 09:20:31  5-MIN KNEW 141520Z 04011KT 10SM CLR 31/23 A3010 -150 62 1600 040/11 RMK AO2 LTG DSNT SE T03060228
53917KNEW NEW20190914092511609/14/19 09:25:31  5-MIN KNEW 141525Z 04011KT 10SM CLR 30/23 A3010 -160 65 1600 040/11 RMK AO2 LTG DSNT SE T03000228
53917KNEW NEW20190914093011609/14/19 09:30:31  5-MIN KNEW 141530Z 05010KT 10SM CLR 30/23 A3011 -160 65 1600 050/10 RMK AO2 LTG DSNT SE T03000228
53917KNEW NEW20190914093511609/14/19 09:35:31  5-MIN KNEW 141535Z 05010KT 10SM CLR 31/23 A3010 -160 62 1600 050/10 RMK AO2 LTG DSNT SE T03060228
53917KNEW NEW20190914094011609/14/19 09:40:31  5-MIN KNEW 141540Z 05010KT 10SM CLR 31/23 A3011 -160 62 1600 050/10 RMK AO2 LTG DSNT SE T03060228
53917KNEW NEW20190914094511609/14/19 09:45:31  5-MIN KNEW 141545Z 06010KT 10SM CLR 30/22 A3011 -160 62 1600 060/10 RMK AO2 LTG DSNT SE T03000222
53917KNEW NEW20190914095012609/14/19 09:50:31  5-MIN KNEW 141550Z 07011KT 10SM FEW030 30/23 A3011 -160 65 1600 070/11 RMK AO2 LTG DSNT SE SLP190 T03000228
53917KNEW NEW20190914095510409/14/19 09:55:31  5-MIN KNEW 141555Z 07012KT 10SM CLR 30/22 A3011 -160 62 1600 070/12 RMK AO2 T03000222
53917KNEW NEW20190914100010409/14/19 10:00:31  5-MIN KNEW 141600Z 06012KT 10SM CLR 30/22 A3011 -160 62 1600 060/12 RMK AO2 T03000222
53917KNEW NEW20190914100510409/14/19 10:05:31  5-MIN KNEW 141605Z 07011KT 10SM CLR 30/22 A3011 -160 62 1600 070/11 RMK AO2 T03000222
53917KNEW NEW20190914101010409/14/19 10:10:31  5-MIN KNEW 141610Z 08012KT 10SM CLR 30/23 A3011 -160 65 1600 080/12 RMK AO2 T03000228
53917KNEW NEW20190914101511609/14/19 10:15:31  5-MIN KNEW 141615Z 09009KT 10SM CLR 30/22 A3011 -160 62 1600 090/09 RMK AO2 LTG DSNT SE T03000222
53917KNEW NEW20190914102011609/14/19 10:20:31  5-MIN KNEW 141620Z 07008KT 10SM CLR 30/23 A3011 -160 65 1600 070/08 RMK AO2 LTG DSNT SE T03000228
53917KNEW NEW20190914102511609/14/19 10:25:31  5-MIN KNEW 141625Z 08010KT 10SM CLR 31/23 A3010 -150 62 1600 080/10 RMK AO2 LTG DSNT SE T03060228
53917KNEW NEW20190914103011609/14/19 10:30:31  5-MIN KNEW 141630Z 08011KT 10SM CLR 31/23 A3010 -150 62 1600 080/11 RMK AO2 LTG DSNT SE T03060228
53917KNEW NEW20190914103511609/14/19 10:35:31  5-MIN KNEW 141635Z 09010KT 10SM CLR 31/22 A3010 -150 60 1600 090/10 RMK AO2 LTG DSNT SE T03060222
53917KNEW NEW20190914104011909/14/19 10:40:31  5-MIN KNEW 141640Z 09012KT 10SM FEW042 31/23 A3010 -160 62 1600 090/12 RMK AO2 LTG DSNT SE T03060228
53917KNEW NEW20190914104510709/14/19 10:45:31  5-MIN KNEW 141645Z 09010KT 10SM FEW042 31/22 A3010 -150 60 1600 090/10 RMK AO2 T03060222
53917KNEW NEW20190914105011409/14/19 10:50:31  5-MIN KNEW 141650Z 08010KT 10SM FEW030 31/22 A3010 -150 60 1600 080/10 RMK AO2 SLP186 T03060222
53917KNEW NEW20190914105510709/14/19 10:55:31  5-MIN KNEW 141655Z 08010KT 10SM FEW033 31/22 A3010 -150 58 1700 080/10 RMK AO2 T03110222
53917KNEW NEW20190914110010709/14/19 11:00:31  5-MIN KNEW 141700Z 09011KT 10SM FEW035 31/22 A3010 -150 58 1700 090/11 RMK AO2 T03110222
53917KNEW NEW20190914110510709/14/19 11:05:31  5-MIN KNEW 141705Z 09010KT 10SM FEW035 31/22 A3010 -150 58 1600 090/10 RMK AO2 T03060217
53917KNEW NEW20190914111011909/14/19 11:10:31  5-MIN KNEW 141710Z 09012KT 10SM FEW033 31/22 A3010 -150 60 1600 090/12 RMK AO2 LTG DSNT SE T03060222
53917KNEW NEW20190914111511909/14/19 11:15:31  5-MIN KNEW 141715Z 09012KT 10SM FEW036 31/22 A3010 -150 60 1600 090/12 RMK AO2 LTG DSNT SE T03060222
53917KNEW NEW20190914112011909/14/19 11:20:31  5-MIN KNEW 141720Z 10012KT 10SM FEW038 31/22 A3010 -150 60 1600 100/12 RMK AO2 LTG DSNT SE T03060222
53917KNEW NEW20190914112511909/14/19 11:25:31  5-MIN KNEW 141725Z 09011KT 10SM FEW036 31/22 A3010 -150 60 1600 090/11 RMK AO2 LTG DSNT SE T03060222
53917KNEW NEW20190914113011909/14/19 11:30:31  5-MIN KNEW 141730Z 09013KT 10SM FEW036 31/22 A3010 -150 60 1600 090/13 RMK AO2 LTG DSNT SE T03060222
53917KNEW NEW20190914113510709/14/19 11:35:31  5-MIN KNEW 141735Z 09012KT 10SM FEW038 31/22 A3010 -150 60 1600 090/12 RMK AO2 T03060222
53917KNEW NEW20190914114010709/14/19 11:40:31  5-MIN KNEW 141740Z 09014KT 10SM FEW038 31/22 A3010 -150 58 1600 090/14 RMK AO2 T03060217
53917KNEW NEW20190914114510409/14/19 11:45:31  5-MIN KNEW 141745Z 10014KT 10SM CLR 31/22 A3010 -150 58 1600 100/14 RMK AO2 T03060217
53917KNEW NEW20190914115013509/14/19 11:50:31  5-MIN KNEW 141750Z 10013G19KT 10SM CLR 31/22 A3009 -140 60 1600 100/13G19 RMK AO2 SLP183 T03060222 10311 20272 53004
53917KNEW NEW20190914115510409/14/19 11:55:31  5-MIN KNEW 141755Z 08013KT 10SM CLR 31/22 A3009 -140 58 1600 080/13 RMK AO2 T03060217
53917KNEW NEW20190914120010409/14/19 12:00:31  5-MIN KNEW 141800Z 09011KT 10SM CLR 31/22 A3009 -140 58 1600 090/11 RMK AO2 T03060217
53917KNEW NEW20190914120511009/14/19 12:05:31  5-MIN KNEW 141805Z 08014G19KT 10SM CLR 31/21 A3008 -130 53 1700 080/14G19 RMK AO2 T03110206
53917KNEW NEW20190914121010409/14/19 12:10:31  5-MIN KNEW 141810Z 09012KT 10SM CLR 31/21 A3008 -130 53 1700 090/12 RMK AO2 T03110206
53917KNEW NEW20190914121510409/14/19 12:15:31  5-MIN KNEW 141815Z 09012KT 10SM CLR 31/21 A3008 -130 54 1700 090/12 RMK AO2 T03060206
53917KNEW NEW20190914122010409/14/19 12:20:31  5-MIN KNEW 141820Z 08013KT 10SM CLR 31/21 A3008 -130 54 1700 080/13 RMK AO2 T03060206
53917KNEW NEW20190914122510409/14/19 12:25:31  5-MIN KNEW 141825Z 08012KT 10SM CLR 31/21 A3008 -130 53 1700 080/12 RMK AO2 T03110206
53917KNEW NEW20190914123010409/14/19 12:30:31  5-MIN KNEW 141830Z 08012KT 10SM CLR 31/20 A3007 -120 51 1700 080/12 RMK AO2 T03110200
53917KNEW NEW20190914123510409/14/19 12:35:31  5-MIN KNEW 141835Z 08012KT 10SM CLR 31/21 A3007 -120 53 1700 080/12 RMK AO2 T03110206
53917KNEW NEW20190914124010409/14/19 12:40:31  5-MIN KNEW 141840Z 08012KT 10SM CLR 31/20 A3007 -120 51 1700 080/12 RMK AO2 T03110200
53917KNEW NEW20190914124510409/14/19 12:45:31  5-MIN KNEW 141845Z 08013KT 10SM CLR 32/21 A3006 -120 51 1800 080/13 RMK AO2 T03170206
53917KNEW NEW20190914125011109/14/19 12:50:31  5-MIN KNEW 141850Z 08012KT 10SM CLR 32/20 A3006 -110 49 1800 080/12 RMK AO2 SLP172 T03170200
53917KNEW NEW20190914125510409/14/19 12:55:31  5-MIN KNEW 141855Z 08012KT 10SM CLR 32/21 A3006 -110 49 1900 080/12 RMK AO2 T03220206
53917KNEW NEW20190914130010409/14/19 13:00:31  5-MIN KNEW 141900Z 08012KT 10SM CLR 32/20 A3005 -110 48 1900 080/12 RMK AO2 T03220200
53917KNEW NEW20190914130510409/14/19 13:05:31  5-MIN KNEW 141905Z 09014KT 10SM CLR 32/20 A3005 -110 48 1900 090/14 RMK AO2 T03220200
53917KNEW NEW20190914131010409/14/19 13:10:31  5-MIN KNEW 141910Z 09013KT 10SM CLR 32/19 A3005 -110 46 1900 090/13 RMK AO2 T03220194
53917KNEW NEW20190914131510409/14/19 13:15:31  5-MIN KNEW 141915Z 08015KT 10SM CLR 32/20 A3005 -110 49 1800 080/15 RMK AO2 T03170200
53917KNEW NEW20190914132010409/14/19 13:20:31  5-MIN KNEW 141920Z 08014KT 10SM CLR 32/19 A3005 -110 47 1800 080/14 RMK AO2 T03170194
53917KNEW NEW20190914132510409/14/19 13:25:31  5-MIN KNEW 141925Z 09014KT 10SM CLR 31/21 A3005 -110 53 1700 090/14 RMK AO2 T03110206
53917KNEW NEW20190914133010409/14/19 13:30:31  5-MIN KNEW 141930Z 10014KT 10SM CLR 32/21 A3005 -110 53 1800 100/14 RMK AO2 T03170211
53917KNEW NEW20190914133510409/14/19 13:35:31  5-MIN KNEW 141935Z 09015KT 10SM CLR 32/22 A3005 -110 55 1800 090/15 RMK AO2 T03170217
53917KNEW NEW20190914134010409/14/19 13:40:31  5-MIN KNEW 141940Z 10014KT 10SM CLR 32/22 A3005 -110 55 1800 100/14 RMK AO2 T03170217
53917KNEW NEW20190914134510409/14/19 13:45:31  5-MIN KNEW 141945Z 09013KT 10SM CLR 32/22 A3005 -110 53 1900 090/13 RMK AO2 T03220217
53917KNEW NEW20190914135011109/14/19 13:50:31  5-MIN KNEW 141950Z 09014KT 10SM CLR 32/22 A3005 -100 55 1800 090/14 RMK AO2 SLP169 T03170217
53917KNEW NEW20190914135510409/14/19 13:55:31  5-MIN KNEW 141955Z 10014KT 10SM CLR 32/22 A3005 -100 56 1800 100/14 RMK AO2 T03170222
53917KNEW NEW20190914140010409/14/19 14:00:31  5-MIN KNEW 142000Z 09011KT 10SM CLR 31/22 A3005 -100 56 1800 090/11 RMK AO2 T03110217
53917KNEW NEW20190914140510409/14/19 14:05:31  5-MIN KNEW 142005Z 11014KT 10SM CLR 32/22 A3005 -100 56 1800 110/14 RMK AO2 T03170222
53917KNEW NEW20190914141010409/14/19 14:10:31  5-MIN KNEW 142010Z 10014KT 10SM CLR 32/23 A3004 -100 58 1800 100/14 RMK AO2 T03170228
53917KNEW NEW20190914141510409/14/19 14:15:31  5-MIN KNEW 142015Z 11014KT 10SM CLR 32/22 A3004 -100 55 1800 110/14 RMK AO2 T03170217
53917KNEW NEW20190914142010409/14/19 14:20:31  5-MIN KNEW 142020Z 11014KT 10SM CLR 32/21 A3004 -100 51 1800 110/14 RMK AO2 T03170206
53917KNEW NEW20190914142510409/14/19 14:25:31  5-MIN KNEW 142025Z 10013KT 10SM CLR 32/21 A3004 -100 53 1800 100/13 RMK AO2 T03170211
53917KNEW NEW20190914143010409/14/19 14:30:31  5-MIN KNEW 142030Z 12015KT 10SM CLR 32/21 A3004 -100 51 1800 120/15 RMK AO2 T03170206
53917KNEW NEW20190914143510409/14/19 14:35:31  5-MIN KNEW 142035Z 11015KT 10SM CLR 32/21 A3004 -100 51 1800 110/15 RMK AO2 T03170206
53917KNEW NEW20190914144010409/14/19 14:40:31  5-MIN KNEW 142040Z 10014KT 10SM CLR 31/22 A3004 -100 56 1800 100/14 RMK AO2 T03110217
53917KNEW NEW20190914144510409/14/19 14:45:31  5-MIN KNEW 142045Z 11013KT 10SM CLR 32/21 A3004 -100 53 1800 110/13 RMK AO2 T03170211
53917KNEW NEW20190914145011609/14/19 14:50:31  5-MIN KNEW 142050Z 10016KT 10SM CLR 31/21 A3004 -90 54 1800 100/16 RMK AO2 SLP165 T03110211 58004
53917KNEW NEW20190914145510409/14/19 14:55:31  5-MIN KNEW 142055Z 11015KT 10SM CLR 31/21 A3004 -100 54 1800 110/15 RMK AO2 T03110211
53917KNEW NEW20190914150010309/14/19 15:00:31  5-MIN KNEW 142100Z 12014KT 10SM CLR 31/21 A3004 -90 54 1800 120/14 RMK AO2 T03110211
53917KNEW NEW20190914150510409/14/19 15:05:31  5-MIN KNEW 142105Z 11014KT 10SM CLR 32/20 A3004 -100 49 1800 110/14 RMK AO2 T03170200
53917KNEW NEW20190914151010409/14/19 15:10:31  5-MIN KNEW 142110Z 12014KT 10SM CLR 31/21 A3004 -100 54 1800 120/14 RMK AO2 T03110211
53917KNEW NEW20190914151510309/14/19 15:15:31  5-MIN KNEW 142115Z 11013KT 10SM CLR 31/21 A3004 -90 54 1800 110/13 RMK AO2 T03110211
53917KNEW NEW20190914152010909/14/19 15:20:31  5-MIN KNEW 142120Z 11013G20KT 10SM CLR 31/21 A3003 -90 53 1800 110/13G20 RMK AO2 T03110206
53917KNEW NEW20190914152510909/14/19 15:25:31  5-MIN KNEW 142125Z 10014G20KT 10SM CLR 31/20 A3003 -90 51 1800 100/14G20 RMK AO2 T03110200
53917KNEW NEW20190914153010309/14/19 15:30:31  5-MIN KNEW 142130Z 10012KT 10SM CLR 31/21 A3003 -90 54 1800 100/12 RMK AO2 T03110211
53917KNEW NEW20190914153510309/14/19 15:35:31  5-MIN KNEW 142135Z 10012KT 10SM CLR 31/22 A3003 -90 56 1800 100/12 RMK AO2 T03110217
53917KNEW NEW20190914154010309/14/19 15:40:31  5-MIN KNEW 142140Z 11011KT 10SM CLR 31/22 A3003 -90 58 1700 110/11 RMK AO2 T03060217
53917KNEW NEW20190914154510309/14/19 15:45:31  5-MIN KNEW 142145Z 10011KT 10SM CLR 31/22 A3003 -90 60 1700 100/11 RMK AO2 T03060222
53917KNEW NEW20190914155011009/14/19 15:50:31  5-MIN KNEW 142150Z 11012KT 10SM CLR 31/22 A3003 -90 58 1700 110/12 RMK AO2 SLP164 T03060217
53917KNEW NEW20190914155510309/14/19 15:55:31  5-MIN KNEW 142155Z 11011KT 10SM CLR 31/22 A3003 -90 58 1700 110/11 RMK AO2 T03060217
53917KNEW NEW20190914160010309/14/19 16:00:31  5-MIN KNEW 142200Z 11012KT 10SM CLR 31/21 A3003 -90 56 1700 110/12 RMK AO2 T03060211
53917KNEW NEW20190914160510309/14/19 16:05:31  5-MIN KNEW 142205Z 11014KT 10SM CLR 31/21 A3003 -90 56 1700 110/14 RMK AO2 T03060211
53917KNEW NEW20190914161010309/14/19 16:10:31  5-MIN KNEW 142210Z 11015KT 10SM CLR 31/21 A3003 -90 56 1700 110/15 RMK AO2 T03060211
53917KNEW NEW20190914161510309/14/19 16:15:31  5-MIN KNEW 142215Z 11016KT 10SM CLR 31/21 A3003 -90 56 1700 110/16 RMK AO2 T03060211
53917KNEW NEW20190914162010309/14/19 16:20:31  5-MIN KNEW 142220Z 10011KT 10SM CLR 31/21 A3003 -90 54 1700 100/11 RMK AO2 T03060206
53917KNEW NEW20190914162510309/14/19 16:25:31  5-MIN KNEW 142225Z 11012KT 10SM CLR 31/21 A3003 -90 54 1700 110/12 RMK AO2 T03060206
53917KNEW NEW20190914163010309/14/19 16:30:31  5-MIN KNEW 142230Z 10014KT 10SM CLR 31/21 A3003 -90 54 1700 100/14 RMK AO2 T03060206
53917KNEW NEW20190914163510309/14/19 16:35:31  5-MIN KNEW 142235Z 11010KT 10SM CLR 30/21 A3003 -90 56 1600 110/10 RMK AO2 T03000206
53917KNEW NEW20190914164010309/14/19 16:40:31  5-MIN KNEW 142240Z 10012KT 10SM CLR 30/21 A3003 -90 56 1600 100/12 RMK AO2 T03000206
53917KNEW NEW20190914164510309/14/19 16:45:31  5-MIN KNEW 142245Z 11010KT 10SM CLR 30/21 A3003 -90 56 1600 110/10 RMK AO2 T03000206
53917KNEW NEW20190914165011009/14/19 16:50:31  5-MIN KNEW 142250Z 10011KT 10SM CLR 30/21 A3003 -90 58 1600 100/11 RMK AO2 SLP162 T03000211
53917KNEW NEW20190914165510309/14/19 16:55:31  5-MIN KNEW 142255Z 11010KT 10SM CLR 30/21 A3003 -90 58 1600 110/10 RMK AO2 T03000211
53917KNEW NEW20190914170010309/14/19 17:00:31  5-MIN KNEW 142300Z 12011KT 10SM CLR 30/21 A3003 -90 58 1600 120/11 RMK AO2 T03000211
53917KNEW NEW20190914170510309/14/19 17:05:31  5-MIN KNEW 142305Z 12009KT 10SM CLR 30/21 A3003 -90 58 1600 120/09 RMK AO2 T03000211
53917KNEW NEW20190914171010309/14/19 17:10:31  5-MIN KNEW 142310Z 11008KT 10SM CLR 30/21 A3003 -90 58 1600 110/08 RMK AO2 T03000211
53917KNEW NEW20190914171510309/14/19 17:15:31  5-MIN KNEW 142315Z 12009KT 10SM CLR 30/21 A3003 -90 58 1600 120/09 RMK AO2 T03000211
53917KNEW NEW20190914172010309/14/19 17:20:31  5-MIN KNEW 142320Z 11010KT 10SM CLR 30/21 A3004 -90 58 1600 110/10 RMK AO2 T03000211
53917KNEW NEW20190914172510309/14/19 17:25:31  5-MIN KNEW 142325Z 12009KT 10SM CLR 30/21 A3004 -90 58 1600 120/09 RMK AO2 T03000211
53917KNEW NEW20190914173010309/14/19 17:30:31  5-MIN KNEW 142330Z 11009KT 10SM CLR 30/21 A3004 -90 58 1600 110/09 RMK AO2 T03000211
53917KNEW NEW20190914173510309/14/19 17:35:31  5-MIN KNEW 142335Z 13008KT 10SM CLR 30/22 A3004 -90 60 1600 130/08 RMK AO2 T03000217
53917KNEW NEW20190914174010309/14/19 17:40:31  5-MIN KNEW 142340Z 12009KT 10SM CLR 29/22 A3004 -90 62 1600 120/09 RMK AO2 T02940217
53917KNEW NEW20190914174510309/14/19 17:45:31  5-MIN KNEW 142345Z 12007KT 10SM CLR 29/21 A3004 -90 60 1600 120/07 RMK AO2 T02940211
53917KNEW NEW20190914175012809/14/19 17:50:31  5-MIN KNEW 142350Z 11009KT 10SM CLR 29/22 A3004 -90 62 1600 110/09 RMK AO2 SLP165 T02940217 10322 20294 56017
53917KNEW NEW20190914175510309/14/19 17:55:31  5-MIN KNEW 142355Z 12008KT 10SM CLR 29/22 A3004 -90 62 1600 120/08 RMK AO2 T02940217
53917KNEW NEW20190914180010309/14/19 18:00:31  5-MIN KNEW 150000Z 13008KT 10SM CLR 29/22 A3003 -90 62 1600 130/08 RMK AO2 T02940217
53917KNEW NEW20190914180510309/14/19 18:05:31  5-MIN KNEW 150005Z 13007KT 10SM CLR 29/22 A3003 -90 62 1600 130/07 RMK AO2 T02940217
53917KNEW NEW20190914181010309/14/19 18:10:31  5-MIN KNEW 150010Z 13006KT 10SM CLR 29/22 A3003 -90 64 1600 130/06 RMK AO2 T02940222
53917KNEW NEW20190914181510309/14/19 18:15:31  5-MIN KNEW 150015Z 13007KT 10SM CLR 29/22 A3003 -90 62 1600 130/07 RMK AO2 T02940217
53917KNEW NEW20190914182010309/14/19 18:20:31  5-MIN KNEW 150020Z 13007KT 10SM CLR 29/22 A3003 -90 64 1600 130/07 RMK AO2 T02940222
53917KNEW NEW20190914182510309/14/19 18:25:31  5-MIN KNEW 150025Z 13007KT 10SM CLR 29/22 A3003 -90 64 1600 130/07 RMK AO2 T02940222
53917KNEW NEW20190914183010309/14/19 18:30:31  5-MIN KNEW 150030Z 12006KT 10SM CLR 29/22 A3003 -90 67 1500 120/06 RMK AO2 T02890222
53917KNEW NEW20190914183510309/14/19 18:35:31  5-MIN KNEW 150035Z 13007KT 10SM CLR 29/22 A3003 -90 67 1500 130/07 RMK AO2 T02890222
53917KNEW NEW20190914184010309/14/19 18:40:31  5-MIN KNEW 150040Z 13006KT 10SM CLR 29/22 A3003 -90 67 1500 130/06 RMK AO2 T02890222
53917KNEW NEW20190914184510309/14/19 18:45:31  5-MIN KNEW 150045Z 13004KT 10SM CLR 29/22 A3003 -90 67 1500 130/04 RMK AO2 T02890222
53917KNEW NEW20190914185011009/14/19 18:50:31  5-MIN KNEW 150050Z 13006KT 10SM CLR 29/22 A3003 -90 67 1500 130/06 RMK AO2 SLP164 T02890222
53917KNEW NEW20190914185510309/14/19 18:55:31  5-MIN KNEW 150055Z 14005KT 10SM CLR 29/22 A3003 -90 67 1500 140/05 RMK AO2 T02890222
53917KNEW NEW20190914190010309/14/19 19:00:31  5-MIN KNEW 150100Z 14006KT 10SM CLR 28/22 A3004 -90 69 1500 140/06 RMK AO2 T02830222
53917KNEW NEW20190914190510309/14/19 19:05:31  5-MIN KNEW 150105Z 14005KT 10SM CLR 28/22 A3004 -90 69 1500 140/05 RMK AO2 T02830222
53917KNEW NEW20190914191010309/14/19 19:10:31  5-MIN KNEW 150110Z 14005KT 10SM CLR 28/22 A3004 -90 69 1500 140/05 RMK AO2 T02830222
53917KNEW NEW20190914191510309/14/19 19:15:31  5-MIN KNEW 150115Z 13003KT 10SM CLR 28/22 A3004 -90 69 1500 130/03 RMK AO2 T02830222
53917KNEW NEW20190914192010409/14/19 19:20:31  5-MIN KNEW 150120Z 14004KT 10SM CLR 28/22 A3004 -100 69 1500 140/04 RMK AO2 T02830222
53917KNEW NEW20190914192510409/14/19 19:25:31  5-MIN KNEW 150125Z 15005KT 10SM CLR 28/23 A3004 -100 71 1500 150/05 RMK AO2 T02830228
53917KNEW NEW20190914193010409/14/19 19:30:31  5-MIN KNEW 150130Z 14004KT 10SM CLR 28/23 A3004 -100 74 1400 140/04 RMK AO2 T02780228
53917KNEW NEW20190914193510409/14/19 19:35:31  5-MIN KNEW 150135Z 13005KT 10SM CLR 28/23 A3004 -100 74 1400 130/05 RMK AO2 T02780228
53917KNEW NEW20190914194010409/14/19 19:40:31  5-MIN KNEW 150140Z 13005KT 10SM CLR 28/23 A3004 -100 71 1400 130/05 RMK AO2 T02830228
53917KNEW NEW20190914194510409/14/19 19:45:31  5-MIN KNEW 150145Z 13005KT 10SM CLR 28/23 A3005 -100 74 1400 130/05 RMK AO2 T02780228
53917KNEW NEW20190914195011109/14/19 19:50:31  5-MIN KNEW 150150Z 14004KT 10SM CLR 28/23 A3005 -100 74 1400 140/04 RMK AO2 SLP168 T02780228
53917KNEW NEW20190914195510909/14/19 19:55:31  5-MIN KNEW 150155Z AUTO 14003KT 10SM CLR 28/23 A3005 -100 74 1400 140/03 RMK AO2 T02780228
53917KNEW NEW20190914200010909/14/19 20:00:31  5-MIN KNEW 150200Z AUTO 14004KT 10SM CLR 28/23 A3005 -100 74 1400 140/04 RMK AO2 T02780228
53917KNEW NEW20190914200510909/14/19 20:05:31  5-MIN KNEW 150205Z AUTO 13005KT 10SM CLR 28/23 A3005 -100 74 1400 130/05 RMK AO2 T02780228
53917KNEW NEW20190914201010909/14/19 20:10:31  5-MIN KNEW 150210Z AUTO 14004KT 10SM CLR 28/23 A3005 -110 74 1400 140/04 RMK AO2 T02780228
53917KNEW NEW20190914201510909/14/19 20:15:31  5-MIN KNEW 150215Z AUTO 14004KT 10SM CLR 28/23 A3005 -110 74 1400 140/04 RMK AO2 T02780228
53917KNEW NEW20190914202010909/14/19 20:20:31  5-MIN KNEW 150220Z AUTO 13003KT 10SM CLR 28/23 A3005 -110 74 1400 130/03 RMK AO2 T02780228
53917KNEW NEW20190914202510909/14/19 20:25:31  5-MIN KNEW 150225Z AUTO 13003KT 10SM CLR 28/23 A3006 -110 74 1400 130/03 RMK AO2 T02780228
53917KNEW NEW20190914203010909/14/19 20:30:31  5-MIN KNEW 150230Z AUTO 00000KT 10SM CLR 28/23 A3006 -110 74 1400 000/00 RMK AO2 T02780228
53917KNEW NEW20190914203510909/14/19 20:35:31  5-MIN KNEW 150235Z AUTO 00000KT 10SM CLR 28/23 A3006 -110 74 1400 000/00 RMK AO2 T02780228
53917KNEW NEW20190914204010909/14/19 20:40:31  5-MIN KNEW 150240Z AUTO 13004KT 10SM CLR 28/23 A3006 -110 74 1400 130/04 RMK AO2 T02780228
53917KNEW NEW20190914204510909/14/19 20:45:31  5-MIN KNEW 150245Z AUTO 13003KT 10SM CLR 28/23 A3006 -110 74 1400 130/03 RMK AO2 T02780228
53917KNEW NEW20190914205012209/14/19 20:50:31  5-MIN KNEW 150250Z AUTO 13003KT 10SM CLR 28/23 A3006 -110 74 1400 130/03 RMK AO2 SLP172 T02780228 55001
53917KNEW NEW20190914205510909/14/19 20:55:31  5-MIN KNEW 150255Z AUTO 12003KT 10SM CLR 28/23 A3006 -120 76 1400 120/03 RMK AO2 T02780233
53917KNEW NEW20190914210010909/14/19 21:00:31  5-MIN KNEW 150300Z AUTO 12003KT 10SM CLR 28/23 A3006 -120 76 1400 120/03 RMK AO2 T02780233
53917KNEW NEW20190914210510909/14/19 21:05:31  5-MIN KNEW 150305Z AUTO 12003KT 10SM CLR 28/23 A3007 -120 76 1400 120/03 RMK AO2 T02780233
53917KNEW NEW20190914211010909/14/19 21:10:31  5-MIN KNEW 150310Z AUTO 12003KT 10SM CLR 28/23 A3007 -120 76 1400 120/03 RMK AO2 T02780233
53917KNEW NEW20190914211510909/14/19 21:15:31  5-MIN KNEW 150315Z AUTO 12003KT 10SM CLR 28/23 A3007 -120 76 1400 120/03 RMK AO2 T02780233
53917KNEW NEW20190914212010909/14/19 21:20:31  5-MIN KNEW 150320Z AUTO 12004KT 10SM CLR 28/23 A3007 -120 76 1400 120/04 RMK AO2 T02780233
53917KNEW NEW20190914212510909/14/19 21:25:31  5-MIN KNEW 150325Z AUTO 11003KT 10SM CLR 28/23 A3007 -120 74 1400 110/03 RMK AO2 T02830233
53917KNEW NEW20190914213010909/14/19 21:30:31  5-MIN KNEW 150330Z AUTO 12003KT 10SM CLR 28/23 A3007 -130 74 1400 120/03 RMK AO2 T02830233
53917KNEW NEW20190914213510909/14/19 21:35:31  5-MIN KNEW 150335Z AUTO 13003KT 10SM CLR 28/23 A3007 -130 74 1400 130/03 RMK AO2 T02830233
53917KNEW NEW20190914214010909/14/19 21:40:31  5-MIN KNEW 150340Z AUTO 12003KT 10SM CLR 28/23 A3007 -130 76 1400 120/03 RMK AO2 T02780233
53917KNEW NEW20190914214511209/14/19 21:45:31  5-MIN KNEW 150345Z AUTO 11003KT 10SM FEW065 28/23 A3007 -120 76 1400 110/03 RMK AO2 T02780233
53917KNEW NEW20190914215011909/14/19 21:50:31  5-MIN KNEW 150350Z AUTO 11004KT 10SM SCT065 28/23 A3007 -120 74 1400 110/04 RMK AO2 SLP175 T02830233
53917KNEW NEW20190914215511209/14/19 21:55:31  5-MIN KNEW 150355Z AUTO 11003KT 10SM FEW065 28/23 A3007 -120 74 1400 110/03 RMK AO2 T02830233
53917KNEW NEW20190914220011209/14/19 22:00:31  5-MIN KNEW 150400Z AUTO 11004KT 10SM FEW065 28/23 A3007 -120 74 1400 110/04 RMK AO2 T02830233
53917KNEW NEW20190914220511209/14/19 22:05:31  5-MIN KNEW 150405Z AUTO 10003KT 10SM FEW065 28/23 A3007 -120 74 1400 100/03 RMK AO2 T02830233
53917KNEW NEW20190914221011209/14/19 22:10:31  5-MIN KNEW 150410Z AUTO 10003KT 10SM SCT065 28/23 A3007 -120 74 1400 100/03 RMK AO2 T02830233
53917KNEW NEW20190914221511209/14/19 22:15:31  5-MIN KNEW 150415Z AUTO 00000KT 10SM BKN065 28/23 A3007 -120 74 1400 000/00 RMK AO2 T02830233
53917KNEW NEW20190914222011209/14/19 22:20:31  5-MIN KNEW 150420Z AUTO 00000KT 10SM BKN065 28/23 A3006 -120 74 1400 000/00 RMK AO2 T02830233
53917KNEW NEW20190914222511209/14/19 22:25:31  5-MIN KNEW 150425Z AUTO 09003KT 10SM BKN065 28/23 A3006 -120 74 1400 090/03 RMK AO2 T02830233
53917KNEW NEW20190914223011209/14/19 22:30:31  5-MIN KNEW 150430Z AUTO 09003KT 10SM BKN065 28/23 A3006 -110 74 1400 090/03 RMK AO2 T02830233
53917KNEW NEW20190914223511209/14/19 22:35:31  5-MIN KNEW 150435Z AUTO 09003KT 10SM BKN065 28/23 A3006 -110 74 1400 090/03 RMK AO2 T02830233
53917KNEW NEW20190914224011209/14/19 22:40:31  5-MIN KNEW 150440Z AUTO 10004KT 10SM BKN065 28/23 A3006 -110 74 1400 100/04 RMK AO2 T02830233
53917KNEW NEW20190914224511209/14/19 22:45:31  5-MIN KNEW 150445Z AUTO 10004KT 10SM SCT065 28/23 A3005 -110 74 1400 100/04 RMK AO2 T02830233
53917KNEW NEW20190914225011909/14/19 22:50:31  5-MIN KNEW 150450Z AUTO 09004KT 10SM SCT065 28/23 A3005 -110 74 1400 090/04 RMK AO2 SLP170 T02830233
53917KNEW NEW20190914225511209/14/19 22:55:31  5-MIN KNEW 150455Z AUTO 09003KT 10SM FEW065 28/23 A3005 -110 74 1400 090/03 RMK AO2 T02830233
53917KNEW NEW20190914230011209/14/19 23:00:31  5-MIN KNEW 150500Z AUTO 09004KT 10SM FEW065 28/23 A3005 -100 74 1400 090/04 RMK AO2 T02830233
53917KNEW NEW20190914230510909/14/19 23:05:31  5-MIN KNEW 150505Z AUTO 10003KT 10SM CLR 28/23 A3005 -100 74 1400 100/03 RMK AO2 T02830233
53917KNEW NEW20190914231010909/14/19 23:10:31  5-MIN KNEW 150510Z AUTO 10004KT 10SM CLR 28/23 A3005 -100 74 1400 100/04 RMK AO2 T02830233
53917KNEW NEW20190914231510909/14/19 23:15:31  5-MIN KNEW 150515Z AUTO 09004KT 10SM CLR 28/23 A3004 -100 74 1400 090/04 RMK AO2 T02830233
53917KNEW NEW20190915203510809/15/19 20:35:31  5-MIN KNEW 160235Z AUTO 13006KT 10SM CLR 28/22 A3001 -70 69 1500 130/06 RMK AO2 T02830222
53917KNEW NEW20190915204010809/15/19 20:40:31  5-MIN KNEW 160240Z AUTO 12008KT 10SM CLR 28/22 A3001 -70 69 1500 120/08 RMK AO2 T02830222
53917KNEW NEW20190915204510809/15/19 20:45:31  5-MIN KNEW 160245Z AUTO 12008KT 10SM CLR 28/22 A3001 -70 69 1500 120/08 RMK AO2 T02830222
53917KNEW NEW20190915205012109/15/19 20:50:31  5-MIN KNEW 160250Z AUTO 12008KT 10SM CLR 28/22 A3001 -70 69 1500 120/08 RMK AO2 SLP156 T02830222 50004
53917KNEW NEW20190915205510809/15/19 20:55:31  5-MIN KNEW 160255Z AUTO 12009KT 10SM CLR 28/23 A3001 -70 71 1500 120/09 RMK AO2 T02830228
53917KNEW NEW20190915210010809/15/19 21:00:31  5-MIN KNEW 160300Z AUTO 12007KT 10SM CLR 28/23 A3001 -70 71 1500 120/07 RMK AO2 T02830228
53917KNEW NEW20190915210510809/15/19 21:05:31  5-MIN KNEW 160305Z AUTO 12007KT 10SM CLR 28/23 A3001 -70 71 1500 120/07 RMK AO2 T02830228
53917KNEW NEW20190915211010809/15/19 21:10:31  5-MIN KNEW 160310Z AUTO 12006KT 10SM CLR 28/23 A3001 -70 71 1500 120/06 RMK AO2 T02830228
53917KNEW NEW20190915211510809/15/19 21:15:31  5-MIN KNEW 160315Z AUTO 12005KT 10SM CLR 28/23 A3001 -70 71 1500 120/05 RMK AO2 T02830228
53917KNEW NEW20190915212010809/15/19 21:20:31  5-MIN KNEW 160320Z AUTO 11006KT 10SM CLR 28/23 A3001 -70 71 1500 110/06 RMK AO2 T02830228
53917KNEW NEW20190915212510809/15/19 21:25:31  5-MIN KNEW 160325Z AUTO 12007KT 10SM CLR 28/23 A3001 -70 71 1500 120/07 RMK AO2 T02830228
53917KNEW NEW20190915213010809/15/19 21:30:31  5-MIN KNEW 160330Z AUTO 12006KT 10SM CLR 28/23 A3001 -70 74 1500 120/06 RMK AO2 T02830233
53917KNEW NEW20190915213510809/15/19 21:35:31  5-MIN KNEW 160335Z AUTO 12006KT 10SM CLR 28/23 A3001 -70 74 1500 120/06 RMK AO2 T02830233
53917KNEW NEW20190915214010809/15/19 21:40:31  5-MIN KNEW 160340Z AUTO 12006KT 10SM CLR 28/23 A3001 -60 76 1400 120/06 RMK AO2 T02780233
53917KNEW NEW20190915214510809/15/19 21:45:31  5-MIN KNEW 160345Z AUTO 11005KT 10SM CLR 28/23 A3000 -60 74 1500 110/05 RMK AO2 T02830233
53917KNEW NEW20190915215011509/15/19 21:50:31  5-MIN KNEW 160350Z AUTO 11007KT 10SM CLR 28/23 A3000 -60 74 1500 110/07 RMK AO2 SLP153 T02830233
53917KNEW NEW20190915215510809/15/19 21:55:31  5-MIN KNEW 160355Z AUTO 10006KT 10SM CLR 28/23 A3000 -60 71 1500 100/06 RMK AO2 T02830228
53917KNEW NEW20190915220010809/15/19 22:00:31  5-MIN KNEW 160400Z AUTO 10005KT 10SM CLR 28/23 A3000 -60 71 1500 100/05 RMK AO2 T02830228
53917KNEW NEW20190915220510809/15/19 22:05:31  5-MIN KNEW 160405Z AUTO 09005KT 10SM CLR 28/23 A3000 -60 74 1500 090/05 RMK AO2 T02830233
53917KNEW NEW20190915221010809/15/19 22:10:31  5-MIN KNEW 160410Z AUTO 09007KT 10SM CLR 28/23 A3000 -60 74 1500 090/07 RMK AO2 T02830233
53917KNEW NEW20190915221510809/15/19 22:15:31  5-MIN KNEW 160415Z AUTO 09007KT 10SM CLR 28/23 A3000 -60 74 1500 090/07 RMK AO2 T02830233
53917KNEW NEW20190915222010809/15/19 22:20:31  5-MIN KNEW 160420Z AUTO 10007KT 10SM CLR 28/23 A3000 -60 74 1500 100/07 RMK AO2 T02830233
53917KNEW NEW20190915222510809/15/19 22:25:31  5-MIN KNEW 160425Z AUTO 10007KT 10SM CLR 28/23 A3000 -60 74 1500 100/07 RMK AO2 T02830233
53917KNEW NEW20190915223010809/15/19 22:30:31  5-MIN KNEW 160430Z AUTO 09007KT 10SM CLR 28/23 A3000 -60 74 1500 090/07 RMK AO2 T02830233
53917KNEW NEW20190915223510809/15/19 22:35:31  5-MIN KNEW 160435Z AUTO 09006KT 10SM CLR 28/23 A3000 -60 74 1500 090/06 RMK AO2 T02830233
53917KNEW NEW20190915224010809/15/19 22:40:31  5-MIN KNEW 160440Z AUTO 09005KT 10SM CLR 28/23 A3000 -60 74 1500 090/05 RMK AO2 T02830233
53917KNEW NEW20190915224510809/15/19 22:45:31  5-MIN KNEW 160445Z AUTO 09005KT 10SM CLR 28/23 A2999 -50 74 1500 090/05 RMK AO2 T02830233
53917KNEW NEW20190915225011509/15/19 22:50:31  5-MIN KNEW 160450Z AUTO 10005KT 10SM CLR 28/23 A2999 -50 74 1500 100/05 RMK AO2 SLP150 T02830233
53917KNEW NEW20190915225510809/15/19 22:55:31  5-MIN KNEW 160455Z AUTO 10006KT 10SM CLR 28/23 A3000 -60 74 1500 100/06 RMK AO2 T02830233
53917KNEW NEW20190915230010809/15/19 23:00:31  5-MIN KNEW 160500Z AUTO 10005KT 10SM CLR 28/23 A3000 -60 74 1500 100/05 RMK AO2 T02830233
53917KNEW NEW20190915230510809/15/19 23:05:31  5-MIN KNEW 160505Z AUTO 11005KT 10SM CLR 28/23 A2999 -50 74 1500 110/05 RMK AO2 T02830233
53917KNEW NEW20190915231010809/15/19 23:10:31  5-MIN KNEW 160510Z AUTO 11006KT 10SM CLR 28/23 A2999 -50 74 1500 110/06 RMK AO2 T02830233
53917KNEW NEW20190915231510809/15/19 23:15:31  5-MIN KNEW 160515Z AUTO 10006KT 10SM CLR 28/23 A3000 -60 74 1500 100/06 RMK AO2 T02830233
53917KNEW NEW20190915232010809/15/19 23:20:31  5-MIN KNEW 160520Z AUTO 10007KT 10SM CLR 28/23 A3000 -60 74 1500 100/07 RMK AO2 T02830233
53917KNEW NEW20190915232510809/15/19 23:25:31  5-MIN KNEW 160525Z AUTO 10006KT 10SM CLR 28/23 A3000 -60 74 1500 100/06 RMK AO2 T02830233
53917KNEW NEW20190915233010809/15/19 23:30:31  5-MIN KNEW 160530Z AUTO 10004KT 10SM CLR 28/24 A3000 -60 76 1500 100/04 RMK AO2 T02830239
53917KNEW NEW20190915233510809/15/19 23:35:31  5-MIN KNEW 160535Z AUTO 10006KT 10SM CLR 28/24 A3000 -60 76 1500 100/06 RMK AO2 T02830239
53917KNEW NEW20190915234010809/15/19 23:40:31  5-MIN KNEW 160540Z AUTO 11004KT 10SM CLR 28/24 A3000 -60 76 1500 110/04 RMK AO2 T02830239
53917KNEW NEW20190915234510809/15/19 23:45:31  5-MIN KNEW 160545Z AUTO 11004KT 10SM CLR 28/24 A3000 -60 79 1400 110/04 RMK AO2 T02780239
53917KNEW NEW20190915235014309/15/19 23:50:31  5-MIN KNEW 160550Z AUTO 10004KT 10SM CLR 28/24 A3000 -60 79 1400 100/04 RMK AO2 SLP152 T02780239 10300 20278 403330272 53012
53917KNEW NEW20190915235510809/15/19 23:55:31  5-MIN KNEW 160555Z AUTO 10004KT 10SM CLR 28/24 A3000 -60 76 1500 100/04 RMK AO2 T02830239
53917KNEW NEW20190916000010809/16/19 00:00:31  5-MIN KNEW 160600Z AUTO 09004KT 10SM CLR 28/24 A3000 -60 76 1500 090/04 RMK AO2 T02830239
53917KNEW NEW20190916000510809/16/19 00:05:31  5-MIN KNEW 160605Z AUTO 09005KT 10SM CLR 28/24 A3000 -60 76 1500 090/05 RMK AO2 T02830239
53917KNEW NEW20190916001010809/16/19 00:10:31  5-MIN KNEW 160610Z AUTO 10005KT 10SM CLR 28/24 A3000 -60 76 1500 100/05 RMK AO2 T02830239
53917KNEW NEW20190916001510809/16/19 00:15:31  5-MIN KNEW 160615Z AUTO 10004KT 10SM CLR 28/24 A3000 -60 76 1500 100/04 RMK AO2 T02830239
53917KNEW NEW20190916002010809/16/19 00:20:31  5-MIN KNEW 160620Z AUTO 10005KT 10SM CLR 28/24 A3000 -60 76 1500 100/05 RMK AO2 T02830239
53917KNEW NEW20190916002510809/16/19 00:25:31  5-MIN KNEW 160625Z AUTO 09005KT 10SM CLR 28/24 A3000 -60 76 1500 090/05 RMK AO2 T02830239
53917KNEW NEW20190916003010809/16/19 00:30:31  5-MIN KNEW 160630Z AUTO 09004KT 10SM CLR 28/24 A3000 -60 76 1500 090/04 RMK AO2 T02830239
53917KNEW NEW20190916003510809/16/19 00:35:31  5-MIN KNEW 160635Z AUTO 10006KT 10SM CLR 28/24 A3000 -60 76 1500 100/06 RMK AO2 T02830239
53917KNEW NEW20190916004010809/16/19 00:40:31  5-MIN KNEW 160640Z AUTO 09005KT 10SM CLR 28/24 A3000 -60 76 1500 090/05 RMK AO2 T02830239
53917KNEW NEW20190916004510809/16/19 00:45:31  5-MIN KNEW 160645Z AUTO 08005KT 10SM CLR 28/24 A3000 -60 76 1500 080/05 RMK AO2 T02830239
53917KNEW NEW20190916005011509/16/19 00:50:31  5-MIN KNEW 160650Z AUTO 09005KT 10SM CLR 28/24 A3000 -60 76 1500 090/05 RMK AO2 SLP151 T02830239
53917KNEW NEW20190916005510809/16/19 00:55:31  5-MIN KNEW 160655Z AUTO 08004KT 10SM CLR 28/24 A2999 -50 76 1500 080/04 RMK AO2 T02830239
53917KNEW NEW20190916010010809/16/19 01:00:31  5-MIN KNEW 160700Z AUTO 07004KT 10SM CLR 28/24 A2999 -50 76 1500 070/04 RMK AO2 T02830239
53917KNEW NEW20190916010510809/16/19 01:05:31  5-MIN KNEW 160705Z AUTO 08004KT 10SM CLR 28/24 A2999 -50 79 1500 080/04 RMK AO2 T02830244
53917KNEW NEW20190916011010809/16/19 01:10:31  5-MIN KNEW 160710Z AUTO 07005KT 10SM CLR 28/24 A2999 -50 79 1500 070/05 RMK AO2 T02830244
53917KNEW NEW20190916011510809/16/19 01:15:31  5-MIN KNEW 160715Z AUTO 06006KT 10SM CLR 28/24 A2999 -50 79 1500 060/06 RMK AO2 T02830244
53917KNEW NEW20190916012010809/16/19 01:20:31  5-MIN KNEW 160720Z AUTO 07006KT 10SM CLR 28/24 A2999 -50 79 1500 070/06 RMK AO2 T02830244
53917KNEW NEW20190916012510809/16/19 01:25:31  5-MIN KNEW 160725Z AUTO 06006KT 10SM CLR 28/24 A2999 -50 79 1500 060/06 RMK AO2 T02830244
53917KNEW NEW20190916013010809/16/19 01:30:31  5-MIN KNEW 160730Z AUTO 07006KT 10SM CLR 28/24 A2999 -50 76 1500 070/06 RMK AO2 T02830239
53917KNEW NEW20190916013510809/16/19 01:35:31  5-MIN KNEW 160735Z AUTO 07006KT 10SM CLR 28/24 A2999 -50 76 1500 070/06 RMK AO2 T02830239
53917KNEW NEW20190916014010809/16/19 01:40:31  5-MIN KNEW 160740Z AUTO 08007KT 10SM CLR 28/24 A2999 -50 76 1500 080/07 RMK AO2 T02830239
53917KNEW NEW20190916014510809/16/19 01:45:31  5-MIN KNEW 160745Z AUTO 07007KT 10SM CLR 28/24 A2999 -50 76 1500 070/07 RMK AO2 T02830239
53917KNEW NEW20190916015011509/16/19 01:50:31  5-MIN KNEW 160750Z AUTO 07006KT 10SM CLR 28/24 A2999 -50 76 1500 070/06 RMK AO2 SLP148 T02830239
53917KNEW NEW20190916015510809/16/19 01:55:31  5-MIN KNEW 160755Z AUTO 07007KT 10SM CLR 28/24 A2998 -50 76 1500 070/07 RMK AO2 T02830239
53917KNEW NEW20190916020010809/16/19 02:00:31  5-MIN KNEW 160800Z AUTO 07008KT 10SM CLR 29/24 A2998 -40 74 1600 070/08 RMK AO2 T02890239
53917KNEW NEW20190916020510809/16/19 02:05:31  5-MIN KNEW 160805Z AUTO 05008KT 10SM CLR 28/24 A2998 -40 79 1500 050/08 RMK AO2 T02830244
53917KNEW NEW20190916021011109/16/19 02:10:31  5-MIN KNEW 160810Z AUTO 06007KT 10SM FEW100 28/24 A2998 -40 79 1500 060/07 RMK AO2 T02830244
53917KNEW NEW20190916021511109/16/19 02:15:31  5-MIN KNEW 160815Z AUTO 06008KT 10SM FEW100 28/25 A2998 -40 82 1500 060/08 RMK AO2 T02830250
53917KNEW NEW20190916022010809/16/19 02:20:31  5-MIN KNEW 160820Z AUTO 06008KT 10SM CLR 28/24 A2998 -40 79 1500 060/08 RMK AO2 T02830244
53917KNEW NEW20190916022510809/16/19 02:25:31  5-MIN KNEW 160825Z AUTO 05008KT 10SM CLR 28/24 A2998 -40 79 1500 050/08 RMK AO2 T02830244
53917KNEW NEW20190916023010809/16/19 02:30:31  5-MIN KNEW 160830Z AUTO 05009KT 10SM CLR 28/25 A2998 -40 82 1500 050/09 RMK AO2 T02830250
53917KNEW NEW20190916023510809/16/19 02:35:31  5-MIN KNEW 160835Z AUTO 06009KT 10SM CLR 28/25 A2998 -40 82 1500 060/09 RMK AO2 T02830250
53917KNEW NEW20190916024010809/16/19 02:40:31  5-MIN KNEW 160840Z AUTO 06009KT 10SM CLR 28/24 A2999 -50 79 1500 060/09 RMK AO2 T02830244
53917KNEW NEW20190916024510809/16/19 02:45:31  5-MIN KNEW 160845Z AUTO 06009KT 10SM CLR 28/24 A2999 -50 79 1500 060/09 RMK AO2 T02830244
53917KNEW NEW20190916025012109/16/19 02:50:31  5-MIN KNEW 160850Z AUTO 05010KT 10SM CLR 28/24 A2999 -50 79 1500 050/10 RMK AO2 SLP147 T02830244 55004
53917KNEW NEW20190916025511109/16/19 02:55:31  5-MIN KNEW 160855Z AUTO 05010KT 10SM FEW110 28/25 A2999 -50 82 1500 050/10 RMK AO2 T02830250
53917KNEW NEW20190916030011109/16/19 03:00:31  5-MIN KNEW 160900Z AUTO 04010KT 10SM FEW110 28/25 A2998 -50 82 1500 040/10 RMK AO2 T02830250
53917KNEW NEW20190916030511109/16/19 03:05:31  5-MIN KNEW 160905Z AUTO 04010KT 10SM SCT120 28/25 A2999 -50 82 1500 040/10 RMK AO2 T02830250
53917KNEW NEW20190916031011109/16/19 03:10:31  5-MIN KNEW 160910Z AUTO 04010KT 10SM SCT120 28/24 A2999 -50 79 1500 040/10 RMK AO2 T02830244
53917KNEW NEW20190916031511109/16/19 03:15:31  5-MIN KNEW 160915Z AUTO 05010KT 10SM SCT120 28/24 A2999 -50 79 1500 050/10 RMK AO2 T02830244
53917KNEW NEW20190916032011109/16/19 03:20:31  5-MIN KNEW 160920Z AUTO 04011KT 10SM SCT120 28/24 A2999 -50 79 1500 040/11 RMK AO2 T02830244
53917KNEW NEW20190916032511109/16/19 03:25:31  5-MIN KNEW 160925Z AUTO 04012KT 10SM FEW120 28/24 A2999 -50 79 1500 040/12 RMK AO2 T02830244
53917KNEW NEW20190916033011109/16/19 03:30:31  5-MIN KNEW 160930Z AUTO 03012KT 10SM FEW120 28/24 A2999 -50 82 1500 030/12 RMK AO2 T02780244
53917KNEW NEW20190916033510809/16/19 03:35:31  5-MIN KNEW 160935Z AUTO 04012KT 10SM CLR 28/24 A2999 -50 82 1400 040/12 RMK AO2 T02780244
53917KNEW NEW20190916034010809/16/19 03:40:31  5-MIN KNEW 160940Z AUTO 04012KT 10SM CLR 28/24 A2999 -50 82 1400 040/12 RMK AO2 T02780244
53917KNEW NEW20190916034510809/16/19 03:45:31  5-MIN KNEW 160945Z AUTO 04012KT 10SM CLR 28/24 A2999 -50 76 1500 040/12 RMK AO2 T02830239
53917KNEW NEW20190916035011509/16/19 03:50:31  5-MIN KNEW 160950Z AUTO 04012KT 10SM CLR 28/24 A2999 -50 79 1500 040/12 RMK AO2 SLP148 T02830244
53917KNEW NEW20190916035510809/16/19 03:55:31  5-MIN KNEW 160955Z AUTO 05012KT 10SM CLR 28/24 A2999 -50 82 1400 050/12 RMK AO2 T02780244
53917KNEW NEW20190916040010809/16/19 04:00:31  5-MIN KNEW 161000Z AUTO 04011KT 10SM CLR 28/24 A2999 -50 82 1400 040/11 RMK AO2 T02780244
53917KNEW NEW20190916040510809/16/19 04:05:31  5-MIN KNEW 161005Z AUTO 04012KT 10SM CLR 28/24 A2999 -50 82 1400 040/12 RMK AO2 T02780244
53917KNEW NEW20190916041010809/16/19 04:10:31  5-MIN KNEW 161010Z AUTO 05012KT 10SM CLR 28/24 A2999 -50 82 1400 050/12 RMK AO2 T02780244
53917KNEW NEW20190916041510809/16/19 04:15:31  5-MIN KNEW 161015Z AUTO 04011KT 10SM CLR 28/24 A2999 -50 82 1400 040/11 RMK AO2 T02780244
53917KNEW NEW20190916042010809/16/19 04:20:31  5-MIN KNEW 161020Z AUTO 04012KT 10SM CLR 28/24 A2999 -50 82 1400 040/12 RMK AO2 T02780244
53917KNEW NEW20190916042510809/16/19 04:25:31  5-MIN KNEW 161025Z AUTO 05012KT 10SM CLR 28/24 A2999 -50 82 1400 050/12 RMK AO2 T02780244
53917KNEW NEW20190916043010809/16/19 04:30:31  5-MIN KNEW 161030Z AUTO 05011KT 10SM CLR 28/24 A2999 -50 79 1500 050/11 RMK AO2 T02830244
53917KNEW NEW20190916043510809/16/19 04:35:31  5-MIN KNEW 161035Z AUTO 05012KT 10SM CLR 28/24 A2999 -50 79 1500 050/12 RMK AO2 T02830244
53917KNEW NEW20190916044010809/16/19 04:40:31  5-MIN KNEW 161040Z AUTO 05011KT 10SM CLR 28/24 A2999 -50 79 1500 050/11 RMK AO2 T02830244
53917KNEW NEW20190916044510809/16/19 04:45:31  5-MIN KNEW 161045Z AUTO 04010KT 10SM CLR 28/24 A2999 -50 79 1500 040/10 RMK AO2 T02830244
53917KNEW NEW20190916045011509/16/19 04:50:31  5-MIN KNEW 161050Z AUTO 05011KT 10SM CLR 28/24 A2999 -50 79 1500 050/11 RMK AO2 SLP149 T02830244
53917KNEW NEW20190916045510809/16/19 04:55:31  5-MIN KNEW 161055Z AUTO 06011KT 10SM CLR 28/24 A2999 -50 79 1500 060/11 RMK AO2 T02830244
53917KNEW NEW20190916050010809/16/19 05:00:31  5-MIN KNEW 161100Z AUTO 06010KT 10SM CLR 28/24 A2999 -50 82 1400 060/10 RMK AO2 T02780244
53917KNEW NEW20190916050510809/16/19 05:05:31  5-MIN KNEW 161105Z AUTO 06010KT 10SM CLR 28/24 A2999 -50 82 1400 060/10 RMK AO2 T02780244
53917KNEW NEW20190916051010809/16/19 05:10:31  5-MIN KNEW 161110Z AUTO 06011KT 10SM CLR 28/24 A2999 -50 82 1400 060/11 RMK AO2 T02780244
53917KNEW NEW20190916051510809/16/19 05:15:31  5-MIN KNEW 161115Z AUTO 06011KT 10SM CLR 28/24 A2999 -50 82 1400 060/11 RMK AO2 T02780244
53917KNEW NEW20190916052010809/16/19 05:20:31  5-MIN KNEW 161120Z AUTO 07010KT 10SM CLR 28/24 A2999 -50 82 1400 070/10 RMK AO2 T02780244
53917KNEW NEW20190916052510809/16/19 05:25:31  5-MIN KNEW 161125Z AUTO 07010KT 10SM CLR 28/24 A2999 -50 82 1400 070/10 RMK AO2 T02780244
53917KNEW NEW20190916053010809/16/19 05:30:31  5-MIN KNEW 161130Z AUTO 08009KT 10SM CLR 28/24 A2999 -50 82 1400 080/09 RMK AO2 T02780244
53917KNEW NEW20190916053510809/16/19 05:35:31  5-MIN KNEW 161135Z AUTO 07009KT 10SM CLR 28/24 A2998 -50 82 1500 070/09 RMK AO2 T02780244
53917KNEW NEW20190916054010809/16/19 05:40:31  5-MIN KNEW 161140Z AUTO 07010KT 10SM CLR 28/24 A2998 -40 82 1500 070/10 RMK AO2 T02780244
53917KNEW NEW20190916054510809/16/19 05:45:31  5-MIN KNEW 161145Z AUTO 07008KT 10SM CLR 28/24 A2998 -40 82 1500 070/08 RMK AO2 T02780244
53917KNEW NEW20190916055012809/16/19 05:50:31  5-MIN KNEW 161150Z 07009KT 10SM CLR 28/24 A2998 -40 82 1500 070/09 RMK AO2 SLP147 T02780244 10289 20278 56004
53917KNEW NEW20190916055510209/16/19 05:55:31  5-MIN KNEW 161155Z 07009KT 9SM CLR 28/24 A2998 -50 82 1500 070/09 RMK AO2 T02780244
53917KNEW NEW20190916060010209/16/19 06:00:31  5-MIN KNEW 161200Z 06011KT 9SM CLR 28/24 A2998 -50 82 1500 060/11 RMK AO2 T02780244
53917KNEW NEW20190916060510209/16/19 06:05:31  5-MIN KNEW 161205Z 07011KT 9SM CLR 28/24 A2999 -50 82 1500 070/11 RMK AO2 T02780244
53917KNEW NEW20190916061010209/16/19 06:10:31  5-MIN KNEW 161210Z 06012KT 9SM CLR 28/24 A2999 -50 82 1400 060/12 RMK AO2 T02780244
53917KNEW NEW20190916061510209/16/19 06:15:31  5-MIN KNEW 161215Z 07011KT 9SM CLR 28/24 A2999 -50 82 1400 070/11 RMK AO2 T02780244
53917KNEW NEW20190916062010209/16/19 06:20:31  5-MIN KNEW 161220Z 06011KT 9SM CLR 28/24 A2999 -50 82 1400 060/11 RMK AO2 T02780244
53917KNEW NEW20190916062510209/16/19 06:25:31  5-MIN KNEW 161225Z 06012KT 9SM CLR 28/24 A2999 -50 79 1500 060/12 RMK AO2 T02830244
53917KNEW NEW20190916063010209/16/19 06:30:31  5-MIN KNEW 161230Z 05013KT 9SM CLR 28/24 A2999 -50 76 1500 050/13 RMK AO2 T02830239
53917KNEW NEW20190916063510209/16/19 06:35:31  5-MIN KNEW 161235Z 05013KT 9SM CLR 28/24 A3000 -60 76 1500 050/13 RMK AO2 T02830239
53917KNEW NEW20190916064010309/16/19 06:40:31  5-MIN KNEW 161240Z 06013KT 10SM CLR 28/24 A3000 -60 76 1500 060/13 RMK AO2 T02830239
53917KNEW NEW20190916064510309/16/19 06:45:31  5-MIN KNEW 161245Z 05012KT 10SM CLR 28/24 A3000 -60 76 1500 050/12 RMK AO2 T02830239
53917KNEW NEW20190916065010909/16/19 06:50:31  5-MIN KNEW 161250Z 04013KT 9SM CLR 28/24 A3000 -60 76 1500 040/13 RMK AO2 SLP153 T02830239
53917KNEW NEW20190916065510209/16/19 06:55:31  5-MIN KNEW 161255Z 05012KT 9SM CLR 28/24 A3000 -60 76 1500 050/12 RMK AO2 T02830239
53917KNEW NEW20190916070010209/16/19 07:00:31  5-MIN KNEW 161300Z 05012KT 9SM CLR 28/24 A3000 -60 76 1500 050/12 RMK AO2 T02830239
53917KNEW NEW20190916070510209/16/19 07:05:31  5-MIN KNEW 161305Z 06013KT 9SM CLR 28/24 A3001 -60 76 1500 060/13 RMK AO2 T02830239
53917KNEW NEW20190916071010309/16/19 07:10:31  5-MIN KNEW 161310Z 05013KT 10SM CLR 28/24 A3001 -70 76 1500 050/13 RMK AO2 T02830239
53917KNEW NEW20190916071510209/16/19 07:15:31  5-MIN KNEW 161315Z 05012KT 9SM CLR 28/24 A3001 -70 76 1500 050/12 RMK AO2 T02830239
53917KNEW NEW20190916072011409/16/19 07:20:31  5-MIN KNEW 161320Z 06014KT 10SM CLR 29/24 A3001 -70 74 1500 060/14 RMK AO2 LTG DSNT S T02890239
53917KNEW NEW20190916072511709/16/19 07:25:31  5-MIN KNEW 161325Z 06013KT 10SM FEW110 29/23 A3001 -70 71 1500 060/13 RMK AO2 LTG DSNT S T02890233
53917KNEW NEW20190916073012409/16/19 07:30:31  5-MIN KNEW 161330Z 07013KT 10SM FEW055 SCT110 29/23 A3002 -70 71 1500 070/13 RMK AO2 LTG DSNT S T02890233
53917KNEW NEW20190916073512409/16/19 07:35:31  5-MIN KNEW 161335Z 07013KT 10SM FEW055 BKN110 28/23 A3002 -80 71 1500 070/13 RMK AO2 LTG DSNT S T02830228
53917KNEW NEW20190916074012409/16/19 07:40:31  5-MIN KNEW 161340Z 07012KT 10SM FEW055 BKN110 29/23 A3002 -80 69 1500 070/12 RMK AO2 LTG DSNT S T02890228
53917KNEW NEW20190916074512409/16/19 07:45:31  5-MIN KNEW 161345Z 08013KT 10SM FEW055 BKN110 28/23 A3002 -80 71 1500 080/13 RMK AO2 LTG DSNT S T02830228
53917KNEW NEW20190916075013109/16/19 07:50:31  5-MIN KNEW 161350Z 08012KT 10SM FEW055 BKN120 28/23 A3003 -80 71 1500 080/12 RMK AO2 LTG DSNT S SLP161 T02830228
53917KNEW NEW20190916075512409/16/19 07:55:31  5-MIN KNEW 161355Z 08012KT 10SM FEW055 BKN120 29/23 A3002 -80 71 1500 080/12 RMK AO2 LTG DSNT S T02890233
53917KNEW NEW20190916080012409/16/19 08:00:31  5-MIN KNEW 161400Z 08013KT 10SM FEW055 SCT110 29/23 A3002 -80 67 1600 080/13 RMK AO2 LTG DSNT S T02940228
53917KNEW NEW20190916080512409/16/19 08:05:31  5-MIN KNEW 161405Z 07013KT 10SM FEW055 SCT120 29/23 A3002 -80 69 1500 070/13 RMK AO2 LTG DSNT S T02890228
53917KNEW NEW20190916081012409/16/19 08:10:31  5-MIN KNEW 161410Z 08013KT 10SM FEW065 FEW120 29/22 A3002 -80 67 1500 080/13 RMK AO2 LTG DSNT S T02890222
53917KNEW NEW20190916081511709/16/19 08:15:31  5-MIN KNEW 161415Z 08012KT 10SM FEW065 29/23 A3002 -80 69 1500 080/12 RMK AO2 LTG DSNT S T02890228
53917KNEW NEW20190916082012109/16/19 08:20:31  5-MIN KNEW 161420Z 08012KT 10SM CLR 29/23 A3003 -80 69 1500 080/12 RMK AO2 LTG DSNT S AND SW T02890228
53917KNEW NEW20190916082513109/16/19 08:25:31  5-MIN KNEW 161425Z 08012KT 10SM FEW070 FEW120 29/23 A3003 -90 69 1500 080/12 RMK AO2 LTG DSNT S AND SW T02890228
53917KNEW NEW20190916083012509/16/19 08:30:31  5-MIN KNEW 161430Z 09011KT 10SM SCT060 SCT120 29/23 A3003 -90 69 1500 090/11 RMK AO2 LTG DSNT SW T02890228
53917KNEW NEW20190916232510809/16/19 23:25:31  5-MIN KNEW 170525Z AUTO 11003KT 10SM CLR 27/24 A2999 -50 87 1300 110/03 RMK AO2 T02670244
53917KNEW NEW20190916233010809/16/19 23:30:31  5-MIN KNEW 170530Z AUTO 10003KT 10SM CLR 27/24 A2999 -50 84 1400 100/03 RMK AO2 T02720244
53917KNEW NEW20190916233510809/16/19 23:35:31  5-MIN KNEW 170535Z AUTO 11004KT 10SM CLR 27/24 A2999 -50 84 1400 110/04 RMK AO2 T02720244
53917KNEW NEW20190916234010809/16/19 23:40:31  5-MIN KNEW 170540Z AUTO 11004KT 10SM CLR 27/24 A2998 -40 84 1400 110/04 RMK AO2 T02720244
53917KNEW NEW20190916234510809/16/19 23:45:31  5-MIN KNEW 170545Z AUTO 11004KT 10SM CLR 27/24 A2998 -40 84 1400 110/04 RMK AO2 T02720244
53917KNEW NEW20190916235014309/16/19 23:50:31  5-MIN KNEW 170550Z AUTO 12004KT 10SM CLR 27/24 A2998 -40 84 1400 120/04 RMK AO2 SLP146 T02720244 10283 20261 403000261 53008
53917KNEW NEW20190916235510809/16/19 23:55:31  5-MIN KNEW 170555Z AUTO 11004KT 10SM CLR 27/24 A2998 -40 84 1400 110/04 RMK AO2 T02720244
53917KNEW NEW20190917000010809/17/19 00:00:31  5-MIN KNEW 170600Z AUTO 11004KT 10SM CLR 27/24 A2998 -40 84 1400 110/04 RMK AO2 T02720244
53917KNEW NEW20190917000510809/17/19 00:05:31  5-MIN KNEW 170605Z AUTO 12003KT 10SM CLR 27/24 A2998 -40 84 1400 120/03 RMK AO2 T02720244
53917KNEW NEW20190917001010809/17/19 00:10:31  5-MIN KNEW 170610Z AUTO 12004KT 10SM CLR 27/24 A2998 -40 84 1400 120/04 RMK AO2 T02720244
53917KNEW NEW20190917001510809/17/19 00:15:31  5-MIN KNEW 170615Z AUTO 11003KT 10SM CLR 27/25 A2998 -40 87 1400 110/03 RMK AO2 T02720250
53917KNEW NEW20190917002010809/17/19 00:20:31  5-MIN KNEW 170620Z AUTO 12004KT 10SM CLR 27/25 A2998 -40 87 1400 120/04 RMK AO2 T02720250
53917KNEW NEW20190917002510809/17/19 00:25:31  5-MIN KNEW 170625Z AUTO 13004KT 10SM CLR 27/24 A2998 -40 84 1400 130/04 RMK AO2 T02720244
53917KNEW NEW20190917003010809/17/19 00:30:31  5-MIN KNEW 170630Z AUTO 13004KT 10SM CLR 27/24 A2998 -40 84 1400 130/04 RMK AO2 T02720244
53917KNEW NEW20190917003510809/17/19 00:35:31  5-MIN KNEW 170635Z AUTO 13004KT 10SM CLR 27/25 A2998 -40 90 1300 130/04 RMK AO2 T02670250
53917KNEW NEW20190917004010809/17/19 00:40:31  5-MIN KNEW 170640Z AUTO 14004KT 10SM CLR 27/24 A2998 -40 87 1300 140/04 RMK AO2 T02670244
53917KNEW NEW20190917004510809/17/19 00:45:31  5-MIN KNEW 170645Z AUTO 14004KT 10SM CLR 27/24 A2998 -40 87 1300 140/04 RMK AO2 T02670244
53917KNEW NEW20190917005011509/17/19 00:50:31  5-MIN KNEW 170650Z AUTO 13003KT 10SM CLR 27/24 A2997 -30 87 1300 130/03 RMK AO2 SLP143 T02670244
53917KNEW NEW20190917005510809/17/19 00:55:31  5-MIN KNEW 170655Z AUTO 13004KT 10SM CLR 27/24 A2997 -30 87 1300 130/04 RMK AO2 T02670244
53917KNEW NEW20190917010010809/17/19 01:00:31  5-MIN KNEW 170700Z AUTO 14004KT 10SM CLR 27/24 A2997 -40 87 1300 140/04 RMK AO2 T02670244
53917KNEW NEW20190917010510809/17/19 01:05:31  5-MIN KNEW 170705Z AUTO 15004KT 10SM CLR 27/24 A2997 -40 87 1300 150/04 RMK AO2 T02670244
53917KNEW NEW20190917011010809/17/19 01:10:31  5-MIN KNEW 170710Z AUTO 15004KT 10SM CLR 26/24 A2997 -40 90 1300 150/04 RMK AO2 T02610244
53917KNEW NEW20190917011510809/17/19 01:15:31  5-MIN KNEW 170715Z AUTO 17003KT 10SM CLR 26/24 A2997 -40 90 1300 170/03 RMK AO2 T02610244
53917KNEW NEW20190917012010809/17/19 01:20:31  5-MIN KNEW 170720Z AUTO 16003KT 10SM CLR 26/24 A2997 -40 90 1300 160/03 RMK AO2 T02610244
53917KNEW NEW20190917012510809/17/19 01:25:31  5-MIN KNEW 170725Z AUTO 00000KT 10SM CLR 26/24 A2997 -30 90 1300 000/00 RMK AO2 T02610244
53917KNEW NEW20190917013010809/17/19 01:30:31  5-MIN KNEW 170730Z AUTO 00000KT 10SM CLR 26/24 A2997 -30 90 1300 000/00 RMK AO2 T02610244
53917KNEW NEW20190917013510809/17/19 01:35:31  5-MIN KNEW 170735Z AUTO 00000KT 10SM CLR 26/24 A2997 -30 90 1300 000/00 RMK AO2 T02610244
53917KNEW NEW20190917014010809/17/19 01:40:31  5-MIN KNEW 170740Z AUTO 16003KT 10SM CLR 27/24 A2997 -30 87 1300 160/03 RMK AO2 T02670244
53917KNEW NEW20190917014510809/17/19 01:45:31  5-MIN KNEW 170745Z AUTO 16003KT 10SM CLR 27/24 A2997 -30 87 1300 160/03 RMK AO2 T02670244
53917KNEW NEW20190917015011509/17/19 01:50:31  5-MIN KNEW 170750Z AUTO 00000KT 10SM CLR 26/24 A2997 -30 90 1300 000/00 RMK AO2 SLP141 T02610244
53917KNEW NEW20190917015510809/17/19 01:55:31  5-MIN KNEW 170755Z AUTO 00000KT 10SM CLR 26/24 A2997 -30 90 1300 000/00 RMK AO2 T02610244
53917KNEW NEW20190917020010809/17/19 02:00:31  5-MIN KNEW 170800Z AUTO 12003KT 10SM CLR 26/24 A2997 -30 90 1300 120/03 RMK AO2 T02610244
53917KNEW NEW20190917020510809/17/19 02:05:31  5-MIN KNEW 170805Z AUTO 11004KT 10SM CLR 27/24 A2997 -30 87 1300 110/04 RMK AO2 T02670244
53917KNEW NEW20190917021010809/17/19 02:10:31  5-MIN KNEW 170810Z AUTO 11005KT 10SM CLR 27/24 A2997 -30 87 1300 110/05 RMK AO2 T02670244
53917KNEW NEW20190917021510809/17/19 02:15:31  5-MIN KNEW 170815Z AUTO 11005KT 10SM CLR 27/25 A2996 -30 90 1300 110/05 RMK AO2 T02670250
53917KNEW NEW20190917022010809/17/19 02:20:31  5-MIN KNEW 170820Z AUTO 10006KT 10SM CLR 27/25 A2996 -30 90 1400 100/06 RMK AO2 T02670250
53917KNEW NEW20190917022510809/17/19 02:25:31  5-MIN KNEW 170825Z AUTO 10006KT 10SM CLR 27/25 A2996 -30 90 1400 100/06 RMK AO2 T02670250
53917KNEW NEW20190917023010809/17/19 02:30:31  5-MIN KNEW 170830Z AUTO 10005KT 10SM CLR 27/25 A2996 -20 87 1400 100/05 RMK AO2 T02720250
53917KNEW NEW20190917023510809/17/19 02:35:31  5-MIN KNEW 170835Z AUTO 10006KT 10SM CLR 27/25 A2996 -30 87 1400 100/06 RMK AO2 T02720250
53917KNEW NEW20190917024010809/17/19 02:40:31  5-MIN KNEW 170840Z AUTO 10006KT 10SM CLR 27/25 A2996 -30 87 1400 100/06 RMK AO2 T02720250
53917KNEW NEW20190917024510809/17/19 02:45:31  5-MIN KNEW 170845Z AUTO 10006KT 10SM CLR 27/26 A2996 -30 90 1400 100/06 RMK AO2 T02720256
53917KNEW NEW20190917025012109/17/19 02:50:31  5-MIN KNEW 170850Z AUTO 10005KT 10SM CLR 27/25 A2996 -30 87 1400 100/05 RMK AO2 SLP140 T02720250 58007
53917KNEW NEW20190917025510809/17/19 02:55:31  5-MIN KNEW 170855Z AUTO 11006KT 10SM CLR 27/26 A2996 -30 90 1400 110/06 RMK AO2 T02720256
53917KNEW NEW20190917030010809/17/19 03:00:31  5-MIN KNEW 170900Z AUTO 11005KT 10SM CLR 27/25 A2996 -30 87 1400 110/05 RMK AO2 T02720250
53917KNEW NEW20190917030510809/17/19 03:05:31  5-MIN KNEW 170905Z AUTO 11006KT 10SM CLR 27/25 A2996 -30 90 1400 110/06 RMK AO2 T02670250
53917KNEW NEW20190917031010809/17/19 03:10:31  5-MIN KNEW 170910Z AUTO 12005KT 10SM CLR 27/25 A2996 -30 90 1400 120/05 RMK AO2 T02670250
53917KNEW NEW20190917031510809/17/19 03:15:31  5-MIN KNEW 170915Z AUTO 12005KT 10SM CLR 27/25 A2997 -30 90 1300 120/05 RMK AO2 T02670250
53917KNEW NEW20190917032010809/17/19 03:20:31  5-MIN KNEW 170920Z AUTO 12004KT 10SM CLR 27/25 A2996 -30 90 1300 120/04 RMK AO2 T02670250
53917KNEW NEW20190917032510809/17/19 03:25:31  5-MIN KNEW 170925Z AUTO 11004KT 10SM CLR 27/25 A2996 -30 90 1300 110/04 RMK AO2 T02670250
53917KNEW NEW20190917033010809/17/19 03:30:31  5-MIN KNEW 170930Z AUTO 11004KT 10SM CLR 27/25 A2996 -30 90 1300 110/04 RMK AO2 T02670250
53917KNEW NEW20190917033510809/17/19 03:35:31  5-MIN KNEW 170935Z AUTO 12004KT 10SM CLR 27/25 A2996 -30 90 1300 120/04 RMK AO2 T02670250
53917KNEW NEW20190917034010809/17/19 03:40:31  5-MIN KNEW 170940Z AUTO 12004KT 10SM CLR 27/25 A2997 -30 90 1300 120/04 RMK AO2 T02670250
53917KNEW NEW20190917034510809/17/19 03:45:31  5-MIN KNEW 170945Z AUTO 13004KT 10SM CLR 27/25 A2997 -30 90 1300 130/04 RMK AO2 T02670250
53917KNEW NEW20190917035011509/17/19 03:50:31  5-MIN KNEW 170950Z AUTO 13004KT 10SM CLR 27/25 A2997 -30 90 1300 130/04 RMK AO2 SLP141 T02670250
53917KNEW NEW20190917035510809/17/19 03:55:31  5-MIN KNEW 170955Z AUTO 13004KT 10SM CLR 27/25 A2997 -30 90 1300 130/04 RMK AO2 T02670250
53917KNEW NEW20190917040010709/17/19 04:00:31  5-MIN KNEW 171000Z AUTO 12003KT 9SM CLR 27/25 A2997 -30 90 1300 120/03 RMK AO2 T02670250
53917KNEW NEW20190917040510809/17/19 04:05:31  5-MIN KNEW 171005Z AUTO 12004KT 10SM CLR 27/25 A2997 -30 90 1300 120/04 RMK AO2 T02670250
53917KNEW NEW20190917041010809/17/19 04:10:31  5-MIN KNEW 171010Z AUTO 12003KT 10SM CLR 27/25 A2997 -40 90 1300 120/03 RMK AO2 T02670250
53917KNEW NEW20190917041510809/17/19 04:15:31  5-MIN KNEW 171015Z AUTO 14003KT 10SM CLR 27/25 A2998 -40 90 1300 140/03 RMK AO2 T02670250
53917KNEW NEW20190917042010809/17/19 04:20:31  5-MIN KNEW 171020Z AUTO 14003KT 10SM CLR 26/25 A2998 -40 93 1300 140/03 RMK AO2 T02610250
53917KNEW NEW20190917042510709/17/19 04:25:31  5-MIN KNEW 171025Z AUTO 13003KT 9SM CLR 26/25 A2998 -40 93 1300 130/03 RMK AO2 T02610250
53917KNEW NEW20190917043010709/17/19 04:30:31  5-MIN KNEW 171030Z AUTO 12003KT 9SM CLR 27/25 A2998 -40 90 1300 120/03 RMK AO2 T02670250
53917KNEW NEW20190917043510709/17/19 04:35:31  5-MIN KNEW 171035Z AUTO 11004KT 9SM CLR 27/25 A2998 -40 90 1300 110/04 RMK AO2 T02670250
53917KNEW NEW20190917044010709/17/19 04:40:31  5-MIN KNEW 171040Z AUTO 11004KT 9SM CLR 27/25 A2998 -40 90 1300 110/04 RMK AO2 T02670250
53917KNEW NEW20190917044510709/17/19 04:45:31  5-MIN KNEW 171045Z AUTO 11004KT 9SM CLR 27/25 A2998 -40 90 1300 110/04 RMK AO2 T02670250
53917KNEW NEW20190917045011409/17/19 04:50:31  5-MIN KNEW 171050Z AUTO 12004KT 9SM CLR 27/25 A2998 -40 90 1300 120/04 RMK AO2 SLP145 T02670250
53917KNEW NEW20190917045510709/17/19 04:55:31  5-MIN KNEW 171055Z AUTO 11003KT 9SM CLR 27/25 A2998 -40 90 1300 110/03 RMK AO2 T02670250
53917KNEW NEW20190917050010709/17/19 05:00:31  5-MIN KNEW 171100Z AUTO 11004KT 9SM CLR 27/25 A2998 -40 90 1300 110/04 RMK AO2 T02670250
53917KNEW NEW20190917050510809/17/19 05:05:31  5-MIN KNEW 171105Z AUTO 11004KT 10SM CLR 27/25 A2998 -50 90 1300 110/04 RMK AO2 T02670250
53917KNEW NEW20190917051010809/17/19 05:10:31  5-MIN KNEW 171110Z AUTO 11003KT 10SM CLR 27/25 A2999 -50 90 1300 110/03 RMK AO2 T02670250
53917KNEW NEW20190917051510809/17/19 05:15:31  5-MIN KNEW 171115Z AUTO 11004KT 10SM CLR 27/25 A2999 -50 90 1300 110/04 RMK AO2 T02670250
53917KNEW NEW20190917052010809/17/19 05:20:31  5-MIN KNEW 171120Z AUTO 10004KT 10SM CLR 27/25 A2999 -50 90 1300 100/04 RMK AO2 T02670250
53917KNEW NEW20190917052510809/17/19 05:25:31  5-MIN KNEW 171125Z AUTO 10005KT 10SM CLR 27/26 A2999 -50 93 1300 100/05 RMK AO2 T02670256
53917KNEW NEW20190917053010809/17/19 05:30:31  5-MIN KNEW 171130Z AUTO 10005KT 10SM CLR 27/26 A2999 -50 93 1300 100/05 RMK AO2 T02670256
53917KNEW NEW20190917053510809/17/19 05:35:31  5-MIN KNEW 171135Z AUTO 11005KT 10SM CLR 27/26 A3000 -60 93 1300 110/05 RMK AO2 T02670256
53917KNEW NEW20190917054010809/17/19 05:40:31  5-MIN KNEW 171140Z AUTO 10005KT 10SM CLR 27/25 A3000 -60 87 1400 100/05 RMK AO2 T02720250
53917KNEW NEW20190917054510309/17/19 05:45:31  5-MIN KNEW 171145Z 09005KT 10SM CLR 27/25 A3000 -60 87 1400 090/05 RMK AO2 T02720250
53917KNEW NEW20190917055013309/17/19 05:50:31  5-MIN KNEW 171150Z 10004KT 9SM CLR 27/26 A3000 -60 90 1400 100/04 RMK AO2 SLP153 70001 T02720256 10272 20261 56005
53917KNEW NEW20190917055510209/17/19 05:55:31  5-MIN KNEW 171155Z 10005KT 9SM CLR 27/26 A3001 -60 90 1400 100/05 RMK AO2 T02720256
53917KNEW NEW20190917060010209/17/19 06:00:31  5-MIN KNEW 171200Z 10004KT 9SM CLR 27/26 A3001 -70 90 1400 100/04 RMK AO2 T02720256
53917KNEW NEW20190917060510209/17/19 06:05:31  5-MIN KNEW 171205Z 10004KT 9SM CLR 27/26 A3001 -70 90 1400 100/04 RMK AO2 T02720256
53917KNEW NEW20190917061010209/17/19 06:10:31  5-MIN KNEW 171210Z 10005KT 9SM CLR 27/26 A3001 -70 90 1400 100/05 RMK AO2 T02720256
53917KNEW NEW20190917061510209/17/19 06:15:31  5-MIN KNEW 171215Z 10005KT 9SM CLR 27/26 A3001 -70 90 1400 100/05 RMK AO2 T02720256
53917KNEW NEW20190917062010209/17/19 06:20:31  5-MIN KNEW 171220Z 10006KT 9SM CLR 27/26 A3001 -70 90 1400 100/06 RMK AO2 T02720256
53917KNEW NEW20190917062510209/17/19 06:25:31  5-MIN KNEW 171225Z 09006KT 9SM CLR 27/26 A3001 -70 90 1400 090/06 RMK AO2 T02720256
53917KNEW NEW20190917063010209/17/19 06:30:31  5-MIN KNEW 171230Z 09006KT 9SM CLR 27/26 A3001 -70 90 1400 090/06 RMK AO2 T02720256
53917KNEW NEW20190917063510209/17/19 06:35:31  5-MIN KNEW 171235Z 09006KT 9SM CLR 27/26 A3002 -70 90 1400 090/06 RMK AO2 T02720256
53917KNEW NEW20190917064010209/17/19 06:40:31  5-MIN KNEW 171240Z 09005KT 9SM CLR 27/26 A3002 -70 90 1400 090/05 RMK AO2 T02720256
53917KNEW NEW20190917064510209/17/19 06:45:31  5-MIN KNEW 171245Z 09006KT 9SM CLR 27/26 A3001 -70 90 1400 090/06 RMK AO2 T02720256
53917KNEW NEW20190917065010909/17/19 06:50:31  5-MIN KNEW 171250Z 08007KT 9SM CLR 27/26 A3002 -70 90 1400 080/07 RMK AO2 SLP157 T02720256
53917KNEW NEW20190917065510209/17/19 06:55:31  5-MIN KNEW 171255Z 08007KT 8SM CLR 27/26 A3002 -80 90 1400 080/07 RMK AO2 T02720256
53917KNEW NEW20190917070010209/17/19 07:00:31  5-MIN KNEW 171300Z 09006KT 8SM CLR 27/26 A3002 -80 90 1400 090/06 RMK AO2 T02720256
53917KNEW NEW20190917070510209/17/19 07:05:31  5-MIN KNEW 171305Z 09007KT 9SM CLR 27/26 A3002 -80 90 1400 090/07 RMK AO2 T02720256
53917KNEW NEW20190917071010209/17/19 07:10:31  5-MIN KNEW 171310Z 08006KT 9SM CLR 27/26 A3002 -80 90 1400 080/06 RMK AO2 T02720256
53917KNEW NEW20190917071510209/17/19 07:15:31  5-MIN KNEW 171315Z 08006KT 9SM CLR 27/26 A3002 -80 90 1300 080/06 RMK AO2 T02720256
53917KNEW NEW20190917072010209/17/19 07:20:31  5-MIN KNEW 171320Z 08007KT 9SM CLR 28/26 A3002 -80 90 1400 080/07 RMK AO2 T02780261
53917KNEW NEW20190917072510209/17/19 07:25:31  5-MIN KNEW 171325Z 08008KT 9SM CLR 28/26 A3002 -80 87 1400 080/08 RMK AO2 T02780256
53917KNEW NEW20190917073010209/17/19 07:30:31  5-MIN KNEW 171330Z 08008KT 9SM CLR 28/26 A3002 -80 87 1400 080/08 RMK AO2 T02780256
53917KNEW NEW20190917073510209/17/19 07:35:31  5-MIN KNEW 171335Z 08007KT 9SM CLR 28/26 A3002 -80 90 1400 080/07 RMK AO2 T02780261
53917KNEW NEW20190917074010209/17/19 07:40:31  5-MIN KNEW 171340Z 07008KT 9SM CLR 28/26 A3002 -80 90 1400 070/08 RMK AO2 T02780261
53917KNEW NEW20190917074510509/17/19 07:45:31  5-MIN KNEW 171345Z 08008KT 9SM FEW005 28/26 A3002 -80 90 1400 080/08 RMK AO2 T02780261
53917KNEW NEW20190917075011209/17/19 07:50:31  5-MIN KNEW 171350Z 08009KT 9SM FEW005 28/26 A3002 -80 90 1400 080/09 RMK AO2 SLP160 T02780261
53917KNEW NEW20190917075510209/17/19 07:55:31  5-MIN KNEW 171355Z 08008KT 9SM CLR 28/26 A3003 -80 85 1500 080/08 RMK AO2 T02830256
53917KNEW NEW20190917080010209/17/19 08:00:31  5-MIN KNEW 171400Z 08008KT 9SM CLR 28/26 A3003 -90 87 1500 080/08 RMK AO2 T02830261
53917KNEW NEW20190917080510209/17/19 08:05:31  5-MIN KNEW 171405Z 08008KT 9SM CLR 28/26 A3003 -90 85 1500 080/08 RMK AO2 T02830256
53917KNEW NEW20190917081010209/17/19 08:10:31  5-MIN KNEW 171410Z 07007KT 9SM CLR 28/26 A3003 -90 85 1500 070/07 RMK AO2 T02830256
53917KNEW NEW20190917081510209/17/19 08:15:31  5-MIN KNEW 171415Z 08007KT 9SM CLR 28/26 A3003 -90 85 1500 080/07 RMK AO2 T02830256
53917KNEW NEW20190917082010509/17/19 08:20:31  5-MIN KNEW 171420Z 07007KT 9SM FEW015 28/26 A3003 -90 87 1500 070/07 RMK AO2 T02830261
53917KNEW NEW20190917082510309/17/19 08:25:31  5-MIN KNEW 171425Z 08007KT 10SM CLR 29/26 A3003 -90 82 1500 080/07 RMK AO2 T02890256
53917KNEW NEW20190917083010609/17/19 08:30:31  5-MIN KNEW 171430Z 08007KT 10SM FEW017 28/26 A3003 -90 85 1500 080/07 RMK AO2 T02830256
53917KNEW NEW20190917083510609/17/19 08:35:31  5-MIN KNEW 171435Z 08006KT 10SM SCT017 29/26 A3003 -90 82 1500 080/06 RMK AO2 T02890256
53917KNEW NEW20190917084010609/17/19 08:40:31  5-MIN KNEW 171440Z 09006KT 10SM SCT017 29/25 A3004 -90 76 1600 090/06 RMK AO2 T02940250
53917KNEW NEW20190917084511309/17/19 08:45:31  5-MIN KNEW 171445Z 10007KT 10SM FEW017 SCT022 29/25 A3004 -90 76 1600 100/07 RMK AO2 T02940250
53917KNEW NEW20190917085011909/17/19 08:50:31  5-MIN KNEW 171450Z 11008KT 10SM SCT021 29/24 A3004 -90 71 1600 110/08 RMK AO2 SLP165 T02940239 53013
53917KNEW NEW20190917085510709/17/19 08:55:31  5-MIN KNEW 171455Z 12008KT 10SM BKN021 30/24 A3004 -100 69 1600 120/08 RMK AO2 T03000239
53917KNEW NEW20190917090010609/17/19 09:00:31  5-MIN KNEW 171500Z 12006KT 10SM SCT021 30/24 A3004 -90 69 1600 120/06 RMK AO2 T03000239
53917KNEW NEW20190917090510609/17/19 09:05:31  5-MIN KNEW 171505Z 13008KT 10SM FEW021 30/24 A3004 -90 69 1600 130/08 RMK AO2 T03000239
53917KNEW NEW20190917091010609/17/19 09:10:31  5-MIN KNEW 171510Z 12008KT 10SM FEW021 31/23 A3004 -90 65 1700 120/08 RMK AO2 T03060233
53917KNEW NEW20190917091510709/17/19 09:15:31  5-MIN KNEW 171515Z 10007KT 10SM FEW021 30/23 A3004 -100 67 1600 100/07 RMK AO2 T03000233
53917KNEW NEW20190917092010709/17/19 09:20:31  5-MIN KNEW 171520Z 12008KT 10SM FEW021 31/23 A3004 -100 65 1700 120/08 RMK AO2 T03060233
53917KNEW NEW20190917092510409/17/19 09:25:31  5-MIN KNEW 171525Z 12008KT 10SM CLR 31/23 A3004 -100 63 1800 120/08 RMK AO2 T03110233
53917KNEW NEW20190917093010409/17/19 09:30:31  5-MIN KNEW 171530Z 13009KT 10SM CLR 31/23 A3004 -100 62 1700 130/09 RMK AO2 T03060228
53917KNEW NEW20190917093510409/17/19 09:35:31  5-MIN KNEW 171535Z 12008KT 10SM CLR 31/23 A3004 -100 62 1700 120/08 RMK AO2 T03060228
53917KNEW NEW20190917094010409/17/19 09:40:31  5-MIN KNEW 171540Z 12008KT 10SM CLR 31/23 A3004 -100 65 1700 120/08 RMK AO2 T03060233
53917KNEW NEW20190917094510409/17/19 09:45:31  5-MIN KNEW 171545Z 11007KT 10SM CLR 31/23 A3004 -100 65 1700 110/07 RMK AO2 T03060233
53917KNEW NEW20190917095011109/17/19 09:50:31  5-MIN KNEW 171550Z 12007KT 10SM CLR 31/23 A3004 -100 63 1800 120/07 RMK AO2 SLP166 T03110233
53917KNEW NEW20190917095510409/17/19 09:55:31  5-MIN KNEW 171555Z 10007KT 10SM CLR 31/23 A3004 -100 63 1800 100/07 RMK AO2 T03110233
53917KNEW NEW20190917100010409/17/19 10:00:31  5-MIN KNEW 171600Z 12005KT 10SM CLR 31/23 A3004 -100 63 1800 120/05 RMK AO2 T03110233
53917KNEW NEW20190917100510709/17/19 10:05:31  5-MIN KNEW 171605Z 10008KT 10SM FEW028 31/23 A3005 -100 65 1700 100/08 RMK AO2 T03060233
53917KNEW NEW20190917101010709/17/19 10:10:31  5-MIN KNEW 171610Z 10008KT 10SM FEW028 31/23 A3004 -100 63 1800 100/08 RMK AO2 T03110233
53917KNEW NEW20190917101510709/17/19 10:15:31  5-MIN KNEW 171615Z 10007KT 10SM FEW027 31/23 A3004 -100 63 1800 100/07 RMK AO2 T03110233
53917KNEW NEW20190917102010709/17/19 10:20:31  5-MIN KNEW 171620Z 10007KT 10SM FEW027 31/23 A3004 -100 60 1800 100/07 RMK AO2 T03110228
53917KNEW NEW20190917102510709/17/19 10:25:31  5-MIN KNEW 171625Z VRB06KT 10SM FEW029 32/23 A3004 -100 61 1800 VRB/06 RMK AO2 T03170233
53917KNEW NEW20190917103010609/17/19 10:30:31  5-MIN KNEW 171630Z 10006KT 10SM FEW029 32/23 A3004 -90 61 1800 100/06 RMK AO2 T03170233
53917KNEW NEW20190917103510609/17/19 10:35:31  5-MIN KNEW 171635Z 13009KT 10SM FEW029 32/23 A3004 -90 61 1800 130/09 RMK AO2 T03170233
53917KNEW NEW20190917104010609/17/19 10:40:31  5-MIN KNEW 171640Z 10009KT 10SM FEW029 32/23 A3004 -90 59 1900 100/09 RMK AO2 T03220233
53917KNEW NEW20190917104510609/17/19 10:45:31  5-MIN KNEW 171645Z 09007KT 10SM FEW031 31/23 A3004 -90 63 1800 090/07 RMK AO2 T03110233
53917KNEW NEW20190917105011309/17/19 10:50:31  5-MIN KNEW 171650Z 12009KT 10SM FEW031 32/23 A3003 -90 61 1800 120/09 RMK AO2 SLP164 T03170233
53917KNEW NEW20190917105510609/17/19 10:55:31  5-MIN KNEW 171655Z 10010KT 10SM FEW031 32/23 A3003 -90 61 1800 100/10 RMK AO2 T03170233
53917KNEW NEW20190917110010609/17/19 11:00:31  5-MIN KNEW 171700Z 10010KT 10SM FEW029 32/23 A3003 -90 61 1800 100/10 RMK AO2 T03170233
53917KNEW NEW20190917110511309/17/19 11:05:31  5-MIN KNEW 171705Z 10010KT 10SM SCT029 SCT036 31/23 A3003 -90 63 1800 100/10 RMK AO2 T03110233
53917KNEW NEW20190917111010609/17/19 11:10:31  5-MIN KNEW 171710Z 10010KT 10SM SCT029 32/24 A3003 -90 63 1800 100/10 RMK AO2 T03170239
53917KNEW NEW20190917111511309/17/19 11:15:31  5-MIN KNEW 171715Z 10010KT 10SM SCT030 SCT037 32/24 A3003 -80 63 1800 100/10 RMK AO2 T03170239
53917KNEW NEW20190917112011309/17/19 11:20:31  5-MIN KNEW 171720Z 10010KT 10SM SCT028 BKN035 32/23 A3002 -80 61 1800 100/10 RMK AO2 T03170233
53917KNEW NEW20190917123010309/17/19 12:30:31  5-MIN KNEW 171830Z 10006KT 10SM CLR 33/23 A3001 -70 57 2000 100/06 RMK AO2 T03280233
53917KNEW NEW20190917123510609/17/19 12:35:31  5-MIN KNEW 171835Z 11006KT 10SM FEW036 33/23 A3001 -70 55 2000 110/06 RMK AO2 T03280228
53917KNEW NEW20190917124010609/17/19 12:40:31  5-MIN KNEW 171840Z 12009KT 10SM FEW036 33/22 A3001 -70 53 2000 120/09 RMK AO2 T03280222
53917KNEW NEW20190917124511809/17/19 12:45:31  5-MIN KNEW 171845Z 14008KT 10SM FEW036 33/22 A3001 -70 53 2000 140/08 RMK AO2 LTG DSNT SW T03280222
53917KNEW NEW20190917125012509/17/19 12:50:31  5-MIN KNEW 171850Z 12010KT 10SM FEW036 33/23 A3001 -70 55 2000 120/10 RMK AO2 LTG DSNT SW SLP155 T03280228
53917KNEW NEW20190917125511809/17/19 12:55:31  5-MIN KNEW 171855Z 12008KT 10SM FEW036 33/23 A3000 -60 55 2000 120/08 RMK AO2 LTG DSNT SW T03280228
53917KNEW NEW20190917130012409/17/19 13:00:31  5-MIN KNEW 171900Z 11009KT 10SM FEW036 33/23 A3001 -70 55 2000 110/09 RMK AO2 LTG DSNT SW AND W T03280228
53917KNEW NEW20190917130512409/17/19 13:05:31  5-MIN KNEW 171905Z 12009KT 10SM FEW036 33/23 A3000 -60 55 2000 120/09 RMK AO2 LTG DSNT SW AND W T03280228
53917KNEW NEW20190917131012409/17/19 13:10:31  5-MIN KNEW 171910Z 12009KT 10SM FEW035 33/23 A3000 -60 55 2000 120/09 RMK AO2 LTG DSNT SW AND W T03280228
53917KNEW NEW20190917131511809/17/19 13:15:31  5-MIN KNEW 171915Z 11010KT 10SM FEW035 33/23 A3000 -60 53 2100 110/10 RMK AO2 LTG DSNT SW T03330228
53917KNEW NEW20190917132010609/17/19 13:20:31  5-MIN KNEW 171920Z 10010KT 10SM FEW035 33/23 A3000 -60 55 2000 100/10 RMK AO2 T03280228
53917KNEW NEW20190917132510609/17/19 13:25:31  5-MIN KNEW 171925Z 12010KT 10SM FEW035 33/23 A3000 -60 55 2000 120/10 RMK AO2 T03280228
53917KNEW NEW20190917133010309/17/19 13:30:31  5-MIN KNEW 171930Z 10009KT 10SM CLR 33/23 A2999 -50 57 2000 100/09 RMK AO2 T03280233
53917KNEW NEW20190917133510309/17/19 13:35:31  5-MIN KNEW 171935Z 14009KT 10SM CLR 33/23 A2999 -50 57 2000 140/09 RMK AO2 T03280233
53917KNEW NEW20190917134010609/17/19 13:40:31  5-MIN KNEW 171940Z 11009KT 10SM FEW037 33/23 A2999 -50 55 2000 110/09 RMK AO2 T03280228
53917KNEW NEW20190917134510609/17/19 13:45:31  5-MIN KNEW 171945Z 10007KT 10SM FEW037 33/23 A2998 -40 55 2000 100/07 RMK AO2 T03280228
53917KNEW NEW20190917135011309/17/19 13:50:31  5-MIN KNEW 171950Z 10008KT 10SM FEW037 33/23 A2998 -40 55 2000 100/08 RMK AO2 SLP146 T03280228
53917KNEW NEW20190917135510609/17/19 13:55:31  5-MIN KNEW 171955Z 12008KT 10SM FEW037 33/22 A2998 -40 51 2100 120/08 RMK AO2 T03330222
53917KNEW NEW20190917140010609/17/19 14:00:31  5-MIN KNEW 172000Z 10009KT 10SM FEW037 33/22 A2998 -40 50 2100 100/09 RMK AO2 T03330217
53917KNEW NEW20190917140510309/17/19 14:05:31  5-MIN KNEW 172005Z 10009KT 10SM CLR 33/22 A2997 -30 50 2100 100/09 RMK AO2 T03330217
53917KNEW NEW20190917141010909/17/19 14:10:31  5-MIN KNEW 172010Z 10008G15KT 10SM CLR 33/22 A2997 -40 50 2100 100/08G15 RMK AO2 T03330217
53917KNEW NEW20190917141510909/17/19 14:15:31  5-MIN KNEW 172015Z 12006G15KT 10SM CLR 33/22 A2997 -30 50 2100 120/06G15 RMK AO2 T03330217
53917KNEW NEW20190917142010309/17/19 14:20:31  5-MIN KNEW 172020Z 14009KT 10SM CLR 33/22 A2997 -30 50 2100 140/09 RMK AO2 T03330217
53917KNEW NEW20190917142511409/17/19 14:25:31  5-MIN KNEW 172025Z 11008KT 10SM CLR 33/22 A2997 -30 50 2100 110/08 RMK AO2 LTG DSNT W T03330217
53917KNEW NEW20190917143011409/17/19 14:30:31  5-MIN KNEW 172030Z 11008KT 10SM CLR 33/22 A2996 -30 51 2000 110/08 RMK AO2 LTG DSNT W T03280217
53917KNEW NEW20190917143511409/17/19 14:35:31  5-MIN KNEW 172035Z 10007KT 10SM CLR 33/22 A2997 -30 51 2000 100/07 RMK AO2 LTG DSNT W T03280217
53917KNEW NEW20190917144011409/17/19 14:40:31  5-MIN KNEW 172040Z 11008KT 10SM CLR 33/22 A2996 -30 53 2000 110/08 RMK AO2 LTG DSNT W T03280222
53917KNEW NEW20190917144511709/17/19 14:45:31  5-MIN KNEW 172045Z 11007KT 10SM FEW040 33/22 A2997 -30 53 2000 110/07 RMK AO2 LTG DSNT W T03280222
53917KNEW NEW20190917145013609/17/19 14:50:31  5-MIN KNEW 172050Z 15010G15KT 10SM SCT040 33/22 A2997 -30 50 2100 150/10G15 RMK AO2 LTG DSNT W SLP141 T03330217 58005
53917KNEW NEW20190917145512309/17/19 14:55:31  5-MIN KNEW 172055Z 16007G15KT 10SM FEW040 33/20 A2997 -30 45 2100 160/07G15 RMK AO2 LTG DSNT W T03330200
53917KNEW NEW20190917150011709/17/19 15:00:31  5-MIN KNEW 172100Z 15008KT 10SM FEW041 32/21 A2997 -30 49 2000 150/08 RMK AO2 LTG DSNT W T03220206
53917KNEW NEW20190917150512409/17/19 15:05:31  5-MIN KNEW 172105Z 15008KT 10SM FEW041 33/21 A2997 -30 48 2000 150/08 RMK AO2 LTG DSNT W AND NW T03280206
53917KNEW NEW20190917151012409/17/19 15:10:31  5-MIN KNEW 172110Z 12007KT 10SM FEW041 33/20 A2997 -30 46 2000 120/07 RMK AO2 LTG DSNT W AND NW T03280200
53917KNEW NEW20190917151512409/17/19 15:15:31  5-MIN KNEW 172115Z 13008KT 10SM FEW042 33/21 A2997 -30 49 2000 130/08 RMK AO2 LTG DSNT W AND NW T03280211
53917KNEW NEW20190917152011409/17/19 15:20:31  5-MIN KNEW 172120Z 13008KT 10SM CLR 33/22 A2997 -30 51 2000 130/08 RMK AO2 LTG DSNT W T03280217
53917KNEW NEW20190917152512109/17/19 15:25:31  5-MIN KNEW 172125Z 12008KT 10SM CLR 33/21 A2997 -30 49 2000 120/08 RMK AO2 LTG DSNT W AND NW T03280211
53917KNEW NEW20190917153012109/17/19 15:30:31  5-MIN KNEW 172130Z 11008KT 10SM CLR 32/21 A2997 -30 49 2000 110/08 RMK AO2 LTG DSNT W AND NW T03220206
53917KNEW NEW20190917153512109/17/19 15:35:31  5-MIN KNEW 172135Z 12006KT 10SM CLR 32/21 A2996 -30 51 2000 120/06 RMK AO2 LTG DSNT W AND NW T03220211
53917KNEW NEW20190917154012109/17/19 15:40:31  5-MIN KNEW 172140Z 15007KT 10SM CLR 32/22 A2996 -30 55 1900 150/07 RMK AO2 LTG DSNT W AND NW T03170217
53917KNEW NEW20190917154511509/17/19 15:45:31  5-MIN KNEW 172145Z 13009KT 10SM CLR 32/22 A2997 -30 55 2000 130/09 RMK AO2 LTG DSNT NW T03220222
53917KNEW NEW20190917155012209/17/19 15:50:31  5-MIN KNEW 172150Z 15006KT 10SM CLR 32/22 A2997 -30 56 1900 150/06 RMK AO2 LTG DSNT NW SLP141 T03170222
53917KNEW NEW20190917155511509/17/19 15:55:31  5-MIN KNEW 172155Z 16009KT 10SM CLR 32/23 A2997 -30 58 1900 160/09 RMK AO2 LTG DSNT NW T03170228
53917KNEW NEW20190917160010309/17/19 16:00:31  5-MIN KNEW 172200Z 17009KT 10SM CLR 31/23 A2997 -30 60 1800 170/09 RMK AO2 T03110228
53917KNEW NEW20190917160511509/17/19 16:05:31  5-MIN KNEW 172205Z 16009KT 10SM CLR 31/23 A2997 -30 60 1800 160/09 RMK AO2 LTG DSNT NW T03110228
53917KNEW NEW20190917161011509/17/19 16:10:31  5-MIN KNEW 172210Z 15008KT 10SM CLR 31/22 A2997 -30 58 1800 150/08 RMK AO2 LTG DSNT NW T03110222
53917KNEW NEW20190917161511509/17/19 16:15:31  5-MIN KNEW 172215Z 17009KT 10SM CLR 31/22 A2997 -30 58 1800 170/09 RMK AO2 LTG DSNT NW T03110222
53917KNEW NEW20190917162011509/17/19 16:20:31  5-MIN KNEW 172220Z 16008KT 10SM CLR 31/22 A2997 -30 58 1800 160/08 RMK AO2 LTG DSNT NW T03110222
53917KNEW NEW20190917162512109/17/19 16:25:31  5-MIN KNEW 172225Z 16009KT 10SM CLR 31/22 A2997 -30 58 1800 160/09 RMK AO2 LTG DSNT S AND NW T03110222
53917KNEW NEW20190917163011709/17/19 16:30:31  5-MIN KNEW 172230Z 16008KT 10SM CLR 31/23 A2997 -30 60 1800 160/08 RMK AO2 LTG DSNT S-NW T03110228
53917KNEW NEW20190917163512209/17/19 16:35:31  5-MIN KNEW 172235Z 17009KT 10SM VCTS CLR 31/22 A2997 -30 60 1800 170/09 RMK AO2 LTG DSNT S-NW T03060222
53917KNEW NEW20190917164012609/17/19 16:40:31  5-MIN KNEW 172240Z 17008KT 10SM VCTS CLR 31/23 A2997 -30 62 1800 170/08 RMK AO2 LTG DSNT S AND SW T03060228
53917KNEW NEW20190917164510809/17/19 16:45:31  5-MIN KNEW 172245Z 17009KT 10SM VCTS CLR 31/23 A2997 -30 65 1800 170/09 RMK AO2 T03060233
53917KNEW NEW20190917165009609/17/19 16:50:31  5-MIN KNEW 172250Z 17009KT 10SM FEW040 31/23 A2997 -30 65 1800 170/09 RMK AO2
53917KNEW NEW20190917165510309/17/19 16:55:31  5-MIN KNEW 172255Z 17010KT 10SM CLR 31/23 A2997 -30 65 1800 170/10 RMK AO2 T03060233
53917KNEW NEW20190917170010309/17/19 17:00:31  5-MIN KNEW 172300Z 17011KT 10SM CLR 31/23 A2997 -30 65 1800 170/11 RMK AO2 T03060233
53917KNEW NEW20190917170510309/17/19 17:05:31  5-MIN KNEW 172305Z 17011KT 10SM CLR 30/23 A2997 -30 67 1700 170/11 RMK AO2 T03000233
53917KNEW NEW20190917171010309/17/19 17:10:31  5-MIN KNEW 172310Z 16011KT 10SM CLR 30/23 A2997 -30 67 1700 160/11 RMK AO2 T03000233
53917KNEW NEW20190917171510309/17/19 17:15:31  5-MIN KNEW 172315Z 16009KT 10SM CLR 30/23 A2997 -30 67 1700 160/09 RMK AO2 T03000233
53917KNEW NEW20190917172010309/17/19 17:20:31  5-MIN KNEW 172320Z 16010KT 10SM CLR 30/24 A2997 -30 69 1700 160/10 RMK AO2 T03000239
53917KNEW NEW20190917172510309/17/19 17:25:31  5-MIN KNEW 172325Z 16010KT 10SM CLR 30/24 A2997 -30 69 1700 160/10 RMK AO2 T03000239
53917KNEW NEW20190917173010309/17/19 17:30:31  5-MIN KNEW 172330Z 17009KT 10SM CLR 30/24 A2997 -30 69 1700 170/09 RMK AO2 T03000239
53917KNEW NEW20190917173510309/17/19 17:35:31  5-MIN KNEW 172335Z 17009KT 10SM CLR 30/24 A2997 -40 69 1700 170/09 RMK AO2 T03000239
53917KNEW NEW20190917174010309/17/19 17:40:31  5-MIN KNEW 172340Z 16008KT 10SM CLR 29/24 A2997 -40 71 1600 160/08 RMK AO2 T02940239
53917KNEW NEW20190917174510309/17/19 17:45:31  5-MIN KNEW 172345Z 17010KT 10SM CLR 29/24 A2997 -40 71 1700 170/10 RMK AO2 T02940239
53917KNEW NEW20190917175012809/17/19 17:50:31  5-MIN KNEW 172350Z 17008KT 10SM CLR 29/24 A2997 -30 71 1700 170/08 RMK AO2 SLP143 T02940239 10333 20294 56018
53917KNEW NEW20190917175510309/17/19 17:55:31  5-MIN KNEW 172355Z 17011KT 10SM CLR 29/24 A2997 -30 71 1700 170/11 RMK AO2 T02940239
53917KNEW NEW20190917180010309/17/19 18:00:31  5-MIN KNEW 180000Z 16010KT 10SM CLR 29/24 A2998 -40 71 1600 160/10 RMK AO2 T02940239
53917KNEW NEW20190917180510309/17/19 18:05:31  5-MIN KNEW 180005Z 17009KT 10SM CLR 29/24 A2998 -40 74 1600 170/09 RMK AO2 T02890239
53917KNEW NEW20190917181010309/17/19 18:10:31  5-MIN KNEW 180010Z 18009KT 10SM CLR 29/24 A2998 -40 74 1600 180/09 RMK AO2 T02890239
53917KNEW NEW20190917181510309/17/19 18:15:31  5-MIN KNEW 180015Z 19009KT 10SM CLR 29/24 A2998 -40 76 1600 190/09 RMK AO2 T02890244
53917KNEW NEW20190917182010309/17/19 18:20:31  5-MIN KNEW 180020Z 19009KT 10SM CLR 29/24 A2998 -40 76 1600 190/09 RMK AO2 T02890244
53917KNEW NEW20190917182510309/17/19 18:25:31  5-MIN KNEW 180025Z 19010KT 10SM CLR 29/24 A2998 -40 76 1600 190/10 RMK AO2 T02890244
53917KNEW NEW20190917183010309/17/19 18:30:31  5-MIN KNEW 180030Z 19011KT 10SM CLR 29/24 A2998 -40 76 1600 190/11 RMK AO2 T02890244
53917KNEW NEW20190917183510309/17/19 18:35:31  5-MIN KNEW 180035Z 20011KT 10SM CLR 29/24 A2998 -40 76 1600 200/11 RMK AO2 T02890244
53917KNEW NEW20190917184010309/17/19 18:40:31  5-MIN KNEW 180040Z 20010KT 10SM CLR 29/24 A2998 -50 76 1600 200/10 RMK AO2 T02890244
53917KNEW NEW20190917184510309/17/19 18:45:31  5-MIN KNEW 180045Z 20011KT 10SM CLR 29/24 A2999 -50 76 1600 200/11 RMK AO2 T02890244
53917KNEW NEW20190917185011009/17/19 18:50:31  5-MIN KNEW 180050Z 20010KT 10SM CLR 29/24 A2999 -50 76 1600 200/10 RMK AO2 SLP148 T02890244
53917KNEW NEW20190917185510309/17/19 18:55:31  5-MIN KNEW 180055Z 20010KT 10SM CLR 29/24 A2999 -50 76 1600 200/10 RMK AO2 T02890244
53917KNEW NEW20190917190010309/17/19 19:00:31  5-MIN KNEW 180100Z 20010KT 10SM CLR 29/24 A2999 -50 76 1600 200/10 RMK AO2 T02890244
53917KNEW NEW20190917190510309/17/19 19:05:31  5-MIN KNEW 180105Z 21010KT 10SM CLR 29/24 A2999 -50 76 1600 210/10 RMK AO2 T02890244
53917KNEW NEW20190917191010309/17/19 19:10:31  5-MIN KNEW 180110Z 22011KT 10SM CLR 29/24 A2999 -50 76 1600 220/11 RMK AO2 T02890244
53917KNEW NEW20190917191510309/17/19 19:15:31  5-MIN KNEW 180115Z 22010KT 10SM CLR 29/24 A2999 -50 76 1600 220/10 RMK AO2 T02890244
53917KNEW NEW20190917192010309/17/19 19:20:31  5-MIN KNEW 180120Z 22012KT 10SM CLR 29/24 A2999 -50 76 1600 220/12 RMK AO2 T02890244
53917KNEW NEW20190917192510309/17/19 19:25:31  5-MIN KNEW 180125Z 22011KT 10SM CLR 29/24 A2999 -50 74 1600 220/11 RMK AO2 T02890239
53917KNEW NEW20190917193010309/17/19 19:30:31  5-MIN KNEW 180130Z 21012KT 10SM CLR 29/24 A2999 -50 76 1600 210/12 RMK AO2 T02890244
53917KNEW NEW20190917193510309/17/19 19:35:31  5-MIN KNEW 180135Z 22008KT 10SM CLR 29/24 A2999 -50 76 1600 220/08 RMK AO2 T02890244
53917KNEW NEW20190917194010809/17/19 19:40:31  5-MIN KNEW 180140Z AUTO 22008KT 10SM CLR 29/24 A2999 -50 76 1600 220/08 RMK AO2 T02890244
53917KNEW NEW20190917194510809/17/19 19:45:31  5-MIN KNEW 180145Z AUTO 21009KT 10SM CLR 29/24 A2999 -50 76 1600 210/09 RMK AO2 T02890244
53917KNEW NEW20190917195011509/17/19 19:50:31  5-MIN KNEW 180150Z AUTO 21007KT 10SM CLR 28/24 A2999 -50 79 1500 210/07 RMK AO2 SLP147 T02830244
53917KNEW NEW20190917195510809/17/19 19:55:31  5-MIN KNEW 180155Z AUTO 20006KT 10SM CLR 28/24 A2999 -50 79 1500 200/06 RMK AO2 T02830244
53917KNEW NEW20190917200010809/17/19 20:00:31  5-MIN KNEW 180200Z AUTO 19005KT 10SM CLR 28/24 A2999 -50 79 1500 190/05 RMK AO2 T02830244
53917KNEW NEW20190917200510809/17/19 20:05:31  5-MIN KNEW 180205Z AUTO 20005KT 10SM CLR 28/24 A2999 -50 79 1500 200/05 RMK AO2 T02830244
53917KNEW NEW20190917201010809/17/19 20:10:31  5-MIN KNEW 180210Z AUTO 19004KT 10SM CLR 28/24 A2999 -50 79 1500 190/04 RMK AO2 T02830244
53917KNEW NEW20190917201510809/17/19 20:15:31  5-MIN KNEW 180215Z AUTO 19003KT 10SM CLR 28/24 A2999 -50 79 1500 190/03 RMK AO2 T02830244
53917KNEW NEW20190917202010809/17/19 20:20:31  5-MIN KNEW 180220Z AUTO 17003KT 10SM CLR 28/24 A2998 -40 76 1500 170/03 RMK AO2 T02830239
53917KNEW NEW20190917202510809/17/19 20:25:31  5-MIN KNEW 180225Z AUTO 17003KT 10SM CLR 28/24 A2998 -40 76 1500 170/03 RMK AO2 T02830239
53917KNEW NEW20190917203010809/17/19 20:30:31  5-MIN KNEW 180230Z AUTO 15004KT 10SM CLR 28/24 A2998 -40 76 1500 150/04 RMK AO2 T02830239
53917KNEW NEW20190917203510809/17/19 20:35:31  5-MIN KNEW 180235Z AUTO 13003KT 10SM CLR 28/24 A2998 -40 76 1500 130/03 RMK AO2 T02830239
53917KNEW NEW20190917204010809/17/19 20:40:31  5-MIN KNEW 180240Z AUTO 16003KT 10SM CLR 28/24 A2998 -40 76 1500 160/03 RMK AO2 T02830239
53917KNEW NEW20190917204510809/17/19 20:45:31  5-MIN KNEW 180245Z AUTO 16003KT 10SM CLR 28/24 A2998 -40 76 1500 160/03 RMK AO2 T02830239
53917KNEW NEW20190917205012109/17/19 20:50:31  5-MIN KNEW 180250Z AUTO 00000KT 10SM CLR 28/24 A2998 -40 76 1500 000/00 RMK AO2 SLP145 T02830239 53001
53917KNEW NEW20190917205510809/17/19 20:55:31  5-MIN KNEW 180255Z AUTO 16004KT 10SM CLR 28/24 A2998 -40 76 1500 160/04 RMK AO2 T02830239
53917KNEW NEW20190917210010809/17/19 21:00:31  5-MIN KNEW 180300Z AUTO 16004KT 10SM CLR 28/24 A2998 -40 79 1500 160/04 RMK AO2 T02780239
53917KNEW NEW20190917210510809/17/19 21:05:31  5-MIN KNEW 180305Z AUTO 13004KT 10SM CLR 28/24 A2998 -40 79 1500 130/04 RMK AO2 T02780239
53917KNEW NEW20190917211010809/17/19 21:10:31  5-MIN KNEW 180310Z AUTO 15005KT 10SM CLR 28/24 A2998 -40 82 1500 150/05 RMK AO2 T02780244
53917KNEW NEW20190917211510809/17/19 21:15:31  5-MIN KNEW 180315Z AUTO 13004KT 10SM CLR 28/24 A2998 -40 82 1500 130/04 RMK AO2 T02780244
53917KNEW NEW20190917212010809/17/19 21:20:31  5-MIN KNEW 180320Z AUTO 13004KT 10SM CLR 28/24 A2997 -40 82 1500 130/04 RMK AO2 T02780244
53917KNEW NEW20190917212510809/17/19 21:25:31  5-MIN KNEW 180325Z AUTO 14003KT 10SM CLR 28/24 A2997 -30 82 1500 140/03 RMK AO2 T02780244
53917KNEW NEW20190917213010809/17/19 21:30:31  5-MIN KNEW 180330Z AUTO 16003KT 10SM CLR 28/24 A2997 -40 82 1500 160/03 RMK AO2 T02780244
53917KNEW NEW20190917213510809/17/19 21:35:31  5-MIN KNEW 180335Z AUTO 17003KT 10SM CLR 28/24 A2998 -40 82 1500 170/03 RMK AO2 T02780244
53917KNEW NEW20190917214010809/17/19 21:40:31  5-MIN KNEW 180340Z AUTO 16004KT 10SM CLR 28/24 A2998 -40 82 1500 160/04 RMK AO2 T02780244
53917KNEW NEW20190917214510809/17/19 21:45:31  5-MIN KNEW 180345Z AUTO 17004KT 10SM CLR 28/24 A2997 -40 82 1500 170/04 RMK AO2 T02780244
53917KNEW NEW20190917215011509/17/19 21:50:31  5-MIN KNEW 180350Z AUTO 16004KT 10SM CLR 27/24 A2998 -40 84 1400 160/04 RMK AO2 SLP144 T02720244
53917KNEW NEW20190917215510809/17/19 21:55:31  5-MIN KNEW 180355Z AUTO 17004KT 10SM CLR 27/24 A2997 -40 82 1400 170/04 RMK AO2 T02720239
53917KNEW NEW20190917220010809/17/19 22:00:31  5-MIN KNEW 180400Z AUTO 18005KT 10SM CLR 27/24 A2997 -40 82 1400 180/05 RMK AO2 T02720239
53917KNEW NEW20190917220510809/17/19 22:05:31  5-MIN KNEW 180405Z AUTO 19006KT 10SM CLR 27/24 A2998 -40 82 1400 190/06 RMK AO2 T02720239
53917KNEW NEW20190917221010809/17/19 22:10:31  5-MIN KNEW 180410Z AUTO 20006KT 10SM CLR 27/24 A2998 -40 84 1400 200/06 RMK AO2 T02720244
53917KNEW NEW20190917221510809/17/19 22:15:31  5-MIN KNEW 180415Z AUTO 21005KT 10SM CLR 28/24 A2998 -40 82 1500 210/05 RMK AO2 T02780244
53917KNEW NEW20190917222010809/17/19 22:20:31  5-MIN KNEW 180420Z AUTO 21006KT 10SM CLR 28/24 A2998 -40 82 1500 210/06 RMK AO2 T02780244
53917KNEW NEW20190917222510809/17/19 22:25:31  5-MIN KNEW 180425Z AUTO 22005KT 10SM CLR 28/25 A2998 -40 84 1500 220/05 RMK AO2 T02780250
53917KNEW NEW20190917223010809/17/19 22:30:31  5-MIN KNEW 180430Z AUTO 23005KT 10SM CLR 28/25 A2998 -40 84 1500 230/05 RMK AO2 T02780250
53917KNEW NEW20190917223511109/17/19 22:35:31  5-MIN KNEW 180435Z AUTO 23007KT 10SM FEW017 28/25 A2998 -40 82 1500 230/07 RMK AO2 T02830250
53917KNEW NEW20190917224011109/17/19 22:40:31  5-MIN KNEW 180440Z AUTO 23009KT 10SM SCT017 28/25 A2998 -40 82 1500 230/09 RMK AO2 T02830250
53917KNEW NEW20190917224511109/17/19 22:45:31  5-MIN KNEW 180445Z AUTO 23009KT 10SM SCT016 28/25 A2998 -40 84 1500 230/09 RMK AO2 T02780250
53917KNEW NEW20190917225011809/17/19 22:50:31  5-MIN KNEW 180450Z AUTO 23007KT 10SM SCT016 28/25 A2998 -40 84 1500 230/07 RMK AO2 SLP145 T02780250
53917KNEW NEW20190917225511109/17/19 22:55:31  5-MIN KNEW 180455Z AUTO 23006KT 10SM SCT016 28/25 A2998 -40 84 1500 230/06 RMK AO2 T02780250
53917KNEW NEW20190917230011109/17/19 23:00:31  5-MIN KNEW 180500Z AUTO 22006KT 10SM SCT016 28/25 A2998 -40 84 1500 220/06 RMK AO2 T02780250
53917KNEW NEW20190917230511109/17/19 23:05:31  5-MIN KNEW 180505Z AUTO 22007KT 10SM FEW016 28/24 A2998 -40 82 1500 220/07 RMK AO2 T02780244
53917KNEW NEW20190917231010809/17/19 23:10:31  5-MIN KNEW 180510Z AUTO 21005KT 10SM CLR 28/24 A2997 -40 82 1500 210/05 RMK AO2 T02780244
53917KNEW NEW20190917231510809/17/19 23:15:31  5-MIN KNEW 180515Z AUTO 22006KT 10SM CLR 28/24 A2998 -40 82 1500 220/06 RMK AO2 T02780244
53917KNEW NEW20190917232010809/17/19 23:20:31  5-MIN KNEW 180520Z AUTO 23006KT 10SM CLR 28/24 A2998 -40 82 1500 230/06 RMK AO2 T02780244
53917KNEW NEW20190917232510809/17/19 23:25:31  5-MIN KNEW 180525Z AUTO 22006KT 10SM CLR 28/24 A2998 -40 82 1500 220/06 RMK AO2 T02780244
53917KNEW NEW20190917233010809/17/19 23:30:31  5-MIN KNEW 180530Z AUTO 23006KT 10SM CLR 28/24 A2997 -40 79 1500 230/06 RMK AO2 T02780239
53917KNEW NEW20190917233510809/17/19 23:35:31  5-MIN KNEW 180535Z AUTO 24005KT 10SM CLR 28/24 A2997 -40 79 1500 240/05 RMK AO2 T02780239
53917KNEW NEW20190917234010809/17/19 23:40:31  5-MIN KNEW 180540Z AUTO 23004KT 10SM CLR 28/24 A2998 -40 79 1500 230/04 RMK AO2 T02780239
53917KNEW NEW20190917234510809/17/19 23:45:31  5-MIN KNEW 180545Z AUTO 23003KT 10SM CLR 27/24 A2998 -40 82 1400 230/03 RMK AO2 T02720239
53917KNEW NEW20190917235014309/17/19 23:50:31  5-MIN KNEW 180550Z AUTO 22003KT 10SM CLR 27/24 A2998 -40 82 1400 220/03 RMK AO2 SLP144 T02720239 10294 20267 403330261 50003
53917KNEW NEW20190917235510809/17/19 23:55:31  5-MIN KNEW 180555Z AUTO 21003KT 10SM CLR 27/24 A2998 -40 82 1400 210/03 RMK AO2 T02720239
53917KNEW NEW20190918000010809/18/19 00:00:31  5-MIN KNEW 180600Z AUTO 22003KT 10SM CLR 27/24 A2998 -40 82 1400 220/03 RMK AO2 T02720239
53917KNEW NEW20190918000510809/18/19 00:05:31  5-MIN KNEW 180605Z AUTO 23003KT 10SM CLR 27/24 A2997 -40 82 1400 230/03 RMK AO2 T02720239
53917KNEW NEW20190918001010809/18/19 00:10:31  5-MIN KNEW 180610Z AUTO 20003KT 10SM CLR 27/24 A2997 -40 82 1400 200/03 RMK AO2 T02720239
53917KNEW NEW20190918001510809/18/19 00:15:31  5-MIN KNEW 180615Z AUTO 21003KT 10SM CLR 27/24 A2997 -40 82 1400 210/03 RMK AO2 T02720239
53917KNEW NEW20190918002010809/18/19 00:20:31  5-MIN KNEW 180620Z AUTO 22003KT 10SM CLR 27/24 A2997 -40 82 1400 220/03 RMK AO2 T02720239
53917KNEW NEW20190918002510809/18/19 00:25:31  5-MIN KNEW 180625Z AUTO 22003KT 10SM CLR 27/24 A2997 -30 82 1400 220/03 RMK AO2 T02720239
53917KNEW NEW20190918003010809/18/19 00:30:31  5-MIN KNEW 180630Z AUTO 23003KT 10SM CLR 27/24 A2997 -30 82 1400 230/03 RMK AO2 T02720239
53917KNEW NEW20190918003510809/18/19 00:35:31  5-MIN KNEW 180635Z AUTO 24005KT 10SM CLR 27/23 A2997 -30 79 1400 240/05 RMK AO2 T02720233
53917KNEW NEW20190918004010809/18/19 00:40:31  5-MIN KNEW 180640Z AUTO 23004KT 10SM CLR 27/23 A2997 -30 79 1400 230/04 RMK AO2 T02720233
53917KNEW NEW20190918004510809/18/19 00:45:31  5-MIN KNEW 180645Z AUTO 22004KT 10SM CLR 27/23 A2997 -30 79 1400 220/04 RMK AO2 T02720233
53917KNEW NEW20190918005011509/18/19 00:50:31  5-MIN KNEW 180650Z AUTO 23003KT 10SM CLR 27/23 A2997 -30 79 1400 230/03 RMK AO2 SLP142 T02720233
53917KNEW NEW20190918005510809/18/19 00:55:31  5-MIN KNEW 180655Z AUTO 23003KT 10SM CLR 27/23 A2997 -30 79 1400 230/03 RMK AO2 T02720233
53917KNEW NEW20190918010010809/18/19 01:00:31  5-MIN KNEW 180700Z AUTO 23004KT 10SM CLR 27/23 A2997 -30 79 1400 230/04 RMK AO2 T02720233
53917KNEW NEW20190918010510809/18/19 01:05:31  5-MIN KNEW 180705Z AUTO 00000KT 10SM CLR 27/23 A2997 -30 79 1400 000/00 RMK AO2 T02720233
53917KNEW NEW20190918011010809/18/19 01:10:31  5-MIN KNEW 180710Z AUTO 00000KT 10SM CLR 27/23 A2997 -30 79 1400 000/00 RMK AO2 T02720233
53917KNEW NEW20190918011510809/18/19 01:15:31  5-MIN KNEW 180715Z AUTO 00000KT 10SM CLR 27/23 A2997 -30 79 1400 000/00 RMK AO2 T02720233
53917KNEW NEW20190918012010809/18/19 01:20:31  5-MIN KNEW 180720Z AUTO 00000KT 10SM CLR 28/23 A2996 -30 76 1500 000/00 RMK AO2 T02780233
53917KNEW NEW20190918012510809/18/19 01:25:31  5-MIN KNEW 180725Z AUTO 00000KT 10SM CLR 27/23 A2996 -20 79 1400 000/00 RMK AO2 T02720233
53917KNEW NEW20190918013010809/18/19 01:30:31  5-MIN KNEW 180730Z AUTO 00000KT 10SM CLR 27/23 A2996 -20 79 1400 000/00 RMK AO2 T02720233
53917KNEW NEW20190918013510809/18/19 01:35:31  5-MIN KNEW 180735Z AUTO 00000KT 10SM CLR 27/23 A2996 -20 79 1400 000/00 RMK AO2 T02720233
53917KNEW NEW20190918014010809/18/19 01:40:31  5-MIN KNEW 180740Z AUTO 00000KT 10SM CLR 27/23 A2996 -20 79 1400 000/00 RMK AO2 T02720233
53917KNEW NEW20190918014510809/18/19 01:45:31  5-MIN KNEW 180745Z AUTO 00000KT 10SM CLR 27/23 A2996 -20 79 1400 000/00 RMK AO2 T02720233
53917KNEW NEW20190918015011509/18/19 01:50:31  5-MIN KNEW 180750Z AUTO 00000KT 10SM CLR 27/23 A2996 -20 82 1400 000/00 RMK AO2 SLP139 T02670233
53917KNEW NEW20190918015510809/18/19 01:55:31  5-MIN KNEW 180755Z AUTO 00000KT 10SM CLR 27/23 A2996 -30 79 1400 000/00 RMK AO2 T02670228
53917KNEW NEW20190918020010809/18/19 02:00:31  5-MIN KNEW 180800Z AUTO 21003KT 10SM CLR 26/23 A2996 -30 81 1300 210/03 RMK AO2 T02610228
53917KNEW NEW20190918020510809/18/19 02:05:31  5-MIN KNEW 180805Z AUTO 20003KT 10SM CLR 27/23 A2996 -30 82 1400 200/03 RMK AO2 T02670233
53917KNEW NEW20190918021010809/18/19 02:10:31  5-MIN KNEW 180810Z AUTO 24003KT 10SM CLR 27/23 A2996 -30 82 1400 240/03 RMK AO2 T02670233
53917KNEW NEW20190918021510809/18/19 02:15:31  5-MIN KNEW 180815Z AUTO 24003KT 10SM CLR 27/24 A2996 -30 82 1400 240/03 RMK AO2 T02720239
53917KNEW NEW20190918022010809/18/19 02:20:31  5-MIN KNEW 180820Z AUTO 23003KT 10SM CLR 27/24 A2996 -30 82 1400 230/03 RMK AO2 T02720239
53917KNEW NEW20190918022510809/18/19 02:25:31  5-MIN KNEW 180825Z AUTO 00000KT 10SM CLR 27/24 A2996 -30 82 1400 000/00 RMK AO2 T02720239
53917KNEW NEW20190918023010809/18/19 02:30:31  5-MIN KNEW 180830Z AUTO 00000KT 10SM CLR 27/24 A2996 -30 82 1400 000/00 RMK AO2 T02720239
53917KNEW NEW20190918023510809/18/19 02:35:31  5-MIN KNEW 180835Z AUTO 21003KT 10SM CLR 27/23 A2996 -30 82 1300 210/03 RMK AO2 T02670233
53917KNEW NEW20190918024010809/18/19 02:40:31  5-MIN KNEW 180840Z AUTO 21004KT 10SM CLR 27/23 A2996 -30 82 1300 210/04 RMK AO2 T02670233
53917KNEW NEW20190918024510809/18/19 02:45:31  5-MIN KNEW 180845Z AUTO 21004KT 10SM CLR 26/23 A2997 -30 84 1300 210/04 RMK AO2 T02610233
53917KNEW NEW20190918025012109/18/19 02:50:31  5-MIN KNEW 180850Z AUTO 21004KT 10SM CLR 26/23 A2997 -30 81 1300 210/04 RMK AO2 SLP140 T02610228 56002
53917KNEW NEW20190918025510809/18/19 02:55:31  5-MIN KNEW 180855Z AUTO 21004KT 10SM CLR 27/23 A2997 -30 79 1300 210/04 RMK AO2 T02670228
53917KNEW NEW20190918030010809/18/19 03:00:31  5-MIN KNEW 180900Z AUTO 21004KT 10SM CLR 27/23 A2996 -30 79 1300 210/04 RMK AO2 T02670228
53917KNEW NEW20190918030510809/18/19 03:05:31  5-MIN KNEW 180905Z AUTO 22004KT 10SM CLR 27/22 A2996 -30 74 1400 220/04 RMK AO2 T02720222
53917KNEW NEW20190918031010809/18/19 03:10:31  5-MIN KNEW 180910Z AUTO 21003KT 10SM CLR 27/22 A2996 -30 76 1400 210/03 RMK AO2 T02670222
53917KNEW NEW20190918031510809/18/19 03:15:31  5-MIN KNEW 180915Z AUTO 19003KT 10SM CLR 27/22 A2996 -20 76 1400 190/03 RMK AO2 T02670222
53917KNEW NEW20190918032010809/18/19 03:20:31  5-MIN KNEW 180920Z AUTO 00000KT 10SM CLR 27/22 A2996 -20 76 1400 000/00 RMK AO2 T02670222
53917KNEW NEW20190918032510809/18/19 03:25:31  5-MIN KNEW 180925Z AUTO 00000KT 10SM CLR 27/22 A2996 -20 76 1400 000/00 RMK AO2 T02670222
53917KNEW NEW20190918033010809/18/19 03:30:31  5-MIN KNEW 180930Z AUTO 17003KT 10SM CLR 27/22 A2996 -20 76 1400 170/03 RMK AO2 T02670222
53917KNEW NEW20190918033510809/18/19 03:35:31  5-MIN KNEW 180935Z AUTO 00000KT 10SM CLR 27/22 A2996 -20 76 1400 000/00 RMK AO2 T02670222
53917KNEW NEW20190918034010809/18/19 03:40:31  5-MIN KNEW 180940Z AUTO 00000KT 10SM CLR 27/22 A2996 -20 76 1400 000/00 RMK AO2 T02670222
53917KNEW NEW20190918034510809/18/19 03:45:31  5-MIN KNEW 180945Z AUTO 00000KT 10SM CLR 27/22 A2996 -20 76 1400 000/00 RMK AO2 T02670222
53917KNEW NEW20190918035011509/18/19 03:50:31  5-MIN KNEW 180950Z AUTO 00000KT 10SM CLR 27/22 A2996 -20 76 1400 000/00 RMK AO2 SLP138 T02670222
53917KNEW NEW20190918035510809/18/19 03:55:31  5-MIN KNEW 180955Z AUTO 00000KT 10SM CLR 27/22 A2996 -20 76 1400 000/00 RMK AO2 T02670222
53917KNEW NEW20190918040010809/18/19 04:00:31  5-MIN KNEW 181000Z AUTO 00000KT 10SM CLR 27/22 A2996 -20 76 1400 000/00 RMK AO2 T02670222
53917KNEW NEW20190918040510809/18/19 04:05:31  5-MIN KNEW 181005Z AUTO 00000KT 10SM CLR 27/22 A2996 -20 76 1400 000/00 RMK AO2 T02670222
53917KNEW NEW20190918041010809/18/19 04:10:31  5-MIN KNEW 181010Z AUTO 00000KT 10SM CLR 27/22 A2996 -20 74 1400 000/00 RMK AO2 T02720222
53917KNEW NEW20190918041510809/18/19 04:15:31  5-MIN KNEW 181015Z AUTO 00000KT 10SM CLR 27/22 A2996 -20 71 1400 000/00 RMK AO2 T02720217
53917KNEW NEW20190918042010809/18/19 04:20:31  5-MIN KNEW 181020Z AUTO 00000KT 10SM CLR 27/22 A2997 -30 74 1400 000/00 RMK AO2 T02720222
53917KNEW NEW20190918042510809/18/19 04:25:31  5-MIN KNEW 181025Z AUTO 00000KT 10SM CLR 27/22 A2997 -30 74 1400 000/00 RMK AO2 T02720222
53917KNEW NEW20190918043010809/18/19 04:30:31  5-MIN KNEW 181030Z AUTO 00000KT 10SM CLR 27/22 A2997 -30 71 1400 000/00 RMK AO2 T02720217
53917KNEW NEW20190918043510809/18/19 04:35:31  5-MIN KNEW 181035Z AUTO 00000KT 10SM CLR 27/22 A2997 -30 74 1400 000/00 RMK AO2 T02720222
53917KNEW NEW20190918044010809/18/19 04:40:31  5-MIN KNEW 181040Z AUTO 00000KT 10SM CLR 27/22 A2997 -30 74 1400 000/00 RMK AO2 T02720222
53917KNEW NEW20190918044510809/18/19 04:45:31  5-MIN KNEW 181045Z AUTO 00000KT 10SM CLR 27/22 A2997 -30 74 1400 000/00 RMK AO2 T02720222
53917KNEW NEW20190918045011509/18/19 04:50:31  5-MIN KNEW 181050Z AUTO 00000KT 10SM CLR 27/22 A2997 -30 74 1400 000/00 RMK AO2 SLP142 T02720222
53917KNEW NEW20190918045510809/18/19 04:55:31  5-MIN KNEW 181055Z AUTO 00000KT 10SM CLR 27/22 A2997 -30 74 1400 000/00 RMK AO2 T02720222
53917KNEW NEW20190918050010809/18/19 05:00:31  5-MIN KNEW 181100Z AUTO 00000KT 10SM CLR 27/22 A2997 -40 74 1400 000/00 RMK AO2 T02720222
53917KNEW NEW20190918050510809/18/19 05:05:31  5-MIN KNEW 181105Z AUTO 00000KT 10SM CLR 27/22 A2998 -40 74 1400 000/00 RMK AO2 T02720222
53917KNEW NEW20190918051010809/18/19 05:10:31  5-MIN KNEW 181110Z AUTO 00000KT 10SM CLR 27/22 A2998 -40 74 1400 000/00 RMK AO2 T02720222
53917KNEW NEW20190918051510809/18/19 05:15:31  5-MIN KNEW 181115Z AUTO 00000KT 10SM CLR 27/22 A2998 -40 74 1400 000/00 RMK AO2 T02720222
53917KNEW NEW20190918052010809/18/19 05:20:31  5-MIN KNEW 181120Z AUTO 00000KT 10SM CLR 27/22 A2998 -40 74 1400 000/00 RMK AO2 T02720222
53917KNEW NEW20190918052510809/18/19 05:25:31  5-MIN KNEW 181125Z AUTO 00000KT 10SM CLR 27/22 A2998 -40 74 1400 000/00 RMK AO2 T02720222
53917KNEW NEW20190918053010809/18/19 05:30:31  5-MIN KNEW 181130Z AUTO 00000KT 10SM CLR 27/23 A2998 -50 76 1400 000/00 RMK AO2 T02720228
53917KNEW NEW20190918053510809/18/19 05:35:31  5-MIN KNEW 181135Z AUTO 00000KT 10SM CLR 27/23 A2999 -50 76 1400 000/00 RMK AO2 T02720228
53917KNEW NEW20190918054010809/18/19 05:40:31  5-MIN KNEW 181140Z AUTO 13003KT 10SM CLR 27/23 A2999 -50 76 1400 130/03 RMK AO2 T02720228
53917KNEW NEW20190918054510309/18/19 05:45:31  5-MIN KNEW 181145Z 13003KT 10SM CLR 27/23 A2999 -50 79 1300 130/03 RMK AO2 T02670228
53917KNEW NEW20190918055012809/18/19 05:50:31  5-MIN KNEW 181150Z 13003KT 10SM CLR 27/23 A2999 -50 82 1300 130/03 RMK AO2 SLP150 T02670233 10278 20261 55004
53917KNEW NEW20190918055510309/18/19 05:55:31  5-MIN KNEW 181155Z 12004KT 10SM CLR 27/23 A2999 -50 79 1300 120/04 RMK AO2 T02670228
53917KNEW NEW20190918060010309/18/19 06:00:31  5-MIN KNEW 181200Z 13003KT 10SM CLR 27/23 A2999 -50 79 1300 130/03 RMK AO2 T02670228
53917KNEW NEW20190918060510309/18/19 06:05:31  5-MIN KNEW 181205Z 13003KT 10SM CLR 27/23 A2999 -50 82 1300 130/03 RMK AO2 T02670233
53917KNEW NEW20190918061010309/18/19 06:10:31  5-MIN KNEW 181210Z 12003KT 10SM CLR 27/23 A3000 -60 79 1400 120/03 RMK AO2 T02720233
53917KNEW NEW20190918061510309/18/19 06:15:31  5-MIN KNEW 181215Z 12003KT 10SM CLR 27/23 A3000 -60 76 1400 120/03 RMK AO2 T02720228
53917KNEW NEW20190918062010309/18/19 06:20:31  5-MIN KNEW 181220Z 12003KT 10SM CLR 27/23 A3000 -60 76 1400 120/03 RMK AO2 T02720228
53917KNEW NEW20190918062510309/18/19 06:25:31  5-MIN KNEW 181225Z 11003KT 10SM CLR 27/23 A3000 -60 76 1400 110/03 RMK AO2 T02720228
53917KNEW NEW20190918063010309/18/19 06:30:31  5-MIN KNEW 181230Z 12003KT 10SM CLR 28/23 A3000 -60 74 1400 120/03 RMK AO2 T02780228
53917KNEW NEW20190918063510309/18/19 06:35:31  5-MIN KNEW 181235Z 13003KT 10SM CLR 28/23 A3000 -60 74 1400 130/03 RMK AO2 T02780228
53917KNEW NEW20190918064010309/18/19 06:40:31  5-MIN KNEW 181240Z 14003KT 10SM CLR 27/23 A3001 -60 76 1400 140/03 RMK AO2 T02720228
53917KNEW NEW20190918064510309/18/19 06:45:31  5-MIN KNEW 181245Z 15003KT 10SM CLR 27/23 A3001 -60 76 1400 150/03 RMK AO2 T02720228
53917KNEW NEW20190918065011009/18/19 06:50:31  5-MIN KNEW 181250Z 15003KT 10SM CLR 27/23 A3001 -70 76 1400 150/03 RMK AO2 SLP155 T02720228
53917KNEW NEW20190918065510309/18/19 06:55:31  5-MIN KNEW 181255Z 15003KT 10SM CLR 27/23 A3001 -70 79 1400 150/03 RMK AO2 T02720233
53917KNEW NEW20190918070010309/18/19 07:00:31  5-MIN KNEW 181300Z 14003KT 10SM CLR 28/23 A3001 -70 74 1400 140/03 RMK AO2 T02780228
53917KNEW NEW20190918070510309/18/19 07:05:31  5-MIN KNEW 181305Z 14003KT 10SM CLR 28/23 A3001 -70 76 1400 140/03 RMK AO2 T02780233
53917KNEW NEW20190918071010309/18/19 07:10:31  5-MIN KNEW 181310Z 16003KT 10SM CLR 28/23 A3001 -70 76 1400 160/03 RMK AO2 T02780233
53917KNEW NEW20190918071510309/18/19 07:15:31  5-MIN KNEW 181315Z 15003KT 10SM CLR 28/23 A3001 -70 76 1400 150/03 RMK AO2 T02780233
53917KNEW NEW20190918072010309/18/19 07:20:31  5-MIN KNEW 181320Z 14003KT 10SM CLR 28/23 A3001 -70 71 1500 140/03 RMK AO2 T02830228
53917KNEW NEW20190918072510309/18/19 07:25:31  5-MIN KNEW 181325Z 00000KT 10SM CLR 28/23 A3001 -70 74 1400 000/00 RMK AO2 T02780228
53917KNEW NEW20190918073010309/18/19 07:30:31  5-MIN KNEW 181330Z 14003KT 10SM CLR 28/23 A3001 -70 71 1500 140/03 RMK AO2 T02830228
53917KNEW NEW20190918073510309/18/19 07:35:31  5-MIN KNEW 181335Z 13003KT 10SM CLR 28/23 A3001 -70 74 1500 130/03 RMK AO2 T02830233
53917KNEW NEW20190918074010309/18/19 07:40:31  5-MIN KNEW 181340Z 12003KT 10SM CLR 28/23 A3001 -70 74 1500 120/03 RMK AO2 T02830233
53917KNEW NEW20190918074510309/18/19 07:45:31  5-MIN KNEW 181345Z 11003KT 10SM CLR 28/23 A3001 -70 74 1500 110/03 RMK AO2 T02830233
53917KNEW NEW20190918075011009/18/19 07:50:31  5-MIN KNEW 181350Z 11003KT 10SM CLR 28/23 A3001 -70 74 1500 110/03 RMK AO2 SLP157 T02830233
53917KNEW NEW20190918075510309/18/19 07:55:31  5-MIN KNEW 181355Z 13003KT 10SM CLR 28/23 A3001 -70 74 1500 130/03 RMK AO2 T02830233
53917KNEW NEW20190918080010309/18/19 08:00:31  5-MIN KNEW 181400Z 00000KT 10SM CLR 28/23 A3001 -70 74 1500 000/00 RMK AO2 T02830233
53917KNEW NEW20190918080510309/18/19 08:05:31  5-MIN KNEW 181405Z 00000KT 10SM CLR 28/23 A3002 -80 74 1500 000/00 RMK AO2 T02830233
53917KNEW NEW20190918081010309/18/19 08:10:31  5-MIN KNEW 181410Z 00000KT 10SM CLR 28/23 A3002 -80 74 1500 000/00 RMK AO2 T02830233
53917KNEW NEW20190918081510309/18/19 08:15:31  5-MIN KNEW 181415Z 00000KT 10SM CLR 29/23 A3002 -80 71 1500 000/00 RMK AO2 T02890233
53917KNEW NEW20190918082010309/18/19 08:20:31  5-MIN KNEW 181420Z 09003KT 10SM CLR 29/24 A3002 -80 74 1500 090/03 RMK AO2 T02890239
53917KNEW NEW20190918082510309/18/19 08:25:31  5-MIN KNEW 181425Z 11003KT 10SM CLR 29/24 A3001 -70 74 1500 110/03 RMK AO2 T02890239
53917KNEW NEW20190918083010309/18/19 08:30:31  5-MIN KNEW 181430Z 10003KT 10SM CLR 29/24 A3001 -70 74 1500 100/03 RMK AO2 T02890239
53917KNEW NEW20190918083510309/18/19 08:35:31  5-MIN KNEW 181435Z 09003KT 10SM CLR 29/24 A3001 -70 74 1500 090/03 RMK AO2 T02890239
53917KNEW NEW20190918084010309/18/19 08:40:31  5-MIN KNEW 181440Z 09003KT 10SM CLR 29/24 A3002 -70 74 1500 090/03 RMK AO2 T02890239
53917KNEW NEW20190918084510309/18/19 08:45:31  5-MIN KNEW 181445Z 09004KT 10SM CLR 29/24 A3002 -70 74 1500 090/04 RMK AO2 T02890239
53917KNEW NEW20190918085011609/18/19 08:50:31  5-MIN KNEW 181450Z 09003KT 10SM CLR 29/24 A3002 -70 74 1500 090/03 RMK AO2 SLP158 T02890239 53009
53917KNEW NEW20190918085510309/18/19 08:55:31  5-MIN KNEW 181455Z 00000KT 10SM CLR 29/24 A3002 -80 74 1500 000/00 RMK AO2 T02890239
53917KNEW NEW20190918090010309/18/19 09:00:31  5-MIN KNEW 181500Z 00000KT 10SM CLR 29/24 A3002 -80 71 1600 000/00 RMK AO2 T02940239
53917KNEW NEW20190918090510309/18/19 09:05:31  5-MIN KNEW 181505Z 07004KT 10SM CLR 29/24 A3002 -80 71 1600 070/04 RMK AO2 T02940239
53917KNEW NEW20190918091010309/18/19 09:10:31  5-MIN KNEW 181510Z 06003KT 10SM CLR 29/24 A3002 -80 71 1600 060/03 RMK AO2 T02940239
53917KNEW NEW20190918091510309/18/19 09:15:31  5-MIN KNEW 181515Z 06004KT 10SM CLR 29/24 A3002 -80 71 1600 060/04 RMK AO2 T02940239
53917KNEW NEW20190918092010309/18/19 09:20:31  5-MIN KNEW 181520Z 07004KT 10SM CLR 29/24 A3002 -80 71 1600 070/04 RMK AO2 T02940239
53917KNEW NEW20190918092510309/18/19 09:25:31  5-MIN KNEW 181525Z 07004KT 10SM CLR 30/24 A3002 -80 69 1700 070/04 RMK AO2 T03000239
53917KNEW NEW20190918093010309/18/19 09:30:31  5-MIN KNEW 181530Z 07004KT 10SM CLR 30/24 A3002 -80 69 1700 070/04 RMK AO2 T03000239
53917KNEW NEW20190918093510309/18/19 09:35:31  5-MIN KNEW 181535Z 07004KT 10SM CLR 30/24 A3002 -80 69 1700 070/04 RMK AO2 T03000239
53917KNEW NEW20190918094010309/18/19 09:40:31  5-MIN KNEW 181540Z 06004KT 10SM CLR 30/24 A3002 -80 69 1700 060/04 RMK AO2 T03000239
53917KNEW NEW20190918094510309/18/19 09:45:31  5-MIN KNEW 181545Z 05004KT 10SM CLR 30/23 A3002 -80 67 1700 050/04 RMK AO2 T03000233
53917KNEW NEW20190918095011009/18/19 09:50:31  5-MIN KNEW 181550Z 05005KT 10SM CLR 31/24 A3002 -80 65 1800 050/05 RMK AO2 SLP158 T03110239
53917KNEW NEW20190918095510309/18/19 09:55:31  5-MIN KNEW 181555Z 05005KT 10SM CLR 31/23 A3002 -80 65 1700 050/05 RMK AO2 T03060233
53917KNEW NEW20190918100010309/18/19 10:00:31  5-MIN KNEW 181600Z 03005KT 10SM CLR 31/23 A3002 -80 65 1700 030/05 RMK AO2 T03060233
53917KNEW NEW20190918100510309/18/19 10:05:31  5-MIN KNEW 181605Z 05006KT 10SM CLR 31/24 A3002 -70 65 1800 050/06 RMK AO2 T03110239
53917KNEW NEW20190918101010309/18/19 10:10:31  5-MIN KNEW 181610Z 03004KT 10SM CLR 31/23 A3002 -70 63 1800 030/04 RMK AO2 T03110233
53917KNEW NEW20190918101510309/18/19 10:15:31  5-MIN KNEW 181615Z 03004KT 10SM CLR 31/23 A3002 -70 63 1800 030/04 RMK AO2 T03110233
53917KNEW NEW20190918102010309/18/19 10:20:31  5-MIN KNEW 181620Z 04005KT 10SM CLR 31/23 A3002 -70 63 1800 040/05 RMK AO2 T03110233
53917KNEW NEW20190918102510309/18/19 10:25:31  5-MIN KNEW 181625Z 03005KT 10SM CLR 31/23 A3002 -70 63 1800 030/05 RMK AO2 T03110233
53917KNEW NEW20190918103010309/18/19 10:30:31  5-MIN KNEW 181630Z 02006KT 10SM CLR 31/23 A3001 -70 63 1800 020/06 RMK AO2 T03110233
53917KNEW NEW20190918103510309/18/19 10:35:31  5-MIN KNEW 181635Z 03006KT 10SM CLR 31/23 A3001 -70 63 1800 030/06 RMK AO2 T03110233
53917KNEW NEW20190918104010309/18/19 10:40:31  5-MIN KNEW 181640Z 03006KT 10SM CLR 31/24 A3001 -70 65 1800 030/06 RMK AO2 T03110239
53917KNEW NEW20190918104510309/18/19 10:45:31  5-MIN KNEW 181645Z 03006KT 10SM CLR 31/24 A3001 -70 65 1800 030/06 RMK AO2 T03110239
53917KNEW NEW20190918105011009/18/19 10:50:31  5-MIN KNEW 181650Z 03006KT 10SM CLR 31/24 A3001 -70 65 1800 030/06 RMK AO2 SLP154 T03110239
53917KNEW NEW20190918105510309/18/19 10:55:31  5-MIN KNEW 181655Z 03006KT 10SM CLR 32/24 A3001 -60 61 1900 030/06 RMK AO2 T03220239
53917KNEW NEW20190918110010309/18/19 11:00:31  5-MIN KNEW 181700Z 03006KT 10SM CLR 32/24 A3000 -60 63 1900 030/06 RMK AO2 T03170239
53917KNEW NEW20190918110510309/18/19 11:05:31  5-MIN KNEW 181705Z 04007KT 10SM CLR 31/23 A3000 -60 63 1800 040/07 RMK AO2 T03110233
53917KNEW NEW20190918111010309/18/19 11:10:31  5-MIN KNEW 181710Z 03007KT 10SM CLR 31/24 A3000 -60 65 1800 030/07 RMK AO2 T03110239
53917KNEW NEW20190918111510309/18/19 11:15:31  5-MIN KNEW 181715Z 03007KT 10SM CLR 31/24 A3000 -60 65 1800 030/07 RMK AO2 T03110239
53917KNEW NEW20190918112010309/18/19 11:20:31  5-MIN KNEW 181720Z 03007KT 10SM CLR 32/24 A3000 -60 63 1900 030/07 RMK AO2 T03170239
53917KNEW NEW20190918112510309/18/19 11:25:31  5-MIN KNEW 181725Z 04008KT 10SM CLR 32/24 A2999 -50 63 1900 040/08 RMK AO2 T03170239
53917KNEW NEW20190918113010309/18/19 11:30:31  5-MIN KNEW 181730Z 03007KT 10SM CLR 32/24 A2999 -50 63 1900 030/07 RMK AO2 T03170239
53917KNEW NEW20190918113510309/18/19 11:35:31  5-MIN KNEW 181735Z 04008KT 10SM CLR 32/24 A2999 -50 63 1900 040/08 RMK AO2 T03170239
53917KNEW NEW20190918114010309/18/19 11:40:31  5-MIN KNEW 181740Z 03008KT 10SM CLR 32/24 A2999 -50 63 1900 030/08 RMK AO2 T03170239
53917KNEW NEW20190918114510309/18/19 11:45:31  5-MIN KNEW 181745Z 02007KT 10SM CLR 32/24 A2999 -50 63 1900 020/07 RMK AO2 T03170239
53917KNEW NEW20190918115012809/18/19 11:50:31  5-MIN KNEW 181750Z 02006KT 10SM CLR 32/24 A2999 -50 63 1900 020/06 RMK AO2 SLP149 T03170239 10322 20267 51008
53917KNEW NEW20190918115510309/18/19 11:55:31  5-MIN KNEW 181755Z 02007KT 10SM CLR 32/24 A2999 -50 63 1900 020/07 RMK AO2 T03170239
53917KNEW NEW20190918120010309/18/19 12:00:31  5-MIN KNEW 181800Z 03007KT 10SM CLR 32/24 A2999 -50 63 1900 030/07 RMK AO2 T03170239
53917KNEW NEW20190918120510309/18/19 12:05:31  5-MIN KNEW 181805Z 03008KT 10SM CLR 32/24 A2999 -50 63 1900 030/08 RMK AO2 T03170239
53917KNEW NEW20190918121010309/18/19 12:10:31  5-MIN KNEW 181810Z 03009KT 10SM CLR 32/24 A2999 -50 63 1900 030/09 RMK AO2 T03170239
53917KNEW NEW20190918121510309/18/19 12:15:31  5-MIN KNEW 181815Z 04009KT 10SM CLR 32/24 A2998 -40 65 1900 040/09 RMK AO2 T03170244
53917KNEW NEW20190918122010309/18/19 12:20:31  5-MIN KNEW 181820Z 04008KT 10SM CLR 32/24 A2998 -40 65 1900 040/08 RMK AO2 T03170244
53917KNEW NEW20190918122510309/18/19 12:25:31  5-MIN KNEW 181825Z 04010KT 10SM CLR 32/24 A2998 -40 63 1900 040/10 RMK AO2 T03170239
53917KNEW NEW20190918123010309/18/19 12:30:31  5-MIN KNEW 181830Z 04009KT 10SM CLR 32/24 A2998 -40 61 2000 040/09 RMK AO2 T03220239
53917KNEW NEW20190918123510309/18/19 12:35:31  5-MIN KNEW 181835Z 03009KT 10SM CLR 32/24 A2998 -40 61 2000 030/09 RMK AO2 T03220239
53917KNEW NEW20190918124010309/18/19 12:40:31  5-MIN KNEW 181840Z 04008KT 10SM CLR 32/23 A2998 -40 59 2000 040/08 RMK AO2 T03220233
53917KNEW NEW20190918124510309/18/19 12:45:31  5-MIN KNEW 181845Z 04008KT 10SM CLR 32/24 A2997 -40 61 2000 040/08 RMK AO2 T03220239
53917KNEW NEW20190918125011009/18/19 12:50:31  5-MIN KNEW 181850Z 04009KT 10SM CLR 32/24 A2997 -30 61 2000 040/09 RMK AO2 SLP143 T03220239
53917KNEW NEW20190918125510309/18/19 12:55:31  5-MIN KNEW 181855Z 04009KT 10SM CLR 32/24 A2997 -30 61 2000 040/09 RMK AO2 T03220239
53917KNEW NEW20190918130010609/18/19 13:00:31  5-MIN KNEW 181900Z 04010KT 10SM FEW040 32/24 A2997 -30 63 1900 040/10 RMK AO2 T03170239
53917KNEW NEW20190918130510609/18/19 13:05:31  5-MIN KNEW 181905Z 05009KT 10SM FEW040 32/24 A2997 -30 61 2000 050/09 RMK AO2 T03220239
53917KNEW NEW20190918131010609/18/19 13:10:31  5-MIN KNEW 181910Z 04009KT 10SM FEW040 33/23 A2997 -30 57 2000 040/09 RMK AO2 T03280233
53917KNEW NEW20190918131510609/18/19 13:15:31  5-MIN KNEW 181915Z 05008KT 10SM FEW040 33/23 A2997 -30 57 2000 050/08 RMK AO2 T03280233
53917KNEW NEW20190918132010609/18/19 13:20:31  5-MIN KNEW 181920Z 04008KT 10SM FEW042 32/23 A2996 -30 59 2000 040/08 RMK AO2 T03220233
53917KNEW NEW20190918132510609/18/19 13:25:31  5-MIN KNEW 181925Z 06006KT 10SM SCT040 33/23 A2996 -20 57 2000 060/06 RMK AO2 T03280233
53917KNEW NEW20190918133010609/18/19 13:30:31  5-MIN KNEW 181930Z 00000KT 10SM FEW040 33/23 A2996 -20 57 2000 000/00 RMK AO2 T03280233
53917KNEW NEW20190918133510609/18/19 13:35:31  5-MIN KNEW 181935Z VRB04KT 10SM FEW040 33/23 A2996 -20 55 2000 VRB/04 RMK AO2 T03280228
53917KNEW NEW20190918134010609/18/19 13:40:31  5-MIN KNEW 181940Z 11006KT 10SM FEW040 33/22 A2996 -20 51 2100 110/06 RMK AO2 T03330222
53917KNEW NEW20190918134510609/18/19 13:45:31  5-MIN KNEW 181945Z 15008KT 10SM FEW040 33/22 A2995 -20 50 2100 150/08 RMK AO2 T03330217
53917KNEW NEW20190918135011309/18/19 13:50:31  5-MIN KNEW 181950Z 14006KT 10SM FEW040 34/21 A2995 -20 46 2200 140/06 RMK AO2 SLP136 T03390211
53917KNEW NEW20190918135510309/18/19 13:55:31  5-MIN KNEW 181955Z VRB05KT 10SM CLR 33/22 A2995 -10 50 2100 VRB/05 RMK AO2 T03330217
53917KNEW NEW20190918140010609/18/19 14:00:31  5-MIN KNEW 182000Z 12009KT 10SM FEW043 34/22 A2995 -10 48 2200 120/09 RMK AO2 T03390217
53917KNEW NEW20190918140510609/18/19 14:05:31  5-MIN KNEW 182005Z 14010KT 10SM FEW043 34/21 A2995 -10 45 2200 140/10 RMK AO2 T03390206
53917KNEW NEW20190918141010609/18/19 14:10:31  5-MIN KNEW 182010Z 13009KT 10SM FEW044 34/20 A2995 -10 43 2200 130/09 RMK AO2 T03390200
53917KNEW NEW20190918141510609/18/19 14:15:31  5-MIN KNEW 182015Z 12006KT 10SM FEW044 34/19 A2994 -10 40 2200 120/06 RMK AO2 T03390189
53917KNEW NEW20190918142010609/18/19 14:20:31  5-MIN KNEW 182020Z 11009KT 10SM FEW044 34/19 A2994 -10 42 2200 110/09 RMK AO2 T03390194
53917KNEW NEW20190918142511709/18/19 14:25:31  5-MIN KNEW 182025Z 12008KT 10SM FEW044 34/19 A2994 -10 40 2200 120/08 RMK AO2 LTG DSNT W T03390189
53917KNEW NEW20190918143011209/18/19 14:30:31  5-MIN KNEW 182030Z 12010KT 10SM CLR 34/18 A2994 0 39 2200 120/10 RMK AO2 LTG DSNT W T03390183
53917KNEW NEW20190918143511909/18/19 14:35:31  5-MIN KNEW 182035Z 13009KT 10SM CLR 34/18 A2994 0 39 2200 130/09 RMK AO2 LTG DSNT SW AND W T03390183
53917KNEW NEW20190918144011909/18/19 14:40:31  5-MIN KNEW 182040Z 14010KT 10SM CLR 34/18 A2993 0 37 2200 140/10 RMK AO2 LTG DSNT SW AND W T03390178
53917KNEW NEW20190918144512409/18/19 14:45:31  5-MIN KNEW 182045Z AUTO 13008KT 10SM CLR 34/18 A2993 0 39 2200 130/08 RMK AO2 LTG DSNT SW AND W T03390183
53917KNEW NEW20190918145013709/18/19 14:50:31  5-MIN KNEW 182050Z AUTO 11010KT 10SM CLR 34/18 A2993 0 39 2200 110/10 RMK AO2 LTG DSNT SW AND W SLP130 T03390183 58009
53917KNEW NEW20190918145512409/18/19 14:55:31  5-MIN KNEW 182055Z AUTO 10007KT 10SM CLR 34/18 A2993 0 37 2200 100/07 RMK AO2 LTG DSNT SW AND W T03390178
53917KNEW NEW20190918150012409/18/19 15:00:31  5-MIN KNEW 182100Z AUTO 13009KT 10SM CLR 34/17 A2993 0 36 2200 130/09 RMK AO2 LTG DSNT SW AND W T03390172
53917KNEW NEW20190918150512409/18/19 15:05:31  5-MIN KNEW 182105Z AUTO 14008KT 10SM CLR 33/17 A2994 0 37 2100 140/08 RMK AO2 LTG DSNT SW AND W T03330172
53917KNEW NEW20190918151012409/18/19 15:10:31  5-MIN KNEW 182110Z AUTO 14009KT 10SM CLR 34/17 A2994 0 35 2200 140/09 RMK AO2 LTG DSNT SW AND W T03390167
53917KNEW NEW20190918151512409/18/19 15:15:31  5-MIN KNEW 182115Z AUTO 12009KT 10SM CLR 33/18 A2993 0 39 2100 120/09 RMK AO2 LTG DSNT SW AND W T03330178
53917KNEW NEW20190918152012409/18/19 15:20:31  5-MIN KNEW 182120Z AUTO 13009KT 10SM CLR 33/17 A2994 0 37 2100 130/09 RMK AO2 LTG DSNT SW AND W T03330172
53917KNEW NEW20190918152512409/18/19 15:25:31  5-MIN KNEW 182125Z AUTO 12008KT 10SM CLR 33/18 A2993 0 39 2100 120/08 RMK AO2 LTG DSNT SW AND W T03330178
53917KNEW NEW20190918153012409/18/19 15:30:31  5-MIN KNEW 182130Z AUTO 13009KT 10SM CLR 33/18 A2994 0 41 2100 130/09 RMK AO2 LTG DSNT SW AND W T03280183
53917KNEW NEW20190918153512409/18/19 15:35:31  5-MIN KNEW 182135Z AUTO 13007KT 10SM CLR 33/19 A2994 0 42 2100 130/07 RMK AO2 LTG DSNT SW AND W T03330189
53917KNEW NEW20190918154012609/18/19 15:40:31  5-MIN KNEW 182140Z AUTO 13008KT 10SM CLR 33/18 A2994 -10 39 2100 130/08 RMK AO2 LTG DSNT SW AND W T03330178
53917KNEW NEW20190918154512609/18/19 15:45:31  5-MIN KNEW 182145Z AUTO 14008KT 10SM CLR 33/19 A2994 -10 42 2100 140/08 RMK AO2 LTG DSNT SW AND W T03330189
53917KNEW NEW20190918155013109/18/19 15:50:31  5-MIN KNEW 182150Z 14007KT 10SM FEW030 33/18 A2994 -10 41 2100 140/07 RMK AO2 LTG DSNT SW AND W SLP134 T03280183
53917KNEW NEW20190918155511109/18/19 15:55:31  5-MIN KNEW 182155Z 10SM CLR 33/19 A2995 -10 43 2000 M /M RMK AO2 LTG DSNT SW AND W T03280189
53917KNEW NEW20190918160011409/18/19 16:00:31  5-MIN KNEW 182200Z 13007KT 10SM CLR 33/18 A2995 -10 41 2100 130/07 RMK AO2 LTG DSNT W T03280183
53917KNEW NEW20190918160511409/18/19 16:05:31  5-MIN KNEW 182205Z 13007KT 10SM CLR 33/19 A2995 -10 43 2000 130/07 RMK AO2 LTG DSNT W T03280189
53917KNEW NEW20190918161011409/18/19 16:10:31  5-MIN KNEW 182210Z 12007KT 10SM CLR 32/19 A2995 -10 46 2000 120/07 RMK AO2 LTG DSNT W T03220194
53917KNEW NEW20190918161511909/18/19 16:15:31  5-MIN KNEW 182215Z 14006KT 10SM VCTS CLR 32/21 A2995 -10 51 2000 140/06 RMK AO2 LTG DSNT W T03220211
53917KNEW NEW20190918162012309/18/19 16:20:31  5-MIN KNEW 182220Z 16007KT 10SM TS CLR 32/22 A2995 -10 53 2000 160/07 RMK AO2 LTG DSNT W TSB16 T03220217
53917KNEW NEW20190918162511209/18/19 16:25:31  5-MIN KNEW 182225Z 17008KT 10SM TS CLR 32/23 A2995 -10 58 1900 170/08 RMK AO2 TSB16 T03170228
53917KNEW NEW20190918163011509/18/19 16:30:31  5-MIN KNEW 182230Z 17008KT 10SM TS FEW042 32/23 A2995 -10 58 1900 170/08 RMK AO2 TSB16 T03170228
53917KNEW NEW20190918163511509/18/19 16:35:31  5-MIN KNEW 182235Z 17006KT 10SM TS SCT042 32/23 A2996 -20 58 1900 170/06 RMK AO2 TSB16 T03170228
53917KNEW NEW20190918164011509/18/19 16:40:31  5-MIN KNEW 182240Z 16010KT 10SM TS SCT042 32/23 A2995 -10 58 1900 160/10 RMK AO2 TSB16 T03170228
53917KNEW NEW20190918164511509/18/19 16:45:31  5-MIN KNEW 182245Z 17006KT 10SM TS SCT042 32/23 A2995 -20 61 1900 170/06 RMK AO2 TSB16 T03170233
53917KNEW NEW20190918165012909/18/19 16:50:31  5-MIN KNEW 182250Z 29007KT 10SM TS BKN040 BKN047 31/23 A2996 -20 65 1800 290/07 RMK AO2 TSB16 SLP139 T03060233
53917KNEW NEW20190918165512209/18/19 16:55:31  5-MIN KNEW 182255Z 29014G20KT 10SM TS BKN037 BKN044 29/23 A2997 -30 69 1700 290/14G20 RMK AO2 T02940233
53917KNEW NEW20190918170015609/18/19 17:00:31  5-MIN KNEW 182300Z 29022G28KT 8SM -TSRA BKN033 BKN042 28/24 A2996 -20 76 1500 290/22G28 RMK AO2 PK WND 29028/2300 RAB2259 P0000 T02830239
53917KNEW NEW20190918170515609/18/19 17:05:31  5-MIN KNEW 182305Z 29024G32KT 3SM -TSRA BKN030 BKN037 27/24 A2996 -20 82 1400 290/24G32 RMK AO2 PK WND 30032/2303 RAB2259 P0000 T02720239
53917KNEW NEW20190918171015509/18/19 17:10:31  5-MIN KNEW 182310Z 27023G32KT 2SM TSRA BKN030 OVC037 27/24 A2996 -20 84 1400 270/23G32 RMK AO2 PK WND 30032/2303 RAB2259 P0001 T02670239
53917KNEW NEW20190918171516709/18/19 17:15:31  5-MIN KNEW 182315Z 25014G29KT 1 3/4SM +TSRA BKN030 BKN037 OVC060 27/22 A2996 -30 71 1400 250/14G29 RMK AO2 PK WND 30032/2303 RAB2259 P0004 T02720217
53917KNEW NEW20190918172016709/18/19 17:20:31  5-MIN KNEW 182320Z 26013G27KT 1 1/2SM +TSRA BKN032 BKN050 OVC080 27/21 A2997 -30 69 1400 260/13G27 RMK AO2 PK WND 30032/2303 RAB2259 P0008 T02720211
53917KNEW NEW20190918172516309/18/19 17:25:31  5-MIN KNEW 182325Z 29011G18KT 2SM +TSRA SCT030 BKN065 OVC080 27/22 A2997 -30 73 1300 290/11G18 RMK AO2 PK WND 30032/2303 RAB2259 P0010 T02670217
53917KNEW NEW20190918173015809/18/19 17:30:31  5-MIN KNEW 182330Z 27010KT 2 1/2SM RA FEW030 BKN070 OVC090 26/23 A2997 -30 81 1300 270/10 RMK AO2 PK WND 30032/2303 RAB2259 P0012 T02610228
53917KNEW NEW20190918173515809/18/19 17:35:31  5-MIN KNEW 182335Z 29007KT 2 1/2SM RA FEW034 BKN070 OVC090 27/23 A2997 -30 79 1300 290/07 RMK AO2 PK WND 30032/2303 RAB2259 P0013 T02670228
53917KNEW NEW20190918174015509/18/19 17:40:31  5-MIN KNEW 182340Z 28003KT 3SM -RA FEW050 SCT070 OVC085 27/23 A2997 -30 79 1300 280/03 RMK AO2 PK WND 30032/2303 RAB2259 P0013 T02670228
53917KNEW NEW20190918174515509/18/19 17:45:31  5-MIN KNEW 182345Z 27003KT 6SM -RA FEW065 BKN080 OVC110 27/23 A2997 -30 76 1400 270/03 RMK AO2 PK WND 30032/2303 RAB2259 P0013 T02720228
53917KNEW NEW20190918175018709/18/19 17:50:31  5-MIN KNEW 182350Z 29004KT 10SM -RA FEW060 SCT080 OVC110 28/23 A2996 -30 74 1500 290/04 RMK AO2 PK WND 30032/2303 RAB2259 SLP140 P0013 60013 T02780228 10344 20261 58019
53917KNEW NEW20190918175513209/18/19 17:55:31  5-MIN KNEW 182355Z 30004KT 10SM FEW060 BKN090 OVC110 28/23 A2996 -30 74 1500 300/04 RMK AO2 RAE54 P0000 T02780228
53917KNEW NEW20190918180013409/18/19 18:00:31  5-MIN KNEW 190000Z 29004KT 10SM SCT065 BKN090 OVC110 28/23 A2997 -30 74 1500 290/04 RMK AO2 RAE2354 P0000 T02780228
53917KNEW NEW20190918180513409/18/19 18:05:31  5-MIN KNEW 190005Z 29005KT 10SM FEW060 BKN095 BKN120 28/22 A2997 -30 69 1500 290/05 RMK AO2 RAE2354 P0000 T02830222
53917KNEW NEW20190918181013409/18/19 18:10:31  5-MIN KNEW 190010Z 29006KT 10SM FEW060 SCT075 BKN100 28/23 A2997 -30 74 1500 290/06 RMK AO2 RAE2354 P0000 T02830233
53917KNEW NEW20190918181513409/18/19 18:15:31  5-MIN KNEW 190015Z 29006KT 10SM SCT065 SCT080 BKN100 28/23 A2996 -30 74 1500 290/06 RMK AO2 RAE2354 P0000 T02830233
53917KNEW NEW20190918182012709/18/19 18:20:31  5-MIN KNEW 190020Z 29007KT 10SM FEW065 SCT085 28/23 A2996 -20 74 1500 290/07 RMK AO2 RAE2354 P0000 T02830233
53917KNEW NEW20190918182513409/18/19 18:25:31  5-MIN KNEW 190025Z 29009KT 10SM FEW065 FEW080 SCT100 28/24 A2996 -30 76 1500 290/09 RMK AO2 RAE2354 P0000 T02830239
53917KNEW NEW20190918183012709/18/19 18:30:31  5-MIN KNEW 190030Z 29008KT 10SM FEW065 FEW080 28/24 A2996 -20 79 1500 290/08 RMK AO2 RAE2354 P0000 T02830244
53917KNEW NEW20190918183512009/18/19 18:35:31  5-MIN KNEW 190035Z 29010KT 10SM FEW070 28/24 A2996 -20 79 1500 290/10 RMK AO2 RAE2354 P0000 T02830244
53917KNEW NEW20190918184011709/18/19 18:40:31  5-MIN KNEW 190040Z 31012KT 10SM CLR 28/25 A2996 -20 82 1500 310/12 RMK AO2 RAE2354 P0000 T02830250
53917KNEW NEW20190918184511709/18/19 18:45:31  5-MIN KNEW 190045Z 30011KT 10SM CLR 28/24 A2996 -20 79 1500 300/11 RMK AO2 RAE2354 P0000 T02830244
53917KNEW NEW20190918185012409/18/19 18:50:31  5-MIN KNEW 190050Z 31010KT 10SM CLR 28/24 A2996 -20 79 1500 310/10 RMK AO2 RAE2354 SLP138 P0000 T02830244
53917KNEW NEW20190918185510309/18/19 18:55:31  5-MIN KNEW 190055Z 31008KT 10SM CLR 28/24 A2996 -20 82 1500 310/08 RMK AO2 T02780244
53917KNEW NEW20190918190010309/18/19 19:00:31  5-MIN KNEW 190100Z 32011KT 10SM CLR 28/24 A2996 -20 82 1500 320/11 RMK AO2 T02780244
53917KNEW NEW20190918190510309/18/19 19:05:31  5-MIN KNEW 190105Z 32006KT 10SM CLR 28/24 A2996 -20 79 1500 320/06 RMK AO2 T02780239
53917KNEW NEW20190918191010309/18/19 19:10:31  5-MIN KNEW 190110Z 33007KT 10SM CLR 28/24 A2996 -20 79 1500 330/07 RMK AO2 T02780239
53917KNEW NEW20190918191510309/18/19 19:15:31  5-MIN KNEW 190115Z 35003KT 10SM CLR 28/24 A2996 -20 79 1500 350/03 RMK AO2 T02780239
53917KNEW NEW20190918192010309/18/19 19:20:31  5-MIN KNEW 190120Z 33003KT 10SM CLR 28/24 A2997 -30 79 1500 330/03 RMK AO2 T02780239
53917KNEW NEW20190918192510309/18/19 19:25:31  5-MIN KNEW 190125Z 00000KT 10SM CLR 28/24 A2997 -30 79 1500 000/00 RMK AO2 T02780239
53917KNEW NEW20190918193010309/18/19 19:30:31  5-MIN KNEW 190130Z 31003KT 10SM CLR 28/24 A2997 -30 79 1500 310/03 RMK AO2 T02780239
53917KNEW NEW20190918193510309/18/19 19:35:31  5-MIN KNEW 190135Z 30004KT 10SM CLR 28/24 A2997 -30 79 1500 300/04 RMK AO2 T02780239
53917KNEW NEW20190918194010309/18/19 19:40:31  5-MIN KNEW 190140Z 29003KT 10SM CLR 28/24 A2997 -30 79 1500 290/03 RMK AO2 T02780239
53917KNEW NEW20190918194510309/18/19 19:45:31  5-MIN KNEW 190145Z 30004KT 10SM CLR 28/24 A2997 -30 79 1500 300/04 RMK AO2 T02780239
53917KNEW NEW20190918195011009/18/19 19:50:31  5-MIN KNEW 190150Z 28003KT 10SM CLR 28/24 A2997 -30 76 1500 280/03 RMK AO2 SLP142 T02830239
53917KNEW NEW20190918195510809/18/19 19:55:31  5-MIN KNEW 190155Z AUTO 31003KT 10SM CLR 28/24 A2997 -30 79 1500 310/03 RMK AO2 T02780239
53917KNEW NEW20190918200010809/18/19 20:00:31  5-MIN KNEW 190200Z AUTO 31003KT 10SM CLR 28/24 A2997 -40 79 1500 310/03 RMK AO2 T02780239
53917KNEW NEW20190918200510809/18/19 20:05:31  5-MIN KNEW 190205Z AUTO 31003KT 10SM CLR 28/24 A2998 -40 79 1500 310/03 RMK AO2 T02780239
53917KNEW NEW20190918201010809/18/19 20:10:31  5-MIN KNEW 190210Z AUTO 00000KT 10SM CLR 28/24 A2997 -30 79 1500 000/00 RMK AO2 T02780239
53917KNEW NEW20190918201510809/18/19 20:15:31  5-MIN KNEW 190215Z AUTO 29003KT 10SM CLR 28/24 A2998 -40 76 1500 290/03 RMK AO2 T02830239
53917KNEW NEW20190918202010809/18/19 20:20:31  5-MIN KNEW 190220Z AUTO 27003KT 10SM CLR 28/24 A2998 -40 79 1500 270/03 RMK AO2 T02780239
53917KNEW NEW20190918202510809/18/19 20:25:31  5-MIN KNEW 190225Z AUTO 30003KT 10SM CLR 28/24 A2998 -40 79 1500 300/03 RMK AO2 T02780239
53917KNEW NEW20190918203010809/18/19 20:30:31  5-MIN KNEW 190230Z AUTO 00000KT 10SM CLR 28/24 A2998 -40 76 1500 000/00 RMK AO2 T02830239
53917KNEW NEW20190918203510809/18/19 20:35:31  5-MIN KNEW 190235Z AUTO 28004KT 10SM CLR 28/24 A2998 -40 79 1500 280/04 RMK AO2 T02780239
53917KNEW NEW20190918204010809/18/19 20:40:31  5-MIN KNEW 190240Z AUTO 28004KT 10SM CLR 28/24 A2998 -40 79 1500 280/04 RMK AO2 T02780239
53917KNEW NEW20190918204510809/18/19 20:45:31  5-MIN KNEW 190245Z AUTO 28004KT 10SM CLR 28/24 A2998 -40 79 1500 280/04 RMK AO2 T02780239
53917KNEW NEW20190918205012709/18/19 20:50:31  5-MIN KNEW 190250Z AUTO 28003KT 10SM CLR 28/24 A2998 -40 76 1500 280/03 RMK AO2 SLP146 60000 T02830239 51011
53917KNEW NEW20190918205510809/18/19 20:55:31  5-MIN KNEW 190255Z AUTO 29003KT 10SM CLR 28/24 A2998 -40 76 1500 290/03 RMK AO2 T02830239
53917KNEW NEW20190918210010809/18/19 21:00:31  5-MIN KNEW 190300Z AUTO 27005KT 10SM CLR 28/24 A2998 -40 76 1500 270/05 RMK AO2 T02830239
53917KNEW NEW20190918210510809/18/19 21:05:31  5-MIN KNEW 190305Z AUTO 27005KT 10SM CLR 28/24 A2998 -40 76 1500 270/05 RMK AO2 T02830239
53917KNEW NEW20190918211010809/18/19 21:10:31  5-MIN KNEW 190310Z AUTO 29005KT 10SM CLR 28/24 A2998 -40 76 1500 290/05 RMK AO2 T02830239
53917KNEW NEW20190918211510809/18/19 21:15:31  5-MIN KNEW 190315Z AUTO 30004KT 10SM CLR 28/24 A2998 -40 76 1500 300/04 RMK AO2 T02830239
53917KNEW NEW20190918212010809/18/19 21:20:31  5-MIN KNEW 190320Z AUTO 30004KT 10SM CLR 28/24 A2998 -40 76 1500 300/04 RMK AO2 T02830239
53917KNEW NEW20190918212510809/18/19 21:25:31  5-MIN KNEW 190325Z AUTO 32004KT 10SM CLR 28/24 A2997 -40 76 1500 320/04 RMK AO2 T02830239
53917KNEW NEW20190918213010809/18/19 21:30:31  5-MIN KNEW 190330Z AUTO 32003KT 10SM CLR 28/24 A2998 -40 79 1500 320/03 RMK AO2 T02780239
53917KNEW NEW20190918213510809/18/19 21:35:31  5-MIN KNEW 190335Z AUTO 30003KT 10SM CLR 28/24 A2998 -40 79 1500 300/03 RMK AO2 T02780239
53917KNEW NEW20190918214010809/18/19 21:40:31  5-MIN KNEW 190340Z AUTO 31003KT 10SM CLR 28/24 A2998 -40 76 1500 310/03 RMK AO2 T02830239
53917KNEW NEW20190918214510809/18/19 21:45:31  5-MIN KNEW 190345Z AUTO 29003KT 10SM CLR 28/24 A2998 -40 76 1500 290/03 RMK AO2 T02830239
53917KNEW NEW20190918215011509/18/19 21:50:31  5-MIN KNEW 190350Z AUTO 30003KT 10SM CLR 28/24 A2998 -40 76 1500 300/03 RMK AO2 SLP144 T02830239
53917KNEW NEW20190918215510809/18/19 21:55:31  5-MIN KNEW 190355Z AUTO 30004KT 10SM CLR 28/24 A2997 -40 76 1500 300/04 RMK AO2 T02830239
53917KNEW NEW20190918220010809/18/19 22:00:31  5-MIN KNEW 190400Z AUTO 31004KT 10SM CLR 28/24 A2997 -30 79 1500 310/04 RMK AO2 T02780239
53917KNEW NEW20190918220510809/18/19 22:05:31  5-MIN KNEW 190405Z AUTO 32004KT 10SM CLR 28/24 A2997 -40 79 1500 320/04 RMK AO2 T02780239
53917KNEW NEW20190918221010809/18/19 22:10:31  5-MIN KNEW 190410Z AUTO 35003KT 10SM CLR 28/24 A2998 -40 82 1500 350/03 RMK AO2 T02780244
53917KNEW NEW20190918221510809/18/19 22:15:31  5-MIN KNEW 190415Z AUTO 31003KT 10SM CLR 28/24 A2997 -40 79 1500 310/03 RMK AO2 T02780239
53917KNEW NEW20190918222010809/18/19 22:20:31  5-MIN KNEW 190420Z AUTO 33003KT 10SM CLR 28/24 A2997 -40 79 1500 330/03 RMK AO2 T02830244
53917KNEW NEW20190918222510809/18/19 22:25:31  5-MIN KNEW 190425Z AUTO 00000KT 10SM CLR 28/24 A2997 -30 79 1500 000/00 RMK AO2 T02780239
53917KNEW NEW20190918223010809/18/19 22:30:31  5-MIN KNEW 190430Z AUTO 00000KT 10SM CLR 28/24 A2997 -30 76 1500 000/00 RMK AO2 T02830239
53917KNEW NEW20190918223510809/18/19 22:35:31  5-MIN KNEW 190435Z AUTO 00000KT 10SM CLR 28/24 A2997 -30 79 1500 000/00 RMK AO2 T02780239
53917KNEW NEW20190918224010809/18/19 22:40:31  5-MIN KNEW 190440Z AUTO 00000KT 10SM CLR 28/24 A2997 -30 79 1500 000/00 RMK AO2 T02780239
53917KNEW NEW20190918224510809/18/19 22:45:31  5-MIN KNEW 190445Z AUTO 00000KT 10SM CLR 28/24 A2997 -30 82 1500 000/00 RMK AO2 T02780244
53917KNEW NEW20190918225011509/18/19 22:50:31  5-MIN KNEW 190450Z AUTO 00000KT 10SM CLR 28/24 A2997 -30 82 1500 000/00 RMK AO2 SLP141 T02780244
53917KNEW NEW20190918225510809/18/19 22:55:31  5-MIN KNEW 190455Z AUTO 00000KT 10SM CLR 28/24 A2997 -30 82 1500 000/00 RMK AO2 T02780244
53917KNEW NEW20190918230010809/18/19 23:00:31  5-MIN KNEW 190500Z AUTO 00000KT 10SM CLR 28/24 A2997 -30 82 1500 000/00 RMK AO2 T02780244
53917KNEW NEW20190918230510809/18/19 23:05:31  5-MIN KNEW 190505Z AUTO 00000KT 10SM CLR 28/24 A2997 -30 82 1500 000/00 RMK AO2 T02780244
53917KNEW NEW20190918231010809/18/19 23:10:31  5-MIN KNEW 190510Z AUTO 00000KT 10SM CLR 28/24 A2997 -30 82 1500 000/00 RMK AO2 T02780244
53917KNEW NEW20190918231510809/18/19 23:15:31  5-MIN KNEW 190515Z AUTO 00000KT 10SM CLR 28/24 A2997 -30 82 1500 000/00 RMK AO2 T02780244
53917KNEW NEW20190918232010809/18/19 23:20:31  5-MIN KNEW 190520Z AUTO 00000KT 10SM CLR 28/24 A2997 -30 82 1500 000/00 RMK AO2 T02780244
53917KNEW NEW20190918232510809/18/19 23:25:31  5-MIN KNEW 190525Z AUTO 00000KT 10SM CLR 28/24 A2997 -30 82 1500 000/00 RMK AO2 T02780244
53917KNEW NEW20190918233010809/18/19 23:30:31  5-MIN KNEW 190530Z AUTO 00000KT 10SM CLR 28/24 A2997 -30 82 1500 000/00 RMK AO2 T02780244
53917KNEW NEW20190918233510809/18/19 23:35:31  5-MIN KNEW 190535Z AUTO 00000KT 10SM CLR 28/24 A2996 -30 82 1500 000/00 RMK AO2 T02780244
53917KNEW NEW20190918234010809/18/19 23:40:31  5-MIN KNEW 190540Z AUTO 00000KT 10SM CLR 28/24 A2996 -30 82 1500 000/00 RMK AO2 T02780244
53917KNEW NEW20190918234510809/18/19 23:45:31  5-MIN KNEW 190545Z AUTO 00000KT 10SM CLR 28/24 A2996 -30 79 1500 000/00 RMK AO2 T02780239
53917KNEW NEW20190918235014909/18/19 23:50:31  5-MIN KNEW 190550Z AUTO 00000KT 10SM CLR 28/24 A2996 -30 82 1500 000/00 RMK AO2 SLP140 60000 T02780244 10283 20278 403440261 53005
53917KNEW NEW20190918235510809/18/19 23:55:31  5-MIN KNEW 190555Z AUTO 00000KT 10SM CLR 28/24 A2996 -20 82 1500 000/00 RMK AO2 T02780244
53917KNEW NEW20190919000010809/19/19 00:00:31  5-MIN KNEW 190600Z AUTO 00000KT 10SM CLR 27/24 A2996 -20 82 1400 000/00 RMK AO2 T02720239
53917KNEW NEW20190919000510809/19/19 00:05:31  5-MIN KNEW 190605Z AUTO 00000KT 10SM CLR 27/24 A2995 -20 82 1400 000/00 RMK AO2 T02720239
53917KNEW NEW20190919001010809/19/19 00:10:31  5-MIN KNEW 190610Z AUTO 00000KT 10SM CLR 27/24 A2995 -20 82 1400 000/00 RMK AO2 T02720239
53917KNEW NEW20190919001510809/19/19 00:15:31  5-MIN KNEW 190615Z AUTO 00000KT 10SM CLR 28/24 A2995 -10 79 1500 000/00 RMK AO2 T02780239
53917KNEW NEW20190919002010809/19/19 00:20:31  5-MIN KNEW 190620Z AUTO 00000KT 10SM CLR 27/24 A2995 -20 82 1400 000/00 RMK AO2 T02720239
53917KNEW NEW20190919002510809/19/19 00:25:31  5-MIN KNEW 190625Z AUTO 00000KT 10SM CLR 27/24 A2995 -10 82 1400 000/00 RMK AO2 T02720239
53917KNEW NEW20190919003010809/19/19 00:30:31  5-MIN KNEW 190630Z AUTO 00000KT 10SM CLR 27/24 A2995 -10 82 1400 000/00 RMK AO2 T02720239
53917KNEW NEW20190919003510809/19/19 00:35:31  5-MIN KNEW 190635Z AUTO 00000KT 10SM CLR 27/24 A2995 -10 84 1400 000/00 RMK AO2 T02670239
53917KNEW NEW20190919004010809/19/19 00:40:31  5-MIN KNEW 190640Z AUTO 10003KT 10SM CLR 27/24 A2995 -10 82 1400 100/03 RMK AO2 T02720239
53917KNEW NEW20190919004510809/19/19 00:45:31  5-MIN KNEW 190645Z AUTO 09003KT 10SM CLR 27/24 A2994 -10 84 1400 090/03 RMK AO2 T02720244
53917KNEW NEW20190919005011509/19/19 00:50:31  5-MIN KNEW 190650Z AUTO 09003KT 10SM CLR 27/24 A2994 -10 84 1400 090/03 RMK AO2 SLP133 T02720244
53917KNEW NEW20190919005510809/19/19 00:55:31  5-MIN KNEW 190655Z AUTO 09003KT 10SM CLR 27/24 A2994 -10 84 1400 090/03 RMK AO2 T02720244
53917KNEW NEW20190919010010809/19/19 01:00:31  5-MIN KNEW 190700Z AUTO 10003KT 10SM CLR 27/24 A2994 -10 84 1400 100/03 RMK AO2 T02720244
53917KNEW NEW20190919010510809/19/19 01:05:31  5-MIN KNEW 190705Z AUTO 10004KT 10SM CLR 27/24 A2995 -10 84 1400 100/04 RMK AO2 T02720244
53917KNEW NEW20190919011010809/19/19 01:10:31  5-MIN KNEW 190710Z AUTO 11004KT 10SM CLR 27/24 A2994 -10 84 1400 110/04 RMK AO2 T02720244
53917KNEW NEW20190919011510809/19/19 01:15:31  5-MIN KNEW 190715Z AUTO 11004KT 10SM CLR 27/24 A2994 -10 84 1400 110/04 RMK AO2 T02720244
53917KNEW NEW20190919012010809/19/19 01:20:31  5-MIN KNEW 190720Z AUTO 10004KT 10SM CLR 27/24 A2994 -10 84 1400 100/04 RMK AO2 T02720244
53917KNEW NEW20190919012510809/19/19 01:25:31  5-MIN KNEW 190725Z AUTO 10004KT 10SM CLR 27/24 A2994 -10 84 1400 100/04 RMK AO2 T02720244
53917KNEW NEW20190919013010809/19/19 01:30:31  5-MIN KNEW 190730Z AUTO 10005KT 10SM CLR 27/24 A2994 -10 84 1400 100/05 RMK AO2 T02720244
53917KNEW NEW20190919013510609/19/19 01:35:31  5-MIN KNEW 190735Z AUTO 09006KT 10SM CLR 27/24 A2994 0 84 1400 090/06 RMK AO2 T02720244
53917KNEW NEW20190919014010609/19/19 01:40:31  5-MIN KNEW 190740Z AUTO 08006KT 10SM CLR 27/24 A2994 0 84 1400 080/06 RMK AO2 T02720244
53917KNEW NEW20190919014510609/19/19 01:45:31  5-MIN KNEW 190745Z AUTO 09004KT 10SM CLR 27/24 A2994 0 84 1400 090/04 RMK AO2 T02720244
53917KNEW NEW20190919015011509/19/19 01:50:31  5-MIN KNEW 190750Z AUTO 09004KT 10SM CLR 27/24 A2994 -10 84 1400 090/04 RMK AO2 SLP133 T02720244
53917KNEW NEW20190919015510809/19/19 01:55:31  5-MIN KNEW 190755Z AUTO 09003KT 10SM CLR 27/24 A2994 -10 84 1400 090/03 RMK AO2 T02720244
53917KNEW NEW20190919020010809/19/19 02:00:31  5-MIN KNEW 190800Z AUTO 09004KT 10SM CLR 27/24 A2994 -10 84 1400 090/04 RMK AO2 T02720244
53917KNEW NEW20190919020510809/19/19 02:05:31  5-MIN KNEW 190805Z AUTO 09004KT 10SM CLR 27/24 A2995 -10 84 1400 090/04 RMK AO2 T02720244
53917KNEW NEW20190919021010809/19/19 02:10:31  5-MIN KNEW 190810Z AUTO 09004KT 10SM CLR 27/24 A2994 -10 84 1400 090/04 RMK AO2 T02720244
53917KNEW NEW20190919021510809/19/19 02:15:31  5-MIN KNEW 190815Z AUTO 08004KT 10SM CLR 27/24 A2994 -10 84 1400 080/04 RMK AO2 T02720244
53917KNEW NEW20190919022010609/19/19 02:20:31  5-MIN KNEW 190820Z AUTO 08004KT 10SM CLR 27/24 A2994 0 84 1400 080/04 RMK AO2 T02720244
53917KNEW NEW20190919022510609/19/19 02:25:31  5-MIN KNEW 190825Z AUTO 08005KT 10SM CLR 27/24 A2994 0 84 1400 080/05 RMK AO2 T02720244
53917KNEW NEW20190919023010609/19/19 02:30:31  5-MIN KNEW 190830Z AUTO 09005KT 10SM CLR 27/24 A2993 0 84 1400 090/05 RMK AO2 T02720244
53917KNEW NEW20190919023510609/19/19 02:35:31  5-MIN KNEW 190835Z AUTO 08004KT 10SM CLR 27/24 A2993 0 84 1500 080/04 RMK AO2 T02720244
53917KNEW NEW20190919024010609/19/19 02:40:31  5-MIN KNEW 190840Z AUTO 09005KT 10SM CLR 27/24 A2993 0 84 1400 090/05 RMK AO2 T02720244
53917KNEW NEW20190919024510609/19/19 02:45:31  5-MIN KNEW 190845Z AUTO 09005KT 10SM CLR 27/24 A2994 0 84 1400 090/05 RMK AO2 T02720244
53917KNEW NEW20190919025011909/19/19 02:50:31  5-MIN KNEW 190850Z AUTO 09005KT 10SM CLR 27/24 A2993 0 84 1400 090/05 RMK AO2 SLP130 T02720244 58006
53917KNEW NEW20190919025510609/19/19 02:55:31  5-MIN KNEW 190855Z AUTO 09006KT 10SM CLR 27/24 A2993 0 84 1400 090/06 RMK AO2 T02720244
53917KNEW NEW20190919030010609/19/19 03:00:31  5-MIN KNEW 190900Z AUTO 08006KT 10SM CLR 27/24 A2993 0 84 1400 080/06 RMK AO2 T02720244
53917KNEW NEW20190919030510609/19/19 03:05:31  5-MIN KNEW 190905Z AUTO 08007KT 10SM CLR 27/24 A2993 0 84 1400 080/07 RMK AO2 T02720244
53917KNEW NEW20190919031010609/19/19 03:10:31  5-MIN KNEW 190910Z AUTO 08006KT 10SM CLR 27/24 A2994 0 82 1400 080/06 RMK AO2 T02720239
53917KNEW NEW20190919031510609/19/19 03:15:31  5-MIN KNEW 190915Z AUTO 08006KT 10SM CLR 27/24 A2994 0 82 1400 080/06 RMK AO2 T02720239
53917KNEW NEW20190919032010809/19/19 03:20:31  5-MIN KNEW 190920Z AUTO 08004KT 10SM CLR 27/24 A2994 -10 82 1400 080/04 RMK AO2 T02720239
53917KNEW NEW20190919032511109/19/19 03:25:31  5-MIN KNEW 190925Z AUTO 07005KT 10SM FEW018 27/24 A2995 -10 84 1400 070/05 RMK AO2 T02670239
53917KNEW NEW20190919033011109/19/19 03:30:31  5-MIN KNEW 190930Z AUTO 07005KT 10SM SCT018 27/24 A2995 -10 82 1400 070/05 RMK AO2 T02720239
53917KNEW NEW20190919033511109/19/19 03:35:31  5-MIN KNEW 190935Z AUTO 08004KT 10SM BKN018 27/24 A2995 -10 82 1400 080/04 RMK AO2 T02720239
53917KNEW NEW20190919034011809/19/19 03:40:31  5-MIN KNEW 190940Z AUTO 08004KT 10SM FEW014 BKN018 27/24 A2995 -10 82 1400 080/04 RMK AO2 T02720239
53917KNEW NEW20190919034511809/19/19 03:45:31  5-MIN KNEW 190945Z AUTO 08005KT 10SM SCT014 BKN018 27/24 A2995 -10 82 1400 080/05 RMK AO2 T02720239
53917KNEW NEW20190919035011809/19/19 03:50:31  5-MIN KNEW 190950Z AUTO 09005KT 10SM OVC017 27/24 A2995 -10 82 1400 090/05 RMK AO2 SLP136 T02720239
53917KNEW NEW20190919035511809/19/19 03:55:31  5-MIN KNEW 190955Z AUTO 08006KT 10SM SCT014 OVC019 27/24 A2995 -10 84 1400 080/06 RMK AO2 T02670239
53917KNEW NEW20190919040011809/19/19 04:00:31  5-MIN KNEW 191000Z AUTO 08005KT 10SM BKN014 OVC019 27/24 A2995 -20 84 1400 080/05 RMK AO2 T02670239
53917KNEW NEW20190919040511809/19/19 04:05:31  5-MIN KNEW 191005Z AUTO 07005KT 10SM BKN014 OVC021 27/24 A2996 -20 82 1400 070/05 RMK AO2 T02720239
53917KNEW NEW20190919041011809/19/19 04:10:31  5-MIN KNEW 191010Z AUTO 09006KT 10SM BKN014 OVC021 27/24 A2995 -20 82 1400 090/06 RMK AO2 T02720239
53917KNEW NEW20190919041511809/19/19 04:15:31  5-MIN KNEW 191015Z AUTO 08006KT 10SM BKN014 BKN021 27/24 A2995 -10 84 1400 080/06 RMK AO2 T02670239
53917KNEW NEW20190919042011809/19/19 04:20:31  5-MIN KNEW 191020Z AUTO 07005KT 10SM BKN014 BKN023 27/24 A2995 -10 84 1400 070/05 RMK AO2 T02670239
53917KNEW NEW20190919042511809/19/19 04:25:31  5-MIN KNEW 191025Z AUTO 06006KT 10SM BKN014 BKN023 27/24 A2995 -20 82 1400 060/06 RMK AO2 T02720239
53917KNEW NEW20190919043011809/19/19 04:30:31  5-MIN KNEW 191030Z AUTO 07006KT 10SM BKN014 BKN023 27/24 A2996 -20 84 1400 070/06 RMK AO2 T02670239
53917KNEW NEW20190919043511809/19/19 04:35:31  5-MIN KNEW 191035Z AUTO 07007KT 10SM BKN014 BKN023 27/24 A2996 -20 82 1400 070/07 RMK AO2 T02720239
53917KNEW NEW20190919044011109/19/19 04:40:31  5-MIN KNEW 191040Z AUTO 08007KT 10SM BKN014 27/24 A2996 -20 82 1400 080/07 RMK AO2 T02720239
53917KNEW NEW20190919044511109/19/19 04:45:31  5-MIN KNEW 191045Z AUTO 08007KT 10SM OVC015 27/24 A2996 -20 84 1400 080/07 RMK AO2 T02670239
53917KNEW NEW20190919045011809/19/19 04:50:31  5-MIN KNEW 191050Z AUTO 09008KT 10SM BKN015 27/24 A2996 -30 84 1300 090/08 RMK AO2 SLP140 T02670239
53917KNEW NEW20190919045511109/19/19 04:55:31  5-MIN KNEW 191055Z AUTO 09008KT 10SM BKN015 27/24 A2997 -30 84 1300 090/08 RMK AO2 T02670239
53917KNEW NEW20190919050011109/19/19 05:00:31  5-MIN KNEW 191100Z AUTO 08008KT 10SM BKN015 27/24 A2997 -30 84 1300 080/08 RMK AO2 T02670239
53917KNEW NEW20190919050511109/19/19 05:05:31  5-MIN KNEW 191105Z AUTO 09008KT 10SM BKN015 27/23 A2997 -30 82 1300 090/08 RMK AO2 T02670233
53917KNEW NEW20190919051011109/19/19 05:10:31  5-MIN KNEW 191110Z AUTO 09007KT 10SM BKN015 27/24 A2997 -30 84 1300 090/07 RMK AO2 T02670239
53917KNEW NEW20190919051511109/19/19 05:15:31  5-MIN KNEW 191115Z AUTO 10006KT 10SM BKN015 27/24 A2998 -40 84 1300 100/06 RMK AO2 T02670239
53917KNEW NEW20190919052011809/19/19 05:20:31  5-MIN KNEW 191120Z AUTO 11005KT 10SM BKN015 BKN027 27/24 A2998 -40 84 1300 110/05 RMK AO2 T02670239
53917KNEW NEW20190919052511809/19/19 05:25:31  5-MIN KNEW 191125Z AUTO 11005KT 10SM BKN015 BKN024 26/24 A2998 -40 87 1300 110/05 RMK AO2 T02610239
53917KNEW NEW20190919053011809/19/19 05:30:31  5-MIN KNEW 191130Z AUTO 10005KT 10SM SCT015 BKN022 26/24 A2998 -40 87 1300 100/05 RMK AO2 T02610239
53917KNEW NEW20190919053511809/19/19 05:35:31  5-MIN KNEW 191135Z AUTO 11004KT 10SM SCT015 BKN024 26/24 A2998 -40 87 1300 110/04 RMK AO2 T02610239
53917KNEW NEW20190919054011809/19/19 05:40:31  5-MIN KNEW 191140Z AUTO 10005KT 10SM SCT015 BKN024 26/24 A2998 -40 87 1300 100/05 RMK AO2 T02610239
53917KNEW NEW20190919054511109/19/19 05:45:31  5-MIN KNEW 191145Z AUTO 09005KT 10SM FEW015 26/23 A2998 -40 84 1300 090/05 RMK AO2 T02610233
53917KNEW NEW20190919055010109/19/19 05:50:31  5-MIN KNEW 191150Z AUTO 09006KT 10SM FEW015 26/23 A2998 -40 84 1300 090/06 RMK AO2
53917KNEW NEW20190919055510609/19/19 05:55:31  5-MIN KNEW 191155Z 10005KT 10SM FEW015 27/23 A2998 -40 82 1300 100/05 RMK AO2 T02670233
53917KNEW NEW20190919060010609/19/19 06:00:31  5-MIN KNEW 191200Z 09006KT 10SM FEW015 27/23 A2998 -40 82 1300 090/06 RMK AO2 T02670233
53917KNEW NEW20190919060510309/19/19 06:05:31  5-MIN KNEW 191205Z 09005KT 10SM CLR 27/23 A2998 -40 82 1300 090/05 RMK AO2 T02670233
53917KNEW NEW20190919061010309/19/19 06:10:31  5-MIN KNEW 191210Z 09005KT 10SM CLR 27/23 A2998 -40 82 1300 090/05 RMK AO2 T02670233
53917KNEW NEW20190919061510309/19/19 06:15:31  5-MIN KNEW 191215Z 10006KT 10SM CLR 27/23 A2998 -40 82 1300 100/06 RMK AO2 T02670233
53917KNEW NEW20190919062006809/19/19 06:20:31  5-MIN KNEW 191220Z 10006KT M M M 100/06 RMK AO2 $
53917KNEW NEW20190919062509609/19/19 06:25:31  5-MIN KNEW 191225Z 11005KT 27/23 A2998 -40 82 1300 110/05 RMK AO2 T02670233 $
53917KNEW NEW20190919063010109/19/19 06:30:31  5-MIN KNEW 191230Z 10006KT 10SM 27/23 A2998 -40 82 1300 100/06 RMK AO2 T02670233 $
53917KNEW NEW20190919063509909/19/19 06:35:31  5-MIN KNEW 191235Z 11005KT 10SM 27/23 A2998 -40 82 1300 110/05 RMK AO2 T02670233
53917KNEW NEW20190919064009909/19/19 06:40:31  5-MIN KNEW 191240Z 11004KT 10SM 27/24 A2998 -40 82 1400 110/04 RMK AO2 T02720239
53917KNEW NEW20190919064509909/19/19 06:45:31  5-MIN KNEW 191245Z 11003KT 10SM 27/24 A2998 -40 82 1400 110/03 RMK AO2 T02720239
53917KNEW NEW20190919065011009/19/19 06:50:31  5-MIN KNEW 191250Z 11003KT 10SM CLR 27/24 A2998 -40 82 1400 110/03 RMK AO2 SLP147 T02720239
53917KNEW NEW20190919065510309/19/19 06:55:31  5-MIN KNEW 191255Z 10004KT 10SM CLR 28/24 A2998 -40 79 1500 100/04 RMK AO2 T02780239
53917KNEW NEW20190919070010309/19/19 07:00:31  5-MIN KNEW 191300Z 10004KT 10SM CLR 28/24 A2999 -50 79 1400 100/04 RMK AO2 T02780239
53917KNEW NEW20190919070510309/19/19 07:05:31  5-MIN KNEW 191305Z 12003KT 10SM CLR 28/24 A2999 -50 79 1400 120/03 RMK AO2 T02780239
53917KNEW NEW20190919071010309/19/19 07:10:31  5-MIN KNEW 191310Z 10003KT 10SM CLR 28/24 A2999 -50 79 1400 100/03 RMK AO2 T02780239
53917KNEW NEW20190919071510309/19/19 07:15:31  5-MIN KNEW 191315Z 12003KT 10SM CLR 28/24 A2999 -50 82 1400 120/03 RMK AO2 T02780244
53917KNEW NEW20190919072010309/19/19 07:20:31  5-MIN KNEW 191320Z 11004KT 10SM CLR 28/24 A2999 -50 79 1500 110/04 RMK AO2 T02830244
53917KNEW NEW20190919072510309/19/19 07:25:31  5-MIN KNEW 191325Z 12004KT 10SM CLR 28/24 A2999 -50 79 1400 120/04 RMK AO2 T02780239
53917KNEW NEW20190919073010309/19/19 07:30:31  5-MIN KNEW 191330Z 13004KT 10SM CLR 28/24 A2999 -50 79 1500 130/04 RMK AO2 T02830244
53917KNEW NEW20190919073510309/19/19 07:35:31  5-MIN KNEW 191335Z 00000KT 10SM CLR 28/24 A3000 -60 79 1500 000/00 RMK AO2 T02830244
53917KNEW NEW20190919074010309/19/19 07:40:31  5-MIN KNEW 191340Z 12003KT 10SM CLR 28/24 A3000 -60 79 1500 120/03 RMK AO2 T02830244
53917KNEW NEW20190919074510309/19/19 07:45:31  5-MIN KNEW 191345Z 14004KT 10SM CLR 29/24 A3000 -60 76 1600 140/04 RMK AO2 T02890244
53917KNEW NEW20190919075011009/19/19 07:50:31  5-MIN KNEW 191350Z 11004KT 10SM CLR 28/24 A3000 -60 76 1500 110/04 RMK AO2 SLP152 T02830239
53917KNEW NEW20190919075510309/19/19 07:55:31  5-MIN KNEW 191355Z VRB03KT 10SM CLR 28/24 A3000 -60 76 1500 VRB/03 RMK AO2 T02830239
53917KNEW NEW20190919080010309/19/19 08:00:31  5-MIN KNEW 191400Z 15003KT 10SM CLR 29/24 A3001 -60 74 1600 150/03 RMK AO2 T02890239
53917KNEW NEW20190919080510309/19/19 08:05:31  5-MIN KNEW 191405Z 13003KT 10SM CLR 29/24 A3000 -60 74 1600 130/03 RMK AO2 T02890239
53917KNEW NEW20190919081010309/19/19 08:10:31  5-MIN KNEW 191410Z 12004KT 10SM CLR 29/24 A3000 -60 74 1600 120/04 RMK AO2 T02890239
53917KNEW NEW20190919081510309/19/19 08:15:31  5-MIN KNEW 191415Z 14004KT 10SM CLR 29/24 A3001 -70 74 1600 140/04 RMK AO2 T02890239
53917KNEW NEW20190919082010309/19/19 08:20:31  5-MIN KNEW 191420Z 14004KT 10SM CLR 29/24 A3001 -70 74 1500 140/04 RMK AO2 T02890239
53917KNEW NEW20190919082510309/19/19 08:25:31  5-MIN KNEW 191425Z 10003KT 10SM CLR 29/24 A3001 -70 74 1500 100/03 RMK AO2 T02890239
53917KNEW NEW20190919083010309/19/19 08:30:31  5-MIN KNEW 191430Z 14003KT 10SM CLR 29/24 A3001 -70 71 1600 140/03 RMK AO2 T02940239
53917KNEW NEW20190919083510309/19/19 08:35:31  5-MIN KNEW 191435Z 12005KT 10SM CLR 29/24 A3001 -70 71 1600 120/05 RMK AO2 T02940239
53917KNEW NEW20190919084010309/19/19 08:40:31  5-MIN KNEW 191440Z 12004KT 10SM CLR 29/24 A3001 -70 71 1600 120/04 RMK AO2 T02940239
53917KNEW NEW20190919084510309/19/19 08:45:31  5-MIN KNEW 191445Z 00000KT 10SM CLR 29/24 A3001 -70 74 1600 000/00 RMK AO2 T02940244
53917KNEW NEW20190919085011009/19/19 08:50:31  5-MIN KNEW 191450Z 08005KT 10SM CLR 30/24 A3002 -70 69 1700 080/05 RMK AO2 SLP158 T03000239
53917KNEW NEW20190919085510309/19/19 08:55:31  5-MIN KNEW 191455Z 11005KT 10SM CLR 29/24 A3002 -80 71 1600 110/05 RMK AO2 T02940239
53917KNEW NEW20190919090010609/19/19 09:00:31  5-MIN KNEW 191500Z 10005KT 10SM FEW023 29/24 A3002 -80 71 1600 100/05 RMK AO2 T02940239
53917KNEW NEW20190919090511309/19/19 09:05:31  5-MIN KNEW 191505Z 07003KT 10SM FEW023 FEW028 29/24 A3002 -80 71 1600 070/03 RMK AO2 T02940239
53917KNEW NEW20190919091010609/19/19 09:10:31  5-MIN KNEW 191510Z VRB03KT 10SM SCT026 29/24 A3002 -80 71 1600 VRB/03 RMK AO2 T02940239
53917KNEW NEW20190919091510609/19/19 09:15:31  5-MIN KNEW 191515Z 13006KT 10SM SCT026 30/23 A3002 -80 67 1700 130/06 RMK AO2 T03000233
53917KNEW NEW20190919092010609/19/19 09:20:31  5-MIN KNEW 191520Z VRB06KT 10SM FEW026 30/23 A3002 -80 67 1700 VRB/06 RMK AO2 T03000233
53917KNEW NEW20190919092511309/19/19 09:25:31  5-MIN KNEW 191525Z 12005KT 10SM FEW025 SCT036 30/24 A3002 -80 69 1700 120/05 RMK AO2 T03000239
53917KNEW NEW20190919093011309/19/19 09:30:31  5-MIN KNEW 191530Z 13007KT 10SM FEW025 FEW036 30/23 A3002 -80 67 1700 130/07 RMK AO2 T03000233
53917KNEW NEW20190919093511309/19/19 09:35:31  5-MIN KNEW 191535Z 12006KT 10SM FEW025 SCT041 30/23 A3002 -80 67 1700 120/06 RMK AO2 T03000233
53917KNEW NEW20190919094011309/19/19 09:40:31  5-MIN KNEW 191540Z 10007KT 10SM FEW027 SCT041 30/23 A3002 -80 67 1700 100/07 RMK AO2 T03000233
53917KNEW NEW20190919094511309/19/19 09:45:31  5-MIN KNEW 191545Z 11006KT 10SM FEW029 SCT041 30/23 A3002 -80 67 1700 110/06 RMK AO2 T03000233
53917KNEW NEW20190919095012009/19/19 09:50:31  5-MIN KNEW 191550Z 13006KT 10SM SCT029 BKN041 30/23 A3002 -80 67 1700 130/06 RMK AO2 SLP161 T03000233
53917KNEW NEW20190919095511309/19/19 09:55:31  5-MIN KNEW 191555Z 13004KT 10SM SCT028 SCT041 30/23 A3002 -80 67 1700 130/04 RMK AO2 T03000233
53917KNEW NEW20190919100011309/19/19 10:00:31  5-MIN KNEW 191600Z 11006KT 10SM FEW028 SCT041 31/23 A3002 -80 65 1700 110/06 RMK AO2 T03060233
53917KNEW NEW20190919100511309/19/19 10:05:31  5-MIN KNEW 191605Z 10006KT 10SM SCT028 BKN041 31/23 A3002 -80 62 1700 100/06 RMK AO2 T03060228
53917KNEW NEW20190919101010609/19/19 10:10:31  5-MIN KNEW 191610Z 08007KT 10SM SCT028 31/23 A3002 -80 65 1700 080/07 RMK AO2 T03060233
53917KNEW NEW20190919101510609/19/19 10:15:31  5-MIN KNEW 191615Z 12007KT 10SM FEW027 31/23 A3002 -70 63 1800 120/07 RMK AO2 T03110233
53917KNEW NEW20190919102010609/19/19 10:20:31  5-MIN KNEW 191620Z 11006KT 10SM FEW027 31/23 A3002 -80 62 1700 110/06 RMK AO2 T03060228
53917KNEW NEW20190919102511309/19/19 10:25:31  5-MIN KNEW 191625Z 09006KT 10SM SCT029 SCT039 31/23 A3002 -80 62 1700 090/06 RMK AO2 T03060228
53917KNEW NEW20190919103011309/19/19 10:30:31  5-MIN KNEW 191630Z 10008KT 10SM BKN031 BKN039 31/23 A3002 -80 65 1700 100/08 RMK AO2 T03060233
53917KNEW NEW20190919103511309/19/19 10:35:31  5-MIN KNEW 191635Z 12008KT 10SM BKN033 BKN042 31/22 A3002 -70 60 1700 120/08 RMK AO2 T03060222
53917KNEW NEW20190919104011309/19/19 10:40:31  5-MIN KNEW 191640Z 11007KT 10SM BKN033 BKN040 31/23 A3001 -70 60 1800 110/07 RMK AO2 T03110228
53917KNEW NEW20190919104511309/19/19 10:45:31  5-MIN KNEW 191645Z 13008KT 10SM BKN033 BKN040 31/23 A3002 -70 60 1800 130/08 RMK AO2 T03110228
53917KNEW NEW20190919105011309/19/19 10:50:31  5-MIN KNEW 191650Z 12008KT 10SM BKN033 31/23 A3002 -70 60 1800 120/08 RMK AO2 SLP157 T03110228
53917KNEW NEW20190919105511309/19/19 10:55:31  5-MIN KNEW 191655Z 12008KT 10SM SCT033 SCT042 31/22 A3001 -70 58 1800 120/08 RMK AO2 T03110222
53917KNEW NEW20190919110011309/19/19 11:00:31  5-MIN KNEW 191700Z 10007KT 10SM SCT035 BKN042 31/22 A3001 -70 58 1800 100/07 RMK AO2 T03110222
53917KNEW NEW20190919110510609/19/19 11:05:31  5-MIN KNEW 191705Z 10006KT 10SM SCT033 31/22 A3001 -70 58 1800 100/06 RMK AO2 T03110222
53917KNEW NEW20190919111010609/19/19 11:10:31  5-MIN KNEW 191710Z 12007KT 10SM SCT033 31/23 A3001 -70 60 1800 120/07 RMK AO2 T03110228
53917KNEW NEW20190919111510609/19/19 11:15:31  5-MIN KNEW 191715Z 08006KT 10SM SCT033 31/23 A3000 -60 60 1800 080/06 RMK AO2 T03110228
53917KNEW NEW20190919112010609/19/19 11:20:31  5-MIN KNEW 191720Z VRB03KT 10SM SCT035 31/22 A3000 -60 58 1800 VRB/03 RMK AO2 T03110222
53917KNEW NEW20190919112510609/19/19 11:25:31  5-MIN KNEW 191725Z 11008KT 10SM BKN035 31/23 A3000 -60 60 1800 110/08 RMK AO2 T03110228
53917KNEW NEW20190919113010609/19/19 11:30:31  5-MIN KNEW 191730Z 09007KT 10SM SCT035 32/23 A3000 -60 58 1900 090/07 RMK AO2 T03170228
53917KNEW NEW20190919113510609/19/19 11:35:31  5-MIN KNEW 191735Z 10008KT 10SM SCT035 32/23 A3000 -60 58 1900 100/08 RMK AO2 T03170228
53917KNEW NEW20190919114010609/19/19 11:40:31  5-MIN KNEW 191740Z 10010KT 10SM SCT033 32/23 A3000 -60 61 1900 100/10 RMK AO2 T03170233
53917KNEW NEW20190919114510609/19/19 11:45:31  5-MIN KNEW 191745Z 10009KT 10SM BKN033 32/23 A3000 -60 61 1900 100/09 RMK AO2 T03170233
53917KNEW NEW20190919115012509/19/19 11:50:31  5-MIN KNEW 191750Z 09009KT 10SM BKN033 31/23 A3000 -60 63 1800 090/09 RMK AO2 SLP153 T03110233 10317 20267
53917KNEW NEW20190919115510609/19/19 11:55:31  5-MIN KNEW 191755Z 10011KT 10SM SCT033 32/23 A3000 -60 61 1900 100/11 RMK AO2 T03170233
53917KNEW NEW20190919120010609/19/19 12:00:31  5-MIN KNEW 191800Z 10008KT 10SM SCT034 32/23 A3000 -60 61 1900 100/08 RMK AO2 T03170233
53917KNEW NEW20190919120510609/19/19 12:05:31  5-MIN KNEW 191805Z 10008KT 10SM SCT034 32/23 A3000 -60 61 1900 100/08 RMK AO2 T03170233
53917KNEW NEW20190919121010609/19/19 12:10:31  5-MIN KNEW 191810Z 11008KT 10SM FEW034 32/23 A3000 -60 61 1900 110/08 RMK AO2 T03170233
53917KNEW NEW20190919121510609/19/19 12:15:31  5-MIN KNEW 191815Z 10010KT 10SM FEW034 32/23 A3000 -60 59 1900 100/10 RMK AO2 T03220233
53917KNEW NEW20190919122010609/19/19 12:20:31  5-MIN KNEW 191820Z 11011KT 10SM FEW032 33/23 A2999 -50 57 2000 110/11 RMK AO2 T03280233
53917KNEW NEW20190919122510609/19/19 12:25:31  5-MIN KNEW 191825Z 10007KT 10SM FEW032 32/23 A2999 -50 57 1900 100/07 RMK AO2 T03220228
53917KNEW NEW20190919123011309/19/19 12:30:31  5-MIN KNEW 191830Z 09008KT 10SM FEW036 FEW047 32/23 A2999 -50 61 1900 090/08 RMK AO2 T03170233
53917KNEW NEW20190919123511309/19/19 12:35:31  5-MIN KNEW 191835Z 13007KT 10SM SCT038 SCT047 32/23 A2999 -50 59 1900 130/07 RMK AO2 T03220233
53917KNEW NEW20190919124011309/19/19 12:40:31  5-MIN KNEW 191840Z 14008KT 10SM SCT038 BKN047 32/22 A2999 -50 53 1900 140/08 RMK AO2 T03220217
53917KNEW NEW20190919124511309/19/19 12:45:31  5-MIN KNEW 191845Z 10006KT 10SM SCT040 SCT047 33/22 A2998 -40 51 2000 100/06 RMK AO2 T03280217
53917KNEW NEW20190919125012009/19/19 12:50:31  5-MIN KNEW 191850Z 12009KT 10SM SCT038 SCT047 32/22 A2998 -40 55 1900 120/09 RMK AO2 SLP147 T03220222
53917KNEW NEW20190919125511309/19/19 12:55:31  5-MIN KNEW 191855Z 17008KT 10SM SCT038 SCT047 33/22 A2998 -40 51 2000 170/08 RMK AO2 T03280217
53917KNEW NEW20190919130010609/19/19 13:00:31  5-MIN KNEW 191900Z 13007KT 10SM FEW041 33/22 A2998 -40 51 2000 130/07 RMK AO2 T03280217
53917KNEW NEW20190919130510609/19/19 13:05:31  5-MIN KNEW 191905Z 12007KT 10SM FEW041 32/21 A2998 -40 51 2000 120/07 RMK AO2 T03220211
53917KNEW NEW20190919131010609/19/19 13:10:31  5-MIN KNEW 191910Z 14008KT 10SM FEW041 33/21 A2998 -40 48 2000 140/08 RMK AO2 T03280206
53917KNEW NEW20190919131510609/19/19 13:15:31  5-MIN KNEW 191915Z 12009KT 10SM FEW041 32/21 A2998 -40 49 2000 120/09 RMK AO2 T03220206
53917KNEW NEW20190919132010309/19/19 13:20:31  5-MIN KNEW 191920Z 14006KT 10SM CLR 32/21 A2998 -40 49 2000 140/06 RMK AO2 T03220206
53917KNEW NEW20190919132510309/19/19 13:25:31  5-MIN KNEW 191925Z 13009KT 10SM CLR 33/21 A2998 -40 48 2000 130/09 RMK AO2 T03280206
53917KNEW NEW20190919133010309/19/19 13:30:31  5-MIN KNEW 191930Z 13009KT 10SM CLR 33/21 A2998 -40 49 2000 130/09 RMK AO2 T03280211
53917KNEW NEW20190919133510309/19/19 13:35:31  5-MIN KNEW 191935Z 16007KT 10SM CLR 33/19 A2997 -40 43 2100 160/07 RMK AO2 T03330194
53917KNEW NEW20190919134010309/19/19 13:40:31  5-MIN KNEW 191940Z 16005KT 10SM CLR 33/20 A2997 -30 46 2000 160/05 RMK AO2 T03280200
53917KNEW NEW20190919134510309/19/19 13:45:31  5-MIN KNEW 191945Z 14008KT 10SM CLR 33/21 A2997 -30 49 2000 140/08 RMK AO2 T03280211
53917KNEW NEW20190919135011009/19/19 13:50:31  5-MIN KNEW 191950Z 13008KT 10SM CLR 33/19 A2997 -30 44 2000 130/08 RMK AO2 SLP143 T03280194
53917KNEW NEW20190919135510309/19/19 13:55:31  5-MIN KNEW 191955Z 11007KT 10SM CLR 32/19 A2997 -30 46 2000 110/07 RMK AO2 T03220194
53917KNEW NEW20190919140010309/19/19 14:00:31  5-MIN KNEW 192000Z 13009KT 10SM CLR 32/19 A2997 -30 44 2000 130/09 RMK AO2 T03220189
53917KNEW NEW20190919140510309/19/19 14:05:31  5-MIN KNEW 192005Z 12010KT 10SM CLR 32/19 A2997 -30 46 2000 120/10 RMK AO2 T03220194
53917KNEW NEW20190919141010309/19/19 14:10:31  5-MIN KNEW 192010Z 12008KT 10SM CLR 32/19 A2997 -30 44 2000 120/08 RMK AO2 T03220189
53917KNEW NEW20190919141510309/19/19 14:15:31  5-MIN KNEW 192015Z 13010KT 10SM CLR 32/19 A2997 -30 46 2000 130/10 RMK AO2 T03220194
53917KNEW NEW20190919142010309/19/19 14:20:31  5-MIN KNEW 192020Z 12008KT 10SM CLR 32/19 A2997 -30 46 2000 120/08 RMK AO2 T03220194
53917KNEW NEW20190919142510309/19/19 14:25:31  5-MIN KNEW 192025Z 14008KT 10SM CLR 32/19 A2997 -30 46 2000 140/08 RMK AO2 T03220194
53917KNEW NEW20190919143010309/19/19 14:30:31  5-MIN KNEW 192030Z 12008KT 10SM CLR 32/19 A2997 -30 46 2000 120/08 RMK AO2 T03220194
53917KNEW NEW20190919143510309/19/19 14:35:31  5-MIN KNEW 192035Z 11009KT 10SM CLR 32/19 A2997 -30 46 2000 110/09 RMK AO2 T03220194
53917KNEW NEW20190919144010309/19/19 14:40:31  5-MIN KNEW 192040Z 12008KT 10SM CLR 32/20 A2997 -30 48 2000 120/08 RMK AO2 T03220200
53917KNEW NEW20190919144510309/19/19 14:45:31  5-MIN KNEW 192045Z 13010KT 10SM CLR 32/21 A2997 -30 49 2000 130/10 RMK AO2 T03220206
53917KNEW NEW20190919145011609/19/19 14:50:31  5-MIN KNEW 192050Z 12009KT 10SM CLR 32/20 A2997 -30 49 1900 120/09 RMK AO2 SLP141 T03170200 58006
53917KNEW NEW20190919145510309/19/19 14:55:31  5-MIN KNEW 192055Z 13010KT 10SM CLR 32/20 A2996 -30 49 1900 130/10 RMK AO2 T03170200
53917KNEW NEW20190919150010309/19/19 15:00:31  5-MIN KNEW 192100Z 12009KT 10SM CLR 32/20 A2997 -30 49 1900 120/09 RMK AO2 T03170200
53917KNEW NEW20190919150510309/19/19 15:05:31  5-MIN KNEW 192105Z 12008KT 10SM CLR 32/21 A2997 -30 51 1900 120/08 RMK AO2 T03170206
53917KNEW NEW20190919151010309/19/19 15:10:31  5-MIN KNEW 192110Z 13008KT 10SM CLR 32/21 A2997 -30 51 1900 130/08 RMK AO2 T03170206
53917KNEW NEW20190919151510309/19/19 15:15:31  5-MIN KNEW 192115Z 14010KT 10SM CLR 32/20 A2997 -30 49 1900 140/10 RMK AO2 T03170200
53917KNEW NEW20190919152010309/19/19 15:20:31  5-MIN KNEW 192120Z 13011KT 10SM CLR 32/21 A2997 -30 51 1900 130/11 RMK AO2 T03170206
53917KNEW NEW20190919152510309/19/19 15:25:31  5-MIN KNEW 192125Z 12010KT 10SM CLR 32/20 A2997 -30 49 1900 120/10 RMK AO2 T03170200
53917KNEW NEW20190919153010309/19/19 15:30:31  5-MIN KNEW 192130Z 14010KT 10SM CLR 32/20 A2997 -30 49 1900 140/10 RMK AO2 T03170200
53917KNEW NEW20190919153510309/19/19 15:35:31  5-MIN KNEW 192135Z 15010KT 10SM CLR 32/20 A2997 -30 49 1900 150/10 RMK AO2 T03170200
53917KNEW NEW20190919154010309/19/19 15:40:31  5-MIN KNEW 192140Z 14009KT 10SM CLR 32/19 A2997 -30 47 1900 140/09 RMK AO2 T03170194
53917KNEW NEW20190919154510309/19/19 15:45:31  5-MIN KNEW 192145Z 13009KT 10SM CLR 32/20 A2997 -40 49 1900 130/09 RMK AO2 T03170200
53917KNEW NEW20190919155011009/19/19 15:50:31  5-MIN KNEW 192150Z 12011KT 10SM CLR 32/19 A2998 -40 46 1900 120/11 RMK AO2 SLP144 T03170189
53917KNEW NEW20190919155510309/19/19 15:55:31  5-MIN KNEW 192155Z 13010KT 10SM CLR 32/19 A2998 -40 46 1900 130/10 RMK AO2 T03170189
53917KNEW NEW20190919160010309/19/19 16:00:31  5-MIN KNEW 192200Z 13009KT 10SM CLR 32/18 A2997 -40 44 1900 130/09 RMK AO2 T03170183
53917KNEW NEW20190919160510309/19/19 16:05:31  5-MIN KNEW 192205Z 13010KT 10SM CLR 32/17 A2997 -40 40 1900 130/10 RMK AO2 T03170167
53917KNEW NEW20190919161010309/19/19 16:10:31  5-MIN KNEW 192210Z 14009KT 10SM CLR 32/16 A2997 -30 38 1900 140/09 RMK AO2 T03170161
53917KNEW NEW20190919161510309/19/19 16:15:31  5-MIN KNEW 192215Z 14010KT 10SM CLR 32/16 A2997 -40 37 1900 140/10 RMK AO2 T03170156
53917KNEW NEW20190919162010309/19/19 16:20:31  5-MIN KNEW 192220Z 13007KT 10SM CLR 32/16 A2998 -40 38 1900 130/07 RMK AO2 T03170161
53917KNEW NEW20190919162510309/19/19 16:25:31  5-MIN KNEW 192225Z 12008KT 10SM CLR 32/17 A2997 -40 40 1900 120/08 RMK AO2 T03170167
53917KNEW NEW20190919163010309/19/19 16:30:31  5-MIN KNEW 192230Z 12010KT 10SM CLR 31/17 A2997 -40 42 1800 120/10 RMK AO2 T03110172
53917KNEW NEW20190919163510309/19/19 16:35:31  5-MIN KNEW 192235Z 12009KT 10SM CLR 31/17 A2997 -40 42 1800 120/09 RMK AO2 T03110172
53917KNEW NEW20190919164010309/19/19 16:40:31  5-MIN KNEW 192240Z 12009KT 10SM CLR 31/18 A2997 -40 44 1800 120/09 RMK AO2 T03110178
53917KNEW NEW20190919164510309/19/19 16:45:31  5-MIN KNEW 192245Z 12010KT 10SM CLR 31/18 A2998 -40 46 1800 120/10 RMK AO2 T03110183
53917KNEW NEW20190919165011009/19/19 16:50:31  5-MIN KNEW 192250Z 12009KT 10SM CLR 31/19 A2998 -40 47 1800 120/09 RMK AO2 SLP145 T03110189
53917KNEW NEW20190919165510309/19/19 16:55:31  5-MIN KNEW 192255Z 12010KT 10SM CLR 31/19 A2998 -40 49 1800 120/10 RMK AO2 T03110194
53917KNEW NEW20190919170010309/19/19 17:00:31  5-MIN KNEW 192300Z 12011KT 10SM CLR 31/20 A2998 -40 52 1800 120/11 RMK AO2 T03060200
53917KNEW NEW20190919170510309/19/19 17:05:31  5-MIN KNEW 192305Z 12012KT 10SM CLR 31/21 A2998 -40 54 1800 120/12 RMK AO2 T03060206
53917KNEW NEW20190919171010309/19/19 17:10:31  5-MIN KNEW 192310Z 13010KT 10SM CLR 31/21 A2998 -40 56 1800 130/10 RMK AO2 T03060211
53917KNEW NEW20190919171510309/19/19 17:15:31  5-MIN KNEW 192315Z 12011KT 10SM CLR 31/22 A2998 -40 58 1800 120/11 RMK AO2 T03060217
53917KNEW NEW20190919172010309/19/19 17:20:31  5-MIN KNEW 192320Z 12010KT 10SM CLR 30/22 A2998 -50 62 1700 120/10 RMK AO2 T03000222
53917KNEW NEW20190919172510309/19/19 17:25:31  5-MIN KNEW 192325Z 12011KT 10SM CLR 30/22 A2998 -40 62 1700 120/11 RMK AO2 T03000222
53917KNEW NEW20190919173010309/19/19 17:30:31  5-MIN KNEW 192330Z 12011KT 10SM CLR 30/23 A2999 -50 65 1700 120/11 RMK AO2 T03000228
53917KNEW NEW20190919173510309/19/19 17:35:31  5-MIN KNEW 192335Z 13010KT 10SM CLR 30/23 A2999 -50 65 1700 130/10 RMK AO2 T03000228
53917KNEW NEW20190919174010309/19/19 17:40:31  5-MIN KNEW 192340Z 13010KT 10SM CLR 30/23 A2999 -50 65 1700 130/10 RMK AO2 T03000228
53917KNEW NEW20190919174510309/19/19 17:45:31  5-MIN KNEW 192345Z 12010KT 10SM CLR 30/23 A2999 -50 65 1700 120/10 RMK AO2 T03000228
53917KNEW NEW20190919175012809/19/19 17:50:31  5-MIN KNEW 192350Z 12010KT 10SM CLR 30/23 A2999 -50 65 1700 120/10 RMK AO2 SLP150 T03000228 10333 20300 56012
53917KNEW NEW20190919175510309/19/19 17:55:31  5-MIN KNEW 192355Z 13009KT 10SM CLR 29/23 A2999 -50 67 1600 130/09 RMK AO2 T02940228
53917KNEW NEW20190919180010309/19/19 18:00:31  5-MIN KNEW 200000Z 12009KT 10SM CLR 29/23 A2999 -50 67 1600 120/09 RMK AO2 T02940228
53917KNEW NEW20190919180510309/19/19 18:05:31  5-MIN KNEW 200005Z 13009KT 10SM CLR 29/23 A2999 -50 67 1600 130/09 RMK AO2 T02940228
53917KNEW NEW20190919181010309/19/19 18:10:31  5-MIN KNEW 200010Z 13011KT 10SM CLR 29/23 A2999 -50 67 1600 130/11 RMK AO2 T02940228
53917KNEW NEW20190919181510309/19/19 18:15:31  5-MIN KNEW 200015Z 13010KT 10SM CLR 29/23 A2999 -50 69 1600 130/10 RMK AO2 T02940233
53917KNEW NEW20190919182010309/19/19 18:20:31  5-MIN KNEW 200020Z 12010KT 10SM CLR 29/23 A3000 -60 67 1600 120/10 RMK AO2 T02940228
53917KNEW NEW20190919182510309/19/19 18:25:31  5-MIN KNEW 200025Z 12011KT 10SM CLR 29/23 A3000 -60 67 1600 120/11 RMK AO2 T02940228
53917KNEW NEW20190919183010309/19/19 18:30:31  5-MIN KNEW 200030Z 13009KT 10SM CLR 29/23 A3000 -60 67 1600 130/09 RMK AO2 T02940228
53917KNEW NEW20190919183510309/19/19 18:35:31  5-MIN KNEW 200035Z 12009KT 10SM CLR 29/23 A3000 -60 67 1600 120/09 RMK AO2 T02940228
53917KNEW NEW20190919184010309/19/19 18:40:31  5-MIN KNEW 200040Z 13008KT 10SM CLR 29/23 A3000 -60 67 1600 130/08 RMK AO2 T02940228
53917KNEW NEW20190919184510309/19/19 18:45:31  5-MIN KNEW 200045Z 14008KT 10SM CLR 29/23 A3000 -60 67 1600 140/08 RMK AO2 T02940228
53917KNEW NEW20190919185011009/19/19 18:50:31  5-MIN KNEW 200050Z 14009KT 10SM CLR 29/23 A3000 -60 69 1600 140/09 RMK AO2 SLP153 T02890228
53917KNEW NEW20190919185510309/19/19 18:55:31  5-MIN KNEW 200055Z 14009KT 10SM CLR 29/23 A3000 -60 69 1600 140/09 RMK AO2 T02890228
53917KNEW NEW20190919190010309/19/19 19:00:31  5-MIN KNEW 200100Z 13011KT 10SM CLR 29/23 A3000 -60 69 1600 130/11 RMK AO2 T02890228
53917KNEW NEW20190919190510309/19/19 19:05:31  5-MIN KNEW 200105Z 13009KT 10SM CLR 29/23 A3001 -70 69 1600 130/09 RMK AO2 T02890228
53917KNEW NEW20190919191010309/19/19 19:10:31  5-MIN KNEW 200110Z 13010KT 10SM CLR 29/23 A3001 -70 71 1500 130/10 RMK AO2 T02890233
53917KNEW NEW20190919191510309/19/19 19:15:31  5-MIN KNEW 200115Z 13010KT 10SM CLR 29/23 A3001 -70 71 1500 130/10 RMK AO2 T02890233
53917KNEW NEW20190919192010309/19/19 19:20:31  5-MIN KNEW 200120Z 13009KT 10SM CLR 29/23 A3001 -70 71 1500 130/09 RMK AO2 T02890233
53917KNEW NEW20190919192510309/19/19 19:25:31  5-MIN KNEW 200125Z 13010KT 10SM CLR 29/23 A3001 -70 71 1500 130/10 RMK AO2 T02890233
53917KNEW NEW20190919193010309/19/19 19:30:31  5-MIN KNEW 200130Z 13009KT 10SM CLR 29/23 A3001 -70 71 1500 130/09 RMK AO2 T02890233
53917KNEW NEW20190919193510309/19/19 19:35:31  5-MIN KNEW 200135Z 13008KT 10SM CLR 29/23 A3002 -70 71 1500 130/08 RMK AO2 T02890233
53917KNEW NEW20190919194010309/19/19 19:40:31  5-MIN KNEW 200140Z 13009KT 10SM CLR 29/23 A3002 -80 71 1500 130/09 RMK AO2 T02890233
53917KNEW NEW20190919194510309/19/19 19:45:31  5-MIN KNEW 200145Z 13009KT 10SM CLR 29/23 A3002 -80 71 1500 130/09 RMK AO2 T02890233
53917KNEW NEW20190919195011009/19/19 19:50:31  5-MIN KNEW 200150Z 12009KT 10SM CLR 29/24 A3003 -90 74 1500 120/09 RMK AO2 SLP162 T02890239
53917KNEW NEW20190919195510309/19/19 19:55:31  5-MIN KNEW 200155Z 12009KT 10SM CLR 29/24 A3003 -90 74 1500 120/09 RMK AO2 T02890239
53917KNEW NEW20190919200010809/19/19 20:00:31  5-MIN KNEW 200200Z AUTO 12009KT 10SM CLR 29/24 A3003 -90 74 1500 120/09 RMK AO2 T02890239
53917KNEW NEW20190919200510809/19/19 20:05:31  5-MIN KNEW 200205Z AUTO 13011KT 10SM CLR 29/24 A3004 -90 74 1500 130/11 RMK AO2 T02890239
53917KNEW NEW20190919201010809/19/19 20:10:31  5-MIN KNEW 200210Z AUTO 12011KT 10SM CLR 29/24 A3003 -90 74 1500 120/11 RMK AO2 T02890239
53917KNEW NEW20190919201511109/19/19 20:15:31  5-MIN KNEW 200215Z AUTO 13011KT 10SM FEW037 29/24 A3003 -90 74 1500 130/11 RMK AO2 T02890239
53917KNEW NEW20190919202011109/19/19 20:20:31  5-MIN KNEW 200220Z AUTO 13010KT 10SM FEW037 29/24 A3003 -90 74 1500 130/10 RMK AO2 T02890239
53917KNEW NEW20190919202511109/19/19 20:25:31  5-MIN KNEW 200225Z AUTO 13011KT 10SM FEW037 28/24 A3003 -90 76 1500 130/11 RMK AO2 T02830239
53917KNEW NEW20190919203011109/19/19 20:30:31  5-MIN KNEW 200230Z AUTO 13010KT 10SM FEW037 29/24 A3003 -90 74 1500 130/10 RMK AO2 T02890239
53917KNEW NEW20190919203511109/19/19 20:35:31  5-MIN KNEW 200235Z AUTO 12009KT 10SM FEW037 29/23 A3003 -90 71 1500 120/09 RMK AO2 T02890233
53917KNEW NEW20190919204011109/19/19 20:40:31  5-MIN KNEW 200240Z AUTO 13008KT 10SM FEW037 28/23 A3004 -90 74 1500 130/08 RMK AO2 T02830233
53917KNEW NEW20190919204510809/19/19 20:45:31  5-MIN KNEW 200245Z AUTO 13007KT 10SM CLR 28/23 A3003 -90 74 1500 130/07 RMK AO2 T02830233
53917KNEW NEW20190919205012109/19/19 20:50:31  5-MIN KNEW 200250Z AUTO 12010KT 10SM CLR 28/23 A3003 -90 74 1500 120/10 RMK AO2 SLP164 T02830233 53010
53917KNEW NEW20190919205510809/19/19 20:55:31  5-MIN KNEW 200255Z AUTO 12010KT 10SM CLR 28/23 A3003 -90 74 1500 120/10 RMK AO2 T02830233
53917KNEW NEW20190919210010809/19/19 21:00:31  5-MIN KNEW 200300Z AUTO 13008KT 10SM CLR 28/23 A3003 -90 74 1500 130/08 RMK AO2 T02830233
53917KNEW NEW20190919210510809/19/19 21:05:31  5-MIN KNEW 200305Z AUTO 13008KT 10SM CLR 28/23 A3003 -90 74 1500 130/08 RMK AO2 T02830233
53917KNEW NEW20190919211010809/19/19 21:10:31  5-MIN KNEW 200310Z AUTO 13007KT 10SM CLR 28/23 A3003 -90 74 1500 130/07 RMK AO2 T02830233
53917KNEW NEW20190919211510809/19/19 21:15:31  5-MIN KNEW 200315Z AUTO 13009KT 10SM CLR 28/23 A3003 -90 74 1500 130/09 RMK AO2 T02830233
53917KNEW NEW20190919212010809/19/19 21:20:31  5-MIN KNEW 200320Z AUTO 13008KT 10SM CLR 28/23 A3003 -90 74 1500 130/08 RMK AO2 T02830233
53917KNEW NEW20190919212510809/19/19 21:25:31  5-MIN KNEW 200325Z AUTO 12009KT 10SM CLR 28/24 A3004 -90 76 1500 120/09 RMK AO2 T02830239
53917KNEW NEW20190919213010809/19/19 21:30:31  5-MIN KNEW 200330Z AUTO 12008KT 10SM CLR 28/24 A3004 -90 76 1500 120/08 RMK AO2 T02830239
53917KNEW NEW20190919213510809/19/19 21:35:31  5-MIN KNEW 200335Z AUTO 13010KT 10SM CLR 28/24 A3004 -90 76 1500 130/10 RMK AO2 T02830239
53917KNEW NEW20190919214010809/19/19 21:40:31  5-MIN KNEW 200340Z AUTO 12011KT 10SM CLR 28/24 A3003 -90 76 1500 120/11 RMK AO2 T02830239
53917KNEW NEW20190919214510809/19/19 21:45:31  5-MIN KNEW 200345Z AUTO 12011KT 10SM CLR 28/24 A3003 -90 76 1500 120/11 RMK AO2 T02830239
53917KNEW NEW20190919215011509/19/19 21:50:31  5-MIN KNEW 200350Z AUTO 12011KT 10SM CLR 28/24 A3003 -90 76 1500 120/11 RMK AO2 SLP163 T02830239
53917KNEW NEW20190919215511909/19/19 21:55:31  5-MIN KNEW 200355Z AUTO 12011KT 10SM CLR 28/24 A3003 -90 76 1500 120/11 RMK AO2 LTG DSNT E T02830239
53917KNEW NEW20190919220011909/19/19 22:00:31  5-MIN KNEW 200400Z AUTO 13010KT 10SM CLR 28/24 A3003 -90 76 1500 130/10 RMK AO2 LTG DSNT E T02830239
53917KNEW NEW20190919220511909/19/19 22:05:31  5-MIN KNEW 200405Z AUTO 13010KT 10SM CLR 28/24 A3003 -90 76 1500 130/10 RMK AO2 LTG DSNT E T02830239
53917KNEW NEW20190919221011909/19/19 22:10:31  5-MIN KNEW 200410Z AUTO 13010KT 10SM CLR 28/24 A3003 -90 76 1500 130/10 RMK AO2 LTG DSNT E T02830239
53917KNEW NEW20190919221511909/19/19 22:15:31  5-MIN KNEW 200415Z AUTO 13010KT 10SM CLR 28/24 A3003 -90 76 1500 130/10 RMK AO2 LTG DSNT E T02830239
53917KNEW NEW20190919222011909/19/19 22:20:31  5-MIN KNEW 200420Z AUTO 13009KT 10SM CLR 27/24 A3003 -90 82 1300 130/09 RMK AO2 LTG DSNT E T02720239
53917KNEW NEW20190919222511909/19/19 22:25:31  5-MIN KNEW 200425Z AUTO 13008KT 10SM CLR 28/24 A3003 -90 76 1500 130/08 RMK AO2 LTG DSNT E T02830239
53917KNEW NEW20190919223011909/19/19 22:30:31  5-MIN KNEW 200430Z AUTO 12009KT 10SM CLR 28/24 A3003 -90 76 1500 120/09 RMK AO2 LTG DSNT E T02830239
53917KNEW NEW20190919223511909/19/19 22:35:31  5-MIN KNEW 200435Z AUTO 12010KT 10SM CLR 28/24 A3003 -90 76 1500 120/10 RMK AO2 LTG DSNT E T02830239
53917KNEW NEW20190919224012609/19/19 22:40:31  5-MIN KNEW 200440Z AUTO 12009KT 10SM CLR 28/24 A3003 -80 76 1500 120/09 RMK AO2 LTG DSNT NE AND E T02830239
53917KNEW NEW20190919224512609/19/19 22:45:31  5-MIN KNEW 200445Z AUTO 12010KT 10SM CLR 28/24 A3003 -80 76 1500 120/10 RMK AO2 LTG DSNT NE AND E T02830239
53917KNEW NEW20190919225013309/19/19 22:50:31  5-MIN KNEW 200450Z AUTO 12008KT 10SM CLR 28/24 A3003 -80 76 1500 120/08 RMK AO2 LTG DSNT NE AND E SLP161 T02830239
53917KNEW NEW20190919225512609/19/19 22:55:31  5-MIN KNEW 200455Z AUTO 11009KT 10SM CLR 28/24 A3003 -80 79 1400 110/09 RMK AO2 LTG DSNT NE AND E T02780239
53917KNEW NEW20190919230012609/19/19 23:00:31  5-MIN KNEW 200500Z AUTO 12009KT 10SM CLR 28/24 A3002 -80 76 1500 120/09 RMK AO2 LTG DSNT NE AND E T02830239
53917KNEW NEW20190919230512609/19/19 23:05:31  5-MIN KNEW 200505Z AUTO 12009KT 10SM CLR 28/24 A3002 -80 76 1500 120/09 RMK AO2 LTG DSNT NE AND E T02830239
53917KNEW NEW20190919231012609/19/19 23:10:31  5-MIN KNEW 200510Z AUTO 12010KT 10SM CLR 28/24 A3002 -80 76 1500 120/10 RMK AO2 LTG DSNT NE AND E T02830239
53917KNEW NEW20190919231512609/19/19 23:15:31  5-MIN KNEW 200515Z AUTO 12009KT 10SM CLR 28/24 A3002 -80 76 1500 120/09 RMK AO2 LTG DSNT NE AND E T02830239
53917KNEW NEW20190919232011909/19/19 23:20:31  5-MIN KNEW 200520Z AUTO 12010KT 10SM CLR 28/24 A3003 -80 76 1500 120/10 RMK AO2 LTG DSNT E T02830239
53917KNEW NEW20190919232511309/19/19 23:25:31  5-MIN KNEW 200525Z AUTO 12010KT 10SM VCTS CLR 28/24 A3003 -90 76 1500 120/10 RMK AO2 T02830239
53917KNEW NEW20190919233012509/19/19 23:30:31  5-MIN KNEW 200530Z AUTO 12010KT 10SM VCTS CLR 28/24 A3003 -90 79 1400 120/10 RMK AO2 LTG DSNT NE T02780239
53917KNEW NEW20190919233512509/19/19 23:35:31  5-MIN KNEW 200535Z AUTO 12009KT 10SM VCTS CLR 28/24 A3003 -90 79 1400 120/09 RMK AO2 LTG DSNT NE T02780239
53917KNEW NEW20190919234012509/19/19 23:40:31  5-MIN KNEW 200540Z AUTO 09010KT 10SM VCTS CLR 28/24 A3004 -90 79 1400 090/10 RMK AO2 LTG DSNT NE T02780239
53917KNEW NEW20190919234516609/19/19 23:45:31  5-MIN KNEW 200545Z AUTO 06022G28KT 10SM VCTS FEW019 FEW026 27/23 A3004 -100 79 1300 060/22G28 RMK AO2 PK WND 07028/0542 LTG DSNT N AND NE T02720233
53917KNEW NEW20190919235017209/19/19 23:50:31  5-MIN KNEW 200550Z AUTO 06021G28KT 10SM VCTS -RA SCT019 BKN026 26/23 A3004 -100 81 1200 060/21G28 RMK AO2 PK WND 07028/0542 LTG DSNT N AND NE RAB46 P0000
53917KNEW NEW20190919235515209/19/19 23:55:31  5-MIN KNEW 200555Z AUTO 07017KT 10SM -TSRA BKN022 27/23 A3004 -100 82 1300 070/17 RMK AO2 WSHFT 0540 LTG DSNT N TSB55 P0000 T02670233
53917KNEW NEW20190920000016809/20/19 00:00:31  5-MIN KNEW 200600Z AUTO 07020KT 10SM -TSRA SCT022 BKN026 BKN095 26/23 A3004 -100 84 1200 070/20 RMK AO2 WSHFT 0540 LTG DSNT N TSB0555 P0000 T02610233
53917KNEW NEW20190920000520109/20/19 00:05:31  5-MIN KNEW 200605Z AUTO 07024G28KT 2 1/2SM +TSRA FEW020 BKN026 OVC090 26/23 A3004 -100 84 1100 070/24G28 RMK AO2 PK WND 06028/0605 WSHFT 0540 LTG DSNT N AND E TSB0555 P0009 T02560228
53917KNEW NEW20190920001019509/20/19 00:10:31  5-MIN KNEW 200610Z AUTO 06019G28KT 1 1/2SM +TSRA SCT020 BKN026 OVC070 26/23 A3005 -100 84 1100 060/19G28 RMK AO2 PK WND 06028/0605 WSHFT 0540 LTG DSNT E TSB0555 P0014 T02560228
53917KNEW NEW20190920001521009/20/19 00:15:31  5-MIN KNEW 200615Z AUTO 06017G23KT 1 1/2SM TSRA BR SCT020 BKN027 OVC046 25/23 A3005 -110 87 1100 060/17G23 RMK AO2 PK WND 06028/0605 WSHFT 0540 LTG DSNT NE AND E TSB0555E14B15 P0020 T02500228
53917KNEW NEW20190920002020909/20/19 00:20:31  5-MIN KNEW 200620Z AUTO 12026G33KT 3/4SM +TSRA BR SCT012 BKN026 OVC046 25/23 A3005 -110 87 1100 120/26G33 RMK AO2 PK WND 11033/0619 WSHFT 0540 LTG DSNT NE AND E TSB0555E14B15 P0057 T02500228
53917KNEW NEW20190920002520909/20/19 00:25:31  5-MIN KNEW 200625Z AUTO 12014G33KT 1/2SM +TSRA FG BKN010 BKN028 OVC046 24/23 A3006 -110 90 1000 120/14G33 RMK AO2 PK WND 11033/0619 WSHFT 0540 LTG DSNT NE AND E TSB0555E14B15 P0106 T02440228
53917KNEW NEW20190920003019509/20/19 00:30:31  5-MIN KNEW 200630Z AUTO 12011KT 1/2SM +TSRA FG BKN010 BKN028 OVC046 24/22 A3005 -110 90 900 120/11 RMK AO2 PK WND 11033/0619 WSHFT 0612 LTG DSNT E TSB0555E14B15 P0134 T02390222
53917KNEW NEW20190920003519509/20/19 00:35:31  5-MIN KNEW 200635Z AUTO 15004G15KT 3/4SM +TSRA BR BKN016 OVC026 24/22 A3005 -100 90 900 150/04G15 RMK AO2 PK WND 11033/0619 WSHFT 0612 LTG DSNT NE TSB0555E14B15 P0143 T02390222
53917KNEW NEW20190920004019109/20/19 00:40:31  5-MIN KNEW 200640Z AUTO 17004KT 1 1/2SM +TSRA BR BKN026 OVC070 24/22 A3004 -100 90 900 170/04 RMK AO2 PK WND 11033/0619 WSHFT 0612 LTG DSNT NE TSB0555E14B15 P0145 T02390222
53917KNEW NEW20190920004519409/20/19 00:45:31  5-MIN KNEW 200645Z AUTO 15005KT 4SM TSRA BR BKN026 BKN070 OVC100 24/22 A3004 -100 87 1000 150/05 RMK AO2 PK WND 11033/0619 WSHFT 0612 LTG DSNT NE TSB0555E14B15 P0145 T02440222
53917KNEW NEW20190920005017609/20/19 00:50:31  5-MIN KNEW 200650Z AUTO 15005KT 7SM VCTS -RA BKN024 BKN070 BKN120 24/22 A3004 -100 87 1000 150/05 RMK AO2 PK WND 11033/0619 WSHFT 0612 TSB0555E14B15E47 P0145
53917KNEW NEW20190920005513609/20/19 00:55:31  5-MIN KNEW 200655Z AUTO 13005KT 10SM -RA SCT029 SCT070 BKN100 25/22 A3004 -100 84 1100 130/05 RMK AO2 P0000 T02500222
53917KNEW NEW20190920010013609/20/19 01:00:31  5-MIN KNEW 200700Z AUTO 13006KT 10SM -RA SCT047 BKN070 OVC120 25/22 A3004 -100 84 1100 130/06 RMK AO2 P0000 T02500222
53917KNEW NEW20190920010513709/20/19 01:05:31  5-MIN KNEW 200705Z AUTO 14006KT 10SM SCT049 BKN070 BKN100 25/22 A3004 -90 84 1100 140/06 RMK AO2 RAE02 P0000 T02500222
53917KNEW NEW20190920011013609/20/19 01:10:31  5-MIN KNEW 200710Z AUTO 14006KT 9SM FEW046 SCT070 BKN100 25/23 A3004 -90 87 1100 140/06 RMK AO2 RAE02 P0000 T02500228
53917KNEW NEW20190920011513609/20/19 01:15:31  5-MIN KNEW 200715Z AUTO 16006KT 9SM FEW048 SCT100 SCT120 25/23 A3004 -90 90 1100 160/06 RMK AO2 RAE02 P0000 T02500233
53917KNEW NEW20190920012012909/20/19 01:20:31  5-MIN KNEW 200720Z AUTO 17005KT 9SM FEW048 SCT100 25/23 A3003 -90 90 1100 170/05 RMK AO2 RAE02 P0000 T02500233
53917KNEW NEW20190920012512209/20/19 01:25:31  5-MIN KNEW 200725Z AUTO 18005KT 8SM FEW048 25/23 A3003 -90 90 1100 180/05 RMK AO2 RAE02 P0000 T02500233
53917KNEW NEW20190920013012209/20/19 01:30:31  5-MIN KNEW 200730Z AUTO 18005KT 8SM FEW040 25/23 A3003 -90 90 1100 180/05 RMK AO2 RAE02 P0000 T02500233
53917KNEW NEW20190920013511909/20/19 01:35:31  5-MIN KNEW 200735Z AUTO 17005KT 8SM CLR 25/23 A3003 -90 90 1100 170/05 RMK AO2 RAE02 P0000 T02500233
53917KNEW NEW20190920014011909/20/19 01:40:31  5-MIN KNEW 200740Z AUTO 16006KT 8SM CLR 25/23 A3003 -90 90 1100 160/06 RMK AO2 RAE02 P0000 T02500233
53917KNEW NEW20190920014511909/20/19 01:45:31  5-MIN KNEW 200745Z AUTO 15006KT 8SM CLR 25/23 A3003 -90 90 1100 150/06 RMK AO2 RAE02 P0000 T02500233
53917KNEW NEW20190920015012609/20/19 01:50:31  5-MIN KNEW 200750Z AUTO 14007KT 8SM CLR 26/24 A3003 -80 90 1200 140/07 RMK AO2 RAE02 SLP161 P0000 T02560239
53917KNEW NEW20190920015510709/20/19 01:55:31  5-MIN KNEW 200755Z AUTO 14006KT 9SM CLR 26/24 A3003 -80 90 1200 140/06 RMK AO2 T02560239
53917KNEW NEW20190920020010709/20/19 02:00:31  5-MIN KNEW 200800Z AUTO 14007KT 9SM CLR 26/24 A3003 -80 90 1200 140/07 RMK AO2 T02560239
53917KNEW NEW20190920020510709/20/19 02:05:31  5-MIN KNEW 200805Z AUTO 14007KT 9SM CLR 26/24 A3003 -90 90 1200 140/07 RMK AO2 T02560239
53917KNEW NEW20190920021010709/20/19 02:10:31  5-MIN KNEW 200810Z AUTO 14007KT 9SM CLR 26/24 A3003 -90 90 1200 140/07 RMK AO2 T02560239
53917KNEW NEW20190920021510709/20/19 02:15:31  5-MIN KNEW 200815Z AUTO 14007KT 9SM CLR 26/24 A3003 -90 90 1200 140/07 RMK AO2 T02560239
53917KNEW NEW20190920022010709/20/19 02:20:31  5-MIN KNEW 200820Z AUTO 14006KT 9SM CLR 26/24 A3003 -90 90 1100 140/06 RMK AO2 T02560239
53917KNEW NEW20190920022511009/20/19 02:25:31  5-MIN KNEW 200825Z AUTO 16008KT 8SM FEW020 26/24 A3003 -90 90 1100 160/08 RMK AO2 T02560239
53917KNEW NEW20190920023011609/20/19 02:30:31  5-MIN KNEW 200830Z AUTO 15016G19KT 9SM FEW020 26/24 A3003 -90 90 1100 150/16G19 RMK AO2 T02560239
53917KNEW NEW20190920023511809/20/19 02:35:31  5-MIN KNEW 200835Z AUTO 15012KT 10SM FEW032 FEW042 25/23 A3003 -90 87 1100 150/12 RMK AO2 T02500228
53917KNEW NEW20190920024011809/20/19 02:40:31  5-MIN KNEW 200840Z AUTO 16011KT 10SM FEW022 SCT049 25/23 A3003 -90 87 1100 160/11 RMK AO2 T02500228
53917KNEW NEW20190920024512509/20/19 02:45:31  5-MIN KNEW 200845Z AUTO 16011KT 10SM FEW022 FEW044 SCT055 25/22 A3003 -90 84 1100 160/11 RMK AO2 T02500222
53917KNEW NEW20190920025013009/20/19 02:50:31  5-MIN KNEW 200850Z AUTO 16010KT 10SM FEW050 24/22 A3003 -90 87 1000 160/10 RMK AO2 SLP162 60145 T02440222 53003
53917KNEW NEW20190920025511109/20/19 02:55:31  5-MIN KNEW 200855Z AUTO 16010KT 10SM FEW044 24/22 A3003 -80 84 1000 160/10 RMK AO2 T02440217
53917KNEW NEW20190920030011109/20/19 03:00:31  5-MIN KNEW 200900Z AUTO 16008KT 10SM FEW044 24/21 A3003 -90 81 1000 160/08 RMK AO2 T02440211
53917KNEW NEW20190920030511109/20/19 03:05:31  5-MIN KNEW 200905Z AUTO 15008KT 10SM FEW050 24/21 A3003 -90 81 1000 150/08 RMK AO2 T02440211
53917KNEW NEW20190920031010809/20/19 03:10:31  5-MIN KNEW 200910Z AUTO 15006KT 10SM CLR 24/21 A3003 -90 81 1000 150/06 RMK AO2 T02440211
53917KNEW NEW20190920031510809/20/19 03:15:31  5-MIN KNEW 200915Z AUTO 14006KT 10SM CLR 24/21 A3003 -90 81 1000 140/06 RMK AO2 T02440211
53917KNEW NEW20190920032010809/20/19 03:20:31  5-MIN KNEW 200920Z AUTO 13005KT 10SM CLR 24/22 A3003 -90 84 1000 130/05 RMK AO2 T02440217
53917KNEW NEW20190920032510809/20/19 03:25:31  5-MIN KNEW 200925Z AUTO 13006KT 10SM CLR 25/22 A3003 -90 84 1100 130/06 RMK AO2 T02500222
53917KNEW NEW20190920033010809/20/19 03:30:31  5-MIN KNEW 200930Z AUTO 13006KT 10SM CLR 25/22 A3004 -90 84 1100 130/06 RMK AO2 T02500222
53917KNEW NEW20190920033510809/20/19 03:35:31  5-MIN KNEW 200935Z AUTO 13006KT 10SM CLR 25/22 A3004 -90 84 1100 130/06 RMK AO2 T02500222
53917KNEW NEW20190920034010809/20/19 03:40:31  5-MIN KNEW 200940Z AUTO 13006KT 10SM CLR 25/23 A3004 -90 87 1100 130/06 RMK AO2 T02500228
53917KNEW NEW20190920034511909/20/19 03:45:31  5-MIN KNEW 200945Z AUTO 14006KT 9SM CLR 25/23 A3004 -90 87 1100 140/06 RMK AO2 LTG DSNT NW T02500228
53917KNEW NEW20190920035012709/20/19 03:50:31  5-MIN KNEW 200950Z AUTO 14006KT 9SM CLR 25/23 A3004 -100 87 1100 140/06 RMK AO2 LTG DSNT NW SLP166 T02500228
53917KNEW NEW20190920035512009/20/19 03:55:31  5-MIN KNEW 200955Z AUTO 15006KT 9SM CLR 25/23 A3004 -100 87 1100 150/06 RMK AO2 LTG DSNT NW T02500228
53917KNEW NEW20190920040011109/20/19 04:00:31  5-MIN KNEW 201000Z AUTO 14005KT 9SM FEW035 25/23 A3005 -100 87 1100 140/05 RMK AO2 T02500228
53917KNEW NEW20190920040511109/20/19 04:05:31  5-MIN KNEW 201005Z AUTO 14005KT 9SM FEW035 25/23 A3005 -110 90 1100 140/05 RMK AO2 T02500233
53917KNEW NEW20190920041010809/20/19 04:10:31  5-MIN KNEW 201010Z AUTO 14005KT 9SM CLR 25/23 A3005 -110 90 1100 140/05 RMK AO2 T02500233
53917KNEW NEW20190920041510809/20/19 04:15:31  5-MIN KNEW 201015Z AUTO 14006KT 9SM CLR 25/23 A3005 -110 90 1100 140/06 RMK AO2 T02500233
53917KNEW NEW20190920042010809/20/19 04:20:31  5-MIN KNEW 201020Z AUTO 14006KT 9SM CLR 26/23 A3005 -110 87 1100 140/06 RMK AO2 T02560233
53917KNEW NEW20190920042510909/20/19 04:25:31  5-MIN KNEW 201025Z AUTO 14006KT 10SM CLR 26/23 A3006 -110 87 1100 140/06 RMK AO2 T02560233
53917KNEW NEW20190920043010909/20/19 04:30:31  5-MIN KNEW 201030Z AUTO 14006KT 10SM CLR 26/23 A3005 -110 84 1100 140/06 RMK AO2 T02560228
53917KNEW NEW20190920043510909/20/19 04:35:31  5-MIN KNEW 201035Z AUTO 14007KT 10SM CLR 26/23 A3006 -110 84 1100 140/07 RMK AO2 T02560228
53917KNEW NEW20190920044010909/20/19 04:40:31  5-MIN KNEW 201040Z AUTO 14007KT 10SM CLR 26/23 A3006 -110 81 1200 140/07 RMK AO2 T02610228
53917KNEW NEW20190920044510909/20/19 04:45:31  5-MIN KNEW 201045Z AUTO 14007KT 10SM CLR 26/23 A3006 -110 84 1100 140/07 RMK AO2 T02560228
53917KNEW NEW20190920045011609/20/19 04:50:31  5-MIN KNEW 201050Z AUTO 14007KT 10SM CLR 26/22 A3006 -110 81 1100 140/07 RMK AO2 SLP172 T02560222
53917KNEW NEW20190920045510909/20/19 04:55:31  5-MIN KNEW 201055Z AUTO 13006KT 10SM CLR 26/22 A3006 -110 81 1100 130/06 RMK AO2 T02560222
53917KNEW NEW20190920050010909/20/19 05:00:31  5-MIN KNEW 201100Z AUTO 13007KT 10SM CLR 26/22 A3006 -110 79 1200 130/07 RMK AO2 T02610222
53917KNEW NEW20190920050510909/20/19 05:05:31  5-MIN KNEW 201105Z AUTO 13007KT 10SM CLR 26/22 A3006 -110 79 1200 130/07 RMK AO2 T02610222
53917KNEW NEW20190920051010909/20/19 05:10:31  5-MIN KNEW 201110Z AUTO 13007KT 10SM CLR 26/22 A3006 -120 79 1200 130/07 RMK AO2 T02610222
53917KNEW NEW20190920051510909/20/19 05:15:31  5-MIN KNEW 201115Z AUTO 13007KT 10SM CLR 26/22 A3006 -120 79 1200 130/07 RMK AO2 T02610222
53917KNEW NEW20190920052010909/20/19 05:20:31  5-MIN KNEW 201120Z AUTO 13007KT 10SM CLR 26/22 A3006 -120 79 1200 130/07 RMK AO2 T02610222
53917KNEW NEW20190920052510909/20/19 05:25:31  5-MIN KNEW 201125Z AUTO 13008KT 10SM CLR 26/22 A3007 -120 79 1200 130/08 RMK AO2 T02610222
53917KNEW NEW20190920053010909/20/19 05:30:31  5-MIN KNEW 201130Z AUTO 13006KT 10SM CLR 26/22 A3006 -120 79 1200 130/06 RMK AO2 T02610222
53917KNEW NEW20190920053510909/20/19 05:35:31  5-MIN KNEW 201135Z AUTO 13006KT 10SM CLR 26/22 A3006 -120 79 1200 130/06 RMK AO2 T02610222
53917KNEW NEW20190920054010909/20/19 05:40:31  5-MIN KNEW 201140Z AUTO 13007KT 10SM CLR 26/22 A3006 -120 79 1200 130/07 RMK AO2 T02610222
53917KNEW NEW20190920054510409/20/19 05:45:31  5-MIN KNEW 201145Z 13008KT 10SM CLR 26/22 A3006 -120 79 1200 130/08 RMK AO2 T02610222
53917KNEW NEW20190920055014109/20/19 05:50:31  5-MIN KNEW 201150Z 13007KT 10SM CLR 26/22 A3006 -120 79 1200 130/07 RMK AO2 SLP173 60145 70145 T02610222 10267 20239 56006
53917KNEW NEW20190920055510409/20/19 05:55:31  5-MIN KNEW 201155Z 12007KT 10SM CLR 26/22 A3006 -120 79 1200 120/07 RMK AO2 T02610222
53917KNEW NEW20190920060010409/20/19 06:00:31  5-MIN KNEW 201200Z 13006KT 10SM CLR 26/22 A3006 -120 79 1200 130/06 RMK AO2 T02610222
53917KNEW NEW20190920060510409/20/19 06:05:31  5-MIN KNEW 201205Z 13005KT 10SM CLR 26/22 A3006 -120 79 1200 130/05 RMK AO2 T02610222
53917KNEW NEW20190920061010409/20/19 06:10:31  5-MIN KNEW 201210Z 12006KT 10SM CLR 26/22 A3007 -120 79 1200 120/06 RMK AO2 T02610222
53917KNEW NEW20190920061510409/20/19 06:15:31  5-MIN KNEW 201215Z 13006KT 10SM CLR 26/22 A3007 -120 79 1200 130/06 RMK AO2 T02610222
53917KNEW NEW20190920062010409/20/19 06:20:31  5-MIN KNEW 201220Z 14006KT 10SM CLR 27/22 A3007 -120 76 1200 140/06 RMK AO2 T02670222
53917KNEW NEW20190920062510709/20/19 06:25:31  5-MIN KNEW 201225Z 13006KT 10SM FEW065 26/22 A3007 -130 79 1200 130/06 RMK AO2 T02610222
53917KNEW NEW20190920063011409/20/19 06:30:31  5-MIN KNEW 201230Z 13006KT 10SM FEW042 FEW065 27/22 A3007 -130 76 1200 130/06 RMK AO2 T02670222
53917KNEW NEW20190920063512109/20/19 06:35:31  5-MIN KNEW 201235Z 13008KT 10SM FEW042 SCT055 SCT070 27/22 A3007 -130 76 1200 130/08 RMK AO2 T02670222
53917KNEW NEW20190920064012109/20/19 06:40:31  5-MIN KNEW 201240Z 13008KT 10SM FEW042 BKN060 BKN075 27/22 A3007 -130 76 1200 130/08 RMK AO2 T02670222
53917KNEW NEW20190920064512109/20/19 06:45:31  5-MIN KNEW 201245Z 13009KT 10SM FEW042 SCT065 BKN075 27/22 A3008 -130 74 1300 130/09 RMK AO2 T02720222
53917KNEW NEW20190920065012109/20/19 06:50:31  5-MIN KNEW 201250Z 13009KT 10SM SCT060 SCT075 27/22 A3008 -130 74 1300 130/09 RMK AO2 SLP179 T02720222
53917KNEW NEW20190920065511409/20/19 06:55:31  5-MIN KNEW 201255Z 12009KT 10SM FEW065 SCT075 28/22 A3008 -130 71 1300 120/09 RMK AO2 T02780222
53917KNEW NEW20190920070011409/20/19 07:00:31  5-MIN KNEW 201300Z 13009KT 10SM FEW060 FEW075 28/22 A3008 -130 71 1300 130/09 RMK AO2 T02780222
53917KNEW NEW20190920070510709/20/19 07:05:31  5-MIN KNEW 201305Z 12009KT 10SM FEW065 28/22 A3008 -130 71 1300 120/09 RMK AO2 T02780222
53917KNEW NEW20190920071010409/20/19 07:10:31  5-MIN KNEW 201310Z 12011KT 10SM CLR 28/22 A3008 -130 66 1400 120/11 RMK AO2 T02830217
53917KNEW NEW20190920071510409/20/19 07:15:31  5-MIN KNEW 201315Z 12011KT 10SM CLR 28/21 A3008 -140 64 1400 120/11 RMK AO2 T02830211
53917KNEW NEW20190920072010409/20/19 07:20:31  5-MIN KNEW 201320Z 12012KT 10SM CLR 28/21 A3008 -140 64 1400 120/12 RMK AO2 T02830211
53917KNEW NEW20190922013510909/22/19 01:35:31  5-MIN KNEW 220735Z AUTO 13007KT 10SM CLR 25/19 A3009 -140 71 1000 130/07 RMK AO2 T02500194
53917KNEW NEW20190922014010909/22/19 01:40:31  5-MIN KNEW 220740Z AUTO 13006KT 10SM CLR 25/19 A3009 -140 71 1000 130/06 RMK AO2 T02500194
53917KNEW NEW20190922014510909/22/19 01:45:31  5-MIN KNEW 220745Z AUTO 13007KT 10SM CLR 24/19 A3009 -140 73 1000 130/07 RMK AO2 T02440194
53917KNEW NEW20190922015011609/22/19 01:50:31  5-MIN KNEW 220750Z AUTO 12007KT 10SM CLR 25/19 A3009 -140 71 1000 120/07 RMK AO2 SLP182 T02500194
53917KNEW NEW20190922015510909/22/19 01:55:31  5-MIN KNEW 220755Z AUTO 12007KT 10SM CLR 25/19 A3009 -140 71 1000 120/07 RMK AO2 T02500194
53917KNEW NEW20190922020010909/22/19 02:00:31  5-MIN KNEW 220800Z AUTO 12008KT 10SM CLR 25/19 A3008 -140 71 1000 120/08 RMK AO2 T02500194
53917KNEW NEW20190922020510909/22/19 02:05:31  5-MIN KNEW 220805Z AUTO 13008KT 10SM CLR 25/19 A3008 -140 71 1000 130/08 RMK AO2 T02500194
53917KNEW NEW20190922021010909/22/19 02:10:31  5-MIN KNEW 220810Z AUTO 13008KT 10SM CLR 25/19 A3008 -130 71 1000 130/08 RMK AO2 T02500194
53917KNEW NEW20190922021510909/22/19 02:15:31  5-MIN KNEW 220815Z AUTO 13008KT 10SM CLR 24/19 A3008 -140 73 1000 130/08 RMK AO2 T02440194
53917KNEW NEW20190922022010909/22/19 02:20:31  5-MIN KNEW 220820Z AUTO 13008KT 10SM CLR 25/19 A3008 -140 71 1000 130/08 RMK AO2 T02500194
53917KNEW NEW20190922022510909/22/19 02:25:31  5-MIN KNEW 220825Z AUTO 13008KT 10SM CLR 24/19 A3009 -140 71 1000 130/08 RMK AO2 T02440189
53917KNEW NEW20190922023010909/22/19 02:30:31  5-MIN KNEW 220830Z AUTO 13006KT 10SM CLR 24/19 A3009 -140 71 1000 130/06 RMK AO2 T02440189
53917KNEW NEW20190922023510909/22/19 02:35:31  5-MIN KNEW 220835Z AUTO 13007KT 10SM CLR 24/19 A3009 -140 71 1000 130/07 RMK AO2 T02440189
53917KNEW NEW20190922024010909/22/19 02:40:31  5-MIN KNEW 220840Z AUTO 13005KT 10SM CLR 24/19 A3008 -140 71 1000 130/05 RMK AO2 T02440189
53917KNEW NEW20190922024510909/22/19 02:45:31  5-MIN KNEW 220845Z AUTO 13005KT 10SM CLR 24/19 A3009 -140 71 1000 130/05 RMK AO2 T02440189
53917KNEW NEW20190922025012209/22/19 02:50:31  5-MIN KNEW 220850Z AUTO 14005KT 10SM CLR 24/19 A3009 -140 71 1000 140/05 RMK AO2 SLP181 T02440189 58008
53917KNEW NEW20190922025510909/22/19 02:55:31  5-MIN KNEW 220855Z AUTO 13005KT 10SM CLR 24/19 A3009 -140 71 1000 130/05 RMK AO2 T02440189
53917KNEW NEW20190922030010909/22/19 03:00:31  5-MIN KNEW 220900Z AUTO 13005KT 10SM CLR 24/19 A3009 -140 71 1000 130/05 RMK AO2 T02440189
53917KNEW NEW20190922030510909/22/19 03:05:31  5-MIN KNEW 220905Z AUTO 13005KT 10SM CLR 24/19 A3009 -140 71 1000 130/05 RMK AO2 T02440189
53917KNEW NEW20190922031010809/22/19 03:10:31  5-MIN KNEW 220910Z AUTO 13005KT 10SM CLR 24/19 A3009 -140 73 900 130/05 RMK AO2 T02390189
53917KNEW NEW20190922031510909/22/19 03:15:31  5-MIN KNEW 220915Z AUTO 13005KT 10SM CLR 24/19 A3009 -140 71 1000 130/05 RMK AO2 T02440189
53917KNEW NEW20190922032010809/22/19 03:20:31  5-MIN KNEW 220920Z AUTO 13005KT 10SM CLR 24/19 A3009 -140 76 900 130/05 RMK AO2 T02390194
53917KNEW NEW20190922032510809/22/19 03:25:31  5-MIN KNEW 220925Z AUTO 12004KT 10SM CLR 24/19 A3009 -140 76 900 120/04 RMK AO2 T02390194
53917KNEW NEW20190922033010909/22/19 03:30:31  5-MIN KNEW 220930Z AUTO 12004KT 10SM CLR 24/19 A3009 -140 73 1000 120/04 RMK AO2 T02440194
53917KNEW NEW20190922033510909/22/19 03:35:31  5-MIN KNEW 220935Z AUTO 11005KT 10SM CLR 24/19 A3009 -140 73 1000 110/05 RMK AO2 T02440194
53917KNEW NEW20190922034010909/22/19 03:40:31  5-MIN KNEW 220940Z AUTO 12005KT 10SM CLR 24/19 A3009 -140 73 1000 120/05 RMK AO2 T02440194
53917KNEW NEW20190922034510909/22/19 03:45:31  5-MIN KNEW 220945Z AUTO 13006KT 10SM CLR 24/19 A3009 -140 73 1000 130/06 RMK AO2 T02440194
53917KNEW NEW20190922035011609/22/19 03:50:31  5-MIN KNEW 220950Z AUTO 13005KT 10SM CLR 24/19 A3009 -140 73 1000 130/05 RMK AO2 SLP183 T02440194
53917KNEW NEW20190922035510909/22/19 03:55:31  5-MIN KNEW 220955Z AUTO 12005KT 10SM CLR 24/19 A3009 -150 73 1000 120/05 RMK AO2 T02440194
53917KNEW NEW20190922040010909/22/19 04:00:31  5-MIN KNEW 221000Z AUTO 13004KT 10SM CLR 24/19 A3009 -150 73 1000 130/04 RMK AO2 T02440194
53917KNEW NEW20190922040510909/22/19 04:05:31  5-MIN KNEW 221005Z AUTO 12004KT 10SM CLR 24/19 A3009 -150 73 1000 120/04 RMK AO2 T02440194
53917KNEW NEW20190922041010809/22/19 04:10:31  5-MIN KNEW 221010Z AUTO 13004KT 10SM CLR 24/19 A3009 -150 76 900 130/04 RMK AO2 T02390194
53917KNEW NEW20190922041510809/22/19 04:15:31  5-MIN KNEW 221015Z AUTO 13004KT 10SM CLR 24/19 A3009 -150 76 900 130/04 RMK AO2 T02390194
53917KNEW NEW20190922042010809/22/19 04:20:31  5-MIN KNEW 221020Z AUTO 13004KT 10SM CLR 24/19 A3009 -150 76 900 130/04 RMK AO2 T02390194
53917KNEW NEW20190922042510809/22/19 04:25:31  5-MIN KNEW 221025Z AUTO 12004KT 10SM CLR 24/20 A3009 -150 78 900 120/04 RMK AO2 T02390200
53917KNEW NEW20190922043010809/22/19 04:30:31  5-MIN KNEW 221030Z AUTO 12004KT 10SM CLR 24/20 A3009 -150 78 900 120/04 RMK AO2 T02390200
53917KNEW NEW20190922043510809/22/19 04:35:31  5-MIN KNEW 221035Z AUTO 12004KT 10SM CLR 24/20 A3009 -150 78 900 120/04 RMK AO2 T02390200
53917KNEW NEW20190922044010809/22/19 04:40:31  5-MIN KNEW 221040Z AUTO 12005KT 10SM CLR 24/20 A3009 -150 78 900 120/05 RMK AO2 T02390200
53917KNEW NEW20190922044510809/22/19 04:45:31  5-MIN KNEW 221045Z AUTO 12005KT 10SM CLR 24/20 A3009 -150 78 900 120/05 RMK AO2 T02390200
53917KNEW NEW20190922045011609/22/19 04:50:31  5-MIN KNEW 221050Z AUTO 12005KT 10SM CLR 24/20 A3009 -140 76 1000 120/05 RMK AO2 SLP183 T02440200
53917KNEW NEW20190922045510909/22/19 04:55:31  5-MIN KNEW 221055Z AUTO 12007KT 10SM CLR 24/20 A3009 -150 76 1000 120/07 RMK AO2 T02440200
53917KNEW NEW20190922050010809/22/19 05:00:31  5-MIN KNEW 221100Z AUTO 12006KT 10SM CLR 24/20 A3010 -150 76 900 120/06 RMK AO2 T02440200
53917KNEW NEW20190922050510809/22/19 05:05:31  5-MIN KNEW 221105Z AUTO 12007KT 10SM CLR 24/20 A3010 -150 76 900 120/07 RMK AO2 T02440200
53917KNEW NEW20190922051010809/22/19 05:10:31  5-MIN KNEW 221110Z AUTO 12006KT 10SM CLR 24/20 A3010 -150 76 900 120/06 RMK AO2 T02440200
53917KNEW NEW20190922051510809/22/19 05:15:31  5-MIN KNEW 221115Z AUTO 13005KT 10SM CLR 24/20 A3010 -150 76 900 130/05 RMK AO2 T02440200
53917KNEW NEW20190922052010809/22/19 05:20:31  5-MIN KNEW 221120Z AUTO 13004KT 10SM CLR 24/20 A3010 -150 78 900 130/04 RMK AO2 T02390200
53917KNEW NEW20190922052510809/22/19 05:25:31  5-MIN KNEW 221125Z AUTO 13004KT 10SM CLR 24/20 A3010 -150 78 900 130/04 RMK AO2 T02390200
53917KNEW NEW20190922053010809/22/19 05:30:31  5-MIN KNEW 221130Z AUTO 12005KT 10SM CLR 24/20 A3010 -150 78 900 120/05 RMK AO2 T02390200
53917KNEW NEW20190922053510809/22/19 05:35:31  5-MIN KNEW 221135Z AUTO 12005KT 10SM CLR 24/20 A3010 -150 78 900 120/05 RMK AO2 T02390200
53917KNEW NEW20190922054010809/22/19 05:40:31  5-MIN KNEW 221140Z AUTO 13005KT 10SM CLR 24/20 A3009 -150 78 900 130/05 RMK AO2 T02390200
53917KNEW NEW20190922054510309/22/19 05:45:31  5-MIN KNEW 221145Z 13005KT 10SM CLR 24/20 A3009 -150 78 900 130/05 RMK AO2 T02390200
53917KNEW NEW20190922055013409/22/19 05:50:31  5-MIN KNEW 221150Z 13005KT 10SM CLR 24/20 A3009 -150 78 900 130/05 RMK AO2 SLP184 70111 T02390200 10250 20239 56006
53917KNEW NEW20190922055510209/22/19 05:55:31  5-MIN KNEW 221155Z 13005KT 9SM CLR 24/20 A3010 -150 78 900 130/05 RMK AO2 T02390200
53917KNEW NEW20190922060010509/22/19 06:00:31  5-MIN KNEW 221200Z 13004KT 8SM FEW040 24/20 A3010 -150 78 900 130/04 RMK AO2 T02390200
53917KNEW NEW20190922060510509/22/19 06:05:31  5-MIN KNEW 221205Z 13004KT 9SM SCT038 24/20 A3010 -150 78 900 130/04 RMK AO2 T02390200
53917KNEW NEW20190922061010509/22/19 06:10:31  5-MIN KNEW 221210Z 12004KT 9SM SCT038 24/20 A3010 -150 76 900 120/04 RMK AO2 T02440200
53917KNEW NEW20190922061511209/22/19 06:15:31  5-MIN KNEW 221215Z 12003KT 9SM SCT039 BKN046 24/21 A3010 -160 78 900 120/03 RMK AO2 T02440206
53917KNEW NEW20190922062011309/22/19 06:20:31  5-MIN KNEW 221220Z 14003KT 10SM BKN039 BKN046 24/21 A3011 -160 78 900 140/03 RMK AO2 T02440206
53917KNEW NEW20190922062511309/22/19 06:25:31  5-MIN KNEW 221225Z 13004KT 10SM BKN037 BKN045 24/21 A3011 -160 81 900 130/04 RMK AO2 T02390206
53917KNEW NEW20190922063011209/22/19 06:30:31  5-MIN KNEW 221230Z 12003KT 9SM SCT037 BKN045 24/21 A3011 -160 78 900 120/03 RMK AO2 T02440206
53917KNEW NEW20190922063511309/22/19 06:35:31  5-MIN KNEW 221235Z 00000KT 8SM SCT037 BKN045 25/21 A3011 -160 79 1000 000/00 RMK AO2 T02500211
53917KNEW NEW20190922064011309/22/19 06:40:31  5-MIN KNEW 221240Z 00000KT 7SM SCT037 SCT045 25/21 A3011 -160 79 1000 000/00 RMK AO2 T02500211
53917KNEW NEW20190922064510609/22/19 06:45:31  5-MIN KNEW 221245Z 14003KT 7SM FEW037 26/21 A3011 -160 76 1100 140/03 RMK AO2 T02560211
53917KNEW NEW20190922065011309/22/19 06:50:31  5-MIN KNEW 221250Z 14004KT 8SM FEW036 26/21 A3011 -160 76 1100 140/04 RMK AO2 SLP189 T02560211
53917KNEW NEW20190922065510609/22/19 06:55:31  5-MIN KNEW 221255Z 14004KT 7SM FEW036 26/21 A3011 -160 76 1100 140/04 RMK AO2 T02560211
53917KNEW NEW20190922070010309/22/19 07:00:31  5-MIN KNEW 221300Z 14003KT 7SM CLR 26/21 A3011 -160 76 1100 140/03 RMK AO2 T02560211
53917KNEW NEW20190922070510309/22/19 07:05:31  5-MIN KNEW 221305Z 14003KT 7SM CLR 26/21 A3011 -160 76 1100 140/03 RMK AO2 T02560211
53917KNEW NEW20190922071010309/22/19 07:10:31  5-MIN KNEW 221310Z 00000KT 8SM CLR 26/21 A3011 -170 73 1100 000/00 RMK AO2 T02610211
53917KNEW NEW20190922071510309/22/19 07:15:31  5-MIN KNEW 221315Z 12003KT 8SM CLR 27/21 A3012 -170 71 1200 120/03 RMK AO2 T02670211
53917KNEW NEW20190922072010309/22/19 07:20:31  5-MIN KNEW 221320Z 12003KT 9SM CLR 27/21 A3012 -170 71 1200 120/03 RMK AO2 T02670211
53917KNEW NEW20190922072510309/22/19 07:25:31  5-MIN KNEW 221325Z 11004KT 9SM CLR 27/21 A3012 -170 71 1200 110/04 RMK AO2 T02670211
53917KNEW NEW20190922073010309/22/19 07:30:31  5-MIN KNEW 221330Z 11004KT 9SM CLR 27/22 A3012 -170 73 1200 110/04 RMK AO2 T02670217
53917KNEW NEW20190922073510409/22/19 07:35:31  5-MIN KNEW 221335Z 11003KT 10SM CLR 27/21 A3012 -170 71 1200 110/03 RMK AO2 T02670211
53917KNEW NEW20190922074010409/22/19 07:40:31  5-MIN KNEW 221340Z 11003KT 10SM CLR 27/21 A3012 -170 69 1200 110/03 RMK AO2 T02720211
53917KNEW NEW20190922074510409/22/19 07:45:31  5-MIN KNEW 221345Z 09004KT 10SM CLR 27/21 A3012 -170 69 1200 090/04 RMK AO2 T02720211
53917KNEW NEW20190922075011109/22/19 07:50:31  5-MIN KNEW 221350Z 08003KT 10SM CLR 27/22 A3012 -170 71 1200 080/03 RMK AO2 SLP193 T02720217
53917KNEW NEW20190922075510409/22/19 07:55:31  5-MIN KNEW 221355Z 00000KT 10SM CLR 28/22 A3012 -170 69 1300 000/00 RMK AO2 T02780217
53917KNEW NEW20190922080010409/22/19 08:00:31  5-MIN KNEW 221400Z 10004KT 10SM CLR 28/22 A3012 -170 69 1300 100/04 RMK AO2 T02780217
53917KNEW NEW20190922080510409/22/19 08:05:31  5-MIN KNEW 221405Z 13003KT 10SM CLR 28/22 A3012 -170 69 1300 130/03 RMK AO2 T02780217
53917KNEW NEW20190922081010409/22/19 08:10:31  5-MIN KNEW 221410Z VRB04KT 10SM CLR 28/21 A3013 -180 64 1400 VRB/04 RMK AO2 T02830211
53917KNEW NEW20190922081510409/22/19 08:15:31  5-MIN KNEW 221415Z 13004KT 10SM CLR 28/21 A3013 -180 62 1400 130/04 RMK AO2 T02830206
53917KNEW NEW20190922082010409/22/19 08:20:31  5-MIN KNEW 221420Z 12004KT 10SM CLR 28/20 A3013 -180 60 1400 120/04 RMK AO2 T02830200
53917KNEW NEW20190922082510409/22/19 08:25:31  5-MIN KNEW 221425Z 15005KT 10SM CLR 28/20 A3013 -180 60 1300 150/05 RMK AO2 T02830200
53917KNEW NEW20190922083010409/22/19 08:30:31  5-MIN KNEW 221430Z 12006KT 10SM CLR 28/20 A3013 -180 60 1400 120/06 RMK AO2 T02830200
53917KNEW NEW20190922083510409/22/19 08:35:31  5-MIN KNEW 221435Z 11005KT 10SM CLR 29/20 A3013 -180 58 1400 110/05 RMK AO2 T02890200
53917KNEW NEW20190922084010409/22/19 08:40:31  5-MIN KNEW 221440Z 11006KT 10SM CLR 29/20 A3013 -180 58 1400 110/06 RMK AO2 T02890200
53917KNEW NEW20190922084510409/22/19 08:45:31  5-MIN KNEW 221445Z 11005KT 10SM CLR 28/20 A3013 -180 60 1400 110/05 RMK AO2 T02830200
53917KNEW NEW20190922085011709/22/19 08:50:31  5-MIN KNEW 221450Z 12007KT 10SM CLR 29/20 A3013 -180 58 1400 120/07 RMK AO2 SLP195 T02890200 51003
53917KNEW NEW20190922085510409/22/19 08:55:31  5-MIN KNEW 221455Z 11007KT 10SM CLR 29/20 A3013 -180 58 1400 110/07 RMK AO2 T02890200
53917KNEW NEW20190922090010409/22/19 09:00:31  5-MIN KNEW 221500Z 12006KT 10SM CLR 29/20 A3012 -170 56 1500 120/06 RMK AO2 T02940200
53917KNEW NEW20190922090510409/22/19 09:05:31  5-MIN KNEW 221505Z 12006KT 10SM CLR 29/20 A3012 -170 58 1400 120/06 RMK AO2 T02890200
53917KNEW NEW20190922091010409/22/19 09:10:31  5-MIN KNEW 221510Z 13008KT 10SM CLR 29/20 A3012 -170 56 1500 130/08 RMK AO2 T02940200
53917KNEW NEW20190922091510409/22/19 09:15:31  5-MIN KNEW 221515Z 12006KT 10SM CLR 29/20 A3012 -170 56 1500 120/06 RMK AO2 T02940200
53917KNEW NEW20190922092010409/22/19 09:20:31  5-MIN KNEW 221520Z 11008KT 10SM CLR 29/20 A3012 -170 56 1500 110/08 RMK AO2 T02940200
53917KNEW NEW20190922092510409/22/19 09:25:31  5-MIN KNEW 221525Z 10009KT 10SM CLR 29/20 A3012 -170 56 1500 100/09 RMK AO2 T02940200
53917KNEW NEW20190922093010409/22/19 09:30:31  5-MIN KNEW 221530Z 11010KT 10SM CLR 29/21 A3012 -170 58 1500 110/10 RMK AO2 T02940206
53917KNEW NEW20190922093510409/22/19 09:35:31  5-MIN KNEW 221535Z 12009KT 10SM CLR 29/20 A3012 -170 56 1500 120/09 RMK AO2 T02940200
53917KNEW NEW20190922094010409/22/19 09:40:31  5-MIN KNEW 221540Z 10010KT 10SM CLR 29/20 A3012 -170 56 1500 100/10 RMK AO2 T02940200
53917KNEW NEW20190922094510409/22/19 09:45:31  5-MIN KNEW 221545Z 10007KT 10SM CLR 29/20 A3012 -170 56 1500 100/07 RMK AO2 T02940200
53917KNEW NEW20190922095011109/22/19 09:50:31  5-MIN KNEW 221550Z 10008KT 10SM CLR 29/21 A3012 -170 58 1500 100/08 RMK AO2 SLP193 T02940206
53917KNEW NEW20190922095510409/22/19 09:55:31  5-MIN KNEW 221555Z 10007KT 10SM CLR 29/20 A3012 -170 56 1500 100/07 RMK AO2 T02940200
53917KNEW NEW20190922100010709/22/19 10:00:31  5-MIN KNEW 221600Z 11011KT 10SM FEW030 29/21 A3012 -170 58 1500 110/11 RMK AO2 T02940206
53917KNEW NEW20190922100510709/22/19 10:05:31  5-MIN KNEW 221605Z 12007KT 10SM FEW030 29/20 A3012 -170 56 1500 120/07 RMK AO2 T02940200
53917KNEW NEW20190922101010709/22/19 10:10:31  5-MIN KNEW 221610Z 13008KT 10SM FEW030 30/21 A3011 -160 56 1600 130/08 RMK AO2 T03000206
53917KNEW NEW20190922101510709/22/19 10:15:31  5-MIN KNEW 221615Z 14008KT 10SM FEW030 30/21 A3011 -160 56 1600 140/08 RMK AO2 T03000206
53917KNEW NEW20190922102010709/22/19 10:20:31  5-MIN KNEW 221620Z 10008KT 10SM FEW030 30/21 A3011 -160 56 1600 100/08 RMK AO2 T03000206
53917KNEW NEW20190922102510709/22/19 10:25:31  5-MIN KNEW 221625Z 11008KT 10SM FEW030 30/21 A3011 -160 56 1600 110/08 RMK AO2 T03000206
53917KNEW NEW20190922103010709/22/19 10:30:31  5-MIN KNEW 221630Z 11007KT 10SM FEW030 30/21 A3011 -160 56 1600 110/07 RMK AO2 T03000206
53917KNEW NEW20190922103510709/22/19 10:35:31  5-MIN KNEW 221635Z 11007KT 10SM FEW030 30/21 A3011 -160 56 1600 110/07 RMK AO2 T03000206
53917KNEW NEW20190922104010709/22/19 10:40:31  5-MIN KNEW 221640Z 12008KT 10SM FEW030 30/20 A3011 -160 54 1600 120/08 RMK AO2 T03000200
53917KNEW NEW20190922104510709/22/19 10:45:31  5-MIN KNEW 221645Z 10007KT 10SM FEW030 30/21 A3011 -160 56 1600 100/07 RMK AO2 T03000206
53917KNEW NEW20190922105011409/22/19 10:50:31  5-MIN KNEW 221650Z 10007KT 10SM FEW030 31/21 A3011 -160 54 1600 100/07 RMK AO2 SLP188 T03060206
53917KNEW NEW20190922105510709/22/19 10:55:31  5-MIN KNEW 221655Z 10007KT 10SM FEW041 31/21 A3011 -160 54 1600 100/07 RMK AO2 T03060206
53917KNEW NEW20190922110010709/22/19 11:00:31  5-MIN KNEW 221700Z 10010KT 10SM SCT041 30/21 A3010 -150 56 1600 100/10 RMK AO2 T03000206
53917KNEW NEW20190922110510709/22/19 11:05:31  5-MIN KNEW 221705Z 12007KT 10SM FEW041 31/20 A3010 -150 52 1600 120/07 RMK AO2 T03060200
53917KNEW NEW20190922111010709/22/19 11:10:31  5-MIN KNEW 221710Z 10007KT 10SM FEW041 31/20 A3010 -150 52 1600 100/07 RMK AO2 T03060200
53917KNEW NEW20190922111510709/22/19 11:15:31  5-MIN KNEW 221715Z 11009KT 10SM FEW041 31/21 A3010 -150 54 1600 110/09 RMK AO2 T03060206
53917KNEW NEW20190922112010709/22/19 11:20:31  5-MIN KNEW 221720Z 10007KT 10SM FEW041 31/20 A3010 -150 52 1600 100/07 RMK AO2 T03060200
53917KNEW NEW20190922112510709/22/19 11:25:31  5-MIN KNEW 221725Z 10008KT 10SM FEW041 31/21 A3010 -150 54 1600 100/08 RMK AO2 T03060206
53917KNEW NEW20190922113010709/22/19 11:30:31  5-MIN KNEW 221730Z 11009KT 10SM FEW040 31/21 A3010 -150 54 1600 110/09 RMK AO2 T03060206
53917KNEW NEW20190922113510709/22/19 11:35:31  5-MIN KNEW 221735Z 10011KT 10SM FEW040 31/21 A3009 -150 54 1700 100/11 RMK AO2 T03110211
53917KNEW NEW20190922114010409/22/19 11:40:31  5-MIN KNEW 221740Z 09009KT 10SM CLR 31/21 A3009 -140 54 1600 090/09 RMK AO2 T03060206
53917KNEW NEW20190922114510709/22/19 11:45:31  5-MIN KNEW 221745Z 08009KT 10SM FEW040 31/21 A3009 -140 54 1600 080/09 RMK AO2 T03060206
53917KNEW NEW20190922115013209/22/19 11:50:31  5-MIN KNEW 221750Z 10011KT 10SM FEW040 31/21 A3009 -140 54 1700 100/11 RMK AO2 SLP183 T03110211 10311 20239 51010
53917KNEW NEW20190922115510709/22/19 11:55:31  5-MIN KNEW 221755Z 10011KT 10SM FEW038 31/22 A3009 -140 58 1600 100/11 RMK AO2 T03060217
53917KNEW NEW20190922120010709/22/19 12:00:31  5-MIN KNEW 221800Z 12010KT 10SM FEW038 31/22 A3009 -140 58 1600 120/10 RMK AO2 T03060217
53917KNEW NEW20190922120511409/22/19 12:05:31  5-MIN KNEW 221805Z 11010KT 10SM SCT042 SCT050 30/21 A3009 -140 58 1600 110/10 RMK AO2 T03000211
53917KNEW NEW20190922121012009/22/19 12:10:31  5-MIN KNEW 221810Z 09010G14KT 10SM FEW039 SCT048 30/21 A3009 -140 58 1600 090/10G14 RMK AO2 T03000211
53917KNEW NEW20190922121512009/22/19 12:15:31  5-MIN KNEW 221815Z 10010G14KT 10SM FEW039 BKN048 30/21 A3008 -140 58 1600 100/10G14 RMK AO2 T03000211
53917KNEW NEW20190922122012109/22/19 12:20:31  5-MIN KNEW 221820Z 10010KT 10SM SCT039 BKN046 BKN055 31/21 A3008 -140 56 1700 100/10 RMK AO2 T03060211
53917KNEW NEW20190922122511409/22/19 12:25:31  5-MIN KNEW 221825Z 08010KT 10SM BKN041 BKN050 31/22 A3008 -130 58 1700 080/10 RMK AO2 T03060217
53917KNEW NEW20190922123011409/22/19 12:30:31  5-MIN KNEW 221830Z 11010KT 10SM SCT041 BKN050 31/22 A3008 -140 58 1700 110/10 RMK AO2 T03110222
53917KNEW NEW20190922123511409/22/19 12:35:31  5-MIN KNEW 221835Z 08008KT 10SM SCT040 SCT050 31/22 A3008 -130 58 1700 080/08 RMK AO2 T03060217
53917KNEW NEW20190922124012009/22/19 12:40:31  5-MIN KNEW 221840Z 11010G16KT 10SM SCT038 SCT047 31/22 A3008 -130 56 1700 110/10G16 RMK AO2 T03110217
53917KNEW NEW20190922124510709/22/19 12:45:31  5-MIN KNEW 221845Z 09009KT 10SM SCT038 31/21 A3008 -130 56 1700 090/09 RMK AO2 T03060211
53917KNEW NEW20190922125012109/22/19 12:50:31  5-MIN KNEW 221850Z 10009KT 10SM SCT038 SCT046 31/22 A3008 -130 56 1700 100/09 RMK AO2 SLP179 T03110217
53917KNEW NEW20190922125511409/22/19 12:55:31  5-MIN KNEW 221855Z 10008KT 10SM SCT038 SCT047 30/21 A3008 -130 58 1600 100/08 RMK AO2 T03000211
53917KNEW NEW20190922130011409/22/19 13:00:31  5-MIN KNEW 221900Z 10011KT 10SM SCT038 BKN046 31/22 A3008 -130 58 1700 100/11 RMK AO2 T03060217
53917KNEW NEW20190922130511409/22/19 13:05:31  5-MIN KNEW 221905Z 09011KT 10SM BKN038 BKN046 31/21 A3007 -130 56 1700 090/11 RMK AO2 T03060211
53917KNEW NEW20190922131011409/22/19 13:10:31  5-MIN KNEW 221910Z 10011KT 10SM BKN038 BKN050 31/22 A3007 -130 56 1700 100/11 RMK AO2 T03110217
53917KNEW NEW20190922131511409/22/19 13:15:31  5-MIN KNEW 221915Z 10010KT 10SM SCT038 BKN046 31/21 A3007 -120 54 1700 100/10 RMK AO2 T03110211
53917KNEW NEW20190922132011409/22/19 13:20:31  5-MIN KNEW 221920Z 09011KT 10SM SCT040 BKN049 30/21 A3007 -120 58 1600 090/11 RMK AO2 T03000211
53917KNEW NEW20190922132511409/22/19 13:25:31  5-MIN KNEW 221925Z 10011KT 10SM SCT040 SCT046 31/21 A3007 -120 56 1700 100/11 RMK AO2 T03060211
53917KNEW NEW20190922133010709/22/19 13:30:31  5-MIN KNEW 221930Z 09011KT 10SM SCT040 31/21 A3006 -120 56 1700 090/11 RMK AO2 T03060211
53917KNEW NEW20190922133510709/22/19 13:35:31  5-MIN KNEW 221935Z 10010KT 10SM SCT040 31/21 A3006 -120 56 1700 100/10 RMK AO2 T03060211
53917KNEW NEW20190922134010709/22/19 13:40:31  5-MIN KNEW 221940Z 11010KT 10SM SCT042 31/21 A3006 -120 54 1700 110/10 RMK AO2 T03110211
53917KNEW NEW20190922134510709/22/19 13:45:31  5-MIN KNEW 221945Z 10010KT 10SM SCT042 30/21 A3006 -110 56 1600 100/10 RMK AO2 T03000206
53917KNEW NEW20190922135011409/22/19 13:50:31  5-MIN KNEW 221950Z 10009KT 10SM SCT044 30/21 A3006 -110 56 1600 100/09 RMK AO2 SLP172 T03000206
53917KNEW NEW20190922135511409/22/19 13:55:31  5-MIN KNEW 221955Z 12011KT 10SM FEW041 SCT048 30/21 A3006 -120 56 1600 120/11 RMK AO2 T03000206
53917KNEW NEW20190922140011409/22/19 14:00:31  5-MIN KNEW 222000Z 10010KT 10SM FEW041 SCT050 30/20 A3006 -110 54 1600 100/10 RMK AO2 T03000200
53917KNEW NEW20190922140510709/22/19 14:05:31  5-MIN KNEW 222005Z 11010KT 10SM SCT047 30/21 A3006 -110 56 1600 110/10 RMK AO2 T03000206
53917KNEW NEW20190922141010709/22/19 14:10:31  5-MIN KNEW 222010Z 11009KT 10SM SCT045 31/21 A3006 -110 54 1700 110/09 RMK AO2 T03060206
53917KNEW NEW20190922141511409/22/19 14:15:31  5-MIN KNEW 222015Z 09011KT 10SM BKN043 BKN050 31/21 A3006 -110 54 1700 090/11 RMK AO2 T03060206
53917KNEW NEW20190922142010709/22/19 14:20:31  5-MIN KNEW 222020Z 10012KT 10SM BKN043 30/21 A3006 -110 56 1600 100/12 RMK AO2 T03000206
53917KNEW NEW20190922142510709/22/19 14:25:31  5-MIN KNEW 222025Z 10010KT 10SM SCT043 31/21 A3005 -110 54 1700 100/10 RMK AO2 T03060206
53917KNEW NEW20190922143010709/22/19 14:30:31  5-MIN KNEW 222030Z 10012KT 10SM BKN043 31/21 A3005 -110 54 1700 100/12 RMK AO2 T03060206
53917KNEW NEW20190922143510709/22/19 14:35:31  5-MIN KNEW 222035Z 10013KT 10SM SCT043 31/21 A3005 -110 54 1700 100/13 RMK AO2 T03060206
53917KNEW NEW20190922144011209/22/19 14:40:31  5-MIN KNEW 222040Z AUTO 10012KT 10SM SCT043 31/21 A3005 -100 54 1700 100/12 RMK AO2 T03060206
53917KNEW NEW20190922144511209/22/19 14:45:31  5-MIN KNEW 222045Z AUTO 10012KT 10SM SCT043 31/21 A3005 -100 56 1700 100/12 RMK AO2 T03060211
53917KNEW NEW20190922145013109/22/19 14:50:31  5-MIN KNEW 222050Z AUTO 09010G18KT 10SM SCT045 31/22 A3004 -100 58 1700 090/10G18 RMK AO2 SLP167 T03060217 58013
53917KNEW NEW20190922145511209/22/19 14:55:31  5-MIN KNEW 222055Z AUTO 10010KT 10SM SCT041 31/22 A3004 -100 58 1700 100/10 RMK AO2 T03060217
53917KNEW NEW20190922150011809/22/19 15:00:31  5-MIN KNEW 222100Z AUTO 10013G18KT 10SM SCT041 31/21 A3004 -100 56 1700 100/13G18 RMK AO2 T03060211
53917KNEW NEW20190922150511209/22/19 15:05:31  5-MIN KNEW 222105Z AUTO 10012KT 10SM SCT040 31/21 A3004 -100 56 1700 100/12 RMK AO2 T03060211
53917KNEW NEW20190922151011209/22/19 15:10:31  5-MIN KNEW 222110Z AUTO 10012KT 10SM SCT040 31/21 A3004 -100 56 1700 100/12 RMK AO2 T03060211
53917KNEW NEW20190922151511209/22/19 15:15:31  5-MIN KNEW 222115Z AUTO 11011KT 10SM SCT040 31/21 A3004 -100 56 1700 110/11 RMK AO2 T03060211
53917KNEW NEW20190922152011209/22/19 15:20:31  5-MIN KNEW 222120Z AUTO 10011KT 10SM SCT039 31/21 A3004 -100 54 1700 100/11 RMK AO2 T03060206
53917KNEW NEW20190922152511209/22/19 15:25:31  5-MIN KNEW 222125Z AUTO 09012KT 10SM FEW039 30/21 A3004 -100 58 1600 090/12 RMK AO2 T03000211
53917KNEW NEW20190922153011209/22/19 15:30:31  5-MIN KNEW 222130Z AUTO 12012KT 10SM FEW039 31/21 A3005 -100 56 1700 120/12 RMK AO2 T03060211
53917KNEW NEW20190922153511209/22/19 15:35:31  5-MIN KNEW 222135Z AUTO 12010KT 10SM FEW039 30/21 A3005 -100 56 1600 120/10 RMK AO2 T03000206
53917KNEW NEW20190922154010909/22/19 15:40:31  5-MIN KNEW 222140Z AUTO 11011KT 10SM CLR 31/21 A3005 -100 54 1700 110/11 RMK AO2 T03060206
53917KNEW NEW20190922154510909/22/19 15:45:31  5-MIN KNEW 222145Z AUTO 10009KT 10SM CLR 30/21 A3005 -100 56 1600 100/09 RMK AO2 T03000206
53917KNEW NEW20190922155011609/22/19 15:50:31  5-MIN KNEW 222150Z AUTO 11011KT 10SM CLR 30/21 A3005 -100 56 1600 110/11 RMK AO2 SLP168 T03000206
53917KNEW NEW20190922155510909/22/19 15:55:31  5-MIN KNEW 222155Z AUTO 10011KT 10SM CLR 30/21 A3005 -100 58 1600 100/11 RMK AO2 T03000211
53917KNEW NEW20190922160010909/22/19 16:00:31  5-MIN KNEW 222200Z AUTO 11010KT 10SM CLR 30/22 A3005 -100 60 1600 110/10 RMK AO2 T03000217
53917KNEW NEW20190922160510909/22/19 16:05:31  5-MIN KNEW 222205Z AUTO 09011KT 10SM CLR 30/21 A3005 -100 58 1600 090/11 RMK AO2 T03000211
53917KNEW NEW20190922161011209/22/19 16:10:31  5-MIN KNEW 222210Z AUTO 12011KT 10SM FEW037 30/21 A3005 -110 58 1600 120/11 RMK AO2 T03000211
53917KNEW NEW20190922161511209/22/19 16:15:31  5-MIN KNEW 222215Z AUTO 12011KT 10SM FEW037 30/21 A3005 -110 56 1600 120/11 RMK AO2 T03000206
53917KNEW NEW20190922162010909/22/19 16:20:31  5-MIN KNEW 222220Z AUTO 12012KT 10SM CLR 29/21 A3005 -110 58 1600 120/12 RMK AO2 T02940206
53917KNEW NEW20190922162510909/22/19 16:25:31  5-MIN KNEW 222225Z AUTO 11011KT 10SM CLR 29/21 A3005 -110 60 1600 110/11 RMK AO2 T02940211
53917KNEW NEW20190922163010909/22/19 16:30:31  5-MIN KNEW 222230Z AUTO 11011KT 10SM CLR 29/21 A3005 -110 60 1600 110/11 RMK AO2 T02940211
53917KNEW NEW20190922163510909/22/19 16:35:31  5-MIN KNEW 222235Z AUTO 11011KT 10SM CLR 29/21 A3005 -110 60 1600 110/11 RMK AO2 T02940211
53917KNEW NEW20190922164010909/22/19 16:40:31  5-MIN KNEW 222240Z AUTO 13013KT 10SM CLR 29/21 A3005 -110 60 1600 130/13 RMK AO2 T02940211
53917KNEW NEW20190922164510909/22/19 16:45:31  5-MIN KNEW 222245Z AUTO 11012KT 10SM CLR 29/21 A3005 -110 60 1600 110/12 RMK AO2 T02940211
53917KNEW NEW20190922165011609/22/19 16:50:31  5-MIN KNEW 222250Z AUTO 13012KT 10SM CLR 29/21 A3005 -110 60 1600 130/12 RMK AO2 SLP170 T02940211
53917KNEW NEW20190922165510909/22/19 16:55:31  5-MIN KNEW 222255Z AUTO 12013KT 10SM CLR 29/21 A3005 -110 62 1500 120/13 RMK AO2 T02890211
53917KNEW NEW20190922170010909/22/19 17:00:31  5-MIN KNEW 222300Z AUTO 12009KT 10SM CLR 29/21 A3005 -110 62 1500 120/09 RMK AO2 T02890211
53917KNEW NEW20190922170510909/22/19 17:05:31  5-MIN KNEW 222305Z AUTO 13010KT 10SM CLR 29/21 A3006 -110 62 1500 130/10 RMK AO2 T02890211
53917KNEW NEW20190922171010909/22/19 17:10:31  5-MIN KNEW 222310Z AUTO 12011KT 10SM CLR 29/21 A3006 -110 62 1500 120/11 RMK AO2 T02890211
53917KNEW NEW20190922171510909/22/19 17:15:31  5-MIN KNEW 222315Z AUTO 13011KT 10SM CLR 29/21 A3006 -110 62 1500 130/11 RMK AO2 T02890211
53917KNEW NEW20190922172010909/22/19 17:20:31  5-MIN KNEW 222320Z AUTO 14012KT 10SM CLR 29/21 A3005 -110 62 1500 140/12 RMK AO2 T02890211
53917KNEW NEW20190922172510909/22/19 17:25:31  5-MIN KNEW 222325Z AUTO 13012KT 10SM CLR 28/21 A3005 -110 62 1400 130/12 RMK AO2 T02830206
53917KNEW NEW20190922173010909/22/19 17:30:31  5-MIN KNEW 222330Z AUTO 12010KT 10SM CLR 28/21 A3005 -110 64 1400 120/10 RMK AO2 T02830211
53917KNEW NEW20190922173510909/22/19 17:35:31  5-MIN KNEW 222335Z AUTO 12010KT 10SM CLR 28/21 A3006 -110 64 1400 120/10 RMK AO2 T02830211
53917KNEW NEW20190922174010909/22/19 17:40:31  5-MIN KNEW 222340Z AUTO 13008KT 10SM CLR 28/21 A3006 -110 64 1400 130/08 RMK AO2 T02830211
53917KNEW NEW20190922174510909/22/19 17:45:31  5-MIN KNEW 222345Z AUTO 13010KT 10SM CLR 28/21 A3006 -110 64 1400 130/10 RMK AO2 T02830211
53917KNEW NEW20190922175013409/22/19 17:50:31  5-MIN KNEW 222350Z AUTO 13010KT 10SM CLR 28/21 A3006 -120 64 1400 130/10 RMK AO2 SLP173 T02830211 10311 20283 58015
53917KNEW NEW20190922175510909/22/19 17:55:31  5-MIN KNEW 222355Z AUTO 14008KT 10SM CLR 28/21 A3006 -110 66 1400 140/08 RMK AO2 T02780211
53917KNEW NEW20190922180010909/22/19 18:00:31  5-MIN KNEW 230000Z AUTO 13007KT 10SM CLR 28/21 A3006 -110 66 1400 130/07 RMK AO2 T02780211
53917KNEW NEW20190922180510909/22/19 18:05:31  5-MIN KNEW 230005Z AUTO 13009KT 10SM CLR 28/21 A3006 -110 66 1400 130/09 RMK AO2 T02780211
53917KNEW NEW20190922181010909/22/19 18:10:31  5-MIN KNEW 230010Z AUTO 13007KT 10SM CLR 28/21 A3006 -120 66 1400 130/07 RMK AO2 T02780211
53917KNEW NEW20190922181510909/22/19 18:15:31  5-MIN KNEW 230015Z AUTO 13011KT 10SM CLR 28/21 A3006 -120 66 1400 130/11 RMK AO2 T02780211
53917KNEW NEW20190922182010909/22/19 18:20:31  5-MIN KNEW 230020Z AUTO 13009KT 10SM CLR 28/21 A3006 -120 66 1400 130/09 RMK AO2 T02780211
53917KNEW NEW20190922182510909/22/19 18:25:31  5-MIN KNEW 230025Z AUTO 13008KT 10SM CLR 27/21 A3007 -120 69 1300 130/08 RMK AO2 T02720211
53917KNEW NEW20190922183010909/22/19 18:30:31  5-MIN KNEW 230030Z AUTO 13009KT 10SM CLR 27/21 A3007 -120 69 1300 130/09 RMK AO2 T02720211
53917KNEW NEW20190922183510909/22/19 18:35:31  5-MIN KNEW 230035Z AUTO 13008KT 10SM CLR 27/21 A3007 -130 69 1300 130/08 RMK AO2 T02720211
53917KNEW NEW20190922184010909/22/19 18:40:31  5-MIN KNEW 230040Z AUTO 13008KT 10SM CLR 27/21 A3007 -130 69 1300 130/08 RMK AO2 T02720211
53917KNEW NEW20190922184510909/22/19 18:45:31  5-MIN KNEW 230045Z AUTO 13008KT 10SM CLR 27/21 A3007 -130 69 1300 130/08 RMK AO2 T02720211
53917KNEW NEW20190922185011609/22/19 18:50:31  5-MIN KNEW 230050Z AUTO 13007KT 10SM CLR 27/21 A3007 -130 69 1300 130/07 RMK AO2 SLP176 T02720211
53917KNEW NEW20190922185510909/22/19 18:55:31  5-MIN KNEW 230055Z AUTO 13008KT 10SM CLR 27/21 A3007 -130 69 1300 130/08 RMK AO2 T02720211
53917KNEW NEW20190922190010909/22/19 19:00:31  5-MIN KNEW 230100Z AUTO 13008KT 10SM CLR 27/21 A3007 -130 69 1300 130/08 RMK AO2 T02720211
53917KNEW NEW20190922190510909/22/19 19:05:31  5-MIN KNEW 230105Z AUTO 12008KT 10SM CLR 27/22 A3008 -130 71 1300 120/08 RMK AO2 T02720217
53917KNEW NEW20190922191010909/22/19 19:10:31  5-MIN KNEW 230110Z AUTO 13008KT 10SM CLR 27/22 A3008 -130 71 1300 130/08 RMK AO2 T02720217
53917KNEW NEW20190922191510909/22/19 19:15:31  5-MIN KNEW 230115Z AUTO 13009KT 10SM CLR 27/22 A3008 -130 71 1300 130/09 RMK AO2 T02720217
53917KNEW NEW20190922192010909/22/19 19:20:31  5-MIN KNEW 230120Z AUTO 12008KT 10SM CLR 27/22 A3008 -130 71 1300 120/08 RMK AO2 T02720217
53917KNEW NEW20190922192510909/22/19 19:25:31  5-MIN KNEW 230125Z AUTO 12008KT 10SM CLR 27/22 A3008 -130 73 1200 120/08 RMK AO2 T02670217
53917KNEW NEW20190922193010909/22/19 19:30:31  5-MIN KNEW 230130Z AUTO 13008KT 10SM CLR 27/22 A3008 -140 73 1200 130/08 RMK AO2 T02670217
53917KNEW NEW20190922193510909/22/19 19:35:31  5-MIN KNEW 230135Z AUTO 13009KT 10SM CLR 27/22 A3008 -140 73 1200 130/09 RMK AO2 T02670217
53917KNEW NEW20190922194010909/22/19 19:40:31  5-MIN KNEW 230140Z AUTO 13008KT 10SM CLR 27/22 A3009 -140 73 1200 130/08 RMK AO2 T02670217
53917KNEW NEW20190922194510909/22/19 19:45:31  5-MIN KNEW 230145Z AUTO 13010KT 10SM CLR 27/22 A3008 -140 73 1200 130/10 RMK AO2 T02670217
53917KNEW NEW20190922195011609/22/19 19:50:31  5-MIN KNEW 230150Z AUTO 13007KT 10SM CLR 27/22 A3008 -140 73 1200 130/07 RMK AO2 SLP181 T02670217
53917KNEW NEW20190922195510909/22/19 19:55:31  5-MIN KNEW 230155Z AUTO 14009KT 10SM CLR 27/22 A3009 -140 73 1200 140/09 RMK AO2 T02670217
53917KNEW NEW20190922200010909/22/19 20:00:31  5-MIN KNEW 230200Z AUTO 14009KT 10SM CLR 27/22 A3008 -140 73 1200 140/09 RMK AO2 T02670217
53917KNEW NEW20190922200510909/22/19 20:05:31  5-MIN KNEW 230205Z AUTO 14008KT 10SM CLR 27/22 A3008 -140 73 1200 140/08 RMK AO2 T02670217
53917KNEW NEW20190922201010909/22/19 20:10:31  5-MIN KNEW 230210Z AUTO 14008KT 10SM CLR 26/22 A3009 -140 76 1100 140/08 RMK AO2 T02610217
53917KNEW NEW20190922201510909/22/19 20:15:31  5-MIN KNEW 230215Z AUTO 14008KT 10SM CLR 26/22 A3009 -140 76 1100 140/08 RMK AO2 T02610217
53917KNEW NEW20190922202010909/22/19 20:20:31  5-MIN KNEW 230220Z AUTO 13007KT 10SM CLR 26/22 A3009 -140 76 1100 130/07 RMK AO2 T02610217
53917KNEW NEW20190922202510909/22/19 20:25:31  5-MIN KNEW 230225Z AUTO 14007KT 10SM CLR 26/22 A3009 -140 76 1100 140/07 RMK AO2 T02610217
53917KNEW NEW20190922203010909/22/19 20:30:31  5-MIN KNEW 230230Z AUTO 14008KT 10SM CLR 26/22 A3009 -140 76 1100 140/08 RMK AO2 T02610217
53917KNEW NEW20190922203510909/22/19 20:35:31  5-MIN KNEW 230235Z AUTO 14010KT 10SM CLR 26/22 A3009 -140 76 1100 140/10 RMK AO2 T02610217
53917KNEW NEW20190922204010909/22/19 20:40:31  5-MIN KNEW 230240Z AUTO 14010KT 10SM CLR 26/22 A3009 -140 76 1100 140/10 RMK AO2 T02610217
53917KNEW NEW20190922204510909/22/19 20:45:31  5-MIN KNEW 230245Z AUTO 14008KT 10SM CLR 26/22 A3009 -140 76 1100 140/08 RMK AO2 T02610217
53917KNEW NEW20190922205012209/22/19 20:50:31  5-MIN KNEW 230250Z AUTO 14009KT 10SM CLR 26/22 A3009 -150 76 1100 140/09 RMK AO2 SLP184 T02610217 53006
53917KNEW NEW20190922205510909/22/19 20:55:31  5-MIN KNEW 230255Z AUTO 15008KT 10SM CLR 26/22 A3009 -150 76 1100 150/08 RMK AO2 T02610217
53917KNEW NEW20190922210010909/22/19 21:00:31  5-MIN KNEW 230300Z AUTO 14008KT 10SM CLR 26/21 A3009 -150 73 1100 140/08 RMK AO2 T02610211
53917KNEW NEW20190922210510909/22/19 21:05:31  5-MIN KNEW 230305Z AUTO 15006KT 10SM CLR 26/21 A3009 -150 76 1100 150/06 RMK AO2 T02560211
53917KNEW NEW20190922211010909/22/19 21:10:31  5-MIN KNEW 230310Z AUTO 15008KT 10SM CLR 26/22 A3009 -150 79 1100 150/08 RMK AO2 T02560217
53917KNEW NEW20190922211510909/22/19 21:15:31  5-MIN KNEW 230315Z AUTO 14007KT 10SM CLR 26/22 A3009 -140 79 1100 140/07 RMK AO2 T02560217
53917KNEW NEW20190922212010909/22/19 21:20:31  5-MIN KNEW 230320Z AUTO 14007KT 10SM CLR 26/22 A3009 -140 79 1100 140/07 RMK AO2 T02560217
53917KNEW NEW20190922212510909/22/19 21:25:31  5-MIN KNEW 230325Z AUTO 14007KT 10SM CLR 26/22 A3009 -140 79 1100 140/07 RMK AO2 T02560217
53917KNEW NEW20190922213010909/22/19 21:30:31  5-MIN KNEW 230330Z AUTO 14006KT 10SM CLR 26/22 A3009 -140 79 1100 140/06 RMK AO2 T02560217
53917KNEW NEW20190922213510909/22/19 21:35:31  5-MIN KNEW 230335Z AUTO 14005KT 10SM CLR 26/22 A3009 -140 79 1100 140/05 RMK AO2 T02560217
53917KNEW NEW20190922214010909/22/19 21:40:31  5-MIN KNEW 230340Z AUTO 14005KT 10SM CLR 26/22 A3009 -140 79 1100 140/05 RMK AO2 T02560217
53917KNEW NEW20190922214510909/22/19 21:45:31  5-MIN KNEW 230345Z AUTO 15004KT 10SM CLR 26/22 A3009 -140 79 1100 150/04 RMK AO2 T02560217
53917KNEW NEW20190922215011609/22/19 21:50:31  5-MIN KNEW 230350Z AUTO 16003KT 10SM CLR 26/22 A3009 -140 79 1100 160/03 RMK AO2 SLP182 T02560217
53917KNEW NEW20190922215510909/22/19 21:55:31  5-MIN KNEW 230355Z AUTO 16003KT 10SM CLR 26/22 A3009 -140 79 1100 160/03 RMK AO2 T02560217
53917KNEW NEW20190922220010909/22/19 22:00:31  5-MIN KNEW 230400Z AUTO 15003KT 10SM CLR 26/22 A3009 -140 79 1100 150/03 RMK AO2 T02560217
53917KNEW NEW20190922220510909/22/19 22:05:31  5-MIN KNEW 230405Z AUTO 15003KT 10SM CLR 26/22 A3009 -140 79 1100 150/03 RMK AO2 T02560217
53917KNEW NEW20190922221010909/22/19 22:10:31  5-MIN KNEW 230410Z AUTO 15003KT 10SM CLR 26/22 A3009 -140 79 1100 150/03 RMK AO2 T02560217
53917KNEW NEW20190922221510909/22/19 22:15:31  5-MIN KNEW 230415Z AUTO 13003KT 10SM CLR 26/22 A3009 -140 79 1100 130/03 RMK AO2 T02560217
53917KNEW NEW20190922233010909/22/19 23:30:31  5-MIN KNEW 230530Z AUTO 12004KT 10SM CLR 25/22 A3008 -130 84 1000 120/04 RMK AO2 T02500222
53917KNEW NEW20190922233510909/22/19 23:35:31  5-MIN KNEW 230535Z AUTO 12004KT 10SM CLR 25/22 A3008 -130 84 1000 120/04 RMK AO2 T02500222
53917KNEW NEW20190922234010909/22/19 23:40:31  5-MIN KNEW 230540Z AUTO 13004KT 10SM CLR 25/22 A3008 -130 84 1000 130/04 RMK AO2 T02500222
53917KNEW NEW20190922234510909/22/19 23:45:31  5-MIN KNEW 230545Z AUTO 12004KT 10SM CLR 25/22 A3008 -130 84 1000 120/04 RMK AO2 T02500222
53917KNEW NEW20190922235014409/22/19 23:50:31  5-MIN KNEW 230550Z AUTO 12004KT 10SM CLR 25/22 A3008 -130 84 1000 120/04 RMK AO2 SLP178 T02500222 10278 20250 403110239 51011
53917KNEW NEW20190922235510909/22/19 23:55:31  5-MIN KNEW 230555Z AUTO 13003KT 10SM CLR 25/22 A3008 -130 84 1000 130/03 RMK AO2 T02500222
53917KNEW NEW20190923000010909/23/19 00:00:31  5-MIN KNEW 230600Z AUTO 13003KT 10SM CLR 25/22 A3008 -130 84 1000 130/03 RMK AO2 T02500222
53917KNEW NEW20190923000510909/23/19 00:05:31  5-MIN KNEW 230605Z AUTO 13003KT 10SM CLR 25/22 A3008 -130 84 1000 130/03 RMK AO2 T02500222
53917KNEW NEW20190923001010909/23/19 00:10:31  5-MIN KNEW 230610Z AUTO 13003KT 10SM CLR 25/22 A3008 -130 84 1000 130/03 RMK AO2 T02500222
53917KNEW NEW20190923001510909/23/19 00:15:31  5-MIN KNEW 230615Z AUTO 13003KT 10SM CLR 25/22 A3008 -130 84 1000 130/03 RMK AO2 T02500222
53917KNEW NEW20190923002010909/23/19 00:20:31  5-MIN KNEW 230620Z AUTO 13004KT 10SM CLR 25/22 A3008 -130 84 1000 130/04 RMK AO2 T02500222
53917KNEW NEW20190923002510909/23/19 00:25:31  5-MIN KNEW 230625Z AUTO 13004KT 10SM CLR 25/22 A3008 -130 84 1000 130/04 RMK AO2 T02500222
53917KNEW NEW20190923003010909/23/19 00:30:31  5-MIN KNEW 230630Z AUTO 13004KT 10SM CLR 25/22 A3008 -130 84 1000 130/04 RMK AO2 T02500222
53917KNEW NEW20190923003510909/23/19 00:35:31  5-MIN KNEW 230635Z AUTO 14003KT 10SM CLR 24/22 A3008 -130 87 1000 140/03 RMK AO2 T02440222
53917KNEW NEW20190923004010909/23/19 00:40:31  5-MIN KNEW 230640Z AUTO 15003KT 10SM CLR 24/22 A3008 -130 87 1000 150/03 RMK AO2 T02440222
53917KNEW NEW20190923004510909/23/19 00:45:31  5-MIN KNEW 230645Z AUTO 17003KT 10SM CLR 24/22 A3008 -130 87 1000 170/03 RMK AO2 T02440222
53917KNEW NEW20190923005011609/23/19 00:50:31  5-MIN KNEW 230650Z AUTO 17003KT 10SM CLR 25/22 A3007 -130 84 1000 170/03 RMK AO2 SLP177 T02500222
53917KNEW NEW20190923005510909/23/19 00:55:31  5-MIN KNEW 230655Z AUTO 17003KT 10SM CLR 25/22 A3007 -130 84 1000 170/03 RMK AO2 T02500222
53917KNEW NEW20190923010010909/23/19 01:00:31  5-MIN KNEW 230700Z AUTO 00000KT 10SM CLR 25/22 A3007 -130 84 1000 000/00 RMK AO2 T02500222
53917KNEW NEW20190923010510909/23/19 01:05:31  5-MIN KNEW 230705Z AUTO 00000KT 10SM CLR 25/22 A3007 -130 84 1000 000/00 RMK AO2 T02500222
53917KNEW NEW20190923011010909/23/19 01:10:31  5-MIN KNEW 230710Z AUTO 00000KT 10SM CLR 25/22 A3007 -120 84 1000 000/00 RMK AO2 T02500222
53917KNEW NEW20190923011511209/23/19 01:15:31  5-MIN KNEW 230715Z AUTO 00000KT 10SM FEW060 25/22 A3007 -120 84 1000 000/00 RMK AO2 T02500222
53917KNEW NEW20190923012011209/23/19 01:20:31  5-MIN KNEW 230720Z AUTO 00000KT 10SM SCT060 25/22 A3007 -120 84 1000 000/00 RMK AO2 T02500222
53917KNEW NEW20190923012511209/23/19 01:25:31  5-MIN KNEW 230725Z AUTO 12003KT 10SM SCT060 25/22 A3006 -120 84 1000 120/03 RMK AO2 T02500222
53917KNEW NEW20190923013011209/23/19 01:30:31  5-MIN KNEW 230730Z AUTO 00000KT 10SM SCT060 25/22 A3006 -120 84 1100 000/00 RMK AO2 T02500222
53917KNEW NEW20190923013511209/23/19 01:35:31  5-MIN KNEW 230735Z AUTO 12003KT 10SM SCT060 24/22 A3006 -120 84 1000 120/03 RMK AO2 T02440217
53917KNEW NEW20190923014011209/23/19 01:40:31  5-MIN KNEW 230740Z AUTO 12003KT 10SM FEW060 24/22 A3006 -110 84 1000 120/03 RMK AO2 T02440217
53917KNEW NEW20190923014511209/23/19 01:45:31  5-MIN KNEW 230745Z AUTO 13003KT 10SM FEW060 24/22 A3006 -110 84 1000 130/03 RMK AO2 T02440217
53917KNEW NEW20190923015011909/23/19 01:50:31  5-MIN KNEW 230750Z AUTO 13004KT 10SM FEW060 25/22 A3006 -110 81 1100 130/04 RMK AO2 SLP171 T02500217
53917KNEW NEW20190923015511209/23/19 01:55:31  5-MIN KNEW 230755Z AUTO 13004KT 10SM FEW060 24/22 A3006 -110 84 1000 130/04 RMK AO2 T02440217
53917KNEW NEW20190923020010909/23/19 02:00:31  5-MIN KNEW 230800Z AUTO 14004KT 10SM CLR 24/22 A3006 -110 84 1000 140/04 RMK AO2 T02440217
53917KNEW NEW20190923020510909/23/19 02:05:31  5-MIN KNEW 230805Z AUTO 14004KT 10SM CLR 24/22 A3006 -110 84 1000 140/04 RMK AO2 T02440217
53917KNEW NEW20190923021010909/23/19 02:10:31  5-MIN KNEW 230810Z AUTO 14004KT 10SM CLR 24/22 A3006 -110 84 1000 140/04 RMK AO2 T02440217
53917KNEW NEW20190923021510909/23/19 02:15:31  5-MIN KNEW 230815Z AUTO 15003KT 10SM CLR 24/22 A3005 -110 84 1000 150/03 RMK AO2 T02440217
53917KNEW NEW20190923022010909/23/19 02:20:31  5-MIN KNEW 230820Z AUTO 15003KT 10SM CLR 24/22 A3005 -110 84 1000 150/03 RMK AO2 T02440217
53917KNEW NEW20190923022510909/23/19 02:25:31  5-MIN KNEW 230825Z AUTO 13003KT 10SM CLR 24/22 A3005 -110 84 1000 130/03 RMK AO2 T02440217
53917KNEW NEW20190923023010909/23/19 02:30:31  5-MIN KNEW 230830Z AUTO 12003KT 10SM CLR 24/22 A3005 -110 84 1000 120/03 RMK AO2 T02440217
53917KNEW NEW20190923023510909/23/19 02:35:31  5-MIN KNEW 230835Z AUTO 13003KT 10SM CLR 24/22 A3005 -110 84 1000 130/03 RMK AO2 T02440217
53917KNEW NEW20190923024010909/23/19 02:40:31  5-MIN KNEW 230840Z AUTO 14003KT 10SM CLR 24/22 A3005 -110 84 1000 140/03 RMK AO2 T02440217
53917KNEW NEW20190923024510909/23/19 02:45:31  5-MIN KNEW 230845Z AUTO 15004KT 10SM CLR 24/22 A3005 -110 84 1000 150/04 RMK AO2 T02440217
53917KNEW NEW20190923025012109/23/19 02:50:31  5-MIN KNEW 230850Z AUTO 14004KT 10SM CLR 24/22 A3005 -100 87 900 140/04 RMK AO2 SLP168 T02390217 57005
53917KNEW NEW20190923025510909/23/19 02:55:31  5-MIN KNEW 230855Z AUTO 13004KT 10SM CLR 24/22 A3005 -100 84 1000 130/04 RMK AO2 T02440217
53917KNEW NEW20190923030010909/23/19 03:00:31  5-MIN KNEW 230900Z AUTO 14004KT 10SM CLR 24/22 A3005 -100 84 1000 140/04 RMK AO2 T02440217
53917KNEW NEW20190923030510909/23/19 03:05:31  5-MIN KNEW 230905Z AUTO 13003KT 10SM CLR 24/22 A3005 -100 84 1000 130/03 RMK AO2 T02440217
53917KNEW NEW20190923031010909/23/19 03:10:31  5-MIN KNEW 230910Z AUTO 13003KT 10SM CLR 24/22 A3005 -100 84 1000 130/03 RMK AO2 T02440217
53917KNEW NEW20190923031510909/23/19 03:15:31  5-MIN KNEW 230915Z AUTO 13003KT 10SM CLR 24/22 A3004 -100 84 1000 130/03 RMK AO2 T02440217
53917KNEW NEW20190923032010909/23/19 03:20:31  5-MIN KNEW 230920Z AUTO 00000KT 10SM CLR 24/22 A3004 -100 84 1000 000/00 RMK AO2 T02440217
53917KNEW NEW20190923032510909/23/19 03:25:31  5-MIN KNEW 230925Z AUTO 00000KT 10SM CLR 25/22 A3004 -100 81 1100 000/00 RMK AO2 T02500217
53917KNEW NEW20190923033010909/23/19 03:30:31  5-MIN KNEW 230930Z AUTO 00000KT 10SM CLR 24/22 A3005 -100 84 1000 000/00 RMK AO2 T02440217
53917KNEW NEW20190923033510909/23/19 03:35:31  5-MIN KNEW 230935Z AUTO 00000KT 10SM CLR 24/22 A3005 -100 84 1000 000/00 RMK AO2 T02440217
53917KNEW NEW20190923034010909/23/19 03:40:31  5-MIN KNEW 230940Z AUTO 00000KT 10SM CLR 24/22 A3005 -100 84 1000 000/00 RMK AO2 T02440217
53917KNEW NEW20190923034510909/23/19 03:45:31  5-MIN KNEW 230945Z AUTO 00000KT 10SM CLR 24/22 A3005 -100 84 1000 000/00 RMK AO2 T02440217
53917KNEW NEW20190923035011609/23/19 03:50:31  5-MIN KNEW 230950Z AUTO 00000KT 10SM CLR 24/22 A3005 -100 84 1000 000/00 RMK AO2 SLP168 T02440217
53917KNEW NEW20190923035510909/23/19 03:55:31  5-MIN KNEW 230955Z AUTO 00000KT 10SM CLR 24/22 A3005 -100 84 1000 000/00 RMK AO2 T02440217
53917KNEW NEW20190923040010909/23/19 04:00:31  5-MIN KNEW 231000Z AUTO 00000KT 10SM CLR 24/22 A3005 -100 84 1000 000/00 RMK AO2 T02440217
53917KNEW NEW20190923040510909/23/19 04:05:31  5-MIN KNEW 231005Z AUTO 00000KT 10SM CLR 24/22 A3005 -100 84 1000 000/00 RMK AO2 T02440217
53917KNEW NEW20190923041010909/23/19 04:10:31  5-MIN KNEW 231010Z AUTO 00000KT 10SM CLR 24/22 A3005 -100 84 1000 000/00 RMK AO2 T02440217
53917KNEW NEW20190923041510909/23/19 04:15:31  5-MIN KNEW 231015Z AUTO 00000KT 10SM CLR 24/22 A3005 -100 84 1000 000/00 RMK AO2 T02440217
53917KNEW NEW20190923042010909/23/19 04:20:31  5-MIN KNEW 231020Z AUTO 00000KT 10SM CLR 24/22 A3005 -110 84 1000 000/00 RMK AO2 T02440217
53917KNEW NEW20190923042510909/23/19 04:25:31  5-MIN KNEW 231025Z AUTO 00000KT 10SM CLR 25/22 A3005 -110 81 1100 000/00 RMK AO2 T02500217
53917KNEW NEW20190923043010909/23/19 04:30:31  5-MIN KNEW 231030Z AUTO 00000KT 10SM CLR 24/22 A3005 -110 84 1000 000/00 RMK AO2 T02440217
53917KNEW NEW20190923043510909/23/19 04:35:31  5-MIN KNEW 231035Z AUTO 00000KT 10SM CLR 24/22 A3005 -110 84 1000 000/00 RMK AO2 T02440217
53917KNEW NEW20190923044010809/23/19 04:40:31  5-MIN KNEW 231040Z AUTO 14003KT 10SM CLR 24/22 A3006 -110 87 900 140/03 RMK AO2 T02390217
53917KNEW NEW20190923044510809/23/19 04:45:31  5-MIN KNEW 231045Z AUTO 00000KT 10SM CLR 24/21 A3006 -110 84 900 000/00 RMK AO2 T02390211
53917KNEW NEW20190923045011609/23/19 04:50:31  5-MIN KNEW 231050Z AUTO 00000KT 10SM CLR 24/21 A3005 -110 81 1000 000/00 RMK AO2 SLP171 T02440211
53917KNEW NEW20190923045510809/23/19 04:55:31  5-MIN KNEW 231055Z AUTO 00000KT 10SM CLR 24/21 A3006 -110 84 900 000/00 RMK AO2 T02390211
53917KNEW NEW20190923050010909/23/19 05:00:31  5-MIN KNEW 231100Z AUTO 00000KT 10SM CLR 24/21 A3006 -110 81 1000 000/00 RMK AO2 T02440211
53917KNEW NEW20190923050510909/23/19 05:05:31  5-MIN KNEW 231105Z AUTO 13003KT 10SM CLR 24/21 A3006 -110 81 1000 130/03 RMK AO2 T02440211
53917KNEW NEW20190923051010809/23/19 05:10:31  5-MIN KNEW 231110Z AUTO 13003KT 10SM CLR 24/21 A3006 -110 84 900 130/03 RMK AO2 T02390211
53917KNEW NEW20190923051510809/23/19 05:15:31  5-MIN KNEW 231115Z AUTO 12003KT 10SM CLR 23/21 A3006 -110 87 900 120/03 RMK AO2 T02330211
53917KNEW NEW20190923052010809/23/19 05:20:31  5-MIN KNEW 231120Z AUTO 11003KT 10SM CLR 24/22 A3006 -110 87 900 110/03 RMK AO2 T02390217
53917KNEW NEW20190923052510909/23/19 05:25:31  5-MIN KNEW 231125Z AUTO 11003KT 10SM CLR 24/22 A3006 -110 84 1000 110/03 RMK AO2 T02440217
53917KNEW NEW20190923053010909/23/19 05:30:31  5-MIN KNEW 231130Z AUTO 11003KT 10SM CLR 24/22 A3006 -110 87 1000 110/03 RMK AO2 T02440222
53917KNEW NEW20190923053510909/23/19 05:35:31  5-MIN KNEW 231135Z AUTO 11003KT 10SM CLR 24/22 A3006 -110 87 1000 110/03 RMK AO2 T02440222
53917KNEW NEW20190923054010809/23/19 05:40:31  5-MIN KNEW 231140Z AUTO 10004KT 10SM CLR 24/22 A3006 -120 87 900 100/04 RMK AO2 T02390217
53917KNEW NEW20190923054510409/23/19 05:45:31  5-MIN KNEW 231145Z 09003KT 10SM CLR 24/22 A3006 -110 84 1000 090/03 RMK AO2 T02440217
53917KNEW NEW20190923055012909/23/19 05:50:31  5-MIN KNEW 231150Z 08005KT 10SM CLR 25/22 A3006 -120 81 1100 080/05 RMK AO2 SLP173 T02500217 10250 20233 58010
53917KNEW NEW20190923055510409/23/19 05:55:31  5-MIN KNEW 231155Z 07005KT 10SM CLR 26/22 A3006 -120 81 1100 070/05 RMK AO2 T02560222
53917KNEW NEW20190923060010409/23/19 06:00:31  5-MIN KNEW 231200Z 08006KT 10SM CLR 26/22 A3007 -120 81 1100 080/06 RMK AO2 T02560222
53917KNEW NEW20190923060510409/23/19 06:05:31  5-MIN KNEW 231205Z 08005KT 10SM CLR 26/23 A3007 -120 84 1100 080/05 RMK AO2 T02560228
53917KNEW NEW20190923061010409/23/19 06:10:31  5-MIN KNEW 231210Z 07006KT 10SM CLR 26/23 A3007 -120 81 1200 070/06 RMK AO2 T02610228
53917KNEW NEW20190923061510409/23/19 06:15:31  5-MIN KNEW 231215Z 07006KT 10SM CLR 26/23 A3007 -120 81 1200 070/06 RMK AO2 T02610228
53917KNEW NEW20190923062010409/23/19 06:20:31  5-MIN KNEW 231220Z 07006KT 10SM CLR 26/23 A3007 -130 81 1200 070/06 RMK AO2 T02610228
53917KNEW NEW20190923062510409/23/19 06:25:31  5-MIN KNEW 231225Z 07007KT 10SM CLR 26/23 A3007 -130 81 1200 070/07 RMK AO2 T02610228
53917KNEW NEW20190923063010409/23/19 06:30:31  5-MIN KNEW 231230Z 07007KT 10SM CLR 26/23 A3008 -130 81 1200 070/07 RMK AO2 T02610228
53917KNEW NEW20190923063510409/23/19 06:35:31  5-MIN KNEW 231235Z 07007KT 10SM CLR 26/23 A3008 -130 81 1200 070/07 RMK AO2 T02610228
53917KNEW NEW20190923064010409/23/19 06:40:31  5-MIN KNEW 231240Z 06007KT 10SM CLR 26/22 A3008 -130 79 1200 060/07 RMK AO2 T02610222
53917KNEW NEW20190923064510409/23/19 06:45:31  5-MIN KNEW 231245Z 06007KT 10SM CLR 26/22 A3008 -130 79 1200 060/07 RMK AO2 T02610222
53917KNEW NEW20190923065011109/23/19 06:50:31  5-MIN KNEW 231250Z 06007KT 10SM CLR 27/22 A3008 -140 76 1200 060/07 RMK AO2 SLP181 T02670222
53917KNEW NEW20190923065510409/23/19 06:55:31  5-MIN KNEW 231255Z 06007KT 10SM CLR 27/22 A3009 -140 76 1200 060/07 RMK AO2 T02670222
53917KNEW NEW20190923070010409/23/19 07:00:31  5-MIN KNEW 231300Z 06007KT 10SM CLR 27/22 A3009 -140 76 1200 060/07 RMK AO2 T02670222
53917KNEW NEW20190923070510409/23/19 07:05:31  5-MIN KNEW 231305Z 06007KT 10SM CLR 27/22 A3009 -140 76 1200 060/07 RMK AO2 T02670222
53917KNEW NEW20190923071010409/23/19 07:10:31  5-MIN KNEW 231310Z 06007KT 10SM CLR 27/22 A3009 -140 76 1200 060/07 RMK AO2 T02670222
53917KNEW NEW20190923071510409/23/19 07:15:31  5-MIN KNEW 231315Z 05008KT 10SM CLR 27/22 A3009 -140 76 1200 050/08 RMK AO2 T02670222
53917KNEW NEW20190923072010409/23/19 07:20:31  5-MIN KNEW 231320Z 06008KT 10SM CLR 27/23 A3009 -140 79 1200 060/08 RMK AO2 T02670228
53917KNEW NEW20190923072510409/23/19 07:25:31  5-MIN KNEW 231325Z 06008KT 10SM CLR 27/23 A3009 -140 79 1200 060/08 RMK AO2 T02670228
53917KNEW NEW20190923073010409/23/19 07:30:31  5-MIN KNEW 231330Z 06008KT 10SM CLR 27/23 A3009 -140 79 1200 060/08 RMK AO2 T02670228
53917KNEW NEW20190923073510409/23/19 07:35:31  5-MIN KNEW 231335Z 05007KT 10SM CLR 27/22 A3009 -140 74 1300 050/07 RMK AO2 T02720222
53917KNEW NEW20190923074010409/23/19 07:40:31  5-MIN KNEW 231340Z 05009KT 10SM CLR 27/22 A3009 -150 74 1300 050/09 RMK AO2 T02720222
53917KNEW NEW20190923074510409/23/19 07:45:31  5-MIN KNEW 231345Z 06009KT 10SM CLR 27/22 A3009 -150 71 1300 060/09 RMK AO2 T02720217
53917KNEW NEW20190923075011109/23/19 07:50:31  5-MIN KNEW 231350Z 05009KT 10SM CLR 27/22 A3010 -150 71 1300 050/09 RMK AO2 SLP185 T02720217
53917KNEW NEW20190923075510409/23/19 07:55:31  5-MIN KNEW 231355Z 05009KT 10SM CLR 27/22 A3010 -150 74 1300 050/09 RMK AO2 T02720222
53917KNEW NEW20190923080010409/23/19 08:00:31  5-MIN KNEW 231400Z 06009KT 10SM CLR 27/22 A3010 -150 74 1300 060/09 RMK AO2 T02720222
53917KNEW NEW20190923080510409/23/19 08:05:31  5-MIN KNEW 231405Z 05010KT 10SM CLR 27/22 A3010 -150 74 1300 050/10 RMK AO2 T02720222
53917KNEW NEW20190923081010409/23/19 08:10:31  5-MIN KNEW 231410Z 06009KT 10SM CLR 27/23 A3010 -150 76 1300 060/09 RMK AO2 T02720228
53917KNEW NEW20190923081510409/23/19 08:15:31  5-MIN KNEW 231415Z 07010KT 10SM CLR 27/22 A3010 -150 74 1300 070/10 RMK AO2 T02720222
53917KNEW NEW20190923082010409/23/19 08:20:31  5-MIN KNEW 231420Z 07008KT 10SM CLR 27/22 A3010 -150 74 1300 070/08 RMK AO2 T02720222
53917KNEW NEW20190923082510409/23/19 08:25:31  5-MIN KNEW 231425Z 07008KT 10SM CLR 27/22 A3010 -150 74 1300 070/08 RMK AO2 T02720222
53917KNEW NEW20190923083010409/23/19 08:30:31  5-MIN KNEW 231430Z 08008KT 10SM CLR 27/22 A3010 -160 74 1300 080/08 RMK AO2 T02720222
53917KNEW NEW20190923083510409/23/19 08:35:31  5-MIN KNEW 231435Z 06008KT 10SM CLR 27/22 A3010 -160 74 1300 060/08 RMK AO2 T02720222
53917KNEW NEW20190923084010409/23/19 08:40:31  5-MIN KNEW 231440Z 07009KT 10SM CLR 27/22 A3010 -160 74 1300 070/09 RMK AO2 T02720222
53917KNEW NEW20190923084510409/23/19 08:45:31  5-MIN KNEW 231445Z 07009KT 10SM CLR 28/22 A3011 -160 69 1300 070/09 RMK AO2 T02780217
53917KNEW NEW20190923085011709/23/19 08:50:31  5-MIN KNEW 231450Z 07009KT 10SM CLR 28/21 A3011 -160 66 1300 070/09 RMK AO2 SLP188 T02780211 53005
53917KNEW NEW20190923085510409/23/19 08:55:31  5-MIN KNEW 231455Z 06009KT 10SM CLR 28/22 A3011 -160 69 1300 060/09 RMK AO2 T02780217
53917KNEW NEW20190923090010409/23/19 09:00:31  5-MIN KNEW 231500Z 06009KT 10SM CLR 28/21 A3011 -160 66 1300 060/09 RMK AO2 T02780211
53917KNEW NEW20190923090510409/23/19 09:05:31  5-MIN KNEW 231505Z 06009KT 10SM CLR 28/22 A3011 -160 66 1400 060/09 RMK AO2 T02830217
53917KNEW NEW20190923091010409/23/19 09:10:31  5-MIN KNEW 231510Z 07007KT 10SM CLR 28/22 A3011 -160 66 1400 070/07 RMK AO2 T02830217
53917KNEW NEW20190923091510409/23/19 09:15:31  5-MIN KNEW 231515Z 06008KT 10SM CLR 28/22 A3011 -160 66 1400 060/08 RMK AO2 T02830217
53917KNEW NEW20190923092010409/23/19 09:20:31  5-MIN KNEW 231520Z 05007KT 10SM CLR 28/21 A3011 -160 66 1300 050/07 RMK AO2 T02780211
53917KNEW NEW20190923092510709/23/19 09:25:31  5-MIN KNEW 231525Z 06008KT 10SM FEW036 28/22 A3011 -160 66 1400 060/08 RMK AO2 T02830217
53917KNEW NEW20190923093010709/23/19 09:30:31  5-MIN KNEW 231530Z 07008KT 10SM FEW036 28/22 A3011 -160 66 1400 070/08 RMK AO2 T02830217
53917KNEW NEW20190923093510409/23/19 09:35:31  5-MIN KNEW 231535Z 07008KT 10SM CLR 28/21 A3011 -160 64 1400 070/08 RMK AO2 T02830211
53917KNEW NEW20190923094010409/23/19 09:40:31  5-MIN KNEW 231540Z 07008KT 10SM CLR 28/22 A3011 -160 66 1400 070/08 RMK AO2 T02830217
53917KNEW NEW20190923094510409/23/19 09:45:31  5-MIN KNEW 231545Z 09008KT 10SM CLR 28/21 A3011 -160 62 1400 090/08 RMK AO2 T02830206
53917KNEW NEW20190923095011409/23/19 09:50:31  5-MIN KNEW 231550Z 08006KT 10SM FEW034 29/20 A3011 -160 58 1400 080/06 RMK AO2 SLP189 T02890200
53917KNEW NEW20190923095510709/23/19 09:55:31  5-MIN KNEW 231555Z 07007KT 10SM FEW032 29/21 A3011 -160 60 1400 070/07 RMK AO2 T02890206
53917KNEW NEW20190923100010709/23/19 10:00:31  5-MIN KNEW 231600Z 06007KT 10SM FEW032 29/21 A3011 -160 62 1400 060/07 RMK AO2 T02890211
53917KNEW NEW20190923100510709/23/19 10:05:31  5-MIN KNEW 231605Z 06007KT 10SM FEW034 29/21 A3011 -160 60 1400 060/07 RMK AO2 T02890206
53917KNEW NEW20190923101010709/23/19 10:10:31  5-MIN KNEW 231610Z 08008KT 10SM SCT032 28/21 A3010 -150 62 1400 080/08 RMK AO2 T02830206
53917KNEW NEW20190923101510709/23/19 10:15:31  5-MIN KNEW 231615Z 07007KT 10SM SCT032 29/21 A3010 -150 62 1400 070/07 RMK AO2 T02890211
53917KNEW NEW20190923102010709/23/19 10:20:31  5-MIN KNEW 231620Z 07007KT 10SM SCT032 29/21 A3010 -150 62 1400 070/07 RMK AO2 T02890211
53917KNEW NEW20190923102510709/23/19 10:25:31  5-MIN KNEW 231625Z 07007KT 10SM FEW032 29/21 A3010 -150 60 1500 070/07 RMK AO2 T02940211
53917KNEW NEW20190923103010709/23/19 10:30:31  5-MIN KNEW 231630Z 06006KT 10SM FEW032 29/21 A3010 -150 58 1500 060/06 RMK AO2 T02940206
53917KNEW NEW20190923103510709/23/19 10:35:31  5-MIN KNEW 231635Z 07008KT 10SM FEW032 29/20 A3010 -150 58 1400 070/08 RMK AO2 T02890200
53917KNEW NEW20190923104010709/23/19 10:40:31  5-MIN KNEW 231640Z 07007KT 10SM FEW035 29/20 A3010 -150 58 1400 070/07 RMK AO2 T02890200
53917KNEW NEW20190923104510709/23/19 10:45:31  5-MIN KNEW 231645Z 07007KT 10SM FEW037 29/20 A3010 -150 58 1400 070/07 RMK AO2 T02890200
53917KNEW NEW20190923105011409/23/19 10:50:31  5-MIN KNEW 231650Z 08007KT 10SM FEW037 29/20 A3010 -150 56 1500 080/07 RMK AO2 SLP187 T02940200
53917KNEW NEW20190923105510709/23/19 10:55:31  5-MIN KNEW 231655Z 06007KT 10SM FEW037 29/20 A3010 -150 56 1500 060/07 RMK AO2 T02940200
53917KNEW NEW20190923110010709/23/19 11:00:31  5-MIN KNEW 231700Z 07007KT 10SM FEW039 29/19 A3010 -150 54 1500 070/07 RMK AO2 T02940194
53917KNEW NEW20190923110510709/23/19 11:05:31  5-MIN KNEW 231705Z 07007KT 10SM SCT039 30/21 A3010 -150 56 1600 070/07 RMK AO2 T03000206
53917KNEW NEW20190923111010709/23/19 11:10:31  5-MIN KNEW 231710Z 07007KT 10SM FEW039 30/20 A3010 -150 54 1600 070/07 RMK AO2 T03000200
53917KNEW NEW20190923111510709/23/19 11:15:31  5-MIN KNEW 231715Z 05006KT 10SM FEW039 30/20 A3010 -150 54 1600 050/06 RMK AO2 T03000200
53917KNEW NEW20190923112010709/23/19 11:20:31  5-MIN KNEW 231720Z 06008KT 10SM FEW041 29/19 A3010 -150 54 1500 060/08 RMK AO2 T02940194
53917KNEW NEW20190923112510709/23/19 11:25:31  5-MIN KNEW 231725Z 06008KT 10SM FEW041 30/20 A3009 -150 54 1600 060/08 RMK AO2 T03000200
53917KNEW NEW20190923113010409/23/19 11:30:31  5-MIN KNEW 231730Z 05008KT 10SM CLR 30/20 A3009 -140 54 1600 050/08 RMK AO2 T03000200
53917KNEW NEW20190923113510409/23/19 11:35:31  5-MIN KNEW 231735Z 06008KT 10SM CLR 30/19 A3009 -140 52 1600 060/08 RMK AO2 T03000194
53917KNEW NEW20190923114010409/23/19 11:40:31  5-MIN KNEW 231740Z 05009KT 10SM CLR 30/19 A3009 -140 52 1600 050/09 RMK AO2 T03000194
53917KNEW NEW20190923114510409/23/19 11:45:31  5-MIN KNEW 231745Z 05007KT 10SM CLR 30/20 A3009 -140 54 1600 050/07 RMK AO2 T03000200
53917KNEW NEW20190923115013209/23/19 11:50:31  5-MIN KNEW 231750Z 06008KT 10SM FEW044 30/20 A3008 -140 54 1600 060/08 RMK AO2 SLP181 T03000200 10300 20256 51015
53917KNEW NEW20190923115510709/23/19 11:55:31  5-MIN KNEW 231755Z 07008KT 10SM FEW044 30/20 A3008 -130 54 1600 070/08 RMK AO2 T03000200
53917KNEW NEW20190923120010709/23/19 12:00:31  5-MIN KNEW 231800Z 07009KT 10SM FEW043 30/19 A3008 -130 52 1600 070/09 RMK AO2 T03000194
53917KNEW NEW20190923120510709/23/19 12:05:31  5-MIN KNEW 231805Z 05007KT 10SM FEW043 31/20 A3008 -130 52 1700 050/07 RMK AO2 T03060200
53917KNEW NEW20190923121010609/23/19 12:10:31  5-MIN KNEW 231810Z 06010KT 9SM FEW043 31/20 A3008 -130 52 1700 060/10 RMK AO2 T03060200
53917KNEW NEW20190923121510609/23/19 12:15:31  5-MIN KNEW 231815Z 06008KT 9SM FEW043 31/20 A3007 -130 52 1700 060/08 RMK AO2 T03060200
53917KNEW NEW20190923122010709/23/19 12:20:31  5-MIN KNEW 231820Z 06009KT 10SM FEW043 31/19 A3007 -120 51 1700 060/09 RMK AO2 T03060194
53917KNEW NEW20190923122510409/23/19 12:25:31  5-MIN KNEW 231825Z 06008KT 10SM CLR 31/19 A3007 -120 51 1700 060/08 RMK AO2 T03060194
53917KNEW NEW20190923123010409/23/19 12:30:31  5-MIN KNEW 231830Z 05008KT 10SM CLR 31/19 A3007 -120 49 1700 050/08 RMK AO2 T03060189
53917KNEW NEW20190923123510409/23/19 12:35:31  5-MIN KNEW 231835Z 06008KT 10SM CLR 31/19 A3007 -120 49 1700 060/08 RMK AO2 T03060189
53917KNEW NEW20190923124010409/23/19 12:40:31  5-MIN KNEW 231840Z 06008KT 10SM CLR 31/19 A3007 -120 49 1700 060/08 RMK AO2 T03060189
53917KNEW NEW20190923124510409/23/19 12:45:31  5-MIN KNEW 231845Z 06009KT 10SM CLR 31/19 A3007 -120 49 1700 060/09 RMK AO2 T03060189
53917KNEW NEW20190923125011109/23/19 12:50:31  5-MIN KNEW 231850Z 06008KT 10SM CLR 31/19 A3007 -120 49 1700 060/08 RMK AO2 SLP174 T03110194
53917KNEW NEW20190923125510709/23/19 12:55:31  5-MIN KNEW 231855Z 09007KT 10SM FEW050 31/19 A3006 -120 51 1700 090/07 RMK AO2 T03060194
53917KNEW NEW20190923130010709/23/19 13:00:31  5-MIN KNEW 231900Z 09006KT 10SM FEW050 31/19 A3006 -120 51 1700 090/06 RMK AO2 T03060194
53917KNEW NEW20190923130512309/23/19 13:05:31  5-MIN KNEW 231905Z 09007KT 060V120 10SM FEW047 30/19 A3006 -110 52 1600 090/07 060V120 RMK AO2 T03000194
53917KNEW NEW20190923131010709/23/19 13:10:31  5-MIN KNEW 231910Z 07006KT 10SM FEW047 31/19 A3005 -110 51 1700 070/06 RMK AO2 T03060194
53917KNEW NEW20190923131510709/23/19 13:15:31  5-MIN KNEW 231915Z 09009KT 10SM FEW049 31/19 A3005 -110 49 1700 090/09 RMK AO2 T03060189
53917KNEW NEW20190923132010409/23/19 13:20:31  5-MIN KNEW 231920Z 09007KT 10SM CLR 31/18 A3005 -110 47 1700 090/07 RMK AO2 T03060183
53917KNEW NEW20190923132510409/23/19 13:25:31  5-MIN KNEW 231925Z 09007KT 10SM CLR 31/19 A3005 -110 47 1700 090/07 RMK AO2 T03110189
53917KNEW NEW20190923133010409/23/19 13:30:31  5-MIN KNEW 231930Z 12007KT 10SM CLR 31/18 A3005 -100 47 1700 120/07 RMK AO2 T03060183
53917KNEW NEW20190923133510409/23/19 13:35:31  5-MIN KNEW 231935Z 09007KT 10SM CLR 31/18 A3005 -100 46 1800 090/07 RMK AO2 T03110183
53917KNEW NEW20190923134010409/23/19 13:40:31  5-MIN KNEW 231940Z 15007KT 10SM CLR 31/18 A3005 -100 46 1700 150/07 RMK AO2 T03060178
53917KNEW NEW20190923134510409/23/19 13:45:31  5-MIN KNEW 231945Z 08006KT 10SM CLR 31/18 A3005 -100 46 1700 080/06 RMK AO2 T03060178
53917KNEW NEW20190923135011109/23/19 13:50:31  5-MIN KNEW 231950Z 11006KT 10SM CLR 31/18 A3005 -100 46 1700 110/06 RMK AO2 SLP168 T03060178
53917KNEW NEW20190923135510409/23/19 13:55:31  5-MIN KNEW 231955Z 11006KT 10SM CLR 31/18 A3005 -100 46 1700 110/06 RMK AO2 T03060178
53917KNEW NEW20190923140010409/23/19 14:00:31  5-MIN KNEW 232000Z 13007KT 10SM CLR 31/17 A3004 -100 44 1700 130/07 RMK AO2 T03060172
53917KNEW NEW20190923140510409/23/19 14:05:31  5-MIN KNEW 232005Z 09006KT 10SM CLR 31/17 A3004 -100 42 1700 090/06 RMK AO2 T03060167
53917KNEW NEW20190923141010409/23/19 14:10:31  5-MIN KNEW 232010Z 08006KT 10SM CLR 31/17 A3004 -100 42 1700 080/06 RMK AO2 T03060167
53917KNEW NEW20190923141510409/23/19 14:15:31  5-MIN KNEW 232015Z 08007KT 10SM CLR 31/17 A3004 -100 42 1800 080/07 RMK AO2 T03110172
53917KNEW NEW20190923142010409/23/19 14:20:31  5-MIN KNEW 232020Z 10008KT 10SM CLR 31/18 A3004 -100 47 1700 100/08 RMK AO2 T03060183
53917KNEW NEW20190923142510309/23/19 14:25:31  5-MIN KNEW 232025Z 11006KT 10SM CLR 31/18 A3004 -90 47 1700 110/06 RMK AO2 T03060183
53917KNEW NEW20190923143010309/23/19 14:30:31  5-MIN KNEW 232030Z 10005KT 10SM CLR 31/18 A3004 -90 46 1700 100/05 RMK AO2 T03060178
53917KNEW NEW20190923143510409/23/19 14:35:31  5-MIN KNEW 232035Z 11006KT 10SM CLR 31/18 A3004 -100 46 1700 110/06 RMK AO2 T03060178
53917KNEW NEW20190923144010309/23/19 14:40:31  5-MIN KNEW 232040Z 11007KT 10SM CLR 31/18 A3004 -90 46 1700 110/07 RMK AO2 T03060178
53917KNEW NEW20190923144510309/23/19 14:45:31  5-MIN KNEW 232045Z 10007KT 10SM CLR 31/18 A3004 -90 46 1700 100/07 RMK AO2 T03060178
53917KNEW NEW20190923145011609/23/19 14:50:31  5-MIN KNEW 232050Z 09006KT 10SM CLR 31/18 A3004 -90 46 1700 090/06 RMK AO2 SLP165 T03060178 58008
53917KNEW NEW20190923145510309/23/19 14:55:31  5-MIN KNEW 232055Z 08006KT 10SM CLR 31/18 A3004 -90 46 1700 080/06 RMK AO2 T03060178
53917KNEW NEW20190923150010309/23/19 15:00:31  5-MIN KNEW 232100Z 12006KT 10SM CLR 31/18 A3004 -90 47 1700 120/06 RMK AO2 T03060183
53917KNEW NEW20190923150510309/23/19 15:05:31  5-MIN KNEW 232105Z 11006KT 10SM CLR 31/18 A3004 -90 47 1700 110/06 RMK AO2 T03060183
53917KNEW NEW20190923151010309/23/19 15:10:31  5-MIN KNEW 232110Z 11004KT 10SM CLR 30/18 A3003 -90 47 1600 110/04 RMK AO2 T03000178
53917KNEW NEW20190923151510309/23/19 15:15:31  5-MIN KNEW 232115Z 11006KT 10SM CLR 31/18 A3003 -90 46 1700 110/06 RMK AO2 T03060178
53917KNEW NEW20190923152010309/23/19 15:20:31  5-MIN KNEW 232120Z 10005KT 10SM CLR 31/18 A3003 -90 46 1700 100/05 RMK AO2 T03060178
53917KNEW NEW20190923152510309/23/19 15:25:31  5-MIN KNEW 232125Z 12004KT 10SM CLR 31/18 A3003 -90 46 1700 120/04 RMK AO2 T03060178
53917KNEW NEW20190923153010309/23/19 15:30:31  5-MIN KNEW 232130Z 13006KT 10SM CLR 31/18 A3003 -80 46 1700 130/06 RMK AO2 T03060178
53917KNEW NEW20190923153510309/23/19 15:35:31  5-MIN KNEW 232135Z 12005KT 10SM CLR 31/17 A3002 -80 44 1700 120/05 RMK AO2 T03060172
53917KNEW NEW20190923154010309/23/19 15:40:31  5-MIN KNEW 232140Z 09007KT 10SM CLR 31/17 A3002 -80 44 1700 090/07 RMK AO2 T03060172
53917KNEW NEW20190923154510309/23/19 15:45:31  5-MIN KNEW 232145Z 11006KT 10SM CLR 31/18 A3002 -80 46 1700 110/06 RMK AO2 T03060178
53917KNEW NEW20190923155011009/23/19 15:50:31  5-MIN KNEW 232150Z 12005KT 10SM CLR 31/18 A3002 -80 46 1700 120/05 RMK AO2 SLP160 T03060178
53917KNEW NEW20190923155510309/23/19 15:55:31  5-MIN KNEW 232155Z 11006KT 10SM CLR 31/17 A3002 -80 44 1700 110/06 RMK AO2 T03060172
53917KNEW NEW20190923160010309/23/19 16:00:31  5-MIN KNEW 232200Z 10006KT 10SM CLR 30/17 A3002 -80 44 1700 100/06 RMK AO2 T03000167
53917KNEW NEW20190923160510309/23/19 16:05:31  5-MIN KNEW 232205Z 11005KT 10SM CLR 31/18 A3002 -80 46 1700 110/05 RMK AO2 T03060178
53917KNEW NEW20190923161010309/23/19 16:10:31  5-MIN KNEW 232210Z 11005KT 10SM CLR 30/17 A3002 -80 44 1700 110/05 RMK AO2 T03000167
53917KNEW NEW20190923161510309/23/19 16:15:31  5-MIN KNEW 232215Z 10006KT 10SM CLR 30/17 A3002 -80 45 1700 100/06 RMK AO2 T03000172
53917KNEW NEW20190923162010309/23/19 16:20:31  5-MIN KNEW 232220Z 10005KT 10SM CLR 30/17 A3002 -80 45 1700 100/05 RMK AO2 T03000172
53917KNEW NEW20190923162510309/23/19 16:25:31  5-MIN KNEW 232225Z 10005KT 10SM CLR 31/17 A3002 -80 44 1700 100/05 RMK AO2 T03060172
53917KNEW NEW20190923163010309/23/19 16:30:31  5-MIN KNEW 232230Z 12005KT 10SM CLR 30/17 A3002 -80 45 1700 120/05 RMK AO2 T03000172
53917KNEW NEW20190923163510309/23/19 16:35:31  5-MIN KNEW 232235Z 14005KT 10SM CLR 30/18 A3002 -80 47 1700 140/05 RMK AO2 T03000178
53917KNEW NEW20190923164010309/23/19 16:40:31  5-MIN KNEW 232240Z 11004KT 10SM CLR 30/17 A3002 -80 44 1700 110/04 RMK AO2 T03000167
53917KNEW NEW20190923164510309/23/19 16:45:31  5-MIN KNEW 232245Z 10006KT 10SM CLR 30/18 A3002 -80 47 1700 100/06 RMK AO2 T03000178
53917KNEW NEW20190923165011009/23/19 16:50:31  5-MIN KNEW 232250Z 12005KT 10SM CLR 29/18 A3002 -70 50 1600 120/05 RMK AO2 SLP158 T02940183
53917KNEW NEW20190923165510309/23/19 16:55:31  5-MIN KNEW 232255Z 12006KT 10SM CLR 29/18 A3002 -70 50 1600 120/06 RMK AO2 T02940183
53917KNEW NEW20190923170010309/23/19 17:00:31  5-MIN KNEW 232300Z 13005KT 10SM CLR 29/18 A3001 -70 49 1600 130/05 RMK AO2 T02940178
53917KNEW NEW20190923170510309/23/19 17:05:31  5-MIN KNEW 232305Z 13006KT 10SM CLR 29/18 A3001 -70 50 1600 130/06 RMK AO2 T02940183
53917KNEW NEW20190923171010309/23/19 17:10:31  5-MIN KNEW 232310Z 11005KT 10SM CLR 29/18 A3001 -70 50 1600 110/05 RMK AO2 T02940183
53917KNEW NEW20190923171510309/23/19 17:15:31  5-MIN KNEW 232315Z 13006KT 10SM CLR 29/18 A3001 -70 50 1600 130/06 RMK AO2 T02940183
53917KNEW NEW20190923172010309/23/19 17:20:31  5-MIN KNEW 232320Z 13006KT 10SM CLR 29/18 A3001 -70 52 1500 130/06 RMK AO2 T02890183
53917KNEW NEW20190923172510309/23/19 17:25:31  5-MIN KNEW 232325Z 12006KT 10SM CLR 29/19 A3001 -70 54 1500 120/06 RMK AO2 T02890189
53917KNEW NEW20190923173010309/23/19 17:30:31  5-MIN KNEW 232330Z 12006KT 10SM CLR 29/19 A3001 -70 54 1500 120/06 RMK AO2 T02890189
53917KNEW NEW20190923173510309/23/19 17:35:31  5-MIN KNEW 232335Z 13006KT 10SM CLR 28/19 A3001 -70 56 1500 130/06 RMK AO2 T02830189
53917KNEW NEW20190923174010309/23/19 17:40:31  5-MIN KNEW 232340Z 13005KT 10SM CLR 28/19 A3001 -70 56 1500 130/05 RMK AO2 T02830189
53917KNEW NEW20190923174510309/23/19 17:45:31  5-MIN KNEW 232345Z 14005KT 10SM CLR 28/19 A3001 -70 56 1500 140/05 RMK AO2 T02830189
53917KNEW NEW20190923175012809/23/19 17:50:31  5-MIN KNEW 232350Z 14006KT 10SM CLR 28/19 A3001 -70 56 1500 140/06 RMK AO2 SLP157 T02830189 10311 20283 56015
53917KNEW NEW20190923175510309/23/19 17:55:31  5-MIN KNEW 232355Z 14007KT 10SM CLR 28/19 A3002 -70 58 1400 140/07 RMK AO2 T02780189
53917KNEW NEW20190923180010309/23/19 18:00:31  5-MIN KNEW 240000Z 13006KT 10SM CLR 28/19 A3002 -70 56 1500 130/06 RMK AO2 T02830189
53917KNEW NEW20190923180510309/23/19 18:05:31  5-MIN KNEW 240005Z 13006KT 10SM CLR 28/19 A3001 -70 58 1400 130/06 RMK AO2 T02780189
53917KNEW NEW20190923181010309/23/19 18:10:31  5-MIN KNEW 240010Z 13005KT 10SM CLR 28/19 A3002 -70 58 1400 130/05 RMK AO2 T02780189
53917KNEW NEW20190923181510309/23/19 18:15:31  5-MIN KNEW 240015Z 13006KT 10SM CLR 28/19 A3001 -70 60 1400 130/06 RMK AO2 T02780194
53917KNEW NEW20190923182010309/23/19 18:20:31  5-MIN KNEW 240020Z 13005KT 10SM CLR 28/19 A3002 -70 60 1400 130/05 RMK AO2 T02780194
53917KNEW NEW20190923182510309/23/19 18:25:31  5-MIN KNEW 240025Z 12006KT 10SM CLR 28/19 A3002 -70 58 1400 120/06 RMK AO2 T02780189
53917KNEW NEW20190923183010309/23/19 18:30:31  5-MIN KNEW 240030Z 14004KT 10SM CLR 28/19 A3002 -70 60 1400 140/04 RMK AO2 T02780194
53917KNEW NEW20190923183510309/23/19 18:35:31  5-MIN KNEW 240035Z 14005KT 10SM CLR 27/19 A3002 -70 62 1400 140/05 RMK AO2 T02720194
53917KNEW NEW20190923184010309/23/19 18:40:31  5-MIN KNEW 240040Z 14005KT 10SM CLR 27/19 A3002 -70 62 1400 140/05 RMK AO2 T02720194
53917KNEW NEW20190923184510309/23/19 18:45:31  5-MIN KNEW 240045Z 14005KT 10SM CLR 27/19 A3002 -70 62 1400 140/05 RMK AO2 T02720194
53917KNEW NEW20190923185011009/23/19 18:50:31  5-MIN KNEW 240050Z 14005KT 10SM CLR 27/19 A3002 -80 62 1400 140/05 RMK AO2 SLP158 T02720194
53917KNEW NEW20190923185510309/23/19 18:55:31  5-MIN KNEW 240055Z 14006KT 10SM CLR 27/19 A3002 -80 62 1400 140/06 RMK AO2 T02720194
53917KNEW NEW20190923190010309/23/19 19:00:31  5-MIN KNEW 240100Z 14005KT 10SM CLR 27/19 A3002 -80 62 1300 140/05 RMK AO2 T02720194
53917KNEW NEW20190923190510809/23/19 19:05:31  5-MIN KNEW 240105Z AUTO 15005KT 10SM CLR 27/20 A3002 -80 64 1300 150/05 RMK AO2 T02720200
53917KNEW NEW20190923191010809/23/19 19:10:31  5-MIN KNEW 240110Z AUTO 15004KT 10SM CLR 27/20 A3002 -80 66 1300 150/04 RMK AO2 T02670200
53917KNEW NEW20190923191510809/23/19 19:15:31  5-MIN KNEW 240115Z AUTO 16004KT 10SM CLR 27/20 A3002 -80 66 1300 160/04 RMK AO2 T02670200
53917KNEW NEW20190923192010809/23/19 19:20:31  5-MIN KNEW 240120Z AUTO 16005KT 10SM CLR 27/20 A3002 -80 66 1300 160/05 RMK AO2 T02670200
53917KNEW NEW20190923192510809/23/19 19:25:31  5-MIN KNEW 240125Z AUTO 16004KT 10SM CLR 27/20 A3003 -80 66 1300 160/04 RMK AO2 T02670200
53917KNEW NEW20190923193010809/23/19 19:30:31  5-MIN KNEW 240130Z AUTO 16005KT 10SM CLR 27/20 A3002 -80 66 1300 160/05 RMK AO2 T02670200
53917KNEW NEW20190923193510809/23/19 19:35:31  5-MIN KNEW 240135Z AUTO 16005KT 10SM CLR 27/20 A3002 -80 66 1300 160/05 RMK AO2 T02670200
53917KNEW NEW20190923194010809/23/19 19:40:31  5-MIN KNEW 240140Z AUTO 16005KT 10SM CLR 27/20 A3002 -80 66 1300 160/05 RMK AO2 T02670200
53917KNEW NEW20190923194510809/23/19 19:45:31  5-MIN KNEW 240145Z AUTO 16005KT 10SM CLR 26/20 A3002 -80 68 1200 160/05 RMK AO2 T02610200
53917KNEW NEW20190923195011509/23/19 19:50:31  5-MIN KNEW 240150Z AUTO 16005KT 10SM CLR 26/20 A3002 -80 68 1200 160/05 RMK AO2 SLP160 T02610200
53917KNEW NEW20190923195510809/23/19 19:55:31  5-MIN KNEW 240155Z AUTO 16005KT 10SM CLR 26/20 A3002 -80 68 1200 160/05 RMK AO2 T02610200
53917KNEW NEW20190923200010809/23/19 20:00:31  5-MIN KNEW 240200Z AUTO 16005KT 10SM CLR 26/20 A3003 -80 68 1200 160/05 RMK AO2 T02610200
53917KNEW NEW20190923200510809/23/19 20:05:31  5-MIN KNEW 240205Z AUTO 16007KT 10SM CLR 26/20 A3003 -80 68 1200 160/07 RMK AO2 T02610200
53917KNEW NEW20190923201010809/23/19 20:10:31  5-MIN KNEW 240210Z AUTO 16007KT 10SM CLR 26/20 A3003 -80 68 1200 160/07 RMK AO2 T02610200
53917KNEW NEW20190923201510809/23/19 20:15:31  5-MIN KNEW 240215Z AUTO 16006KT 10SM CLR 26/20 A3002 -80 68 1200 160/06 RMK AO2 T02610200
53917KNEW NEW20190923202010809/23/19 20:20:31  5-MIN KNEW 240220Z AUTO 16005KT 10SM CLR 26/20 A3002 -80 68 1200 160/05 RMK AO2 T02610200
53917KNEW NEW20190923202510809/23/19 20:25:31  5-MIN KNEW 240225Z AUTO 16004KT 10SM CLR 26/20 A3002 -80 68 1200 160/04 RMK AO2 T02610200
53917KNEW NEW20190923203010809/23/19 20:30:31  5-MIN KNEW 240230Z AUTO 00000KT 10SM CLR 26/20 A3002 -80 68 1200 000/00 RMK AO2 T02610200
53917KNEW NEW20190923203510809/23/19 20:35:31  5-MIN KNEW 240235Z AUTO 00000KT 10SM CLR 26/20 A3002 -80 68 1200 000/00 RMK AO2 T02610200
53917KNEW NEW20190923204010809/23/19 20:40:31  5-MIN KNEW 240240Z AUTO 16003KT 10SM CLR 26/20 A3002 -80 68 1200 160/03 RMK AO2 T02610200
53917KNEW NEW20190923204510809/23/19 20:45:31  5-MIN KNEW 240245Z AUTO 16003KT 10SM CLR 26/20 A3002 -80 68 1200 160/03 RMK AO2 T02610200
53917KNEW NEW20190923205012109/23/19 20:50:31  5-MIN KNEW 240250Z AUTO 16003KT 10SM CLR 26/20 A3002 -80 68 1200 160/03 RMK AO2 SLP159 T02610200 56007
53917KNEW NEW20190923205510809/23/19 20:55:31  5-MIN KNEW 240255Z AUTO 17003KT 10SM CLR 26/20 A3002 -80 71 1200 170/03 RMK AO2 T02560200
53917KNEW NEW20190923210010809/23/19 21:00:31  5-MIN KNEW 240300Z AUTO 17004KT 10SM CLR 26/20 A3002 -80 71 1200 170/04 RMK AO2 T02560200
53917KNEW NEW20190923210510809/23/19 21:05:31  5-MIN KNEW 240305Z AUTO 17005KT 10SM CLR 26/20 A3002 -80 71 1200 170/05 RMK AO2 T02560200
53917KNEW NEW20190923211010809/23/19 21:10:31  5-MIN KNEW 240310Z AUTO 16005KT 10SM CLR 26/21 A3002 -80 73 1200 160/05 RMK AO2 T02560206
53917KNEW NEW20190923211510809/23/19 21:15:31  5-MIN KNEW 240315Z AUTO 16005KT 10SM CLR 26/21 A3002 -80 73 1200 160/05 RMK AO2 T02560206
53917KNEW NEW20190923212010809/23/19 21:20:31  5-MIN KNEW 240320Z AUTO 16005KT 10SM CLR 26/21 A3002 -80 73 1200 160/05 RMK AO2 T02560206
53917KNEW NEW20190923212510809/23/19 21:25:31  5-MIN KNEW 240325Z AUTO 16005KT 10SM CLR 26/21 A3002 -80 73 1200 160/05 RMK AO2 T02560206
53917KNEW NEW20190923213010809/23/19 21:30:31  5-MIN KNEW 240330Z AUTO 16004KT 10SM CLR 25/21 A3002 -80 76 1100 160/04 RMK AO2 T02500206
53917KNEW NEW20190923213510809/23/19 21:35:31  5-MIN KNEW 240335Z AUTO 16004KT 10SM CLR 26/21 A3002 -80 73 1200 160/04 RMK AO2 T02560206
53917KNEW NEW20190923214010809/23/19 21:40:31  5-MIN KNEW 240340Z AUTO 17005KT 10SM CLR 25/21 A3002 -80 76 1100 170/05 RMK AO2 T02500206
53917KNEW NEW20190923214510809/23/19 21:45:31  5-MIN KNEW 240345Z AUTO 16005KT 10SM CLR 26/21 A3002 -80 73 1200 160/05 RMK AO2 T02560206
53917KNEW NEW20190923215011509/23/19 21:50:31  5-MIN KNEW 240350Z AUTO 16005KT 10SM CLR 26/21 A3002 -80 73 1200 160/05 RMK AO2 SLP158 T02560206
53917KNEW NEW20190923215510809/23/19 21:55:31  5-MIN KNEW 240355Z AUTO 16004KT 10SM CLR 26/21 A3002 -70 73 1200 160/04 RMK AO2 T02560206
53917KNEW NEW20190923220010809/23/19 22:00:31  5-MIN KNEW 240400Z AUTO 16004KT 10SM CLR 26/21 A3001 -70 73 1200 160/04 RMK AO2 T02560206
53917KNEW NEW20190923220510809/23/19 22:05:31  5-MIN KNEW 240405Z AUTO 16004KT 10SM CLR 25/21 A3001 -70 76 1100 160/04 RMK AO2 T02500206
53917KNEW NEW20190923221010809/23/19 22:10:31  5-MIN KNEW 240410Z AUTO 17004KT 10SM CLR 25/21 A3001 -70 76 1100 170/04 RMK AO2 T02500206
53917KNEW NEW20190923221510809/23/19 22:15:31  5-MIN KNEW 240415Z AUTO 18003KT 10SM CLR 25/21 A3001 -70 76 1100 180/03 RMK AO2 T02500206
53917KNEW NEW20190923222010809/23/19 22:20:31  5-MIN KNEW 240420Z AUTO 18003KT 10SM CLR 26/21 A3001 -70 73 1200 180/03 RMK AO2 T02560206
53917KNEW NEW20190923222510809/23/19 22:25:31  5-MIN KNEW 240425Z AUTO 18004KT 10SM CLR 26/21 A3001 -70 73 1200 180/04 RMK AO2 T02560206
53917KNEW NEW20190923223010809/23/19 22:30:31  5-MIN KNEW 240430Z AUTO 18004KT 10SM CLR 25/21 A3001 -70 76 1100 180/04 RMK AO2 T02500206
53917KNEW NEW20190923223510809/23/19 22:35:31  5-MIN KNEW 240435Z AUTO 19005KT 10SM CLR 25/21 A3001 -70 76 1100 190/05 RMK AO2 T02500206
53917KNEW NEW20190923224010809/23/19 22:40:31  5-MIN KNEW 240440Z AUTO 20004KT 10SM CLR 25/21 A3001 -70 76 1100 200/04 RMK AO2 T02500206
53917KNEW NEW20190923224510809/23/19 22:45:31  5-MIN KNEW 240445Z AUTO 20004KT 10SM CLR 25/21 A3001 -70 76 1100 200/04 RMK AO2 T02500206
53917KNEW NEW20190923225011509/23/19 22:50:31  5-MIN KNEW 240450Z AUTO 20004KT 10SM CLR 26/21 A3001 -60 76 1200 200/04 RMK AO2 SLP154 T02560211
53917KNEW NEW20190923225510809/23/19 22:55:31  5-MIN KNEW 240455Z AUTO 20004KT 10SM CLR 25/21 A3000 -60 79 1100 200/04 RMK AO2 T02500211
53917KNEW NEW20190923230010809/23/19 23:00:31  5-MIN KNEW 240500Z AUTO 20005KT 10SM CLR 25/21 A3000 -60 79 1100 200/05 RMK AO2 T02500211
53917KNEW NEW20190923230510809/23/19 23:05:31  5-MIN KNEW 240505Z AUTO 20004KT 10SM CLR 25/21 A3000 -60 79 1100 200/04 RMK AO2 T02500211
53917KNEW NEW20190923231010809/23/19 23:10:31  5-MIN KNEW 240510Z AUTO 20004KT 10SM CLR 26/21 A3000 -60 76 1200 200/04 RMK AO2 T02560211
53917KNEW NEW20190923231510809/23/19 23:15:31  5-MIN KNEW 240515Z AUTO 19004KT 10SM CLR 26/21 A3000 -60 76 1200 190/04 RMK AO2 T02560211
53917KNEW NEW20190923232010809/23/19 23:20:31  5-MIN KNEW 240520Z AUTO 19004KT 10SM CLR 26/21 A2999 -50 76 1200 190/04 RMK AO2 T02560211
53917KNEW NEW20190923232510809/23/19 23:25:31  5-MIN KNEW 240525Z AUTO 19004KT 10SM CLR 26/21 A2999 -50 76 1200 190/04 RMK AO2 T02560211
53917KNEW NEW20190923233010809/23/19 23:30:31  5-MIN KNEW 240530Z AUTO 19003KT 10SM CLR 26/21 A2999 -50 73 1200 190/03 RMK AO2 T02560206
53917KNEW NEW20190923233510809/23/19 23:35:31  5-MIN KNEW 240535Z AUTO 21004KT 10SM CLR 26/21 A2999 -50 73 1200 210/04 RMK AO2 T02560206
53917KNEW NEW20190923234010809/23/19 23:40:31  5-MIN KNEW 240540Z AUTO 22004KT 10SM CLR 26/21 A3000 -60 76 1200 220/04 RMK AO2 T02560211
53917KNEW NEW20190923234510809/23/19 23:45:31  5-MIN KNEW 240545Z AUTO 21004KT 10SM CLR 26/21 A3000 -60 73 1300 210/04 RMK AO2 T02610211
53917KNEW NEW20190923235014309/23/19 23:50:31  5-MIN KNEW 240550Z AUTO 21004KT 10SM CLR 26/21 A3000 -60 76 1200 210/04 RMK AO2 SLP151 T02560211 10283 20250 403110233 51002
53917KNEW NEW20190923235510809/23/19 23:55:31  5-MIN KNEW 240555Z AUTO 20004KT 10SM CLR 25/21 A2999 -50 76 1100 200/04 RMK AO2 T02500206
53917KNEW NEW20190924000010809/24/19 00:00:31  5-MIN KNEW 240600Z AUTO 20004KT 10SM CLR 25/21 A2999 -50 79 1100 200/04 RMK AO2 T02500211
53917KNEW NEW20190924000510809/24/19 00:05:31  5-MIN KNEW 240605Z AUTO 20004KT 10SM CLR 25/21 A2999 -50 79 1100 200/04 RMK AO2 T02500211
53917KNEW NEW20190924001010809/24/19 00:10:31  5-MIN KNEW 240610Z AUTO 19004KT 10SM CLR 25/21 A2999 -50 79 1100 190/04 RMK AO2 T02500211
53917KNEW NEW20190924001510809/24/19 00:15:31  5-MIN KNEW 240615Z AUTO 19004KT 10SM CLR 25/21 A2999 -50 76 1100 190/04 RMK AO2 T02500206
53917KNEW NEW20190924002010809/24/19 00:20:31  5-MIN KNEW 240620Z AUTO 19004KT 10SM CLR 25/21 A2999 -50 76 1100 190/04 RMK AO2 T02500206
53917KNEW NEW20190924002510809/24/19 00:25:31  5-MIN KNEW 240625Z AUTO 19004KT 10SM CLR 24/21 A2999 -50 78 1100 190/04 RMK AO2 T02440206
53917KNEW NEW20190924003010809/24/19 00:30:31  5-MIN KNEW 240630Z AUTO 19003KT 10SM CLR 24/21 A2999 -50 78 1100 190/03 RMK AO2 T02440206
53917KNEW NEW20190924003510809/24/19 00:35:31  5-MIN KNEW 240635Z AUTO 19003KT 10SM CLR 25/21 A2999 -50 76 1100 190/03 RMK AO2 T02500206
53917KNEW NEW20190924004010809/24/19 00:40:31  5-MIN KNEW 240640Z AUTO 19003KT 10SM CLR 25/21 A2999 -50 76 1100 190/03 RMK AO2 T02500206
53917KNEW NEW20190924004510809/24/19 00:45:31  5-MIN KNEW 240645Z AUTO 20003KT 10SM CLR 25/21 A2999 -50 76 1100 200/03 RMK AO2 T02500206
53917KNEW NEW20190924005011509/24/19 00:50:31  5-MIN KNEW 240650Z AUTO 20003KT 10SM CLR 25/21 A2999 -50 76 1100 200/03 RMK AO2 SLP148 T02500206
53917KNEW NEW20190924005510809/24/19 00:55:31  5-MIN KNEW 240655Z AUTO 21004KT 10SM CLR 25/21 A2999 -50 76 1100 210/04 RMK AO2 T02500206
53917KNEW NEW20190924010010809/24/19 01:00:31  5-MIN KNEW 240700Z AUTO 21004KT 10SM CLR 25/21 A2998 -50 76 1100 210/04 RMK AO2 T02500206
53917KNEW NEW20190924010510809/24/19 01:05:31  5-MIN KNEW 240705Z AUTO 22004KT 10SM CLR 26/21 A2998 -50 73 1200 220/04 RMK AO2 T02560206
53917KNEW NEW20190924011010809/24/19 01:10:31  5-MIN KNEW 240710Z AUTO 23004KT 10SM CLR 26/21 A2998 -40 73 1200 230/04 RMK AO2 T02560206
53917KNEW NEW20190924011510809/24/19 01:15:31  5-MIN KNEW 240715Z AUTO 23004KT 10SM CLR 26/21 A2998 -40 73 1200 230/04 RMK AO2 T02560206
53917KNEW NEW20190924012010809/24/19 01:20:31  5-MIN KNEW 240720Z AUTO 21004KT 10SM CLR 26/21 A2998 -40 73 1200 210/04 RMK AO2 T02560206
53917KNEW NEW20190924012510809/24/19 01:25:31  5-MIN KNEW 240725Z AUTO 21004KT 10SM CLR 26/21 A2998 -40 71 1300 210/04 RMK AO2 T02610206
53917KNEW NEW20190924013010809/24/19 01:30:31  5-MIN KNEW 240730Z AUTO 22004KT 10SM CLR 26/21 A2998 -40 73 1200 220/04 RMK AO2 T02560206
53917KNEW NEW20190924013510809/24/19 01:35:31  5-MIN KNEW 240735Z AUTO 22004KT 10SM CLR 26/21 A2998 -40 73 1200 220/04 RMK AO2 T02560206
53917KNEW NEW20190924014010809/24/19 01:40:31  5-MIN KNEW 240740Z AUTO 23004KT 10SM CLR 26/21 A2998 -50 73 1200 230/04 RMK AO2 T02560206
53917KNEW NEW20190924014510809/24/19 01:45:31  5-MIN KNEW 240745Z AUTO 23004KT 10SM CLR 26/21 A2998 -50 73 1200 230/04 RMK AO2 T02560206
53917KNEW NEW20190924015011509/24/19 01:50:31  5-MIN KNEW 240750Z AUTO 23004KT 10SM CLR 26/21 A2998 -40 73 1200 230/04 RMK AO2 SLP147 T02560206
53917KNEW NEW20190924015510809/24/19 01:55:31  5-MIN KNEW 240755Z AUTO 22004KT 10SM CLR 26/21 A2998 -40 73 1200 220/04 RMK AO2 T02560206
53917KNEW NEW20190924020010809/24/19 02:00:31  5-MIN KNEW 240800Z AUTO 23005KT 10SM CLR 26/21 A2998 -40 73 1200 230/05 RMK AO2 T02560206
53917KNEW NEW20190924020510809/24/19 02:05:31  5-MIN KNEW 240805Z AUTO 24005KT 10SM CLR 26/21 A2998 -40 73 1200 240/05 RMK AO2 T02560206
53917KNEW NEW20190924021010809/24/19 02:10:31  5-MIN KNEW 240810Z AUTO 24004KT 10SM CLR 26/21 A2999 -50 73 1200 240/04 RMK AO2 T02560206
53917KNEW NEW20190924021510709/24/19 02:15:31  5-MIN KNEW 240815Z AUTO 25004KT 8SM CLR 26/21 A2999 -50 76 1200 250/04 RMK AO2 T02560211
53917KNEW NEW20190924022010709/24/19 02:20:31  5-MIN KNEW 240820Z AUTO 25005KT 9SM CLR 26/21 A2999 -50 76 1200 250/05 RMK AO2 T02560211
53917KNEW NEW20190924022510809/24/19 02:25:31  5-MIN KNEW 240825Z AUTO 26005KT 10SM CLR 26/21 A2999 -50 76 1200 260/05 RMK AO2 T02560211
53917KNEW NEW20190924023010809/24/19 02:30:31  5-MIN KNEW 240830Z AUTO 26005KT 10SM CLR 26/21 A2999 -50 76 1200 260/05 RMK AO2 T02560211
53917KNEW NEW20190924023510809/24/19 02:35:31  5-MIN KNEW 240835Z AUTO 25005KT 10SM CLR 26/21 A2998 -40 76 1200 250/05 RMK AO2 T02560211
53917KNEW NEW20190924024010809/24/19 02:40:31  5-MIN KNEW 240840Z AUTO 24005KT 10SM CLR 26/21 A2998 -40 76 1200 240/05 RMK AO2 T02560211
53917KNEW NEW20190924024510809/24/19 02:45:31  5-MIN KNEW 240845Z AUTO 25005KT 10SM CLR 26/21 A2998 -40 73 1200 250/05 RMK AO2 T02560206
53917KNEW NEW20190924025012109/24/19 02:50:31  5-MIN KNEW 240850Z AUTO 25006KT 10SM CLR 26/21 A2998 -40 73 1200 250/06 RMK AO2 SLP146 T02560206 58009
53917KNEW NEW20190924025510809/24/19 02:55:31  5-MIN KNEW 240855Z AUTO 25005KT 10SM CLR 26/21 A2998 -40 71 1300 250/05 RMK AO2 T02610206
53917KNEW NEW20190924030010809/24/19 03:00:31  5-MIN KNEW 240900Z AUTO 25005KT 10SM CLR 26/21 A2998 -40 71 1300 250/05 RMK AO2 T02610206
53917KNEW NEW20190924030510809/24/19 03:05:31  5-MIN KNEW 240905Z AUTO 25006KT 10SM CLR 26/21 A2998 -40 73 1300 250/06 RMK AO2 T02610211
53917KNEW NEW20190924031010809/24/19 03:10:31  5-MIN KNEW 240910Z AUTO 24005KT 10SM CLR 26/21 A2998 -40 73 1300 240/05 RMK AO2 T02610211
53917KNEW NEW20190924031510809/24/19 03:15:31  5-MIN KNEW 240915Z AUTO 25005KT 10SM CLR 26/21 A2998 -40 73 1300 250/05 RMK AO2 T02610211
53917KNEW NEW20190924032010809/24/19 03:20:31  5-MIN KNEW 240920Z AUTO 25005KT 10SM CLR 26/21 A2998 -40 73 1300 250/05 RMK AO2 T02610211
53917KNEW NEW20190924032510809/24/19 03:25:31  5-MIN KNEW 240925Z AUTO 25005KT 10SM CLR 26/22 A2998 -50 76 1300 250/05 RMK AO2 T02610217
53917KNEW NEW20190924033010809/24/19 03:30:31  5-MIN KNEW 240930Z AUTO 24005KT 10SM CLR 26/22 A2998 -50 76 1300 240/05 RMK AO2 T02610217
53917KNEW NEW20190924033510809/24/19 03:35:31  5-MIN KNEW 240935Z AUTO 24005KT 10SM CLR 26/22 A2999 -50 76 1300 240/05 RMK AO2 T02610217
53917KNEW NEW20190924034010809/24/19 03:40:31  5-MIN KNEW 240940Z AUTO 25005KT 10SM CLR 26/22 A2999 -50 79 1200 250/05 RMK AO2 T02560217
53917KNEW NEW20190924034510809/24/19 03:45:31  5-MIN KNEW 240945Z AUTO 24006KT 10SM CLR 26/22 A2999 -50 76 1300 240/06 RMK AO2 T02610217
53917KNEW NEW20190924035011509/24/19 03:50:31  5-MIN KNEW 240950Z AUTO 25006KT 10SM CLR 26/22 A2999 -50 76 1300 250/06 RMK AO2 SLP148 T02610217
53917KNEW NEW20190924035510809/24/19 03:55:31  5-MIN KNEW 240955Z AUTO 25006KT 10SM CLR 26/22 A2999 -50 76 1300 250/06 RMK AO2 T02610217
53917KNEW NEW20190924040010809/24/19 04:00:31  5-MIN KNEW 241000Z AUTO 25005KT 10SM CLR 26/22 A2999 -50 76 1300 250/05 RMK AO2 T02610217
53917KNEW NEW20190924040510809/24/19 04:05:31  5-MIN KNEW 241005Z AUTO 25005KT 10SM CLR 26/22 A2999 -50 76 1300 250/05 RMK AO2 T02610217
53917KNEW NEW20190924041010809/24/19 04:10:31  5-MIN KNEW 241010Z AUTO 27007KT 10SM CLR 26/22 A2999 -50 79 1200 270/07 RMK AO2 T02560217
53917KNEW NEW20190924041510809/24/19 04:15:31  5-MIN KNEW 241015Z AUTO 27006KT 10SM CLR 26/22 A2999 -50 76 1300 270/06 RMK AO2 T02610217
53917KNEW NEW20190924042010809/24/19 04:20:31  5-MIN KNEW 241020Z AUTO 27007KT 10SM CLR 26/22 A2999 -50 76 1300 270/07 RMK AO2 T02610217
53917KNEW NEW20190924042510809/24/19 04:25:31  5-MIN KNEW 241025Z AUTO 27007KT 10SM CLR 26/22 A2999 -50 76 1300 270/07 RMK AO2 T02610217
53917KNEW NEW20190924043010809/24/19 04:30:31  5-MIN KNEW 241030Z AUTO 27007KT 10SM CLR 26/22 A2999 -50 76 1300 270/07 RMK AO2 T02610217
53917KNEW NEW20190924043510809/24/19 04:35:31  5-MIN KNEW 241035Z AUTO 26006KT 10SM CLR 26/22 A2999 -50 76 1300 260/06 RMK AO2 T02610217
53917KNEW NEW20190924044010809/24/19 04:40:31  5-MIN KNEW 241040Z AUTO 28007KT 10SM CLR 26/22 A2999 -50 76 1300 280/07 RMK AO2 T02610217
53917KNEW NEW20190924044510809/24/19 04:45:31  5-MIN KNEW 241045Z AUTO 27007KT 10SM CLR 26/21 A2999 -50 73 1300 270/07 RMK AO2 T02610211
53917KNEW NEW20190924045011509/24/19 04:50:31  5-MIN KNEW 241050Z AUTO 27007KT 10SM CLR 26/21 A2999 -50 73 1300 270/07 RMK AO2 SLP149 T02610211
53917KNEW NEW20190924045510809/24/19 04:55:31  5-MIN KNEW 241055Z AUTO 28008KT 10SM CLR 26/21 A2999 -50 73 1300 280/08 RMK AO2 T02610211
53917KNEW NEW20190924050010809/24/19 05:00:31  5-MIN KNEW 241100Z AUTO 27007KT 10SM CLR 26/21 A3000 -60 73 1300 270/07 RMK AO2 T02610211
53917KNEW NEW20190924050510809/24/19 05:05:31  5-MIN KNEW 241105Z AUTO 28008KT 10SM CLR 26/21 A3000 -60 73 1300 280/08 RMK AO2 T02610211
53917KNEW NEW20190924051010809/24/19 05:10:31  5-MIN KNEW 241110Z AUTO 27008KT 10SM CLR 26/21 A3000 -60 73 1200 270/08 RMK AO2 T02610211
53917KNEW NEW20190924051510809/24/19 05:15:31  5-MIN KNEW 241115Z AUTO 28008KT 10SM CLR 26/21 A3000 -60 73 1200 280/08 RMK AO2 T02610211
53917KNEW NEW20190924052010809/24/19 05:20:31  5-MIN KNEW 241120Z AUTO 29007KT 10SM CLR 26/21 A3000 -60 73 1200 290/07 RMK AO2 T02610211
53917KNEW NEW20190924052510809/24/19 05:25:31  5-MIN KNEW 241125Z AUTO 29007KT 10SM CLR 26/21 A3000 -60 71 1200 290/07 RMK AO2 T02610206
53917KNEW NEW20190924053010809/24/19 05:30:31  5-MIN KNEW 241130Z AUTO 29007KT 10SM CLR 26/21 A3000 -60 73 1200 290/07 RMK AO2 T02610211
53917KNEW NEW20190924053510809/24/19 05:35:31  5-MIN KNEW 241135Z AUTO 30008KT 10SM CLR 26/21 A3000 -60 73 1200 300/08 RMK AO2 T02610211
53917KNEW NEW20190924054010809/24/19 05:40:31  5-MIN KNEW 241140Z AUTO 30008KT 10SM CLR 26/21 A3001 -60 73 1200 300/08 RMK AO2 T02610211
53917KNEW NEW20190924054510809/24/19 05:45:31  5-MIN KNEW 241145Z AUTO 30009KT 10SM CLR 26/21 A3001 -70 73 1200 300/09 RMK AO2 T02610211
53917KNEW NEW20190924055012809/24/19 05:50:31  5-MIN KNEW 241150Z 30009KT 10SM CLR 26/22 A3001 -70 76 1200 300/09 RMK AO2 SLP155 T02610217 10261 20244 56005
53917KNEW NEW20190924055510309/24/19 05:55:31  5-MIN KNEW 241155Z 29008KT 10SM CLR 26/22 A3001 -70 76 1200 290/08 RMK AO2 T02610217
53917KNEW NEW20190924060010309/24/19 06:00:31  5-MIN KNEW 241200Z 30008KT 10SM CLR 26/22 A3001 -70 76 1200 300/08 RMK AO2 T02610217
53917KNEW NEW20190924060510309/24/19 06:05:31  5-MIN KNEW 241205Z 30008KT 10SM CLR 26/22 A3001 -70 76 1200 300/08 RMK AO2 T02610217
53917KNEW NEW20190924061010309/24/19 06:10:31  5-MIN KNEW 241210Z 29008KT 10SM CLR 26/21 A3001 -70 73 1200 290/08 RMK AO2 T02610211
53917KNEW NEW20190924061510309/24/19 06:15:31  5-MIN KNEW 241215Z 30007KT 10SM CLR 26/22 A3001 -70 76 1200 300/07 RMK AO2 T02610217
53917KNEW NEW20190924062010309/24/19 06:20:31  5-MIN KNEW 241220Z 30008KT 10SM CLR 27/22 A3001 -70 73 1300 300/08 RMK AO2 T02670217
53917KNEW NEW20190924062510309/24/19 06:25:31  5-MIN KNEW 241225Z 31008KT 10SM CLR 27/21 A3001 -70 71 1300 310/08 RMK AO2 T02670211
53917KNEW NEW20190924063010309/24/19 06:30:31  5-MIN KNEW 241230Z 31008KT 10SM CLR 27/22 A3001 -70 73 1300 310/08 RMK AO2 T02670217
53917KNEW NEW20190924063510309/24/19 06:35:31  5-MIN KNEW 241235Z 31008KT 10SM CLR 27/22 A3001 -70 73 1300 310/08 RMK AO2 T02670217
53917KNEW NEW20190924064010309/24/19 06:40:31  5-MIN KNEW 241240Z 31009KT 10SM CLR 27/22 A3001 -70 73 1300 310/09 RMK AO2 T02670217
53917KNEW NEW20190924064510309/24/19 06:45:31  5-MIN KNEW 241245Z 31008KT 10SM CLR 27/22 A3001 -70 73 1300 310/08 RMK AO2 T02670217
53917KNEW NEW20190924065011009/24/19 06:50:31  5-MIN KNEW 241250Z 32008KT 10SM CLR 27/21 A3001 -70 71 1300 320/08 RMK AO2 SLP156 T02670211
53917KNEW NEW20190924065510309/24/19 06:55:31  5-MIN KNEW 241255Z 31008KT 10SM CLR 27/21 A3001 -70 71 1300 310/08 RMK AO2 T02670211
53917KNEW NEW20190924070010309/24/19 07:00:31  5-MIN KNEW 241300Z 32006KT 10SM CLR 27/22 A3001 -70 71 1400 320/06 RMK AO2 T02720217
53917KNEW NEW20190924070510309/24/19 07:05:31  5-MIN KNEW 241305Z 32008KT 10SM CLR 27/23 A3001 -70 79 1300 320/08 RMK AO2 T02670228
53917KNEW NEW20190924071010309/24/19 07:10:31  5-MIN KNEW 241310Z 32008KT 10SM CLR 27/22 A3001 -70 76 1300 320/08 RMK AO2 T02670222
53917KNEW NEW20190924082510309/24/19 08:25:31  5-MIN KNEW 241425Z 32007KT 10SM CLR 28/22 A3002 -80 71 1400 320/07 RMK AO2 T02780222
53917KNEW NEW20190924083010309/24/19 08:30:31  5-MIN KNEW 241430Z 32008KT 10SM CLR 28/22 A3002 -80 71 1400 320/08 RMK AO2 T02780222
53917KNEW NEW20190924083510309/24/19 08:35:31  5-MIN KNEW 241435Z 33007KT 10SM CLR 28/22 A3002 -80 71 1400 330/07 RMK AO2 T02780222
53917KNEW NEW20190924084010309/24/19 08:40:31  5-MIN KNEW 241440Z 32007KT 10SM CLR 28/22 A3002 -80 71 1400 320/07 RMK AO2 T02780222
53917KNEW NEW20190924084510309/24/19 08:45:31  5-MIN KNEW 241445Z 32008KT 10SM CLR 28/22 A3002 -80 69 1400 320/08 RMK AO2 T02780217
53917KNEW NEW20190924085011609/24/19 08:50:31  5-MIN KNEW 241450Z 32008KT 10SM CLR 28/22 A3003 -80 69 1400 320/08 RMK AO2 SLP161 T02780217 53009
53917KNEW NEW20190924085510309/24/19 08:55:31  5-MIN KNEW 241455Z 32007KT 10SM CLR 28/22 A3003 -80 69 1400 320/07 RMK AO2 T02780217
53917KNEW NEW20190924090010309/24/19 09:00:31  5-MIN KNEW 241500Z 32008KT 10SM CLR 28/22 A3002 -80 69 1400 320/08 RMK AO2 T02780217
53917KNEW NEW20190924090510309/24/19 09:05:31  5-MIN KNEW 241505Z 33007KT 10SM CLR 28/21 A3003 -80 64 1500 330/07 RMK AO2 T02830211
53917KNEW NEW20190924091010309/24/19 09:10:31  5-MIN KNEW 241510Z 32007KT 10SM CLR 28/21 A3003 -80 64 1500 320/07 RMK AO2 T02830211
53917KNEW NEW20190924091510309/24/19 09:15:31  5-MIN KNEW 241515Z 32007KT 10SM CLR 28/22 A3002 -80 66 1500 320/07 RMK AO2 T02830217
53917KNEW NEW20190924092010309/24/19 09:20:31  5-MIN KNEW 241520Z 32008KT 10SM CLR 28/22 A3002 -80 66 1500 320/08 RMK AO2 T02830217
53917KNEW NEW20190924092510309/24/19 09:25:31  5-MIN KNEW 241525Z 32008KT 10SM CLR 28/21 A3003 -80 64 1500 320/08 RMK AO2 T02830211
53917KNEW NEW20190924093010309/24/19 09:30:31  5-MIN KNEW 241530Z 34008KT 10SM CLR 28/21 A3002 -80 62 1500 340/08 RMK AO2 T02830206
53917KNEW NEW20190924093510309/24/19 09:35:31  5-MIN KNEW 241535Z 32007KT 10SM CLR 29/21 A3002 -80 60 1500 320/07 RMK AO2 T02890206
53917KNEW NEW20190924094010309/24/19 09:40:31  5-MIN KNEW 241540Z 33007KT 10SM CLR 29/21 A3002 -80 62 1500 330/07 RMK AO2 T02890211
53917KNEW NEW20190924094510309/24/19 09:45:31  5-MIN KNEW 241545Z 33008KT 10SM CLR 28/21 A3002 -80 64 1500 330/08 RMK AO2 T02830211
53917KNEW NEW20190924095011009/24/19 09:50:31  5-MIN KNEW 241550Z 32007KT 10SM CLR 29/21 A3002 -80 60 1500 320/07 RMK AO2 SLP158 T02890206
53917KNEW NEW20190924095510309/24/19 09:55:31  5-MIN KNEW 241555Z 32007KT 10SM CLR 29/21 A3002 -80 62 1500 320/07 RMK AO2 T02890211
53917KNEW NEW20190924100010309/24/19 10:00:31  5-MIN KNEW 241600Z 32007KT 10SM CLR 29/21 A3002 -80 62 1500 320/07 RMK AO2 T02890211
53917KNEW NEW20190924100510309/24/19 10:05:31  5-MIN KNEW 241605Z 32007KT 10SM CLR 28/21 A3002 -80 64 1500 320/07 RMK AO2 T02830211
53917KNEW NEW20190924101010309/24/19 10:10:31  5-MIN KNEW 241610Z 31006KT 10SM CLR 28/21 A3002 -80 64 1500 310/06 RMK AO2 T02830211
53917KNEW NEW20190924101510309/24/19 10:15:31  5-MIN KNEW 241615Z 31007KT 10SM CLR 28/21 A3002 -80 64 1500 310/07 RMK AO2 T02830211
53917KNEW NEW20190924102010309/24/19 10:20:31  5-MIN KNEW 241620Z 32007KT 10SM CLR 28/21 A3002 -80 62 1500 320/07 RMK AO2 T02830206
53917KNEW NEW20190924102510309/24/19 10:25:31  5-MIN KNEW 241625Z 32007KT 10SM CLR 29/22 A3001 -70 64 1500 320/07 RMK AO2 T02890217
53917KNEW NEW20190924103010309/24/19 10:30:31  5-MIN KNEW 241630Z 32007KT 10SM CLR 29/21 A3001 -70 62 1500 320/07 RMK AO2 T02890211
53917KNEW NEW20190924103510309/24/19 10:35:31  5-MIN KNEW 241635Z 32007KT 10SM CLR 29/21 A3001 -70 62 1500 320/07 RMK AO2 T02890211
53917KNEW NEW20190924104010309/24/19 10:40:31  5-MIN KNEW 241640Z 31006KT 10SM CLR 29/22 A3001 -70 64 1500 310/06 RMK AO2 T02890217
53917KNEW NEW20190924104510309/24/19 10:45:31  5-MIN KNEW 241645Z 32006KT 10SM CLR 29/21 A3001 -70 62 1500 320/06 RMK AO2 T02890211
53917KNEW NEW20190924105011009/24/19 10:50:31  5-MIN KNEW 241650Z 31006KT 10SM CLR 29/22 A3001 -70 64 1500 310/06 RMK AO2 SLP156 T02890217
53917KNEW NEW20190924105510309/24/19 10:55:31  5-MIN KNEW 241655Z 32007KT 10SM CLR 29/22 A3001 -70 64 1500 320/07 RMK AO2 T02890217
53917KNEW NEW20190924110010309/24/19 11:00:31  5-MIN KNEW 241700Z 32006KT 10SM CLR 29/22 A3001 -70 64 1500 320/06 RMK AO2 T02890217
53917KNEW NEW20190924110510309/24/19 11:05:31  5-MIN KNEW 241705Z 32006KT 10SM CLR 29/22 A3001 -70 64 1600 320/06 RMK AO2 T02890217
53917KNEW NEW20190924111010309/24/19 11:10:31  5-MIN KNEW 241710Z 31006KT 10SM CLR 29/22 A3001 -60 64 1600 310/06 RMK AO2 T02890217
53917KNEW NEW20190924111510309/24/19 11:15:31  5-MIN KNEW 241715Z 32006KT 10SM CLR 29/21 A3000 -60 60 1600 320/06 RMK AO2 T02940211
53917KNEW NEW20190924112010309/24/19 11:20:31  5-MIN KNEW 241720Z 31005KT 10SM CLR 29/21 A3000 -60 62 1600 310/05 RMK AO2 T02890211
53917KNEW NEW20190924112510309/24/19 11:25:31  5-MIN KNEW 241725Z 31005KT 10SM CLR 29/21 A3000 -60 62 1600 310/05 RMK AO2 T02890211
53917KNEW NEW20190924113010309/24/19 11:30:31  5-MIN KNEW 241730Z 32005KT 10SM CLR 29/21 A3000 -60 58 1600 320/05 RMK AO2 T02940206
53917KNEW NEW20190924113510309/24/19 11:35:31  5-MIN KNEW 241735Z 31005KT 10SM CLR 29/21 A2999 -50 60 1600 310/05 RMK AO2 T02940211
53917KNEW NEW20190924114010309/24/19 11:40:31  5-MIN KNEW 241740Z 32005KT 10SM CLR 29/21 A2999 -50 60 1600 320/05 RMK AO2 T02940211
53917KNEW NEW20190924114510309/24/19 11:45:31  5-MIN KNEW 241745Z 31005KT 10SM CLR 30/21 A2999 -50 58 1700 310/05 RMK AO2 T03000211
53917KNEW NEW20190924115012809/24/19 11:50:31  5-MIN KNEW 241750Z 31005KT 10SM CLR 29/21 A2999 -50 60 1600 310/05 RMK AO2 SLP148 T02940211 10300 20261 53006
53917KNEW NEW20190924115510309/24/19 11:55:31  5-MIN KNEW 241755Z 31005KT 10SM CLR 29/21 A2999 -50 58 1600 310/05 RMK AO2 T02940206
53917KNEW NEW20190924120010309/24/19 12:00:31  5-MIN KNEW 241800Z 32005KT 10SM CLR 29/21 A2998 -40 58 1600 320/05 RMK AO2 T02940206
53917KNEW NEW20190924120510309/24/19 12:05:31  5-MIN KNEW 241805Z 32005KT 10SM CLR 30/21 A2998 -40 56 1700 320/05 RMK AO2 T03000206
53917KNEW NEW20190924121010309/24/19 12:10:31  5-MIN KNEW 241810Z 32006KT 10SM CLR 30/21 A2998 -40 56 1700 320/06 RMK AO2 T03000206
53917KNEW NEW20190924121510309/24/19 12:15:31  5-MIN KNEW 241815Z 32005KT 10SM CLR 29/21 A2997 -40 58 1700 320/05 RMK AO2 T02940206
53917KNEW NEW20190924122010309/24/19 12:20:31  5-MIN KNEW 241820Z 32006KT 10SM CLR 31/21 A2997 -30 54 1800 320/06 RMK AO2 T03060206
53917KNEW NEW20190924122510309/24/19 12:25:31  5-MIN KNEW 241825Z 33006KT 10SM CLR 30/20 A2997 -30 54 1700 330/06 RMK AO2 T03000200
53917KNEW NEW20190924123010309/24/19 12:30:31  5-MIN KNEW 241830Z 32006KT 10SM CLR 30/21 A2997 -30 56 1700 320/06 RMK AO2 T03000206
53917KNEW NEW20190924123510309/24/19 12:35:31  5-MIN KNEW 241835Z 33006KT 10SM CLR 30/20 A2997 -30 54 1700 330/06 RMK AO2 T03000200
53917KNEW NEW20190924124010309/24/19 12:40:31  5-MIN KNEW 241840Z 34006KT 10SM CLR 31/21 A2997 -30 54 1800 340/06 RMK AO2 T03060206
53917KNEW NEW20190924124510309/24/19 12:45:31  5-MIN KNEW 241845Z 34007KT 10SM CLR 31/21 A2996 -30 54 1800 340/07 RMK AO2 T03110211
53917KNEW NEW20190924125011009/24/19 12:50:31  5-MIN KNEW 241850Z 34006KT 10SM CLR 31/21 A2996 -20 56 1800 340/06 RMK AO2 SLP139 T03060211
53917KNEW NEW20190924125510309/24/19 12:55:31  5-MIN KNEW 241855Z 35007KT 10SM CLR 31/21 A2996 -20 54 1900 350/07 RMK AO2 T03110211
53917KNEW NEW20190924130010309/24/19 13:00:31  5-MIN KNEW 241900Z 35007KT 10SM CLR 31/20 A2996 -20 51 1900 350/07 RMK AO2 T03110200
53917KNEW NEW20190924130510309/24/19 13:05:31  5-MIN KNEW 241905Z 35006KT 10SM CLR 31/21 A2996 -20 53 1900 350/06 RMK AO2 T03110206
53917KNEW NEW20190924131010309/24/19 13:10:31  5-MIN KNEW 241910Z 35007KT 10SM CLR 31/20 A2995 -20 51 1900 350/07 RMK AO2 T03110200
53917KNEW NEW20190924131510309/24/19 13:15:31  5-MIN KNEW 241915Z 35007KT 10SM CLR 31/20 A2995 -20 51 1900 350/07 RMK AO2 T03110200
53917KNEW NEW20190924132010309/24/19 13:20:31  5-MIN KNEW 241920Z 35007KT 10SM CLR 32/21 A2995 -20 51 1900 350/07 RMK AO2 T03170206
53917KNEW NEW20190924132510309/24/19 13:25:31  5-MIN KNEW 241925Z 35007KT 10SM CLR 31/20 A2995 -10 51 1900 350/07 RMK AO2 T03110200
53917KNEW NEW20190924133010309/24/19 13:30:31  5-MIN KNEW 241930Z 35007KT 10SM CLR 31/20 A2995 -10 51 1900 350/07 RMK AO2 T03110200
53917KNEW NEW20190924133510309/24/19 13:35:31  5-MIN KNEW 241935Z 35006KT 10SM CLR 32/20 A2994 -10 49 1900 350/06 RMK AO2 T03170200
53917KNEW NEW20190924134010109/24/19 13:40:31  5-MIN KNEW 241940Z 35006KT 10SM CLR 32/20 A2994 0 49 1900 350/06 RMK AO2 T03170200
53917KNEW NEW20190924134510109/24/19 13:45:31  5-MIN KNEW 241945Z 34006KT 10SM CLR 32/19 A2994 0 47 1900 340/06 RMK AO2 T03170194
53917KNEW NEW20190924135010809/24/19 13:50:31  5-MIN KNEW 241950Z 35006KT 10SM CLR 32/20 A2994 0 49 1900 350/06 RMK AO2 SLP131 T03170200
53917KNEW NEW20190924135510109/24/19 13:55:31  5-MIN KNEW 241955Z 35005KT 10SM CLR 32/20 A2994 0 49 1900 350/05 RMK AO2 T03170200
53917KNEW NEW20190924140010109/24/19 14:00:31  5-MIN KNEW 242000Z 35007KT 10SM CLR 32/20 A2994 0 49 1900 350/07 RMK AO2 T03170200
53917KNEW NEW20190924140510109/24/19 14:05:31  5-MIN KNEW 242005Z 35006KT 10SM CLR 32/19 A2993 0 47 1900 350/06 RMK AO2 T03170194
53917KNEW NEW20190924141010109/24/19 14:10:31  5-MIN KNEW 242010Z 34006KT 10SM CLR 32/19 A2993 0 47 1900 340/06 RMK AO2 T03170194
53917KNEW NEW20190924141510109/24/19 14:15:31  5-MIN KNEW 242015Z 35006KT 10SM CLR 32/19 A2993 0 47 1900 350/06 RMK AO2 T03170194
53917KNEW NEW20190924142010109/24/19 14:20:31  5-MIN KNEW 242020Z 32006KT 10SM CLR 32/19 A2993 0 46 1900 320/06 RMK AO2 T03170189
53917KNEW NEW20190924142510109/24/19 14:25:31  5-MIN KNEW 242025Z 32006KT 10SM CLR 32/19 A2993 0 47 1900 320/06 RMK AO2 T03170194
53917KNEW NEW20190924143010109/24/19 14:30:31  5-MIN KNEW 242030Z 32006KT 10SM CLR 32/20 A2993 0 49 1900 320/06 RMK AO2 T03170200
53917KNEW NEW20190924143510109/24/19 14:35:31  5-MIN KNEW 242035Z 32007KT 10SM CLR 31/19 A2993 0 49 1900 320/07 RMK AO2 T03110194
53917KNEW NEW20190924144010209/24/19 14:40:31  5-MIN KNEW 242040Z 32007KT 10SM CLR 32/19 A2992 10 47 2000 320/07 RMK AO2 T03170194
53917KNEW NEW20190924144510209/24/19 14:45:31  5-MIN KNEW 242045Z 33006KT 10SM CLR 31/19 A2992 10 49 1900 330/06 RMK AO2 T03110194
53917KNEW NEW20190924145011809/24/19 14:50:31  5-MIN KNEW 242050Z 32006KT 10SM FEW030 31/19 A2992 10 49 1900 320/06 RMK AO2 SLP125 T03110194 58014
53917KNEW NEW20190924145510209/24/19 14:55:31  5-MIN KNEW 242055Z 31006KT 10SM CLR 31/19 A2992 10 49 1900 310/06 RMK AO2 T03110194
53917KNEW NEW20190924150010209/24/19 15:00:31  5-MIN KNEW 242100Z 31005KT 10SM CLR 31/19 A2992 10 47 1900 310/05 RMK AO2 T03110189
53917KNEW NEW20190924150510209/24/19 15:05:31  5-MIN KNEW 242105Z 31005KT 10SM CLR 31/18 A2991 20 46 1900 310/05 RMK AO2 T03110183
53917KNEW NEW20190924151010209/24/19 15:10:31  5-MIN KNEW 242110Z 32006KT 10SM CLR 31/19 A2991 20 47 1900 320/06 RMK AO2 T03110189
53917KNEW NEW20190924151510209/24/19 15:15:31  5-MIN KNEW 242115Z 31005KT 10SM CLR 31/19 A2991 20 47 1900 310/05 RMK AO2 T03110189
53917KNEW NEW20190924152010209/24/19 15:20:31  5-MIN KNEW 242120Z 31005KT 10SM CLR 31/19 A2991 20 47 1900 310/05 RMK AO2 T03110189
53917KNEW NEW20190924152510209/24/19 15:25:31  5-MIN KNEW 242125Z 31004KT 10SM CLR 31/19 A2991 20 47 1900 310/04 RMK AO2 T03110189
53917KNEW NEW20190924153010209/24/19 15:30:31  5-MIN KNEW 242130Z 31004KT 10SM CLR 31/18 A2991 20 46 1900 310/04 RMK AO2 T03110183
53917KNEW NEW20190924153510209/24/19 15:35:31  5-MIN KNEW 242135Z 30005KT 10SM CLR 31/18 A2991 20 46 1900 300/05 RMK AO2 T03110183
53917KNEW NEW20190924154010209/24/19 15:40:31  5-MIN KNEW 242140Z 31004KT 10SM CLR 31/19 A2991 20 47 1900 310/04 RMK AO2 T03110189
53917KNEW NEW20190924154510209/24/19 15:45:31  5-MIN KNEW 242145Z 31004KT 10SM CLR 31/18 A2991 20 46 1900 310/04 RMK AO2 T03110183
53917KNEW NEW20190924155010909/24/19 15:50:31  5-MIN KNEW 242150Z 30004KT 10SM CLR 31/19 A2991 20 47 1900 300/04 RMK AO2 SLP120 T03110189
53917KNEW NEW20190924155510209/24/19 15:55:31  5-MIN KNEW 242155Z 30004KT 10SM CLR 31/18 A2991 20 47 1900 300/04 RMK AO2 T03060183
53917KNEW NEW20190924160010209/24/19 16:00:31  5-MIN KNEW 242200Z 30004KT 10SM CLR 31/18 A2990 20 46 1900 300/04 RMK AO2 T03110183
53917KNEW NEW20190924160510209/24/19 16:05:31  5-MIN KNEW 242205Z 29004KT 10SM CLR 31/18 A2990 30 47 1900 290/04 RMK AO2 T03060183
53917KNEW NEW20190924161010209/24/19 16:10:31  5-MIN KNEW 242210Z 30004KT 10SM CLR 31/18 A2990 20 47 1900 300/04 RMK AO2 T03060183
53917KNEW NEW20190924161510209/24/19 16:15:31  5-MIN KNEW 242215Z 32004KT 10SM CLR 31/19 A2990 20 49 1900 320/04 RMK AO2 T03060189
53917KNEW NEW20190924162010209/24/19 16:20:31  5-MIN KNEW 242220Z 32003KT 10SM CLR 31/19 A2990 30 49 1900 320/03 RMK AO2 T03060189
53917KNEW NEW20190924162510209/24/19 16:25:31  5-MIN KNEW 242225Z 31003KT 10SM CLR 31/19 A2990 30 47 1900 310/03 RMK AO2 T03110189
53917KNEW NEW20190924163010209/24/19 16:30:31  5-MIN KNEW 242230Z 31003KT 10SM CLR 31/19 A2990 30 49 1900 310/03 RMK AO2 T03060189
53917KNEW NEW20190924163510209/24/19 16:35:31  5-MIN KNEW 242235Z 31003KT 10SM CLR 31/19 A2990 30 47 1900 310/03 RMK AO2 T03110189
53917KNEW NEW20190924164010209/24/19 16:40:31  5-MIN KNEW 242240Z 33003KT 10SM CLR 31/19 A2990 30 47 1900 330/03 RMK AO2 T03110189
53917KNEW NEW20190924164510209/24/19 16:45:31  5-MIN KNEW 242245Z 33004KT 10SM CLR 31/19 A2990 30 49 1900 330/04 RMK AO2 T03110194
53917KNEW NEW20190924165010909/24/19 16:50:31  5-MIN KNEW 242250Z 32004KT 10SM CLR 31/20 A2990 30 52 1900 320/04 RMK AO2 SLP119 T03060200
53917KNEW NEW20190924165510209/24/19 16:55:31  5-MIN KNEW 242255Z 33003KT 10SM CLR 31/19 A2990 30 51 1900 330/03 RMK AO2 T03060194
53917KNEW NEW20190924170010209/24/19 17:00:31  5-MIN KNEW 242300Z 34003KT 10SM CLR 31/19 A2990 30 51 1900 340/03 RMK AO2 T03060194
53917KNEW NEW20190924170510209/24/19 17:05:31  5-MIN KNEW 242305Z 35003KT 10SM CLR 31/19 A2990 30 47 1900 350/03 RMK AO2 T03110189
53917KNEW NEW20190924171010209/24/19 17:10:31  5-MIN KNEW 242310Z 00000KT 10SM CLR 31/19 A2990 30 51 1900 000/00 RMK AO2 T03060194
53917KNEW NEW20190924171510209/24/19 17:15:31  5-MIN KNEW 242315Z 00000KT 10SM CLR 31/19 A2990 30 49 1900 000/00 RMK AO2 T03060189
53917KNEW NEW20190924172010209/24/19 17:20:31  5-MIN KNEW 242320Z 00000KT 10SM CLR 31/19 A2990 30 49 1900 000/00 RMK AO2 T03060189
53917KNEW NEW20190924172510209/24/19 17:25:31  5-MIN KNEW 242325Z 00000KT 10SM CLR 31/20 A2990 30 52 1900 000/00 RMK AO2 T03060200
53917KNEW NEW20190924173010209/24/19 17:30:31  5-MIN KNEW 242330Z 00000KT 10SM CLR 31/19 A2990 30 49 1900 000/00 RMK AO2 T03060189
53917KNEW NEW20190924173510209/24/19 17:35:31  5-MIN KNEW 242335Z 00000KT 10SM CLR 31/19 A2990 30 49 1900 000/00 RMK AO2 T03060189
53917KNEW NEW20190924174010209/24/19 17:40:31  5-MIN KNEW 242340Z 00000KT 10SM CLR 31/19 A2990 30 51 1900 000/00 RMK AO2 T03060194
53917KNEW NEW20190924174510209/24/19 17:45:31  5-MIN KNEW 242345Z 00000KT 10SM CLR 31/19 A2990 30 51 1900 000/00 RMK AO2 T03060194
53917KNEW NEW20190924175012709/24/19 17:50:31  5-MIN KNEW 242350Z 00000KT 10SM CLR 29/20 A2990 30 56 1700 000/00 RMK AO2 SLP119 T02940200 10317 20289 56023
53917KNEW NEW20190924175510209/24/19 17:55:31  5-MIN KNEW 242355Z 00000KT 10SM CLR 29/20 A2990 30 56 1700 000/00 RMK AO2 T02940200
53917KNEW NEW20190924180010209/24/19 18:00:31  5-MIN KNEW 250000Z 00000KT 10SM CLR 30/19 A2990 30 52 1800 000/00 RMK AO2 T03000194
53917KNEW NEW20190924180510209/24/19 18:05:31  5-MIN KNEW 250005Z 15005KT 10SM CLR 29/19 A2990 30 54 1700 150/05 RMK AO2 T02940194
53917KNEW NEW20190924181010209/24/19 18:10:31  5-MIN KNEW 250010Z 17006KT 10SM CLR 29/19 A2990 30 54 1700 170/06 RMK AO2 T02890189
53917KNEW NEW20190924181510209/24/19 18:15:31  5-MIN KNEW 250015Z 17006KT 10SM CLR 28/19 A2990 30 56 1600 170/06 RMK AO2 T02830189
53917KNEW NEW20190924182010209/24/19 18:20:31  5-MIN KNEW 250020Z 19007KT 10SM CLR 28/19 A2990 30 58 1500 190/07 RMK AO2 T02780189
53917KNEW NEW20190924182510209/24/19 18:25:31  5-MIN KNEW 250025Z 20005KT 10SM CLR 28/19 A2990 30 58 1500 200/05 RMK AO2 T02780189
53917KNEW NEW20190924183010209/24/19 18:30:31  5-MIN KNEW 250030Z 21003KT 10SM CLR 28/20 A2990 30 62 1500 210/03 RMK AO2 T02780200
53917KNEW NEW20190924183510209/24/19 18:35:31  5-MIN KNEW 250035Z 21005KT 10SM CLR 29/20 A2990 30 58 1700 210/05 RMK AO2 T02890200
53917KNEW NEW20190924184010209/24/19 18:40:31  5-MIN KNEW 250040Z 20006KT 10SM CLR 29/20 A2990 30 58 1700 200/06 RMK AO2 T02890200
53917KNEW NEW20190924184510209/24/19 18:45:31  5-MIN KNEW 250045Z 21005KT 10SM CLR 28/20 A2990 30 60 1600 210/05 RMK AO2 T02830200
53917KNEW NEW20190924185010909/24/19 18:50:31  5-MIN KNEW 250050Z 22006KT 10SM CLR 29/20 A2990 30 58 1700 220/06 RMK AO2 SLP119 T02890200
53917KNEW NEW20190924185510209/24/19 18:55:31  5-MIN KNEW 250055Z 20005KT 10SM CLR 28/21 A2990 30 62 1600 200/05 RMK AO2 T02830206
53917KNEW NEW20190924190010209/24/19 19:00:31  5-MIN KNEW 250100Z 21005KT 10SM CLR 29/19 A2990 30 56 1700 210/05 RMK AO2 T02890194
53917KNEW NEW20190924190510209/24/19 19:05:31  5-MIN KNEW 250105Z 20004KT 10SM CLR 28/20 A2990 30 60 1600 200/04 RMK AO2 T02830200
53917KNEW NEW20190924191010209/24/19 19:10:31  5-MIN KNEW 250110Z 20005KT 10SM CLR 28/20 A2990 30 60 1600 200/05 RMK AO2 T02830200
53917KNEW NEW20190924191510209/24/19 19:15:31  5-MIN KNEW 250115Z 20005KT 10SM CLR 28/20 A2990 20 62 1500 200/05 RMK AO2 T02780200
53917KNEW NEW20190924192010209/24/19 19:20:31  5-MIN KNEW 250120Z 20005KT 10SM CLR 28/20 A2990 20 62 1500 200/05 RMK AO2 T02780200
53917KNEW NEW20190924192510209/24/19 19:25:31  5-MIN KNEW 250125Z 20005KT 10SM CLR 28/20 A2991 20 62 1500 200/05 RMK AO2 T02780200
53917KNEW NEW20190924193010209/24/19 19:30:31  5-MIN KNEW 250130Z 20005KT 10SM CLR 28/20 A2991 20 62 1500 200/05 RMK AO2 T02780200
53917KNEW NEW20190924193510709/24/19 19:35:31  5-MIN KNEW 250135Z AUTO 20005KT 10SM CLR 28/20 A2991 20 62 1500 200/05 RMK AO2 T02780200
53917KNEW NEW20190924194010709/24/19 19:40:31  5-MIN KNEW 250140Z AUTO 20006KT 10SM CLR 28/20 A2991 20 62 1500 200/06 RMK AO2 T02780200
53917KNEW NEW20190924194510709/24/19 19:45:31  5-MIN KNEW 250145Z AUTO 20005KT 10SM CLR 28/20 A2991 20 62 1500 200/05 RMK AO2 T02780200
53917KNEW NEW20190924195011409/24/19 19:50:31  5-MIN KNEW 250150Z AUTO 20005KT 10SM CLR 28/20 A2992 10 62 1500 200/05 RMK AO2 SLP123 T02780200
53917KNEW NEW20190924195510709/24/19 19:55:31  5-MIN KNEW 250155Z AUTO 20005KT 10SM CLR 28/20 A2992 10 62 1500 200/05 RMK AO2 T02780200
53917KNEW NEW20190924200010709/24/19 20:00:31  5-MIN KNEW 250200Z AUTO 20005KT 10SM CLR 27/20 A2992 10 64 1500 200/05 RMK AO2 T02720200
53917KNEW NEW20190924200510709/24/19 20:05:31  5-MIN KNEW 250205Z AUTO 20005KT 10SM CLR 27/20 A2992 10 64 1500 200/05 RMK AO2 T02720200
53917KNEW NEW20190924201010709/24/19 20:10:31  5-MIN KNEW 250210Z AUTO 20005KT 10SM CLR 28/20 A2992 10 62 1500 200/05 RMK AO2 T02780200
53917KNEW NEW20190924201510709/24/19 20:15:31  5-MIN KNEW 250215Z AUTO 21005KT 10SM CLR 28/20 A2992 10 62 1500 210/05 RMK AO2 T02780200
53917KNEW NEW20190924202010709/24/19 20:20:31  5-MIN KNEW 250220Z AUTO 22006KT 10SM CLR 28/20 A2992 10 60 1600 220/06 RMK AO2 T02830200
53917KNEW NEW20190924202510709/24/19 20:25:31  5-MIN KNEW 250225Z AUTO 23006KT 10SM CLR 28/20 A2992 10 60 1600 230/06 RMK AO2 T02830200
53917KNEW NEW20190924203010709/24/19 20:30:31  5-MIN KNEW 250230Z AUTO 22007KT 10SM CLR 28/20 A2992 10 60 1600 220/07 RMK AO2 T02830200
53917KNEW NEW20190924203510709/24/19 20:35:31  5-MIN KNEW 250235Z AUTO 22008KT 10SM CLR 28/20 A2992 10 62 1500 220/08 RMK AO2 T02780200
53917KNEW NEW20190924204010709/24/19 20:40:31  5-MIN KNEW 250240Z AUTO 22008KT 10SM CLR 28/20 A2992 10 60 1600 220/08 RMK AO2 T02830200
53917KNEW NEW20190924204510709/24/19 20:45:31  5-MIN KNEW 250245Z AUTO 22007KT 10SM CLR 28/20 A2992 10 62 1500 220/07 RMK AO2 T02780200
53917KNEW NEW20190924205012009/24/19 20:50:31  5-MIN KNEW 250250Z AUTO 22007KT 10SM CLR 28/20 A2992 10 62 1500 220/07 RMK AO2 SLP126 T02780200 56006
53917KNEW NEW20190924205510709/24/19 20:55:31  5-MIN KNEW 250255Z AUTO 22005KT 10SM CLR 28/21 A2992 10 64 1500 220/05 RMK AO2 T02780206
53917KNEW NEW20190924210010709/24/19 21:00:31  5-MIN KNEW 250300Z AUTO 22005KT 10SM CLR 28/20 A2992 10 62 1500 220/05 RMK AO2 T02780200
53917KNEW NEW20190924210510709/24/19 21:05:31  5-MIN KNEW 250305Z AUTO 22006KT 10SM CLR 28/20 A2992 10 62 1500 220/06 RMK AO2 T02780200
53917KNEW NEW20190924211010709/24/19 21:10:31  5-MIN KNEW 250310Z AUTO 23007KT 10SM CLR 28/20 A2992 10 62 1500 230/07 RMK AO2 T02780200
53917KNEW NEW20190924211510709/24/19 21:15:31  5-MIN KNEW 250315Z AUTO 23006KT 10SM CLR 28/20 A2992 10 62 1500 230/06 RMK AO2 T02780200
53917KNEW NEW20190924212010709/24/19 21:20:31  5-MIN KNEW 250320Z AUTO 23005KT 10SM CLR 28/21 A2992 10 64 1500 230/05 RMK AO2 T02780206
53917KNEW NEW20190924212510709/24/19 21:25:31  5-MIN KNEW 250325Z AUTO 22006KT 10SM CLR 27/21 A2992 10 66 1500 220/06 RMK AO2 T02720206
53917KNEW NEW20190924213010709/24/19 21:30:31  5-MIN KNEW 250330Z AUTO 23007KT 10SM CLR 28/21 A2992 10 64 1500 230/07 RMK AO2 T02780206
53917KNEW NEW20190924213510709/24/19 21:35:31  5-MIN KNEW 250335Z AUTO 22006KT 10SM CLR 27/21 A2991 20 66 1500 220/06 RMK AO2 T02720206
53917KNEW NEW20190924214010709/24/19 21:40:31  5-MIN KNEW 250340Z AUTO 22007KT 10SM CLR 27/21 A2991 20 66 1500 220/07 RMK AO2 T02720206
53917KNEW NEW20190924214510709/24/19 21:45:31  5-MIN KNEW 250345Z AUTO 22007KT 10SM CLR 27/21 A2991 20 66 1500 220/07 RMK AO2 T02720206
53917KNEW NEW20190924215011409/24/19 21:50:31  5-MIN KNEW 250350Z AUTO 22006KT 10SM CLR 27/21 A2991 20 66 1500 220/06 RMK AO2 SLP122 T02720206
53917KNEW NEW20190924215510709/24/19 21:55:31  5-MIN KNEW 250355Z AUTO 24006KT 10SM CLR 27/21 A2991 20 69 1500 240/06 RMK AO2 T02720211
53917KNEW NEW20190924220010709/24/19 22:00:31  5-MIN KNEW 250400Z AUTO 25008KT 10SM CLR 27/21 A2991 20 66 1500 250/08 RMK AO2 T02720206
53917KNEW NEW20190924220510709/24/19 22:05:31  5-MIN KNEW 250405Z AUTO 24007KT 10SM CLR 27/21 A2991 20 66 1500 240/07 RMK AO2 T02720206
53917KNEW NEW20190924221010709/24/19 22:10:31  5-MIN KNEW 250410Z AUTO 24006KT 10SM CLR 27/21 A2991 20 66 1500 240/06 RMK AO2 T02720206
53917KNEW NEW20190924221510709/24/19 22:15:31  5-MIN KNEW 250415Z AUTO 24007KT 10SM CLR 27/21 A2991 20 66 1500 240/07 RMK AO2 T02720206
53917KNEW NEW20190924222010709/24/19 22:20:31  5-MIN KNEW 250420Z AUTO 24008KT 10SM CLR 27/21 A2991 20 66 1500 240/08 RMK AO2 T02720206
53917KNEW NEW20190924222510709/24/19 22:25:31  5-MIN KNEW 250425Z AUTO 24007KT 10SM CLR 27/20 A2991 20 64 1500 240/07 RMK AO2 T02720200
53917KNEW NEW20190924223010709/24/19 22:30:31  5-MIN KNEW 250430Z AUTO 24008KT 10SM CLR 27/20 A2991 20 64 1500 240/08 RMK AO2 T02720200
53917KNEW NEW20190924223510709/24/19 22:35:31  5-MIN KNEW 250435Z AUTO 24008KT 10SM CLR 27/20 A2991 20 64 1500 240/08 RMK AO2 T02720200
53917KNEW NEW20190924224010709/24/19 22:40:31  5-MIN KNEW 250440Z AUTO 25008KT 10SM CLR 27/20 A2991 20 64 1500 250/08 RMK AO2 T02720200
53917KNEW NEW20190924224510709/24/19 22:45:31  5-MIN KNEW 250445Z AUTO 24008KT 10SM CLR 27/20 A2991 20 64 1500 240/08 RMK AO2 T02720200
53917KNEW NEW20190924225011409/24/19 22:50:31  5-MIN KNEW 250450Z AUTO 25008KT 10SM CLR 27/20 A2991 20 66 1400 250/08 RMK AO2 SLP121 T02670200
53917KNEW NEW20190924225510709/24/19 22:55:31  5-MIN KNEW 250455Z AUTO 24007KT 10SM CLR 27/20 A2991 20 66 1400 240/07 RMK AO2 T02670200
53917KNEW NEW20190924230010709/24/19 23:00:31  5-MIN KNEW 250500Z AUTO 24007KT 10SM CLR 27/21 A2991 20 69 1400 240/07 RMK AO2 T02670206
53917KNEW NEW20190924230510709/24/19 23:05:31  5-MIN KNEW 250505Z AUTO 25009KT 10SM CLR 27/21 A2991 20 69 1400 250/09 RMK AO2 T02670206
53917KNEW NEW20190924231010709/24/19 23:10:31  5-MIN KNEW 250510Z AUTO 24010KT 10SM CLR 27/20 A2991 20 66 1400 240/10 RMK AO2 T02670200
53917KNEW NEW20190924231510709/24/19 23:15:31  5-MIN KNEW 250515Z AUTO 25009KT 10SM CLR 27/20 A2991 20 66 1400 250/09 RMK AO2 T02670200
53917KNEW NEW20190924232010709/24/19 23:20:31  5-MIN KNEW 250520Z AUTO 25009KT 10SM CLR 27/21 A2991 20 69 1400 250/09 RMK AO2 T02670206
53917KNEW NEW20190924232510709/24/19 23:25:31  5-MIN KNEW 250525Z AUTO 25009KT 10SM CLR 27/21 A2991 20 69 1400 250/09 RMK AO2 T02670206
53917KNEW NEW20190924233010709/24/19 23:30:31  5-MIN KNEW 250530Z AUTO 24009KT 10SM CLR 27/21 A2991 20 69 1400 240/09 RMK AO2 T02670206
53917KNEW NEW20190924233510709/24/19 23:35:31  5-MIN KNEW 250535Z AUTO 24008KT 10SM CLR 27/21 A2991 20 69 1400 240/08 RMK AO2 T02670206
53917KNEW NEW20190924234010709/24/19 23:40:31  5-MIN KNEW 250540Z AUTO 24008KT 10SM CLR 27/21 A2991 20 69 1400 240/08 RMK AO2 T02670206
53917KNEW NEW20190924234510709/24/19 23:45:31  5-MIN KNEW 250545Z AUTO 24007KT 10SM CLR 27/21 A2991 20 69 1400 240/07 RMK AO2 T02670206
53917KNEW NEW20190924235014209/24/19 23:50:31  5-MIN KNEW 250550Z AUTO 25008KT 10SM CLR 27/21 A2991 20 69 1400 250/08 RMK AO2 SLP120 T02670206 10300 20267 403170244 53007
53917KNEW NEW20190924235510709/24/19 23:55:31  5-MIN KNEW 250555Z AUTO 25008KT 10SM CLR 27/21 A2990 20 69 1400 250/08 RMK AO2 T02670206
53917KNEW NEW20190925000010709/25/19 00:00:31  5-MIN KNEW 250600Z AUTO 25008KT 10SM CLR 27/21 A2991 20 69 1400 250/08 RMK AO2 T02670206
53917KNEW NEW20190925000510709/25/19 00:05:31  5-MIN KNEW 250605Z AUTO 25008KT 10SM CLR 27/21 A2991 20 69 1400 250/08 RMK AO2 T02670206
53917KNEW NEW20190925001010709/25/19 00:10:31  5-MIN KNEW 250610Z AUTO 26008KT 10SM CLR 27/21 A2991 20 69 1400 260/08 RMK AO2 T02670206
53917KNEW NEW20190925001510709/25/19 00:15:31  5-MIN KNEW 250615Z AUTO 27010KT 10SM CLR 27/21 A2991 20 71 1400 270/10 RMK AO2 T02670211
53917KNEW NEW20190925002010709/25/19 00:20:31  5-MIN KNEW 250620Z AUTO 27011KT 10SM CLR 27/21 A2991 20 66 1500 270/11 RMK AO2 T02720206
53917KNEW NEW20190925002510709/25/19 00:25:31  5-MIN KNEW 250625Z AUTO 26011KT 10SM CLR 27/21 A2991 20 66 1500 260/11 RMK AO2 T02720206
53917KNEW NEW20190925003010709/25/19 00:30:31  5-MIN KNEW 250630Z AUTO 27012KT 10SM CLR 27/21 A2991 20 66 1500 270/12 RMK AO2 T02720206
53917KNEW NEW20190925003510709/25/19 00:35:31  5-MIN KNEW 250635Z AUTO 27012KT 10SM CLR 27/21 A2991 20 69 1500 270/12 RMK AO2 T02720211
53917KNEW NEW20190925004010709/25/19 00:40:31  5-MIN KNEW 250640Z AUTO 27012KT 10SM CLR 27/21 A2991 20 71 1400 270/12 RMK AO2 T02670211
53917KNEW NEW20190925004510709/25/19 00:45:31  5-MIN KNEW 250645Z AUTO 27011KT 10SM CLR 27/21 A2991 20 71 1400 270/11 RMK AO2 T02670211
53917KNEW NEW20190925005011409/25/19 00:50:31  5-MIN KNEW 250650Z AUTO 28012KT 10SM CLR 27/21 A2991 20 71 1400 280/12 RMK AO2 SLP120 T02670211
53917KNEW NEW20190925005510709/25/19 00:55:31  5-MIN KNEW 250655Z AUTO 27011KT 10SM CLR 27/21 A2991 20 71 1400 270/11 RMK AO2 T02670211
53917KNEW NEW20190925010010709/25/19 01:00:31  5-MIN KNEW 250700Z AUTO 27012KT 10SM CLR 27/21 A2991 20 71 1400 270/12 RMK AO2 T02670211
53917KNEW NEW20190925010510709/25/19 01:05:31  5-MIN KNEW 250705Z AUTO 28011KT 10SM CLR 27/21 A2991 20 71 1400 280/11 RMK AO2 T02670211
53917KNEW NEW20190925011010709/25/19 01:10:31  5-MIN KNEW 250710Z AUTO 27012KT 10SM CLR 27/21 A2991 20 71 1400 270/12 RMK AO2 T02670211
53917KNEW NEW20190925011510709/25/19 01:15:31  5-MIN KNEW 250715Z AUTO 27011KT 10SM CLR 27/21 A2991 20 71 1400 270/11 RMK AO2 T02670211
53917KNEW NEW20190925012010709/25/19 01:20:31  5-MIN KNEW 250720Z AUTO 27011KT 10SM CLR 27/22 A2991 20 73 1400 270/11 RMK AO2 T02670217
53917KNEW NEW20190925012510709/25/19 01:25:31  5-MIN KNEW 250725Z AUTO 27010KT 10SM CLR 27/22 A2991 20 73 1400 270/10 RMK AO2 T02670217
53917KNEW NEW20190925013010709/25/19 01:30:31  5-MIN KNEW 250730Z AUTO 27010KT 10SM CLR 27/22 A2991 20 73 1400 270/10 RMK AO2 T02670217
53917KNEW NEW20190925013510709/25/19 01:35:31  5-MIN KNEW 250735Z AUTO 26010KT 10SM CLR 27/22 A2991 20 73 1400 260/10 RMK AO2 T02670217
53917KNEW NEW20190925014010709/25/19 01:40:31  5-MIN KNEW 250740Z AUTO 27012KT 10SM CLR 27/21 A2992 10 71 1400 270/12 RMK AO2 T02670211
53917KNEW NEW20190925014510709/25/19 01:45:31  5-MIN KNEW 250745Z AUTO 26011KT 10SM CLR 27/22 A2992 10 73 1400 260/11 RMK AO2 T02670217
53917KNEW NEW20190925015011409/25/19 01:50:31  5-MIN KNEW 250750Z AUTO 27010KT 10SM CLR 27/21 A2992 10 71 1400 270/10 RMK AO2 SLP124 T02670211
53917KNEW NEW20190925015510709/25/19 01:55:31  5-MIN KNEW 250755Z AUTO 27011KT 10SM CLR 27/21 A2992 10 71 1400 270/11 RMK AO2 T02670211
53917KNEW NEW20190925020010709/25/19 02:00:31  5-MIN KNEW 250800Z AUTO 26010KT 10SM CLR 27/22 A2991 20 73 1400 260/10 RMK AO2 T02670217
53917KNEW NEW20190925020510709/25/19 02:05:31  5-MIN KNEW 250805Z AUTO 26011KT 10SM CLR 27/21 A2991 10 71 1400 260/11 RMK AO2 T02670211
53917KNEW NEW20190925021010709/25/19 02:10:31  5-MIN KNEW 250810Z AUTO 26009KT 10SM CLR 27/21 A2991 10 71 1400 260/09 RMK AO2 T02670211
53917KNEW NEW20190925021510709/25/19 02:15:31  5-MIN KNEW 250815Z AUTO 25009KT 10SM CLR 27/21 A2991 10 71 1400 250/09 RMK AO2 T02670211
53917KNEW NEW20190925022010709/25/19 02:20:31  5-MIN KNEW 250820Z AUTO 26009KT 10SM CLR 27/21 A2992 10 71 1400 260/09 RMK AO2 T02670211
53917KNEW NEW20190925022510709/25/19 02:25:31  5-MIN KNEW 250825Z AUTO 26008KT 10SM CLR 26/21 A2991 10 73 1300 260/08 RMK AO2 T02610211
53917KNEW NEW20190925023010709/25/19 02:30:31  5-MIN KNEW 250830Z AUTO 25008KT 10SM CLR 27/21 A2992 10 71 1400 250/08 RMK AO2 T02670211
53917KNEW NEW20190925023510709/25/19 02:35:31  5-MIN KNEW 250835Z AUTO 25007KT 10SM CLR 26/21 A2992 10 73 1300 250/07 RMK AO2 T02610211
53917KNEW NEW20190925024010709/25/19 02:40:31  5-MIN KNEW 250840Z AUTO 25008KT 10SM CLR 26/22 A2992 10 76 1300 250/08 RMK AO2 T02610217
53917KNEW NEW20190925024510709/25/19 02:45:31  5-MIN KNEW 250845Z AUTO 25008KT 10SM CLR 26/21 A2992 10 73 1300 250/08 RMK AO2 T02610211
53917KNEW NEW20190925025012009/25/19 02:50:31  5-MIN KNEW 250850Z AUTO 25009KT 10SM CLR 26/21 A2992 10 73 1300 250/09 RMK AO2 SLP125 T02610211 56006
53917KNEW NEW20190925025510709/25/19 02:55:31  5-MIN KNEW 250855Z AUTO 26010KT 10SM CLR 27/21 A2992 10 71 1400 260/10 RMK AO2 T02670211
53917KNEW NEW20190925030010709/25/19 03:00:31  5-MIN KNEW 250900Z AUTO 26009KT 10SM CLR 27/21 A2992 10 71 1400 260/09 RMK AO2 T02670211
53917KNEW NEW20190925030510709/25/19 03:05:31  5-MIN KNEW 250905Z AUTO 26010KT 10SM CLR 26/21 A2992 10 73 1300 260/10 RMK AO2 T02610211
53917KNEW NEW20190925031010709/25/19 03:10:31  5-MIN KNEW 250910Z AUTO 26009KT 10SM CLR 27/21 A2992 10 69 1400 260/09 RMK AO2 T02670206
53917KNEW NEW20190925031510709/25/19 03:15:31  5-MIN KNEW 250915Z AUTO 26009KT 10SM CLR 27/21 A2992 10 69 1400 260/09 RMK AO2 T02670206
53917KNEW NEW20190925032010709/25/19 03:20:31  5-MIN KNEW 250920Z AUTO 27009KT 10SM CLR 27/21 A2992 10 69 1400 270/09 RMK AO2 T02670206
53917KNEW NEW20190925032510709/25/19 03:25:31  5-MIN KNEW 250925Z AUTO 27009KT 10SM CLR 27/21 A2992 10 69 1400 270/09 RMK AO2 T02670206
53917KNEW NEW20190925033010709/25/19 03:30:31  5-MIN KNEW 250930Z AUTO 26008KT 10SM CLR 27/21 A2992 10 69 1400 260/08 RMK AO2 T02670206
53917KNEW NEW20190925033510609/25/19 03:35:31  5-MIN KNEW 250935Z AUTO 26009KT 10SM CLR 27/21 A2993 0 71 1400 260/09 RMK AO2 T02670211
53917KNEW NEW20190925034010609/25/19 03:40:31  5-MIN KNEW 250940Z AUTO 26010KT 10SM CLR 27/21 A2993 0 69 1400 260/10 RMK AO2 T02670206
53917KNEW NEW20190925034510609/25/19 03:45:31  5-MIN KNEW 250945Z AUTO 26009KT 10SM CLR 27/21 A2993 0 69 1400 260/09 RMK AO2 T02670206
53917KNEW NEW20190925035011309/25/19 03:50:31  5-MIN KNEW 250950Z AUTO 26009KT 10SM CLR 27/21 A2993 0 71 1400 260/09 RMK AO2 SLP128 T02670211
53917KNEW NEW20190925035510609/25/19 03:55:31  5-MIN KNEW 250955Z AUTO 26009KT 10SM CLR 27/21 A2993 0 71 1400 260/09 RMK AO2 T02670211
53917KNEW NEW20190925040010609/25/19 04:00:31  5-MIN KNEW 251000Z AUTO 27009KT 10SM CLR 27/21 A2993 0 69 1400 270/09 RMK AO2 T02670206
53917KNEW NEW20190925040510609/25/19 04:05:31  5-MIN KNEW 251005Z AUTO 27009KT 10SM CLR 27/21 A2993 0 69 1400 270/09 RMK AO2 T02670206
53917KNEW NEW20190925041010609/25/19 04:10:31  5-MIN KNEW 251010Z AUTO 27010KT 10SM CLR 27/21 A2993 0 69 1400 270/10 RMK AO2 T02670206
53917KNEW NEW20190925041510609/25/19 04:15:31  5-MIN KNEW 251015Z AUTO 28009KT 10SM CLR 27/21 A2993 0 69 1400 280/09 RMK AO2 T02670206
53917KNEW NEW20190925042010609/25/19 04:20:31  5-MIN KNEW 251020Z AUTO 28009KT 10SM CLR 27/21 A2993 0 69 1400 280/09 RMK AO2 T02670206
53917KNEW NEW20190925042510609/25/19 04:25:31  5-MIN KNEW 251025Z AUTO 27010KT 10SM CLR 27/21 A2993 0 71 1400 270/10 RMK AO2 T02670211
53917KNEW NEW20190925043010609/25/19 04:30:31  5-MIN KNEW 251030Z AUTO 27010KT 10SM CLR 27/21 A2994 0 69 1400 270/10 RMK AO2 T02670206
53917KNEW NEW20190925043510609/25/19 04:35:31  5-MIN KNEW 251035Z AUTO 27010KT 10SM CLR 27/21 A2994 0 69 1400 270/10 RMK AO2 T02670206
53917KNEW NEW20190925044010609/25/19 04:40:31  5-MIN KNEW 251040Z AUTO 27009KT 10SM CLR 27/21 A2994 0 71 1400 270/09 RMK AO2 T02670211
53917KNEW NEW20190925044510609/25/19 04:45:31  5-MIN KNEW 251045Z AUTO 27010KT 10SM CLR 27/21 A2994 0 71 1400 270/10 RMK AO2 T02670211
53917KNEW NEW20190925045011309/25/19 04:50:31  5-MIN KNEW 251050Z AUTO 27009KT 10SM CLR 27/21 A2994 0 69 1400 270/09 RMK AO2 SLP131 T02670206
53917KNEW NEW20190925045510609/25/19 04:55:31  5-MIN KNEW 251055Z AUTO 28009KT 10SM CLR 27/21 A2994 0 71 1400 280/09 RMK AO2 T02670211
53917KNEW NEW20190925050010809/25/19 05:00:31  5-MIN KNEW 251100Z AUTO 28010KT 10SM CLR 27/21 A2994 -10 71 1400 280/10 RMK AO2 T02670211
53917KNEW NEW20190925050510609/25/19 05:05:31  5-MIN KNEW 251105Z AUTO 27008KT 10SM CLR 27/21 A2994 0 71 1400 270/08 RMK AO2 T02670211
53917KNEW NEW20190925051010609/25/19 05:10:31  5-MIN KNEW 251110Z AUTO 28009KT 10SM CLR 27/21 A2994 0 71 1400 280/09 RMK AO2 T02670211
53917KNEW NEW20190925051510809/25/19 05:15:31  5-MIN KNEW 251115Z AUTO 28010KT 10SM CLR 27/21 A2994 -10 69 1400 280/10 RMK AO2 T02670206
53917KNEW NEW20190925052010809/25/19 05:20:31  5-MIN KNEW 251120Z AUTO 28009KT 10SM CLR 27/21 A2995 -10 69 1400 280/09 RMK AO2 T02670206
53917KNEW NEW20190925052511109/25/19 05:25:31  5-MIN KNEW 251125Z AUTO 28010KT 10SM SCT055 27/21 A2995 -10 71 1400 280/10 RMK AO2 T02670211
53917KNEW NEW20190925053011109/25/19 05:30:31  5-MIN KNEW 251130Z AUTO 27009KT 10SM BKN055 27/21 A2995 -10 71 1400 270/09 RMK AO2 T02670211
53917KNEW NEW20190925053511109/25/19 05:35:31  5-MIN KNEW 251135Z AUTO 27009KT 10SM BKN055 27/21 A2995 -10 71 1400 270/09 RMK AO2 T02670211
53917KNEW NEW20190925054011109/25/19 05:40:31  5-MIN KNEW 251140Z AUTO 27009KT 10SM BKN055 27/21 A2996 -20 71 1400 270/09 RMK AO2 T02670211
53917KNEW NEW20190925054511809/25/19 05:45:31  5-MIN KNEW 251145Z AUTO 28010KT 10SM BKN055 OVC070 27/21 A2996 -20 71 1400 280/10 RMK AO2 T02670211
53917KNEW NEW20190925055013809/25/19 05:50:31  5-MIN KNEW 251150Z 27009KT 10SM BKN055 OVC070 27/21 A2996 -20 71 1400 270/09 RMK AO2 SLP138 T02670211 10272 20261 53005
53917KNEW NEW20190925055511309/25/19 05:55:31  5-MIN KNEW 251155Z 28009KT 10SM BKN055 BKN070 27/21 A2996 -20 71 1400 280/09 RMK AO2 T02670211
53917KNEW NEW20190925060010509/25/19 06:00:31  5-MIN KNEW 251200Z 27007KT 9SM BKN060 27/21 A2996 -20 71 1400 270/07 RMK AO2 T02670211
53917KNEW NEW20190925060511209/25/19 06:05:31  5-MIN KNEW 251205Z 27009KT 9SM FEW049 BKN060 27/21 A2995 -20 71 1400 270/09 RMK AO2 T02670211
53917KNEW NEW20190925061011309/25/19 06:10:31  5-MIN KNEW 251210Z 27007KT 10SM FEW049 SCT065 27/21 A2995 -20 71 1400 270/07 RMK AO2 T02670211
53917KNEW NEW20190925061510609/25/19 06:15:31  5-MIN KNEW 251215Z 28008KT 10SM FEW060 27/21 A2996 -20 71 1400 280/08 RMK AO2 T02670211
53917KNEW NEW20190925062010609/25/19 06:20:31  5-MIN KNEW 251220Z 29007KT 10SM FEW065 27/22 A2996 -20 73 1400 290/07 RMK AO2 T02670217
53917KNEW NEW20190925062510609/25/19 06:25:31  5-MIN KNEW 251225Z 29008KT 10SM FEW065 27/21 A2996 -30 71 1400 290/08 RMK AO2 T02670211
53917KNEW NEW20190925063010609/25/19 06:30:31  5-MIN KNEW 251230Z 28009KT 10SM SCT065 27/21 A2997 -30 71 1300 280/09 RMK AO2 T02670211
53917KNEW NEW20190925063510609/25/19 06:35:31  5-MIN KNEW 251235Z 29009KT 10SM SCT065 27/21 A2997 -30 71 1300 290/09 RMK AO2 T02670211
53917KNEW NEW20190925064010609/25/19 06:40:31  5-MIN KNEW 251240Z 29007KT 10SM SCT065 27/21 A2997 -30 71 1300 290/07 RMK AO2 T02670211
53917KNEW NEW20190925064510609/25/19 06:45:31  5-MIN KNEW 251245Z 30009KT 10SM BKN065 27/21 A2997 -30 71 1300 300/09 RMK AO2 T02670211
53917KNEW NEW20190925065011309/25/19 06:50:31  5-MIN KNEW 251250Z 31008KT 10SM BKN065 27/21 A2997 -40 69 1400 310/08 RMK AO2 SLP143 T02720211
53917KNEW NEW20190925065510609/25/19 06:55:31  5-MIN KNEW 251255Z 30009KT 10SM BKN070 27/21 A2998 -40 69 1400 300/09 RMK AO2 T02720211
53917KNEW NEW20190925070010609/25/19 07:00:31  5-MIN KNEW 251300Z 31008KT 10SM SCT070 27/21 A2998 -40 69 1400 310/08 RMK AO2 T02720211
53917KNEW NEW20190925070510609/25/19 07:05:31  5-MIN KNEW 251305Z 30008KT 10SM SCT065 27/21 A2997 -40 69 1400 300/08 RMK AO2 T02720211
53917KNEW NEW20190925071010609/25/19 07:10:31  5-MIN KNEW 251310Z 31006KT 10SM SCT065 27/21 A2997 -30 69 1400 310/06 RMK AO2 T02720211
53917KNEW NEW20190925071510609/25/19 07:15:31  5-MIN KNEW 251315Z 29007KT 10SM FEW070 27/21 A2998 -40 69 1400 290/07 RMK AO2 T02720211
53917KNEW NEW20190925072010609/25/19 07:20:31  5-MIN KNEW 251320Z 30007KT 10SM SCT065 28/21 A2998 -40 66 1500 300/07 RMK AO2 T02780211
53917KNEW NEW20190925072510609/25/19 07:25:31  5-MIN KNEW 251325Z 29007KT 10SM FEW060 28/21 A2998 -40 66 1500 290/07 RMK AO2 T02780211
53917KNEW NEW20190925073010609/25/19 07:30:31  5-MIN KNEW 251330Z 29007KT 10SM FEW065 28/21 A2998 -40 66 1500 290/07 RMK AO2 T02780211
53917KNEW NEW20190925073510609/25/19 07:35:31  5-MIN KNEW 251335Z 31007KT 10SM SCT060 28/21 A2998 -50 66 1500 310/07 RMK AO2 T02780211
53917KNEW NEW20190925074010609/25/19 07:40:31  5-MIN KNEW 251340Z 31006KT 10SM SCT060 28/21 A2998 -40 66 1500 310/06 RMK AO2 T02780211
53917KNEW NEW20190925074510609/25/19 07:45:31  5-MIN KNEW 251345Z 31006KT 10SM FEW060 28/21 A2998 -40 66 1500 310/06 RMK AO2 T02780211
53917KNEW NEW20190925074523909/25/19 07:45:31  5-MIN KNEW 251345Z 31006KT 10SM FEW060 280/0971SM8/ RMK Z 09/25710/ -T 10SM B -11 2Z 33 1400 A00/070211 2Z0/0092166O9/29 Z-51Z7  27-0: -T02863 00 30 EW0/00-51Z702027/21 A297 R70211 200 300 6R 159/25/19 :0:37 RM570211 20 
53917KNEW NEW20190925075011309/25/19 07:50:31  5-MIN KNEW 251350Z 29005KT 10SM FEW060 28/21 A2998 -50 66 1500 290/05 RMK AO2 SLP147 T02780211
53917KNEW NEW20190925075510609/25/19 07:55:31  5-MIN KNEW 251355Z 32005KT 10SM FEW060 28/21 A2998 -50 66 1500 320/05 RMK AO2 T02780211
53917KNEW NEW20190925080010609/25/19 08:00:31  5-MIN KNEW 251400Z 34004KT 10SM FEW060 28/22 A2998 -40 66 1500 340/04 RMK AO2 T02830217
53917KNEW NEW20190925080510309/25/19 08:05:31  5-MIN KNEW 251405Z 34006KT 10SM CLR 28/22 A2999 -50 71 1500 340/06 RMK AO2 T02780222
53917KNEW NEW20190925081010309/25/19 08:10:31  5-MIN KNEW 251410Z 35005KT 10SM CLR 28/23 A2999 -50 74 1400 350/05 RMK AO2 T02780228
53917KNEW NEW20190925081510309/25/19 08:15:31  5-MIN KNEW 251415Z 34005KT 10SM CLR 28/23 A2999 -50 74 1400 340/05 RMK AO2 T02780228
53917KNEW NEW20190925082010309/25/19 08:20:31  5-MIN KNEW 251420Z 34005KT 10SM CLR 28/23 A2999 -50 71 1500 340/05 RMK AO2 T02830228
53917KNEW NEW20190925082510309/25/19 08:25:31  5-MIN KNEW 251425Z 33006KT 10SM CLR 28/22 A2999 -50 71 1400 330/06 RMK AO2 T02780222
53917KNEW NEW20190925083010309/25/19 08:30:31  5-MIN KNEW 251430Z 33005KT 10SM CLR 28/22 A2999 -50 71 1400 330/05 RMK AO2 T02780222
53917KNEW NEW20190925083510309/25/19 08:35:31  5-MIN KNEW 251435Z 31006KT 10SM CLR 28/22 A2999 -50 69 1500 310/06 RMK AO2 T02830222
53917KNEW NEW20190925084010309/25/19 08:40:31  5-MIN KNEW 251440Z 32005KT 10SM CLR 28/22 A2999 -50 71 1400 320/05 RMK AO2 T02780222
53917KNEW NEW20190925084510209/25/19 08:45:31  5-MIN KNEW 251445Z 32006KT 9SM CLR 28/23 A2999 -50 71 1500 320/06 RMK AO2 T02830228
53917KNEW NEW20190925085011509/25/19 08:50:31  5-MIN KNEW 251450Z 31004KT 8SM CLR 28/22 A2999 -50 71 1400 310/04 RMK AO2 SLP150 T02780222 53013
53917KNEW NEW20190925085510509/25/19 08:55:31  5-MIN KNEW 251455Z 32004KT 6SM HZ CLR 28/22 A2999 -50 71 1400 320/04 RMK AO2 T02780222
53917KNEW NEW20190925090010509/25/19 09:00:31  5-MIN KNEW 251500Z 32004KT 5SM HZ CLR 28/22 A2999 -50 71 1400 320/04 RMK AO2 T02780222
53917KNEW NEW20190925090510209/25/19 09:05:31  5-MIN KNEW 251505Z 32004KT 7SM CLR 28/22 A3000 -50 66 1500 320/04 RMK AO2 T02830217
53917KNEW NEW20190925091010309/25/19 09:10:31  5-MIN KNEW 251510Z 33005KT 10SM CLR 28/22 A2999 -50 66 1500 330/05 RMK AO2 T02830217
53917KNEW NEW20190925091510309/25/19 09:15:31  5-MIN KNEW 251515Z 33004KT 10SM CLR 28/22 A2999 -50 66 1500 330/04 RMK AO2 T02830217
53917KNEW NEW20190925092010309/25/19 09:20:31  5-MIN KNEW 251520Z 32004KT 10SM CLR 28/22 A2999 -50 69 1500 320/04 RMK AO2 T02830222
53917KNEW NEW20190925092510309/25/19 09:25:31  5-MIN KNEW 251525Z 33005KT 10SM CLR 28/22 A2999 -50 69 1500 330/05 RMK AO2 T02830222
53917KNEW NEW20190925093010309/25/19 09:30:31  5-MIN KNEW 251530Z 33006KT 10SM CLR 29/22 A2999 -50 67 1600 330/06 RMK AO2 T02890222
53917KNEW NEW20190925093510309/25/19 09:35:31  5-MIN KNEW 251535Z 33006KT 10SM CLR 28/22 A2999 -50 69 1500 330/06 RMK AO2 T02830222
53917KNEW NEW20190925094010309/25/19 09:40:31  5-MIN KNEW 251540Z 34006KT 10SM CLR 29/22 A2999 -50 67 1600 340/06 RMK AO2 T02890222
53917KNEW NEW20190925094510309/25/19 09:45:31  5-MIN KNEW 251545Z 33005KT 10SM CLR 29/22 A2999 -50 67 1600 330/05 RMK AO2 T02890222
53917KNEW NEW20190925095011009/25/19 09:50:31  5-MIN KNEW 251550Z 34005KT 10SM CLR 29/22 A2999 -50 64 1600 340/05 RMK AO2 SLP149 T02890217
53917KNEW NEW20190925095510309/25/19 09:55:31  5-MIN KNEW 251555Z 32005KT 10SM CLR 29/22 A2999 -50 64 1600 320/05 RMK AO2 T02890217
53917KNEW NEW20190925100010309/25/19 10:00:31  5-MIN KNEW 251600Z 33006KT 10SM CLR 29/22 A2999 -50 67 1600 330/06 RMK AO2 T02890222
53917KNEW NEW20190925100510309/25/19 10:05:31  5-MIN KNEW 251605Z 34005KT 10SM CLR 29/22 A2999 -50 67 1600 340/05 RMK AO2 T02890222
53917KNEW NEW20190925101010309/25/19 10:10:31  5-MIN KNEW 251610Z 34005KT 10SM CLR 29/22 A2999 -50 64 1600 340/05 RMK AO2 T02890217
53917KNEW NEW20190925101510309/25/19 10:15:31  5-MIN KNEW 251615Z 34005KT 10SM CLR 29/22 A2999 -50 64 1600 340/05 RMK AO2 T02890217
53917KNEW NEW20190925102010309/25/19 10:20:31  5-MIN KNEW 251620Z 34004KT 10SM CLR 29/22 A2999 -50 62 1600 340/04 RMK AO2 T02940217
53917KNEW NEW20190925102510309/25/19 10:25:31  5-MIN KNEW 251625Z 33006KT 10SM CLR 29/22 A2998 -40 64 1600 330/06 RMK AO2 T02890217
53917KNEW NEW20190925103010309/25/19 10:30:31  5-MIN KNEW 251630Z 33005KT 10SM CLR 29/22 A2998 -40 64 1600 330/05 RMK AO2 T02890217
53917KNEW NEW20190925103510309/25/19 10:35:31  5-MIN KNEW 251635Z 35006KT 10SM CLR 29/22 A2998 -40 62 1600 350/06 RMK AO2 T02940217
53917KNEW NEW20190925104010309/25/19 10:40:31  5-MIN KNEW 251640Z 34006KT 10SM CLR 29/21 A2998 -40 60 1600 340/06 RMK AO2 T02940211
53917KNEW NEW20190925104510309/25/19 10:45:31  5-MIN KNEW 251645Z 35005KT 10SM CLR 29/21 A2998 -40 62 1600 350/05 RMK AO2 T02890211
53917KNEW NEW20190925105011009/25/19 10:50:31  5-MIN KNEW 251650Z 34005KT 10SM CLR 29/21 A2998 -40 62 1600 340/05 RMK AO2 SLP144 T02890211
53917KNEW NEW20190925105510309/25/19 10:55:31  5-MIN KNEW 251655Z 34005KT 10SM CLR 29/21 A2998 -40 60 1600 340/05 RMK AO2 T02940211
53917KNEW NEW20190925110010309/25/19 11:00:31  5-MIN KNEW 251700Z 35004KT 10SM CLR 29/22 A2997 -40 62 1700 350/04 RMK AO2 T02940217
53917KNEW NEW20190925110510309/25/19 11:05:31  5-MIN KNEW 251705Z 35005KT 10SM CLR 29/22 A2997 -30 62 1700 350/05 RMK AO2 T02940217
53917KNEW NEW20190925111010309/25/19 11:10:31  5-MIN KNEW 251710Z 35006KT 10SM CLR 29/22 A2997 -30 62 1700 350/06 RMK AO2 T02940217
53917KNEW NEW20190925111510309/25/19 11:15:31  5-MIN KNEW 251715Z 36005KT 10SM CLR 29/22 A2997 -30 62 1700 360/05 RMK AO2 T02940217
53917KNEW NEW20190925112010309/25/19 11:20:31  5-MIN KNEW 251720Z VRB04KT 10SM CLR 30/22 A2997 -30 60 1700 VRB/04 RMK AO2 T03000217
53917KNEW NEW20190925112510309/25/19 11:25:31  5-MIN KNEW 251725Z 01005KT 10SM CLR 29/21 A2996 -30 60 1700 010/05 RMK AO2 T02940211
53917KNEW NEW20190925113010309/25/19 11:30:31  5-MIN KNEW 251730Z 01005KT 10SM CLR 29/21 A2996 -20 60 1700 010/05 RMK AO2 T02940211
53917KNEW NEW20190925113510309/25/19 11:35:31  5-MIN KNEW 251735Z 36005KT 10SM CLR 29/22 A2996 -20 62 1700 360/05 RMK AO2 T02940217
53917KNEW NEW20190925114010309/25/19 11:40:31  5-MIN KNEW 251740Z 01005KT 10SM CLR 30/22 A2996 -20 60 1700 010/05 RMK AO2 T03000217
53917KNEW NEW20190925114510309/25/19 11:45:31  5-MIN KNEW 251745Z 01006KT 10SM CLR 30/22 A2996 -20 60 1700 010/06 RMK AO2 T03000217
53917KNEW NEW20190925115012809/25/19 11:50:31  5-MIN KNEW 251750Z 36006KT 10SM CLR 31/22 A2996 -20 58 1800 360/06 RMK AO2 SLP137 T03060217 10306 20267 51012
53917KNEW NEW20190925115510309/25/19 11:55:31  5-MIN KNEW 251755Z 36006KT 10SM CLR 30/21 A2995 -20 58 1700 360/06 RMK AO2 T03000211
53917KNEW NEW20190925120010309/25/19 12:00:31  5-MIN KNEW 251800Z 35004KT 10SM CLR 30/21 A2995 -10 58 1700 350/04 RMK AO2 T03000211
53917KNEW NEW20190925120510309/25/19 12:05:31  5-MIN KNEW 251805Z 35005KT 10SM CLR 31/22 A2995 -10 58 1800 350/05 RMK AO2 T03060217
53917KNEW NEW20190925121010309/25/19 12:10:31  5-MIN KNEW 251810Z 36004KT 10SM CLR 30/21 A2995 -10 58 1700 360/04 RMK AO2 T03000211
53917KNEW NEW20190925121510309/25/19 12:15:31  5-MIN KNEW 251815Z VRB04KT 10SM CLR 30/21 A2994 -10 58 1700 VRB/04 RMK AO2 T03000211
53917KNEW NEW20190925122010309/25/19 12:20:31  5-MIN KNEW 251820Z 01004KT 10SM CLR 30/21 A2994 -10 58 1700 010/04 RMK AO2 T03000211
53917KNEW NEW20190925122510109/25/19 12:25:31  5-MIN KNEW 251825Z 01004KT 10SM CLR 30/21 A2994 0 56 1800 010/04 RMK AO2 T03000206
53917KNEW NEW20190925123010109/25/19 12:30:31  5-MIN KNEW 251830Z 36005KT 10SM CLR 31/21 A2994 0 56 1800 360/05 RMK AO2 T03060211
53917KNEW NEW20190925123510109/25/19 12:35:31  5-MIN KNEW 251835Z 36004KT 10SM CLR 31/21 A2993 0 56 1800 360/04 RMK AO2 T03060211
53917KNEW NEW20190925124010109/25/19 12:40:31  5-MIN KNEW 251840Z 02003KT 10SM CLR 30/21 A2993 0 56 1800 020/03 RMK AO2 T03000206
53917KNEW NEW20190925124510109/25/19 12:45:31  5-MIN KNEW 251845Z 03004KT 10SM CLR 30/21 A2993 0 56 1800 030/04 RMK AO2 T03000206
53917KNEW NEW20190925125010809/25/19 12:50:31  5-MIN KNEW 251850Z 36004KT 10SM CLR 31/21 A2993 0 54 1800 360/04 RMK AO2 SLP127 T03060206
53917KNEW NEW20190925125510209/25/19 12:55:31  5-MIN KNEW 251855Z 34004KT 10SM CLR 31/21 A2992 10 53 1900 340/04 RMK AO2 T03110206
53917KNEW NEW20190925130010209/25/19 13:00:31  5-MIN KNEW 251900Z 34004KT 10SM CLR 30/21 A2992 10 56 1800 340/04 RMK AO2 T03000206
53917KNEW NEW20190925130510209/25/19 13:05:31  5-MIN KNEW 251905Z 35004KT 10SM CLR 31/19 A2991 20 47 1900 350/04 RMK AO2 T03110189
53917KNEW NEW20190925131010209/25/19 13:10:31  5-MIN KNEW 251910Z 34005KT 10SM CLR 31/19 A2991 20 49 1900 340/05 RMK AO2 T03110194
53917KNEW NEW20190925131510209/25/19 13:15:31  5-MIN KNEW 251915Z 33005KT 10SM CLR 31/20 A2991 20 51 1900 330/05 RMK AO2 T03110200
53917KNEW NEW20190925132010209/25/19 13:20:31  5-MIN KNEW 251920Z 34007KT 10SM CLR 31/21 A2991 20 53 1900 340/07 RMK AO2 T03110206
53917KNEW NEW20190925132510209/25/19 13:25:31  5-MIN KNEW 251925Z 34007KT 10SM CLR 31/21 A2991 20 53 1900 340/07 RMK AO2 T03110206
53917KNEW NEW20190925133010209/25/19 13:30:31  5-MIN KNEW 251930Z 35006KT 10SM CLR 31/20 A2991 20 51 1900 350/06 RMK AO2 T03110200
53917KNEW NEW20190925133510209/25/19 13:35:31  5-MIN KNEW 251935Z 35007KT 10SM CLR 31/21 A2991 20 53 1900 350/07 RMK AO2 T03110206
53917KNEW NEW20190925134010209/25/19 13:40:31  5-MIN KNEW 251940Z 36006KT 10SM CLR 31/21 A2990 20 53 1900 360/06 RMK AO2 T03110206
53917KNEW NEW20190925134510209/25/19 13:45:31  5-MIN KNEW 251945Z 36006KT 10SM CLR 31/20 A2990 30 51 1900 360/06 RMK AO2 T03110200
53917KNEW NEW20190925135010909/25/19 13:50:31  5-MIN KNEW 251950Z 36007KT 10SM CLR 31/20 A2990 30 51 1900 360/07 RMK AO2 SLP119 T03110200
53917KNEW NEW20190925135510209/25/19 13:55:31  5-MIN KNEW 251955Z 36008KT 10SM CLR 32/21 A2990 30 51 2000 360/08 RMK AO2 T03170206
53917KNEW NEW20190925140010209/25/19 14:00:31  5-MIN KNEW 252000Z 01007KT 10SM CLR 32/21 A2990 30 51 2000 010/07 RMK AO2 T03170206
53917KNEW NEW20190925140510209/25/19 14:05:31  5-MIN KNEW 252005Z 01007KT 10SM CLR 31/21 A2990 30 53 1900 010/07 RMK AO2 T03110206
53917KNEW NEW20190925141010209/25/19 14:10:31  5-MIN KNEW 252010Z 02007KT 10SM CLR 31/21 A2990 30 53 1900 020/07 RMK AO2 T03110206
53917KNEW NEW20190925141510209/25/19 14:15:31  5-MIN KNEW 252015Z 01007KT 10SM CLR 32/21 A2990 30 51 2000 010/07 RMK AO2 T03170206
53917KNEW NEW20190925142010209/25/19 14:20:31  5-MIN KNEW 252020Z 36006KT 10SM CLR 32/21 A2990 30 53 2000 360/06 RMK AO2 T03170211
53917KNEW NEW20190925142510209/25/19 14:25:31  5-MIN KNEW 252025Z 36007KT 10SM CLR 32/21 A2990 30 53 2000 360/07 RMK AO2 T03170211
53917KNEW NEW20190925143010209/25/19 14:30:31  5-MIN KNEW 252030Z 36008KT 10SM CLR 32/21 A2990 30 53 2000 360/08 RMK AO2 T03170211
53917KNEW NEW20190925143510209/25/19 14:35:31  5-MIN KNEW 252035Z 36008KT 10SM CLR 32/21 A2990 30 53 2000 360/08 RMK AO2 T03170211
53917KNEW NEW20190925144010509/25/19 14:40:31  5-MIN KNEW 252040Z 01007KT 10SM FEW050 32/21 A2989 30 51 2000 010/07 RMK AO2 T03220211
53917KNEW NEW20190925144510509/25/19 14:45:31  5-MIN KNEW 252045Z 36007KT 10SM SCT050 32/21 A2989 30 53 2000 360/07 RMK AO2 T03170211
53917KNEW NEW20190925145011809/25/19 14:50:31  5-MIN KNEW 252050Z 01007KT 10SM FEW050 32/21 A2989 40 51 2100 010/07 RMK AO2 SLP115 T03220211 58013
53917KNEW NEW20190925145510509/25/19 14:55:31  5-MIN KNEW 252055Z 02008KT 10SM FEW048 32/21 A2989 40 53 2000 020/08 RMK AO2 T03170211
53917KNEW NEW20190925150010509/25/19 15:00:31  5-MIN KNEW 252100Z 02007KT 10SM FEW048 32/21 A2989 40 53 2000 020/07 RMK AO2 T03170211
53917KNEW NEW20190925150510509/25/19 15:05:31  5-MIN KNEW 252105Z 03007KT 10SM FEW049 32/22 A2989 40 55 2000 030/07 RMK AO2 T03170217
53917KNEW NEW20190925151010509/25/19 15:10:31  5-MIN KNEW 252110Z 03007KT 10SM FEW049 31/21 A2989 40 54 1900 030/07 RMK AO2 T03110211
53917KNEW NEW20190925151510209/25/19 15:15:31  5-MIN KNEW 252115Z 03008KT 10SM CLR 32/22 A2989 40 55 2000 030/08 RMK AO2 T03170217
53917KNEW NEW20190925152010209/25/19 15:20:31  5-MIN KNEW 252120Z 02007KT 10SM CLR 32/22 A2989 40 55 2000 020/07 RMK AO2 T03170217
53917KNEW NEW20190925152510209/25/19 15:25:31  5-MIN KNEW 252125Z 02008KT 10SM CLR 31/22 A2989 40 56 1900 020/08 RMK AO2 T03110217
53917KNEW NEW20190925153010209/25/19 15:30:31  5-MIN KNEW 252130Z 02008KT 10SM CLR 32/22 A2989 40 55 2000 020/08 RMK AO2 T03170217
53917KNEW NEW20190925153510209/25/19 15:35:31  5-MIN KNEW 252135Z 02007KT 10SM CLR 32/22 A2988 40 55 2000 020/07 RMK AO2 T03170217
53917KNEW NEW20190925154010209/25/19 15:40:31  5-MIN KNEW 252140Z 03008KT 10SM CLR 31/22 A2988 40 56 1900 030/08 RMK AO2 T03110217
53917KNEW NEW20190925154510209/25/19 15:45:31  5-MIN KNEW 252145Z 04007KT 10SM CLR 32/22 A2988 50 55 2000 040/07 RMK AO2 T03170217
53917KNEW NEW20190925155010909/25/19 15:50:31  5-MIN KNEW 252150Z 04007KT 10SM CLR 32/22 A2988 50 55 2000 040/07 RMK AO2 SLP112 T03170217
53917KNEW NEW20190925155510209/25/19 15:55:31  5-MIN KNEW 252155Z VRB03KT 10SM CLR 32/21 A2988 50 53 2000 VRB/03 RMK AO2 T03170211
53917KNEW NEW20190925160010209/25/19 16:00:31  5-MIN KNEW 252200Z 05006KT 10SM CLR 32/21 A2988 50 51 2100 050/06 RMK AO2 T03220211
53917KNEW NEW20190925160510209/25/19 16:05:31  5-MIN KNEW 252205Z 06005KT 10SM CLR 32/21 A2988 50 51 2000 060/05 RMK AO2 T03170206
53917KNEW NEW20190925161010209/25/19 16:10:31  5-MIN KNEW 252210Z 06005KT 10SM CLR 32/21 A2988 50 53 2000 060/05 RMK AO2 T03170211
53917KNEW NEW20190925161510209/25/19 16:15:31  5-MIN KNEW 252215Z 13006KT 10SM CLR 32/21 A2988 50 51 2000 130/06 RMK AO2 T03170206
53917KNEW NEW20190925162010209/25/19 16:20:31  5-MIN KNEW 252220Z 13007KT 10SM CLR 32/20 A2988 50 49 2000 130/07 RMK AO2 T03170200
53917KNEW NEW20190925162510209/25/19 16:25:31  5-MIN KNEW 252225Z 13006KT 10SM CLR 32/20 A2988 50 49 2000 130/06 RMK AO2 T03170200
53917KNEW NEW20190925163010209/25/19 16:30:31  5-MIN KNEW 252230Z 14008KT 10SM CLR 32/20 A2988 50 49 2000 140/08 RMK AO2 T03170200
53917KNEW NEW20190925163510209/25/19 16:35:31  5-MIN KNEW 252235Z 12007KT 10SM CLR 31/20 A2988 50 51 1900 120/07 RMK AO2 T03110200
53917KNEW NEW20190925164010209/25/19 16:40:31  5-MIN KNEW 252240Z 12009KT 10SM CLR 31/20 A2988 50 51 1900 120/09 RMK AO2 T03110200
53917KNEW NEW20190925164510209/25/19 16:45:31  5-MIN KNEW 252245Z 14009KT 10SM CLR 31/19 A2988 50 47 1900 140/09 RMK AO2 T03110189
53917KNEW NEW20190925165010909/25/19 16:50:31  5-MIN KNEW 252250Z 13006KT 10SM CLR 31/18 A2988 40 46 1900 130/06 RMK AO2 SLP112 T03110183
53917KNEW NEW20190925165510209/25/19 16:55:31  5-MIN KNEW 252255Z 13007KT 10SM CLR 31/19 A2988 50 47 1900 130/07 RMK AO2 T03110189
53917KNEW NEW20190925170010209/25/19 17:00:31  5-MIN KNEW 252300Z 14006KT 10SM CLR 31/19 A2988 40 47 1900 140/06 RMK AO2 T03110189
53917KNEW NEW20190925170510209/25/19 17:05:31  5-MIN KNEW 252305Z 14007KT 10SM CLR 31/19 A2988 40 47 1900 140/07 RMK AO2 T03110189
53917KNEW NEW20190925171010209/25/19 17:10:31  5-MIN KNEW 252310Z 14007KT 10SM CLR 31/18 A2988 40 44 1900 140/07 RMK AO2 T03110178
53917KNEW NEW20190925171510209/25/19 17:15:31  5-MIN KNEW 252315Z 15007KT 10SM CLR 31/18 A2988 40 47 1900 150/07 RMK AO2 T03060183
53917KNEW NEW20190925172010209/25/19 17:20:31  5-MIN KNEW 252320Z 16008KT 10SM CLR 31/18 A2988 40 47 1900 160/08 RMK AO2 T03060183
53917KNEW NEW20190925172510209/25/19 17:25:31  5-MIN KNEW 252325Z 16008KT 10SM CLR 31/18 A2988 40 47 1900 160/08 RMK AO2 T03060183
53917KNEW NEW20190925173010209/25/19 17:30:31  5-MIN KNEW 252330Z 16008KT 10SM CLR 30/18 A2988 40 49 1800 160/08 RMK AO2 T03000183
53917KNEW NEW20190925173510209/25/19 17:35:31  5-MIN KNEW 252335Z 16008KT 10SM CLR 30/18 A2988 40 49 1800 160/08 RMK AO2 T03000183
53917KNEW NEW20190925174010209/25/19 17:40:31  5-MIN KNEW 252340Z 16009KT 10SM CLR 29/19 A2988 40 52 1800 160/09 RMK AO2 T02940189
53917KNEW NEW20190925174510209/25/19 17:45:31  5-MIN KNEW 252345Z 17008KT 10SM CLR 29/19 A2988 40 52 1800 170/08 RMK AO2 T02940189
53917KNEW NEW20190925175012709/25/19 17:50:31  5-MIN KNEW 252350Z 17007KT 10SM CLR 29/19 A2988 40 52 1800 170/07 RMK AO2 SLP113 T02940189 10322 20294 56022
53917KNEW NEW20190925175510209/25/19 17:55:31  5-MIN KNEW 252355Z 16007KT 10SM CLR 29/19 A2989 40 54 1700 160/07 RMK AO2 T02890189
53917KNEW NEW20190925180010209/25/19 18:00:31  5-MIN KNEW 260000Z 16007KT 10SM CLR 29/19 A2989 40 54 1700 160/07 RMK AO2 T02890189
53917KNEW NEW20190925180510209/25/19 18:05:31  5-MIN KNEW 260005Z 17006KT 10SM CLR 29/18 A2989 40 52 1700 170/06 RMK AO2 T02890183
53917KNEW NEW20190925181010209/25/19 18:10:31  5-MIN KNEW 260010Z 17006KT 10SM CLR 28/19 A2989 40 56 1600 170/06 RMK AO2 T02830189
53917KNEW NEW20190925181510209/25/19 18:15:31  5-MIN KNEW 260015Z 18007KT 10SM CLR 28/18 A2989 40 56 1600 180/07 RMK AO2 T02780183
53917KNEW NEW20190925182010209/25/19 18:20:31  5-MIN KNEW 260020Z 18006KT 10SM CLR 28/18 A2989 40 56 1600 180/06 RMK AO2 T02780183
53917KNEW NEW20190925182510209/25/19 18:25:31  5-MIN KNEW 260025Z 18006KT 10SM CLR 28/18 A2989 30 56 1600 180/06 RMK AO2 T02780183
53917KNEW NEW20190925183010209/25/19 18:30:31  5-MIN KNEW 260030Z 19006KT 10SM CLR 28/18 A2989 30 56 1600 190/06 RMK AO2 T02780183
53917KNEW NEW20190925183510209/25/19 18:35:31  5-MIN KNEW 260035Z 21006KT 10SM CLR 28/19 A2989 30 56 1600 210/06 RMK AO2 T02830189
53917KNEW NEW20190925184010209/25/19 18:40:31  5-MIN KNEW 260040Z 22005KT 10SM CLR 29/19 A2990 30 56 1700 220/05 RMK AO2 T02890194
53917KNEW NEW20190925184510209/25/19 18:45:31  5-MIN KNEW 260045Z 23006KT 10SM CLR 29/19 A2990 30 54 1700 230/06 RMK AO2 T02890189
53917KNEW NEW20190925185010909/25/19 18:50:31  5-MIN KNEW 260050Z 21005KT 10SM CLR 29/18 A2990 30 52 1700 210/05 RMK AO2 SLP118 T02890183
53917KNEW NEW20190925185510209/25/19 18:55:31  5-MIN KNEW 260055Z 21004KT 10SM CLR 29/19 A2990 30 54 1700 210/04 RMK AO2 T02890189
53917KNEW NEW20190925190010209/25/19 19:00:31  5-MIN KNEW 260100Z 21004KT 10SM CLR 28/19 A2990 30 56 1600 210/04 RMK AO2 T02830189
53917KNEW NEW20190925190510209/25/19 19:05:31  5-MIN KNEW 260105Z 21003KT 10SM CLR 29/19 A2990 30 56 1700 210/03 RMK AO2 T02890194
53917KNEW NEW20190925191010209/25/19 19:10:31  5-MIN KNEW 260110Z 20003KT 10SM CLR 29/19 A2990 30 56 1700 200/03 RMK AO2 T02890194
53917KNEW NEW20190925191510209/25/19 19:15:31  5-MIN KNEW 260115Z 20004KT 10SM CLR 28/19 A2990 30 58 1600 200/04 RMK AO2 T02830194
53917KNEW NEW20190925192010209/25/19 19:20:31  5-MIN KNEW 260120Z 21003KT 10SM CLR 28/19 A2990 20 58 1600 210/03 RMK AO2 T02830194
53917KNEW NEW20190925192510209/25/19 19:25:31  5-MIN KNEW 260125Z 22004KT 10SM CLR 28/20 A2991 20 60 1600 220/04 RMK AO2 T02830200
53917KNEW NEW20190925193010209/25/19 19:30:31  5-MIN KNEW 260130Z 22004KT 10SM CLR 28/20 A2991 20 60 1600 220/04 RMK AO2 T02830200
53917KNEW NEW20190925193510209/25/19 19:35:31  5-MIN KNEW 260135Z 22004KT 10SM CLR 28/20 A2991 20 60 1600 220/04 RMK AO2 T02830200
53917KNEW NEW20190925194010209/25/19 19:40:31  5-MIN KNEW 260140Z 22004KT 10SM CLR 28/21 A2991 20 62 1600 220/04 RMK AO2 T02830206
53917KNEW NEW20190925194510209/25/19 19:45:31  5-MIN KNEW 260145Z 23006KT 10SM CLR 28/21 A2992 10 62 1600 230/06 RMK AO2 T02830206
53917KNEW NEW20190925195010909/25/19 19:50:31  5-MIN KNEW 260150Z 24006KT 10SM CLR 28/21 A2992 10 62 1600 240/06 RMK AO2 SLP124 T02830206
53917KNEW NEW20190925195510709/25/19 19:55:31  5-MIN KNEW 260155Z AUTO 23006KT 10SM CLR 28/21 A2992 10 62 1600 230/06 RMK AO2 T02830206
53917KNEW NEW20190925200010709/25/19 20:00:31  5-MIN KNEW 260200Z AUTO 23007KT 10SM CLR 28/21 A2992 10 64 1600 230/07 RMK AO2 T02830211
53917KNEW NEW20190925200510709/25/19 20:05:31  5-MIN KNEW 260205Z AUTO 23007KT 10SM CLR 28/21 A2992 10 64 1600 230/07 RMK AO2 T02830211
53917KNEW NEW20190925201010609/25/19 20:10:31  5-MIN KNEW 260210Z AUTO 23007KT 10SM CLR 28/21 A2993 0 64 1600 230/07 RMK AO2 T02830211
53917KNEW NEW20190925201510609/25/19 20:15:31  5-MIN KNEW 260215Z AUTO 23007KT 10SM CLR 28/21 A2993 0 64 1600 230/07 RMK AO2 T02830211
53917KNEW NEW20190925202010609/25/19 20:20:31  5-MIN KNEW 260220Z AUTO 23007KT 10SM CLR 28/21 A2993 0 64 1600 230/07 RMK AO2 T02830211
53917KNEW NEW20190925202510609/25/19 20:25:31  5-MIN KNEW 260225Z AUTO 23007KT 10SM CLR 28/21 A2993 0 66 1500 230/07 RMK AO2 T02780211
53917KNEW NEW20190925203010609/25/19 20:30:31  5-MIN KNEW 260230Z AUTO 23007KT 10SM CLR 28/21 A2993 0 66 1500 230/07 RMK AO2 T02780211
53917KNEW NEW20190925203510609/25/19 20:35:31  5-MIN KNEW 260235Z AUTO 22007KT 10SM CLR 28/21 A2993 0 66 1500 220/07 RMK AO2 T02780211
53917KNEW NEW20190925204010609/25/19 20:40:31  5-MIN KNEW 260240Z AUTO 22007KT 10SM CLR 28/21 A2993 0 66 1500 220/07 RMK AO2 T02780211
53917KNEW NEW20190925204510609/25/19 20:45:31  5-MIN KNEW 260245Z AUTO 22007KT 10SM CLR 28/21 A2993 0 64 1500 220/07 RMK AO2 T02780206
53917KNEW NEW20190925205011909/25/19 20:50:31  5-MIN KNEW 260250Z AUTO 22006KT 10SM CLR 28/21 A2994 0 64 1500 220/06 RMK AO2 SLP130 T02780206 55001
53917KNEW NEW20190925205510609/25/19 20:55:31  5-MIN KNEW 260255Z AUTO 22006KT 10SM CLR 28/21 A2994 0 64 1500 220/06 RMK AO2 T02780206
53917KNEW NEW20190925210010609/25/19 21:00:31  5-MIN KNEW 260300Z AUTO 22007KT 10SM CLR 28/21 A2994 0 64 1500 220/07 RMK AO2 T02780206
53917KNEW NEW20190925210510609/25/19 21:05:31  5-MIN KNEW 260305Z AUTO 22006KT 10SM CLR 28/21 A2994 0 64 1500 220/06 RMK AO2 T02780206
53917KNEW NEW20190925211010609/25/19 21:10:31  5-MIN KNEW 260310Z AUTO 21005KT 10SM CLR 27/21 A2994 0 66 1400 210/05 RMK AO2 T02720206
53917KNEW NEW20190925211510609/25/19 21:15:31  5-MIN KNEW 260315Z AUTO 21006KT 10SM CLR 27/21 A2993 0 66 1400 210/06 RMK AO2 T02720206
53917KNEW NEW20190925212010609/25/19 21:20:31  5-MIN KNEW 260320Z AUTO 22006KT 10SM CLR 27/21 A2994 0 66 1400 220/06 RMK AO2 T02720206
53917KNEW NEW20190925212510609/25/19 21:25:31  5-MIN KNEW 260325Z AUTO 23006KT 10SM CLR 27/21 A2994 0 66 1400 230/06 RMK AO2 T02720206
53917KNEW NEW20190925213010609/25/19 21:30:31  5-MIN KNEW 260330Z AUTO 23006KT 10SM CLR 27/21 A2994 0 69 1400 230/06 RMK AO2 T02720211
53917KNEW NEW20190925213510609/25/19 21:35:31  5-MIN KNEW 260335Z AUTO 22007KT 10SM CLR 27/21 A2994 0 69 1400 220/07 RMK AO2 T02720211
53917KNEW NEW20190925214010609/25/19 21:40:31  5-MIN KNEW 260340Z AUTO 22006KT 10SM CLR 27/21 A2994 0 69 1400 220/06 RMK AO2 T02720211
53917KNEW NEW20190925214510609/25/19 21:45:31  5-MIN KNEW 260345Z AUTO 23007KT 10SM CLR 27/22 A2994 0 71 1400 230/07 RMK AO2 T02720217
53917KNEW NEW20190925215011309/25/19 21:50:31  5-MIN KNEW 260350Z AUTO 23008KT 10SM CLR 27/22 A2994 0 71 1400 230/08 RMK AO2 SLP131 T02720217
53917KNEW NEW20190925215510609/25/19 21:55:31  5-MIN KNEW 260355Z AUTO 23006KT 10SM CLR 27/21 A2994 0 69 1400 230/06 RMK AO2 T02720211
53917KNEW NEW20190925220010809/25/19 22:00:31  5-MIN KNEW 260400Z AUTO 25006KT 10SM CLR 27/21 A2994 -10 69 1400 250/06 RMK AO2 T02720211
53917KNEW NEW20190925220510809/25/19 22:05:31  5-MIN KNEW 260405Z AUTO 24007KT 10SM CLR 27/21 A2994 -10 69 1400 240/07 RMK AO2 T02720211
53917KNEW NEW20190925221010809/25/19 22:10:31  5-MIN KNEW 260410Z AUTO 23006KT 10SM CLR 27/21 A2994 -10 69 1400 230/06 RMK AO2 T02720211
53917KNEW NEW20190925221510809/25/19 22:15:31  5-MIN KNEW 260415Z AUTO 23007KT 10SM CLR 27/21 A2994 -10 69 1400 230/07 RMK AO2 T02720211
53917KNEW NEW20190925222010809/25/19 22:20:31  5-MIN KNEW 260420Z AUTO 23007KT 10SM CLR 27/21 A2995 -10 69 1400 230/07 RMK AO2 T02720211
53917KNEW NEW20190925222510809/25/19 22:25:31  5-MIN KNEW 260425Z AUTO 22006KT 10SM CLR 27/21 A2994 -10 69 1400 220/06 RMK AO2 T02720211
53917KNEW NEW20190925223010809/25/19 22:30:31  5-MIN KNEW 260430Z AUTO 23007KT 10SM CLR 27/21 A2994 -10 71 1400 230/07 RMK AO2 T02670211
53917KNEW NEW20190925223510809/25/19 22:35:31  5-MIN KNEW 260435Z AUTO 23007KT 10SM CLR 27/21 A2995 -10 69 1400 230/07 RMK AO2 T02670206
53917KNEW NEW20190925224010809/25/19 22:40:31  5-MIN KNEW 260440Z AUTO 23007KT 10SM CLR 27/21 A2995 -10 71 1400 230/07 RMK AO2 T02670211
53917KNEW NEW20190925224510809/25/19 22:45:31  5-MIN KNEW 260445Z AUTO 23007KT 10SM CLR 27/21 A2994 -10 71 1400 230/07 RMK AO2 T02670211
53917KNEW NEW20190925225011509/25/19 22:50:31  5-MIN KNEW 260450Z AUTO 23007KT 10SM CLR 27/21 A2994 -10 71 1400 230/07 RMK AO2 SLP133 T02670211
53917KNEW NEW20190925225510609/25/19 22:55:31  5-MIN KNEW 260455Z AUTO 23007KT 10SM CLR 27/21 A2994 0 69 1400 230/07 RMK AO2 T02670206
53917KNEW NEW20190925230010609/25/19 23:00:31  5-MIN KNEW 260500Z AUTO 23006KT 10SM CLR 27/21 A2994 0 71 1400 230/06 RMK AO2 T02670211
53917KNEW NEW20190925230510609/25/19 23:05:31  5-MIN KNEW 260505Z AUTO 23006KT 10SM CLR 27/21 A2993 0 71 1400 230/06 RMK AO2 T02670211
53917KNEW NEW20190925231010609/25/19 23:10:31  5-MIN KNEW 260510Z AUTO 22006KT 10SM CLR 27/21 A2993 0 69 1400 220/06 RMK AO2 T02670206
53917KNEW NEW20190925231510609/25/19 23:15:31  5-MIN KNEW 260515Z AUTO 23006KT 10SM CLR 27/21 A2993 0 69 1400 230/06 RMK AO2 T02670206
53917KNEW NEW20190925232010609/25/19 23:20:31  5-MIN KNEW 260520Z AUTO 22007KT 10SM CLR 27/21 A2993 0 69 1400 220/07 RMK AO2 T02670206
53917KNEW NEW20190925232510609/25/19 23:25:31  5-MIN KNEW 260525Z AUTO 24007KT 10SM CLR 27/21 A2993 0 69 1400 240/07 RMK AO2 T02670206
53917KNEW NEW20190925233010609/25/19 23:30:31  5-MIN KNEW 260530Z AUTO 23006KT 10SM CLR 26/21 A2993 0 71 1300 230/06 RMK AO2 T02610206
53917KNEW NEW20190925233510609/25/19 23:35:31  5-MIN KNEW 260535Z AUTO 24006KT 10SM CLR 26/21 A2993 0 71 1300 240/06 RMK AO2 T02610206
53917KNEW NEW20190925234010609/25/19 23:40:31  5-MIN KNEW 260540Z AUTO 24006KT 10SM CLR 26/21 A2993 0 71 1300 240/06 RMK AO2 T02610206
53917KNEW NEW20190925234510609/25/19 23:45:31  5-MIN KNEW 260545Z AUTO 24006KT 10SM CLR 26/21 A2993 0 71 1300 240/06 RMK AO2 T02610206
53917KNEW NEW20190925235014109/25/19 23:50:31  5-MIN KNEW 260550Z AUTO 25006KT 10SM CLR 27/21 A2993 0 69 1400 250/06 RMK AO2 SLP127 T02670206 10289 20261 403220261 53017
53917KNEW NEW20190925235510609/25/19 23:55:31  5-MIN KNEW 260555Z AUTO 25007KT 10SM CLR 27/21 A2993 0 69 1400 250/07 RMK AO2 T02670206
53917KNEW NEW20190926000010609/26/19 00:00:31  5-MIN KNEW 260600Z AUTO 25008KT 10SM CLR 27/21 A2993 0 69 1400 250/08 RMK AO2 T02670206
53917KNEW NEW20190926000510609/26/19 00:05:31  5-MIN KNEW 260605Z AUTO 25008KT 10SM CLR 27/21 A2993 0 69 1400 250/08 RMK AO2 T02670206
53917KNEW NEW20190926001010709/26/19 00:10:31  5-MIN KNEW 260610Z AUTO 24007KT 10SM CLR 27/21 A2992 10 69 1400 240/07 RMK AO2 T02670206
53917KNEW NEW20190926001510709/26/19 00:15:31  5-MIN KNEW 260615Z AUTO 24007KT 10SM CLR 27/21 A2992 10 69 1400 240/07 RMK AO2 T02670206
53917KNEW NEW20190926002010709/26/19 00:20:31  5-MIN KNEW 260620Z AUTO 25008KT 10SM CLR 26/21 A2992 10 71 1300 250/08 RMK AO2 T02610206
53917KNEW NEW20190926002510709/26/19 00:25:31  5-MIN KNEW 260625Z AUTO 24009KT 10SM CLR 26/21 A2992 10 71 1300 240/09 RMK AO2 T02610206
53917KNEW NEW20190926003010709/26/19 00:30:31  5-MIN KNEW 260630Z AUTO 24008KT 10SM CLR 26/21 A2992 10 71 1300 240/08 RMK AO2 T02610206
53917KNEW NEW20190926003510709/26/19 00:35:31  5-MIN KNEW 260635Z AUTO 25008KT 10SM CLR 26/21 A2992 10 71 1300 250/08 RMK AO2 T02610206
53917KNEW NEW20190926004010709/26/19 00:40:31  5-MIN KNEW 260640Z AUTO 24008KT 10SM CLR 26/21 A2992 10 73 1300 240/08 RMK AO2 T02610211
53917KNEW NEW20190926004510709/26/19 00:45:31  5-MIN KNEW 260645Z AUTO 24008KT 10SM CLR 26/21 A2992 10 73 1300 240/08 RMK AO2 T02610211
53917KNEW NEW20190926005011409/26/19 00:50:31  5-MIN KNEW 260650Z AUTO 24008KT 10SM CLR 26/21 A2991 10 73 1300 240/08 RMK AO2 SLP123 T02610211
53917KNEW NEW20190926005510709/26/19 00:55:31  5-MIN KNEW 260655Z AUTO 24008KT 10SM CLR 26/21 A2992 10 73 1300 240/08 RMK AO2 T02610211
53917KNEW NEW20190926010010709/26/19 01:00:31  5-MIN KNEW 260700Z AUTO 24007KT 10SM CLR 26/21 A2991 10 73 1300 240/07 RMK AO2 T02610211
53917KNEW NEW20190926010510709/26/19 01:05:31  5-MIN KNEW 260705Z AUTO 24007KT 10SM CLR 26/21 A2991 10 73 1300 240/07 RMK AO2 T02610211
53917KNEW NEW20190926011010709/26/19 01:10:31  5-MIN KNEW 260710Z AUTO 24008KT 10SM CLR 26/21 A2991 20 73 1300 240/08 RMK AO2 T02610211
53917KNEW NEW20190926011510709/26/19 01:15:31  5-MIN KNEW 260715Z AUTO 24007KT 10SM CLR 26/22 A2991 20 76 1300 240/07 RMK AO2 T02610217
53917KNEW NEW20190926012010709/26/19 01:20:31  5-MIN KNEW 260720Z AUTO 24007KT 10SM CLR 26/22 A2991 20 76 1300 240/07 RMK AO2 T02610217
53917KNEW NEW20190926012510709/26/19 01:25:31  5-MIN KNEW 260725Z AUTO 24008KT 10SM CLR 26/22 A2991 20 76 1400 240/08 RMK AO2 T02610217
53917KNEW NEW20190926013010709/26/19 01:30:31  5-MIN KNEW 260730Z AUTO 24008KT 10SM CLR 26/22 A2991 20 76 1400 240/08 RMK AO2 T02610217
53917KNEW NEW20190926013510709/26/19 01:35:31  5-MIN KNEW 260735Z AUTO 24007KT 10SM CLR 26/22 A2990 20 76 1400 240/07 RMK AO2 T02610217
53917KNEW NEW20190926014010709/26/19 01:40:31  5-MIN KNEW 260740Z AUTO 24007KT 10SM CLR 26/22 A2990 30 76 1400 240/07 RMK AO2 T02610217
53917KNEW NEW20190926014510709/26/19 01:45:31  5-MIN KNEW 260745Z AUTO 24007KT 10SM CLR 26/22 A2990 30 76 1400 240/07 RMK AO2 T02610217
53917KNEW NEW20190926015011409/26/19 01:50:31  5-MIN KNEW 260750Z AUTO 24006KT 10SM CLR 26/22 A2990 30 79 1300 240/06 RMK AO2 SLP119 T02560217
53917KNEW NEW20190926015510709/26/19 01:55:31  5-MIN KNEW 260755Z AUTO 24007KT 10SM CLR 26/21 A2990 30 76 1300 240/07 RMK AO2 T02560211
53917KNEW NEW20190926020010709/26/19 02:00:31  5-MIN KNEW 260800Z AUTO 24006KT 10SM CLR 26/21 A2990 30 76 1300 240/06 RMK AO2 T02560211
53917KNEW NEW20190926020510709/26/19 02:05:31  5-MIN KNEW 260805Z AUTO 25006KT 10SM CLR 26/22 A2990 30 79 1300 250/06 RMK AO2 T02560217
53917KNEW NEW20190926021010709/26/19 02:10:31  5-MIN KNEW 260810Z AUTO 24006KT 10SM CLR 26/22 A2990 30 79 1300 240/06 RMK AO2 T02560217
53917KNEW NEW20190926021510709/26/19 02:15:31  5-MIN KNEW 260815Z AUTO 25006KT 10SM CLR 26/22 A2990 30 76 1400 250/06 RMK AO2 T02610217
53917KNEW NEW20190926022010709/26/19 02:20:31  5-MIN KNEW 260820Z AUTO 25005KT 10SM CLR 26/22 A2990 30 76 1400 250/05 RMK AO2 T02610217
53917KNEW NEW20190926022510709/26/19 02:25:31  5-MIN KNEW 260825Z AUTO 24006KT 10SM CLR 26/22 A2991 20 76 1400 240/06 RMK AO2 T02610217
53917KNEW NEW20190926023010709/26/19 02:30:31  5-MIN KNEW 260830Z AUTO 25007KT 10SM CLR 26/22 A2991 20 76 1400 250/07 RMK AO2 T02610217
53917KNEW NEW20190926023510709/26/19 02:35:31  5-MIN KNEW 260835Z AUTO 25006KT 10SM CLR 26/22 A2991 20 76 1400 250/06 RMK AO2 T02610217
53917KNEW NEW20190926024010709/26/19 02:40:31  5-MIN KNEW 260840Z AUTO 25007KT 10SM CLR 26/22 A2991 20 76 1400 250/07 RMK AO2 T02610217
53917KNEW NEW20190926024510709/26/19 02:45:31  5-MIN KNEW 260845Z AUTO 25008KT 10SM CLR 26/22 A2991 20 79 1400 250/08 RMK AO2 T02610222
53917KNEW NEW20190926025012009/26/19 02:50:31  5-MIN KNEW 260850Z AUTO 25007KT 10SM CLR 26/22 A2991 20 76 1300 250/07 RMK AO2 SLP121 T02610217 58003
53917KNEW NEW20190926025510709/26/19 02:55:31  5-MIN KNEW 260855Z AUTO 26008KT 10SM CLR 26/22 A2991 20 76 1300 260/08 RMK AO2 T02610217
53917KNEW NEW20190926030010709/26/19 03:00:31  5-MIN KNEW 260900Z AUTO 26007KT 10SM CLR 26/22 A2991 20 76 1300 260/07 RMK AO2 T02610217
53917KNEW NEW20190926030510709/26/19 03:05:31  5-MIN KNEW 260905Z AUTO 25007KT 10SM CLR 26/22 A2991 20 76 1300 250/07 RMK AO2 T02610217
53917KNEW NEW20190926031010709/26/19 03:10:31  5-MIN KNEW 260910Z AUTO 25007KT 10SM CLR 26/22 A2992 10 76 1300 250/07 RMK AO2 T02610217
53917KNEW NEW20190926031510709/26/19 03:15:31  5-MIN KNEW 260915Z AUTO 27008KT 10SM CLR 26/22 A2992 10 76 1300 270/08 RMK AO2 T02610217
53917KNEW NEW20190926032010709/26/19 03:20:31  5-MIN KNEW 260920Z AUTO 26008KT 10SM CLR 26/22 A2992 10 76 1300 260/08 RMK AO2 T02610217
53917KNEW NEW20190926032510709/26/19 03:25:31  5-MIN KNEW 260925Z AUTO 27008KT 10SM CLR 26/22 A2992 10 76 1300 270/08 RMK AO2 T02610217
53917KNEW NEW20190926033010709/26/19 03:30:31  5-MIN KNEW 260930Z AUTO 27009KT 10SM CLR 26/22 A2992 10 76 1300 270/09 RMK AO2 T02610217
53917KNEW NEW20190926033510709/26/19 03:35:31  5-MIN KNEW 260935Z AUTO 26009KT 10SM CLR 26/22 A2992 10 76 1300 260/09 RMK AO2 T02610217
53917KNEW NEW20190926034010709/26/19 03:40:31  5-MIN KNEW 260940Z AUTO 26008KT 10SM CLR 26/22 A2992 10 76 1300 260/08 RMK AO2 T02610217
53917KNEW NEW20190926034510709/26/19 03:45:31  5-MIN KNEW 260945Z AUTO 26009KT 10SM CLR 26/22 A2992 10 76 1300 260/09 RMK AO2 T02610217
53917KNEW NEW20190926035011309/26/19 03:50:31  5-MIN KNEW 260950Z AUTO 26009KT 10SM CLR 26/22 A2993 0 76 1300 260/09 RMK AO2 SLP127 T02610217
53917KNEW NEW20190926035510609/26/19 03:55:31  5-MIN KNEW 260955Z AUTO 27007KT 10SM CLR 26/22 A2993 0 76 1300 270/07 RMK AO2 T02610217
53917KNEW NEW20190926040010609/26/19 04:00:31  5-MIN KNEW 261000Z AUTO 27008KT 10SM CLR 26/22 A2993 0 76 1300 270/08 RMK AO2 T02610217
53917KNEW NEW20190926040510609/26/19 04:05:31  5-MIN KNEW 261005Z AUTO 27009KT 10SM CLR 26/22 A2993 0 76 1300 270/09 RMK AO2 T02610217
53917KNEW NEW20190926041010609/26/19 04:10:31  5-MIN KNEW 261010Z AUTO 27008KT 10SM CLR 26/21 A2993 0 73 1300 270/08 RMK AO2 T02610211
53917KNEW NEW20190926041510609/26/19 04:15:31  5-MIN KNEW 261015Z AUTO 26007KT 10SM CLR 26/22 A2993 0 76 1300 260/07 RMK AO2 T02610217
53917KNEW NEW20190926042010609/26/19 04:20:31  5-MIN KNEW 261020Z AUTO 28007KT 10SM CLR 26/22 A2994 0 76 1300 280/07 RMK AO2 T02610217
53917KNEW NEW20190926042510609/26/19 04:25:31  5-MIN KNEW 261025Z AUTO 28007KT 10SM CLR 26/22 A2994 0 76 1300 280/07 RMK AO2 T02610217
53917KNEW NEW20190926043010609/26/19 04:30:31  5-MIN KNEW 261030Z AUTO 28007KT 10SM CLR 26/22 A2994 0 76 1300 280/07 RMK AO2 T02610217
53917KNEW NEW20190926043510609/26/19 04:35:31  5-MIN KNEW 261035Z AUTO 28008KT 10SM CLR 26/22 A2994 0 76 1300 280/08 RMK AO2 T02610217
53917KNEW NEW20190926044010809/26/19 04:40:31  5-MIN KNEW 261040Z AUTO 27008KT 10SM CLR 26/22 A2994 -10 76 1300 270/08 RMK AO2 T02610217
53917KNEW NEW20190926044510809/26/19 04:45:31  5-MIN KNEW 261045Z AUTO 28008KT 10SM CLR 26/22 A2994 -10 76 1300 280/08 RMK AO2 T02610217
53917KNEW NEW20190926045011509/26/19 04:50:31  5-MIN KNEW 261050Z AUTO 28007KT 10SM CLR 26/22 A2994 -10 76 1300 280/07 RMK AO2 SLP133 T02610217
53917KNEW NEW20190926045510809/26/19 04:55:31  5-MIN KNEW 261055Z AUTO 28007KT 10SM CLR 26/22 A2995 -10 76 1300 280/07 RMK AO2 T02610217
53917KNEW NEW20190926050010809/26/19 05:00:31  5-MIN KNEW 261100Z AUTO 29007KT 10SM CLR 26/22 A2995 -10 76 1300 290/07 RMK AO2 T02610217
53917KNEW NEW20190926050510809/26/19 05:05:31  5-MIN KNEW 261105Z AUTO 30008KT 10SM CLR 26/22 A2995 -10 76 1300 300/08 RMK AO2 T02610217
53917KNEW NEW20190926051010809/26/19 05:10:31  5-MIN KNEW 261110Z AUTO 29008KT 10SM CLR 26/22 A2995 -10 76 1300 290/08 RMK AO2 T02610217
53917KNEW NEW20190926051510809/26/19 05:15:31  5-MIN KNEW 261115Z AUTO 30008KT 10SM CLR 27/22 A2995 -20 73 1400 300/08 RMK AO2 T02670217
53917KNEW NEW20190926052010809/26/19 05:20:31  5-MIN KNEW 261120Z AUTO 30007KT 10SM CLR 27/22 A2995 -20 73 1400 300/07 RMK AO2 T02670217
53917KNEW NEW20190926052510809/26/19 05:25:31  5-MIN KNEW 261125Z AUTO 30006KT 10SM CLR 27/22 A2995 -10 73 1400 300/06 RMK AO2 T02670217
53917KNEW NEW20190926053010809/26/19 05:30:31  5-MIN KNEW 261130Z AUTO 30008KT 10SM CLR 26/22 A2995 -10 76 1300 300/08 RMK AO2 T02610217
53917KNEW NEW20190926053510809/26/19 05:35:31  5-MIN KNEW 261135Z AUTO 31008KT 10SM CLR 26/22 A2995 -20 76 1300 310/08 RMK AO2 T02610217
53917KNEW NEW20190926054010809/26/19 05:40:31  5-MIN KNEW 261140Z AUTO 30007KT 10SM CLR 26/22 A2995 -20 76 1300 300/07 RMK AO2 T02610217
53917KNEW NEW20190926054510809/26/19 05:45:31  5-MIN KNEW 261145Z AUTO 31008KT 10SM CLR 26/22 A2996 -20 76 1300 310/08 RMK AO2 T02610217
53917KNEW NEW20190926055012809/26/19 05:50:31  5-MIN KNEW 261150Z 31009KT 10SM CLR 26/22 A2996 -20 76 1300 310/09 RMK AO2 SLP138 T02610217 10267 20256 55005
53917KNEW NEW20190926055510309/26/19 05:55:31  5-MIN KNEW 261155Z 32009KT 10SM CLR 26/22 A2996 -20 76 1300 320/09 RMK AO2 T02610217
53917KNEW NEW20190926060010309/26/19 06:00:31  5-MIN KNEW 261200Z 32009KT 10SM CLR 26/22 A2996 -30 76 1300 320/09 RMK AO2 T02610217
53917KNEW NEW20190926060510309/26/19 06:05:31  5-MIN KNEW 261205Z 32009KT 10SM CLR 26/22 A2996 -20 76 1300 320/09 RMK AO2 T02610217
53917KNEW NEW20190926061010309/26/19 06:10:31  5-MIN KNEW 261210Z 32007KT 10SM CLR 27/22 A2996 -20 73 1400 320/07 RMK AO2 T02670217
53917KNEW NEW20190926061510309/26/19 06:15:31  5-MIN KNEW 261215Z 31008KT 10SM CLR 27/22 A2997 -30 73 1300 310/08 RMK AO2 T02670217
53917KNEW NEW20190926062010309/26/19 06:20:31  5-MIN KNEW 261220Z 33007KT 10SM CLR 27/22 A2997 -30 73 1300 330/07 RMK AO2 T02670217
53917KNEW NEW20190926062510309/26/19 06:25:31  5-MIN KNEW 261225Z 34007KT 10SM CLR 26/22 A2997 -30 79 1300 340/07 RMK AO2 T02610222
53917KNEW NEW20190926063010309/26/19 06:30:31  5-MIN KNEW 261230Z 33006KT 10SM CLR 26/22 A2997 -30 79 1300 330/06 RMK AO2 T02610222
53917KNEW NEW20190926063510309/26/19 06:35:31  5-MIN KNEW 261235Z 32006KT 10SM CLR 27/22 A2997 -30 76 1300 320/06 RMK AO2 T02670222
53917KNEW NEW20190926064010309/26/19 06:40:31  5-MIN KNEW 261240Z 33006KT 10SM CLR 27/22 A2997 -30 76 1300 330/06 RMK AO2 T02670222
53917KNEW NEW20190926064510309/26/19 06:45:31  5-MIN KNEW 261245Z 32007KT 10SM CLR 27/22 A2997 -30 73 1300 320/07 RMK AO2 T02670217
53917KNEW NEW20190926065011009/26/19 06:50:31  5-MIN KNEW 261250Z 33006KT 10SM CLR 27/22 A2997 -30 73 1300 330/06 RMK AO2 SLP142 T02670217
53917KNEW NEW20190926065507709/26/19 06:55:31  5-MIN KNEW 261255Z AUTO CLR M M M M /M RMK AO2 T02670217 $
53917KNEW NEW20190926070010109/26/19 07:00:31  5-MIN KNEW 261300Z AUTO 34006KT 27/22 A2997 -30 76 1300 340/06 RMK AO2 T02670222 $
53917KNEW NEW20190926070510109/26/19 07:05:31  5-MIN KNEW 261305Z 34006KT 10SM 27/22 A2997 -30 71 1400 340/06 RMK AO2 T02720217 $
53917KNEW NEW20190926071009909/26/19 07:10:31  5-MIN KNEW 261310Z 34007KT 10SM 27/22 A2997 -30 71 1400 340/07 RMK AO2 T02720217
53917KNEW NEW20190926072009909/26/19 07:20:31  5-MIN KNEW 261320Z 34007KT 10SM 27/22 A2997 -30 71 1400 340/07 RMK AO2 T02720217
53917KNEW NEW20190926072509909/26/19 07:25:31  5-MIN KNEW 261325Z 33007KT 10SM 27/22 A2997 -30 71 1400 330/07 RMK AO2 T02720217
53917KNEW NEW20190926073006309/26/19 07:30:31  5-MIN KNEW 261330Z AUTO M M M M /M RMK AO2 $
53917KNEW NEW20190926073510109/26/19 07:35:31  5-MIN KNEW 261335Z AUTO 34008KT 28/22 A2997 -30 69 1500 340/08 RMK AO2 T02780217 $
53917KNEW NEW20190926074010109/26/19 07:40:31  5-MIN KNEW 261340Z 34008KT 10SM 28/22 A2997 -30 69 1500 340/08 RMK AO2 T02780217 $
53917KNEW NEW20190926074509909/26/19 07:45:31  5-MIN KNEW 261345Z 36007KT 10SM 28/22 A2997 -40 69 1500 360/07 RMK AO2 T02780217
53917KNEW NEW20190926075010609/26/19 07:50:31  5-MIN KNEW 261350Z 34007KT 10SM 28/22 A2998 -40 69 1500 340/07 RMK AO2 SLP145 T02780217
53917KNEW NEW20190926075509909/26/19 07:55:31  5-MIN KNEW 261355Z 35008KT 10SM 28/22 A2998 -40 69 1500 350/08 RMK AO2 T02780217
53917KNEW NEW20190926080010309/26/19 08:00:31  5-MIN KNEW 261400Z 34008KT 10SM CLR 28/22 A2998 -40 69 1500 340/08 RMK AO2 T02780217
53917KNEW NEW20190926080510309/26/19 08:05:31  5-MIN KNEW 261405Z 35007KT 10SM CLR 28/22 A2998 -40 66 1500 350/07 RMK AO2 T02830217
53917KNEW NEW20190926081010309/26/19 08:10:31  5-MIN KNEW 261410Z 35007KT 10SM CLR 28/22 A2998 -40 69 1500 350/07 RMK AO2 T02780217
53917KNEW NEW20190926081510309/26/19 08:15:31  5-MIN KNEW 261415Z 35007KT 10SM CLR 28/22 A2998 -40 69 1500 350/07 RMK AO2 T02830222
53917KNEW NEW20190926082010309/26/19 08:20:31  5-MIN KNEW 261420Z 34008KT 10SM CLR 28/22 A2999 -50 69 1500 340/08 RMK AO2 T02780217
53917KNEW NEW20190926082510309/26/19 08:25:31  5-MIN KNEW 261425Z 35008KT 10SM CLR 28/22 A2999 -50 69 1400 350/08 RMK AO2 T02780217
53917KNEW NEW20190926083010309/26/19 08:30:31  5-MIN KNEW 261430Z 36009KT 10SM CLR 28/22 A2999 -50 69 1400 360/09 RMK AO2 T02780217
53917KNEW NEW20190926083510309/26/19 08:35:31  5-MIN KNEW 261435Z 01008KT 10SM CLR 28/22 A2999 -50 69 1500 010/08 RMK AO2 T02830222
53917KNEW NEW20190926084010309/26/19 08:40:31  5-MIN KNEW 261440Z 01009KT 10SM CLR 28/22 A2999 -50 69 1500 010/09 RMK AO2 T02830222
53917KNEW NEW20190926084510309/26/19 08:45:31  5-MIN KNEW 261445Z 36007KT 10SM CLR 28/22 A2999 -50 66 1500 360/07 RMK AO2 T02830217
53917KNEW NEW20190926085011009/26/19 08:50:31  5-MIN KNEW 261450Z 36007KT 10SM CLR 28/22 A2999 -50 66 1500 360/07 RMK AO2 SLP149 T02830217
53917KNEW NEW20190926085510309/26/19 08:55:31  5-MIN KNEW 261455Z 35007KT 10SM CLR 28/22 A2999 -50 66 1500 350/07 RMK AO2 T02830217
53917KNEW NEW20190926090010309/26/19 09:00:31  5-MIN KNEW 261500Z 36007KT 10SM CLR 28/22 A2999 -50 66 1500 360/07 RMK AO2 T02830217
53917KNEW NEW20190926090510309/26/19 09:05:31  5-MIN KNEW 261505Z 36009KT 10SM CLR 28/22 A2999 -50 66 1500 360/09 RMK AO2 T02830217
53917KNEW NEW20190926091010309/26/19 09:10:31  5-MIN KNEW 261510Z 36007KT 10SM CLR 28/22 A3000 -50 66 1500 360/07 RMK AO2 T02830217
53917KNEW NEW20190926091510309/26/19 09:15:31  5-MIN KNEW 261515Z 36008KT 10SM CLR 28/22 A3000 -60 66 1500 360/08 RMK AO2 T02830217
53917KNEW NEW20190926092010309/26/19 09:20:31  5-MIN KNEW 261520Z 01008KT 10SM CLR 28/22 A3000 -60 66 1500 010/08 RMK AO2 T02830217
53917KNEW NEW20190926092510309/26/19 09:25:31  5-MIN KNEW 261525Z 02007KT 10SM CLR 28/22 A2999 -50 66 1500 020/07 RMK AO2 T02830217
53917KNEW NEW20190926093010309/26/19 09:30:31  5-MIN KNEW 261530Z 01006KT 10SM CLR 28/22 A2999 -50 66 1500 010/06 RMK AO2 T02830217
53917KNEW NEW20190926093510309/26/19 09:35:31  5-MIN KNEW 261535Z 01006KT 10SM CLR 28/21 A2999 -50 64 1500 010/06 RMK AO2 T02830211
53917KNEW NEW20190926094010309/26/19 09:40:31  5-MIN KNEW 261540Z 01006KT 10SM CLR 29/21 A2999 -50 62 1600 010/06 RMK AO2 T02890211
53917KNEW NEW20190926094510309/26/19 09:45:31  5-MIN KNEW 261545Z 01006KT 10SM CLR 28/21 A2999 -50 64 1500 010/06 RMK AO2 T02830211
53917KNEW NEW20190926095011009/26/19 09:50:31  5-MIN KNEW 261550Z 01006KT 10SM CLR 29/21 A2999 -50 62 1600 010/06 RMK AO2 SLP150 T02890211
53917KNEW NEW20190926095510309/26/19 09:55:31  5-MIN KNEW 261555Z 35006KT 10SM CLR 29/21 A2999 -50 62 1600 350/06 RMK AO2 T02890211
53917KNEW NEW20190926100010309/26/19 10:00:31  5-MIN KNEW 261600Z 36005KT 10SM CLR 29/21 A2999 -50 62 1600 360/05 RMK AO2 T02890211
53917KNEW NEW20190926100510309/26/19 10:05:31  5-MIN KNEW 261605Z 36005KT 10SM CLR 29/21 A2999 -50 62 1600 360/05 RMK AO2 T02890211
53917KNEW NEW20190926101010309/26/19 10:10:31  5-MIN KNEW 261610Z 36005KT 10SM CLR 29/21 A2999 -50 62 1600 360/05 RMK AO2 T02890211
53917KNEW NEW20190926101510309/26/19 10:15:31  5-MIN KNEW 261615Z 36005KT 10SM CLR 29/21 A2999 -50 62 1600 360/05 RMK AO2 T02890211
53917KNEW NEW20190926102010309/26/19 10:20:31  5-MIN KNEW 261620Z 35005KT 10SM CLR 29/22 A2999 -50 62 1600 350/05 RMK AO2 T02940217
53917KNEW NEW20190926102510309/26/19 10:25:31  5-MIN KNEW 261625Z VRB04KT 10SM CLR 29/22 A2999 -50 64 1600 VRB/04 RMK AO2 T02890217
53917KNEW NEW20190926103010309/26/19 10:30:31  5-MIN KNEW 261630Z 36005KT 10SM CLR 29/21 A2999 -50 62 1600 360/05 RMK AO2 T02890211
53917KNEW NEW20190926103510309/26/19 10:35:31  5-MIN KNEW 261635Z 35004KT 10SM CLR 29/21 A2999 -50 62 1600 350/04 RMK AO2 T02890211
53917KNEW NEW20190926104010309/26/19 10:40:31  5-MIN KNEW 261640Z 36004KT 10SM CLR 29/22 A2999 -50 64 1600 360/04 RMK AO2 T02890217
53917KNEW NEW20190926104510309/26/19 10:45:31  5-MIN KNEW 261645Z 02004KT 10SM CLR 29/22 A2999 -50 62 1600 020/04 RMK AO2 T02940217
53917KNEW NEW20190926105011009/26/19 10:50:31  5-MIN KNEW 261650Z 34004KT 10SM CLR 29/22 A2999 -50 62 1600 340/04 RMK AO2 SLP148 T02940217
53917KNEW NEW20190926105510309/26/19 10:55:31  5-MIN KNEW 261655Z 35005KT 10SM CLR 30/22 A2999 -50 60 1700 350/05 RMK AO2 T03000217
53917KNEW NEW20190926110010309/26/19 11:00:31  5-MIN KNEW 261700Z 34005KT 10SM CLR 29/22 A2999 -50 62 1600 340/05 RMK AO2 T02940217
53917KNEW NEW20190926110510309/26/19 11:05:31  5-MIN KNEW 261705Z 36004KT 10SM CLR 29/22 A2999 -50 62 1600 360/04 RMK AO2 T02940217
53917KNEW NEW20190926111010309/26/19 11:10:31  5-MIN KNEW 261710Z 34004KT 10SM CLR 29/22 A2999 -50 62 1600 340/04 RMK AO2 T02940217
53917KNEW NEW20190926111510309/26/19 11:15:31  5-MIN KNEW 261715Z 35004KT 10SM CLR 29/21 A2999 -50 60 1600 350/04 RMK AO2 T02940211
53917KNEW NEW20190926112010309/26/19 11:20:31  5-MIN KNEW 261720Z 35003KT 10SM CLR 29/21 A2999 -50 60 1600 350/03 RMK AO2 T02940211
53917KNEW NEW20190926112510309/26/19 11:25:31  5-MIN KNEW 261725Z 35004KT 10SM CLR 29/21 A2999 -50 60 1600 350/04 RMK AO2 T02940211
53917KNEW NEW20190926113010309/26/19 11:30:31  5-MIN KNEW 261730Z 33004KT 10SM CLR 29/21 A2999 -50 60 1600 330/04 RMK AO2 T02940211
53917KNEW NEW20190926113510309/26/19 11:35:31  5-MIN KNEW 261735Z VRB03KT 10SM CLR 29/22 A2998 -40 62 1600 VRB/03 RMK AO2 T02940217
53917KNEW NEW20190926114010309/26/19 11:40:31  5-MIN KNEW 261740Z 29003KT 10SM CLR 29/21 A2998 -40 62 1600 290/03 RMK AO2 T02890211
53917KNEW NEW20190926114510309/26/19 11:45:31  5-MIN KNEW 261745Z 29003KT 10SM CLR 28/21 A2997 -30 64 1500 290/03 RMK AO2 T02830211
53917KNEW NEW20190926115012209/26/19 11:50:31  5-MIN KNEW 261750Z 30003KT 10SM CLR 29/21 A2997 -30 62 1600 300/03 RMK AO2 SLP142 T02890211 10300 20261
53917KNEW NEW20190926115510309/26/19 11:55:31  5-MIN KNEW 261755Z 30004KT 10SM CLR 29/21 A2997 -30 62 1600 300/04 RMK AO2 T02890211
53917KNEW NEW20190926120010309/26/19 12:00:31  5-MIN KNEW 261800Z 28004KT 10SM CLR 29/21 A2997 -30 62 1600 280/04 RMK AO2 T02890211
53917KNEW NEW20190926120510309/26/19 12:05:31  5-MIN KNEW 261805Z 31004KT 10SM CLR 29/21 A2997 -30 62 1600 310/04 RMK AO2 T02890211
53917KNEW NEW20190926121010309/26/19 12:10:31  5-MIN KNEW 261810Z 31005KT 10SM CLR 29/21 A2996 -30 58 1700 310/05 RMK AO2 T02940206
53917KNEW NEW20190926121510309/26/19 12:15:31  5-MIN KNEW 261815Z 29004KT 10SM CLR 29/21 A2996 -20 60 1700 290/04 RMK AO2 T02940211
53917KNEW NEW20190926122010309/26/19 12:20:31  5-MIN KNEW 261820Z 30005KT 10SM CLR 29/21 A2996 -20 58 1700 300/05 RMK AO2 T02940206
53917KNEW NEW20190926122510309/26/19 12:25:31  5-MIN KNEW 261825Z 29004KT 10SM CLR 29/21 A2996 -20 58 1700 290/04 RMK AO2 T02940206
53917KNEW NEW20190926123010309/26/19 12:30:31  5-MIN KNEW 261830Z 29004KT 10SM CLR 29/21 A2996 -20 58 1700 290/04 RMK AO2 T02940206
53917KNEW NEW20190926123510309/26/19 12:35:31  5-MIN KNEW 261835Z 30005KT 10SM CLR 29/21 A2995 -20 58 1700 300/05 RMK AO2 T02940206
53917KNEW NEW20190926124010309/26/19 12:40:31  5-MIN KNEW 261840Z 29006KT 10SM CLR 30/21 A2995 -10 56 1700 290/06 RMK AO2 T03000206
53917KNEW NEW20190926124510309/26/19 12:45:31  5-MIN KNEW 261845Z 30006KT 10SM CLR 30/21 A2995 -10 56 1700 300/06 RMK AO2 T03000206
53917KNEW NEW20190926125011009/26/19 12:50:31  5-MIN KNEW 261850Z 29005KT 10SM CLR 30/21 A2995 -10 58 1700 290/05 RMK AO2 SLP134 T03000211
53917KNEW NEW20190926125510309/26/19 12:55:31  5-MIN KNEW 261855Z 29007KT 10SM CLR 29/21 A2994 -10 60 1700 290/07 RMK AO2 T02940211
53917KNEW NEW20190926130010309/26/19 13:00:31  5-MIN KNEW 261900Z 30006KT 10SM CLR 30/21 A2994 -10 56 1700 300/06 RMK AO2 T03000206
53917KNEW NEW20190926130510109/26/19 13:05:31  5-MIN KNEW 261905Z 30005KT 10SM CLR 30/21 A2994 0 56 1800 300/05 RMK AO2 T03000206
53917KNEW NEW20190926131010109/26/19 13:10:31  5-MIN KNEW 261910Z 29006KT 10SM CLR 30/21 A2994 0 58 1800 290/06 RMK AO2 T03000211
53917KNEW NEW20190926131510109/26/19 13:15:31  5-MIN KNEW 261915Z 30006KT 10SM CLR 31/21 A2993 0 56 1800 300/06 RMK AO2 T03060211
53917KNEW NEW20190926132010109/26/19 13:20:31  5-MIN KNEW 261920Z 30005KT 10SM CLR 30/21 A2993 0 56 1800 300/05 RMK AO2 T03000206
53917KNEW NEW20190926132510109/26/19 13:25:31  5-MIN KNEW 261925Z 30005KT 10SM CLR 30/21 A2993 0 56 1800 300/05 RMK AO2 T03000206
53917KNEW NEW20190926133010109/26/19 13:30:31  5-MIN KNEW 261930Z 32006KT 10SM CLR 31/21 A2993 0 56 1800 320/06 RMK AO2 T03060211
53917KNEW NEW20190926133510109/26/19 13:35:31  5-MIN KNEW 261935Z 31006KT 10SM CLR 31/21 A2993 0 54 1800 310/06 RMK AO2 T03060206
53917KNEW NEW20190926134010209/26/19 13:40:31  5-MIN KNEW 261940Z 31006KT 10SM CLR 31/21 A2992 10 56 1800 310/06 RMK AO2 T03060211
53917KNEW NEW20190926134510209/26/19 13:45:31  5-MIN KNEW 261945Z 31005KT 10SM CLR 30/21 A2992 10 56 1800 310/05 RMK AO2 T03000206
53917KNEW NEW20190926135010909/26/19 13:50:31  5-MIN KNEW 261950Z 31005KT 10SM CLR 31/21 A2992 10 56 1800 310/05 RMK AO2 SLP124 T03060211
53917KNEW NEW20190926135510209/26/19 13:55:31  5-MIN KNEW 261955Z 31006KT 10SM CLR 31/21 A2991 10 56 1800 310/06 RMK AO2 T03060211
53917KNEW NEW20190926140010209/26/19 14:00:31  5-MIN KNEW 262000Z 32005KT 10SM CLR 31/21 A2991 20 56 1800 320/05 RMK AO2 T03060211
53917KNEW NEW20190926140510209/26/19 14:05:31  5-MIN KNEW 262005Z 32005KT 10SM CLR 31/21 A2991 20 54 1900 320/05 RMK AO2 T03110211
53917KNEW NEW20190926141010209/26/19 14:10:31  5-MIN KNEW 262010Z 33006KT 10SM CLR 31/21 A2991 20 54 1900 330/06 RMK AO2 T03110211
53917KNEW NEW20190926141510209/26/19 14:15:31  5-MIN KNEW 262015Z 33005KT 10SM CLR 31/21 A2991 20 54 1900 330/05 RMK AO2 T03110211
53917KNEW NEW20190926142010209/26/19 14:20:31  5-MIN KNEW 262020Z 33005KT 10SM CLR 32/21 A2991 20 53 2000 330/05 RMK AO2 T03170211
53917KNEW NEW20190926142510209/26/19 14:25:31  5-MIN KNEW 262025Z 33005KT 10SM CLR 31/21 A2991 20 54 1900 330/05 RMK AO2 T03110211
53917KNEW NEW20190926143010209/26/19 14:30:31  5-MIN KNEW 262030Z 36004KT 10SM CLR 32/21 A2990 20 53 2000 360/04 RMK AO2 T03170211
53917KNEW NEW20190926143510209/26/19 14:35:31  5-MIN KNEW 262035Z 01003KT 10SM CLR 32/21 A2990 30 49 2000 010/03 RMK AO2 T03220206
53917KNEW NEW20190926144010509/26/19 14:40:31  5-MIN KNEW 262040Z 36004KT 10SM FEW050 32/21 A2990 30 51 2000 360/04 RMK AO2 T03220211
53917KNEW NEW20190926144510509/26/19 14:45:31  5-MIN KNEW 262045Z 02004KT 10SM FEW050 32/21 A2990 30 49 2000 020/04 RMK AO2 T03220206
53917KNEW NEW20190926145011509/26/19 14:50:31  5-MIN KNEW 262050Z 02005KT 10SM CLR 32/21 A2990 30 51 2000 020/05 RMK AO2 SLP117 T03170206 58007
53917KNEW NEW20190926145510209/26/19 14:55:31  5-MIN KNEW 262055Z 02005KT 10SM CLR 32/21 A2990 30 51 2000 020/05 RMK AO2 T03220211
53917KNEW NEW20190926150010209/26/19 15:00:31  5-MIN KNEW 262100Z 04005KT 10SM CLR 32/21 A2989 40 51 2000 040/05 RMK AO2 T03170206
53917KNEW NEW20190926150510209/26/19 15:05:31  5-MIN KNEW 262105Z 14007KT 10SM CLR 32/21 A2989 40 51 2000 140/07 RMK AO2 T03170206
53917KNEW NEW20190926151010209/26/19 15:10:31  5-MIN KNEW 262110Z 14007KT 10SM CLR 32/21 A2989 40 51 2000 140/07 RMK AO2 T03170206
53917KNEW NEW20190926151510209/26/19 15:15:31  5-MIN KNEW 262115Z 14007KT 10SM CLR 32/21 A2989 40 51 2000 140/07 RMK AO2 T03170206
53917KNEW NEW20190926152010209/26/19 15:20:31  5-MIN KNEW 262120Z 14007KT 10SM CLR 32/21 A2989 40 51 2000 140/07 RMK AO2 T03170206
53917KNEW NEW20190926152510209/26/19 15:25:31  5-MIN KNEW 262125Z 14007KT 10SM CLR 32/20 A2989 40 49 2000 140/07 RMK AO2 T03170200
53917KNEW NEW20190926153010209/26/19 15:30:31  5-MIN KNEW 262130Z 14007KT 10SM CLR 32/19 A2989 40 46 2000 140/07 RMK AO2 T03170189
53917KNEW NEW20190926153510209/26/19 15:35:31  5-MIN KNEW 262135Z 14007KT 10SM CLR 32/19 A2989 40 46 2100 140/07 RMK AO2 T03220194
53917KNEW NEW20190926154010209/26/19 15:40:31  5-MIN KNEW 262140Z 14007KT 10SM CLR 32/20 A2989 40 48 2100 140/07 RMK AO2 T03220200
53917KNEW NEW20190926154510209/26/19 15:45:31  5-MIN KNEW 262145Z 14007KT 10SM CLR 32/20 A2988 40 49 2000 140/07 RMK AO2 T03170200
53917KNEW NEW20190926155010909/26/19 15:50:31  5-MIN KNEW 262150Z 14007KT 10SM CLR 32/19 A2988 50 47 2000 140/07 RMK AO2 SLP112 T03170194
53917KNEW NEW20190926155510209/26/19 15:55:31  5-MIN KNEW 262155Z 10007KT 10SM CLR 32/20 A2988 50 49 2000 100/07 RMK AO2 T03170200
53917KNEW NEW20190926160010209/26/19 16:00:31  5-MIN KNEW 262200Z 11006KT 10SM CLR 32/20 A2988 40 49 2000 110/06 RMK AO2 T03170200
53917KNEW NEW20190926160510209/26/19 16:05:31  5-MIN KNEW 262205Z 11006KT 10SM CLR 32/19 A2988 50 47 2000 110/06 RMK AO2 T03170194
53917KNEW NEW20190926161010209/26/19 16:10:31  5-MIN KNEW 262210Z 11005KT 10SM CLR 32/19 A2988 50 47 2000 110/05 RMK AO2 T03170194
53917KNEW NEW20190926161510209/26/19 16:15:31  5-MIN KNEW 262215Z 13008KT 10SM CLR 32/20 A2988 50 49 2000 130/08 RMK AO2 T03170200
53917KNEW NEW20190926162010209/26/19 16:20:31  5-MIN KNEW 262220Z 12007KT 10SM CLR 32/20 A2988 50 49 2000 120/07 RMK AO2 T03170200
53917KNEW NEW20190926162510209/26/19 16:25:31  5-MIN KNEW 262225Z 14007KT 10SM CLR 32/20 A2988 50 49 2000 140/07 RMK AO2 T03170200
53917KNEW NEW20190926163010209/26/19 16:30:31  5-MIN KNEW 262230Z 14009KT 10SM CLR 32/20 A2987 50 49 2000 140/09 RMK AO2 T03170200
53917KNEW NEW20190926163510209/26/19 16:35:31  5-MIN KNEW 262235Z 13007KT 10SM CLR 31/20 A2987 50 51 1900 130/07 RMK AO2 T03110200
53917KNEW NEW20190926164010209/26/19 16:40:31  5-MIN KNEW 262240Z 14005KT 10SM CLR 31/21 A2987 50 53 1900 140/05 RMK AO2 T03110206
53917KNEW NEW20190926164510209/26/19 16:45:31  5-MIN KNEW 262245Z 13005KT 10SM CLR 31/21 A2988 50 53 1900 130/05 RMK AO2 T03110206
53917KNEW NEW20190926165010909/26/19 16:50:31  5-MIN KNEW 262250Z 15008KT 10SM CLR 31/21 A2988 50 53 1900 150/08 RMK AO2 SLP110 T03110206
53917KNEW NEW20190926165510209/26/19 16:55:31  5-MIN KNEW 262255Z 13007KT 10SM CLR 31/21 A2988 50 53 1900 130/07 RMK AO2 T03110206
53917KNEW NEW20190926170010209/26/19 17:00:31  5-MIN KNEW 262300Z 14007KT 10SM CLR 31/21 A2988 50 53 1900 140/07 RMK AO2 T03110206
53917KNEW NEW20190926170510209/26/19 17:05:31  5-MIN KNEW 262305Z 15007KT 10SM CLR 31/20 A2988 50 52 1900 150/07 RMK AO2 T03060200
53917KNEW NEW20190926171010209/26/19 17:10:31  5-MIN KNEW 262310Z 15008KT 10SM CLR 31/20 A2988 50 52 1900 150/08 RMK AO2 T03060200
53917KNEW NEW20190926171510209/26/19 17:15:31  5-MIN KNEW 262315Z 16007KT 10SM CLR 31/20 A2988 50 52 1900 160/07 RMK AO2 T03060200
53917KNEW NEW20190926172010209/26/19 17:20:31  5-MIN KNEW 262320Z 17006KT 10SM CLR 31/20 A2988 50 52 1900 170/06 RMK AO2 T03060200
53917KNEW NEW20190926172510209/26/19 17:25:31  5-MIN KNEW 262325Z 16008KT 10SM CLR 30/20 A2988 40 54 1800 160/08 RMK AO2 T03000200
53917KNEW NEW20190926173010209/26/19 17:30:31  5-MIN KNEW 262330Z 16007KT 10SM CLR 30/20 A2988 40 54 1800 160/07 RMK AO2 T03000200
53917KNEW NEW20190926173510209/26/19 17:35:31  5-MIN KNEW 262335Z 16008KT 10SM CLR 30/20 A2988 40 54 1800 160/08 RMK AO2 T03000200
53917KNEW NEW20190926174010209/26/19 17:40:31  5-MIN KNEW 262340Z 16008KT 10SM CLR 30/20 A2988 40 54 1800 160/08 RMK AO2 T03000200
53917KNEW NEW20190926174510209/26/19 17:45:31  5-MIN KNEW 262345Z 17007KT 10SM CLR 29/20 A2988 40 56 1800 170/07 RMK AO2 T02940200
53917KNEW NEW20190926175012709/26/19 17:50:31  5-MIN KNEW 262350Z 17007KT 10SM CLR 29/20 A2989 40 56 1800 170/07 RMK AO2 SLP113 T02940200 10322 20289 56025
53917KNEW NEW20190926175510209/26/19 17:55:31  5-MIN KNEW 262355Z 16007KT 10SM CLR 29/20 A2989 40 58 1700 160/07 RMK AO2 T02890200
53917KNEW NEW20190926180010209/26/19 18:00:31  5-MIN KNEW 270000Z 16006KT 10SM CLR 29/20 A2989 40 58 1700 160/06 RMK AO2 T02890200
53917KNEW NEW20190926180510209/26/19 18:05:31  5-MIN KNEW 270005Z 17007KT 10SM CLR 29/20 A2989 40 58 1700 170/07 RMK AO2 T02890200
53917KNEW NEW20190926181010209/26/19 18:10:31  5-MIN KNEW 270010Z 17006KT 10SM CLR 29/20 A2989 40 58 1700 170/06 RMK AO2 T02890200
53917KNEW NEW20190926181510209/26/19 18:15:31  5-MIN KNEW 270015Z 17006KT 10SM CLR 28/20 A2989 40 60 1600 170/06 RMK AO2 T02830200
53917KNEW NEW20190926182010209/26/19 18:20:31  5-MIN KNEW 270020Z 17007KT 10SM CLR 28/20 A2989 30 60 1600 170/07 RMK AO2 T02830200
53917KNEW NEW20190926182510209/26/19 18:25:31  5-MIN KNEW 270025Z 16006KT 10SM CLR 28/20 A2989 40 60 1600 160/06 RMK AO2 T02830200
53917KNEW NEW20190926183010209/26/19 18:30:31  5-MIN KNEW 270030Z 16006KT 10SM CLR 28/20 A2989 40 60 1600 160/06 RMK AO2 T02830200
53917KNEW NEW20190926183510209/26/19 18:35:31  5-MIN KNEW 270035Z 17006KT 10SM CLR 28/20 A2989 30 60 1600 170/06 RMK AO2 T02830200
53917KNEW NEW20190926184010209/26/19 18:40:31  5-MIN KNEW 270040Z 17005KT 10SM CLR 28/20 A2989 30 60 1600 170/05 RMK AO2 T02830200
53917KNEW NEW20190926184510209/26/19 18:45:31  5-MIN KNEW 270045Z 17006KT 10SM CLR 28/20 A2989 30 60 1600 170/06 RMK AO2 T02830200
53917KNEW NEW20190926185010909/26/19 18:50:31  5-MIN KNEW 270050Z 17006KT 10SM CLR 28/21 A2989 30 64 1600 170/06 RMK AO2 SLP116 T02780206
53917KNEW NEW20190926185510209/26/19 18:55:31  5-MIN KNEW 270055Z 17006KT 10SM CLR 28/20 A2989 30 62 1600 170/06 RMK AO2 T02780200
53917KNEW NEW20190926190010209/26/19 19:00:31  5-MIN KNEW 270100Z 17006KT 10SM CLR 28/20 A2989 30 62 1600 170/06 RMK AO2 T02780200
53917KNEW NEW20190926190510209/26/19 19:05:31  5-MIN KNEW 270105Z 16006KT 10SM CLR 28/20 A2989 30 62 1600 160/06 RMK AO2 T02780200
53917KNEW NEW20190926191010209/26/19 19:10:31  5-MIN KNEW 270110Z 17006KT 10SM CLR 28/20 A2989 30 62 1600 170/06 RMK AO2 T02780200
53917KNEW NEW20190926191510209/26/19 19:15:31  5-MIN KNEW 270115Z 16006KT 10SM CLR 28/20 A2989 30 62 1600 160/06 RMK AO2 T02780200
53917KNEW NEW20190926192010209/26/19 19:20:31  5-MIN KNEW 270120Z 16006KT 10SM CLR 28/21 A2989 30 64 1600 160/06 RMK AO2 T02780206
53917KNEW NEW20190926192510209/26/19 19:25:31  5-MIN KNEW 270125Z 17006KT 10SM CLR 27/21 A2990 30 66 1500 170/06 RMK AO2 T02720206
53917KNEW NEW20190926193010209/26/19 19:30:31  5-MIN KNEW 270130Z 16006KT 10SM CLR 27/21 A2990 30 66 1500 160/06 RMK AO2 T02720206
53917KNEW NEW20190926193510209/26/19 19:35:31  5-MIN KNEW 270135Z 16006KT 10SM CLR 27/21 A2990 30 66 1500 160/06 RMK AO2 T02720206
53917KNEW NEW20190926194010209/26/19 19:40:31  5-MIN KNEW 270140Z 17005KT 10SM CLR 27/21 A2990 30 66 1500 170/05 RMK AO2 T02720206
53917KNEW NEW20190926194510709/26/19 19:45:31  5-MIN KNEW 270145Z AUTO 16005KT 10SM CLR 27/21 A2990 20 66 1500 160/05 RMK AO2 T02720206
53917KNEW NEW20190926195010909/26/19 19:50:31  5-MIN KNEW 270150Z 16005KT 10SM CLR 27/21 A2991 20 66 1500 160/05 RMK AO2 SLP120 T02720206
53917KNEW NEW20190926195510209/26/19 19:55:31  5-MIN KNEW 270155Z 16005KT 10SM CLR 27/21 A2991 20 66 1500 160/05 RMK AO2 T02720206
53917KNEW NEW20190926200010709/26/19 20:00:31  5-MIN KNEW 270200Z AUTO 16005KT 10SM CLR 27/21 A2991 20 66 1500 160/05 RMK AO2 T02720206
53917KNEW NEW20190926200510709/26/19 20:05:31  5-MIN KNEW 270205Z AUTO 16005KT 10SM CLR 27/21 A2991 20 66 1500 160/05 RMK AO2 T02720206
53917KNEW NEW20190926201010709/26/19 20:10:31  5-MIN KNEW 270210Z AUTO 16004KT 10SM CLR 27/21 A2991 20 66 1500 160/04 RMK AO2 T02720206
53917KNEW NEW20190926201510709/26/19 20:15:31  5-MIN KNEW 270215Z AUTO 16004KT 10SM CLR 27/21 A2992 10 66 1500 160/04 RMK AO2 T02720206
53917KNEW NEW20190926202010709/26/19 20:20:31  5-MIN KNEW 270220Z AUTO 16004KT 10SM CLR 27/21 A2992 10 66 1500 160/04 RMK AO2 T02720206
53917KNEW NEW20190926202510709/26/19 20:25:31  5-MIN KNEW 270225Z AUTO 16004KT 10SM CLR 27/21 A2992 10 66 1500 160/04 RMK AO2 T02720206
53917KNEW NEW20190926203010709/26/19 20:30:31  5-MIN KNEW 270230Z AUTO 16004KT 10SM CLR 27/21 A2992 10 66 1500 160/04 RMK AO2 T02720206
53917KNEW NEW20190926203510709/26/19 20:35:31  5-MIN KNEW 270235Z AUTO 16004KT 10SM CLR 27/21 A2992 10 66 1500 160/04 RMK AO2 T02720206
53917KNEW NEW20190926204010709/26/19 20:40:31  5-MIN KNEW 270240Z AUTO 16005KT 10SM CLR 27/21 A2992 10 66 1500 160/05 RMK AO2 T02720206
53917KNEW NEW20190926204510709/26/19 20:45:31  5-MIN KNEW 270245Z AUTO 16005KT 10SM CLR 27/21 A2992 10 69 1400 160/05 RMK AO2 T02670206
53917KNEW NEW20190926205012009/26/19 20:50:31  5-MIN KNEW 270250Z AUTO 16005KT 10SM CLR 27/21 A2992 10 69 1400 160/05 RMK AO2 SLP125 T02670206 55004
53917KNEW NEW20190926205510709/26/19 20:55:31  5-MIN KNEW 270255Z AUTO 16005KT 10SM CLR 27/21 A2992 10 69 1400 160/05 RMK AO2 T02670206
53917KNEW NEW20190926210010709/26/19 21:00:31  5-MIN KNEW 270300Z AUTO 16005KT 10SM CLR 27/21 A2992 10 69 1400 160/05 RMK AO2 T02670206
53917KNEW NEW20190926210510709/26/19 21:05:31  5-MIN KNEW 270305Z AUTO 16005KT 10SM CLR 27/21 A2992 10 69 1400 160/05 RMK AO2 T02670206
53917KNEW NEW20190926211010709/26/19 21:10:31  5-MIN KNEW 270310Z AUTO 17005KT 10SM CLR 26/21 A2992 10 71 1300 170/05 RMK AO2 T02610206
53917KNEW NEW20190926211510709/26/19 21:15:31  5-MIN KNEW 270315Z AUTO 17004KT 10SM CLR 27/21 A2992 10 69 1400 170/04 RMK AO2 T02670206
53917KNEW NEW20190926212010709/26/19 21:20:31  5-MIN KNEW 270320Z AUTO 17005KT 10SM CLR 26/21 A2992 10 71 1300 170/05 RMK AO2 T02610206
53917KNEW NEW20190926212510709/26/19 21:25:31  5-MIN KNEW 270325Z AUTO 17004KT 10SM CLR 26/21 A2992 10 71 1300 170/04 RMK AO2 T02610206
53917KNEW NEW20190926213010609/26/19 21:30:31  5-MIN KNEW 270330Z AUTO 17004KT 10SM CLR 26/21 A2993 0 71 1300 170/04 RMK AO2 T02610206
53917KNEW NEW20190926213510609/26/19 21:35:31  5-MIN KNEW 270335Z AUTO 16004KT 10SM CLR 26/21 A2993 0 71 1300 160/04 RMK AO2 T02610206
53917KNEW NEW20190926214010609/26/19 21:40:31  5-MIN KNEW 270340Z AUTO 16004KT 10SM CLR 27/21 A2993 0 69 1400 160/04 RMK AO2 T02670206
53917KNEW NEW20190926214510609/26/19 21:45:31  5-MIN KNEW 270345Z AUTO 17004KT 10SM CLR 27/21 A2993 0 69 1400 170/04 RMK AO2 T02670206
53917KNEW NEW20190926215011309/26/19 21:50:31  5-MIN KNEW 270350Z AUTO 16004KT 10SM CLR 27/21 A2993 0 69 1400 160/04 RMK AO2 SLP128 T02670206
53917KNEW NEW20190926215510609/26/19 21:55:31  5-MIN KNEW 270355Z AUTO 17004KT 10SM CLR 26/21 A2993 0 71 1300 170/04 RMK AO2 T02610206
53917KNEW NEW20190926220010609/26/19 22:00:31  5-MIN KNEW 270400Z AUTO 17004KT 10SM CLR 26/21 A2993 0 71 1300 170/04 RMK AO2 T02610206
53917KNEW NEW20190926220510609/26/19 22:05:31  5-MIN KNEW 270405Z AUTO 17005KT 10SM CLR 26/21 A2993 0 71 1300 170/05 RMK AO2 T02610206
53917KNEW NEW20190926221010609/26/19 22:10:31  5-MIN KNEW 270410Z AUTO 17004KT 10SM CLR 26/21 A2993 0 71 1300 170/04 RMK AO2 T02610206
53917KNEW NEW20190926221510709/26/19 22:15:31  5-MIN KNEW 270415Z AUTO 17005KT 10SM CLR 26/21 A2992 10 71 1300 170/05 RMK AO2 T02610206
53917KNEW NEW20190926222010609/26/19 22:20:31  5-MIN KNEW 270420Z AUTO 17004KT 10SM CLR 26/21 A2993 0 71 1300 170/04 RMK AO2 T02610206
53917KNEW NEW20190926222510609/26/19 22:25:31  5-MIN KNEW 270425Z AUTO 17004KT 10SM CLR 26/21 A2993 0 71 1300 170/04 RMK AO2 T02610206
53917KNEW NEW20190926223010609/26/19 22:30:31  5-MIN KNEW 270430Z AUTO 17004KT 10SM CLR 26/21 A2993 0 71 1300 170/04 RMK AO2 T02610206
53917KNEW NEW20190926223510709/26/19 22:35:31  5-MIN KNEW 270435Z AUTO 17004KT 10SM CLR 26/21 A2992 10 71 1300 170/04 RMK AO2 T02610206
53917KNEW NEW20190926224010709/26/19 22:40:31  5-MIN KNEW 270440Z AUTO 17004KT 10SM CLR 26/21 A2992 10 71 1300 170/04 RMK AO2 T02610206
53917KNEW NEW20190926224510709/26/19 22:45:31  5-MIN KNEW 270445Z AUTO 17004KT 10SM CLR 26/21 A2992 10 73 1300 170/04 RMK AO2 T02560206
53917KNEW NEW20190926225011409/26/19 22:50:31  5-MIN KNEW 270450Z AUTO 17005KT 10SM CLR 26/21 A2992 10 73 1300 170/05 RMK AO2 SLP127 T02560206
53917KNEW NEW20190926225510609/26/19 22:55:31  5-MIN KNEW 270455Z AUTO 17004KT 10SM CLR 26/21 A2993 0 73 1300 170/04 RMK AO2 T02560206
53917KNEW NEW20190926230010609/26/19 23:00:31  5-MIN KNEW 270500Z AUTO 16005KT 10SM CLR 26/21 A2993 0 73 1300 160/05 RMK AO2 T02560206
53917KNEW NEW20190926230510609/26/19 23:05:31  5-MIN KNEW 270505Z AUTO 16005KT 10SM CLR 26/21 A2993 0 73 1300 160/05 RMK AO2 T02560206
53917KNEW NEW20190926231010609/26/19 23:10:31  5-MIN KNEW 270510Z AUTO 16005KT 10SM CLR 26/21 A2993 0 73 1300 160/05 RMK AO2 T02560206
53917KNEW NEW20190926231510609/26/19 23:15:31  5-MIN KNEW 270515Z AUTO 16005KT 10SM CLR 26/21 A2993 0 76 1300 160/05 RMK AO2 T02560211
53917KNEW NEW20190926232010609/26/19 23:20:31  5-MIN KNEW 270520Z AUTO 17006KT 10SM CLR 26/21 A2993 0 76 1300 170/06 RMK AO2 T02560211
53917KNEW NEW20190926232510609/26/19 23:25:31  5-MIN KNEW 270525Z AUTO 17006KT 10SM CLR 26/21 A2993 0 76 1300 170/06 RMK AO2 T02560211
53917KNEW NEW20190926233010709/26/19 23:30:31  5-MIN KNEW 270530Z AUTO 17006KT 10SM CLR 26/21 A2992 10 76 1300 170/06 RMK AO2 T02560211
53917KNEW NEW20190926233510709/26/19 23:35:31  5-MIN KNEW 270535Z AUTO 17006KT 10SM CLR 25/21 A2992 10 79 1200 170/06 RMK AO2 T02500211
53917KNEW NEW20190926234010709/26/19 23:40:31  5-MIN KNEW 270540Z AUTO 17006KT 10SM CLR 26/21 A2992 10 76 1300 170/06 RMK AO2 T02560211
53917KNEW NEW20190926234510709/26/19 23:45:31  5-MIN KNEW 270545Z AUTO 17005KT 10SM CLR 26/21 A2992 10 76 1300 170/05 RMK AO2 T02560211
53917KNEW NEW20190926235014109/26/19 23:50:31  5-MIN KNEW 270550Z AUTO 17005KT 10SM CLR 26/21 A2993 0 76 1300 170/05 RMK AO2 SLP127 T02560211 10294 20250 403220250 53012
53917KNEW NEW20190926235510609/26/19 23:55:31  5-MIN KNEW 270555Z AUTO 17005KT 10SM CLR 26/21 A2993 0 76 1300 170/05 RMK AO2 T02560211
53917KNEW NEW20190927000010609/27/19 00:00:31  5-MIN KNEW 270600Z AUTO 17006KT 10SM CLR 26/22 A2993 0 79 1300 170/06 RMK AO2 T02560217
53917KNEW NEW20190927000510709/27/19 00:05:31  5-MIN KNEW 270605Z AUTO 17007KT 10SM CLR 26/22 A2992 10 79 1300 170/07 RMK AO2 T02560217
53917KNEW NEW20190927001010709/27/19 00:10:31  5-MIN KNEW 270610Z AUTO 17006KT 10SM CLR 26/22 A2992 10 79 1300 170/06 RMK AO2 T02560217
53917KNEW NEW20190927001510709/27/19 00:15:31  5-MIN KNEW 270615Z AUTO 17006KT 10SM CLR 26/22 A2992 10 79 1300 170/06 RMK AO2 T02560217
53917KNEW NEW20190927002010709/27/19 00:20:31  5-MIN KNEW 270620Z AUTO 17005KT 10SM CLR 26/22 A2992 10 79 1300 170/05 RMK AO2 T02560217
53917KNEW NEW20190927002510609/27/19 00:25:31  5-MIN KNEW 270625Z AUTO 17005KT 10SM CLR 26/22 A2993 0 79 1300 170/05 RMK AO2 T02560217
53917KNEW NEW20190927003010609/27/19 00:30:31  5-MIN KNEW 270630Z AUTO 17005KT 10SM CLR 26/22 A2993 0 79 1300 170/05 RMK AO2 T02560217
53917KNEW NEW20190927003510609/27/19 00:35:31  5-MIN KNEW 270635Z AUTO 16005KT 10SM CLR 26/22 A2992 0 79 1300 160/05 RMK AO2 T02560217
53917KNEW NEW20190927004010609/27/19 00:40:31  5-MIN KNEW 270640Z AUTO 16004KT 10SM CLR 26/22 A2993 0 81 1300 160/04 RMK AO2 T02560222
53917KNEW NEW20190927004510609/27/19 00:45:31  5-MIN KNEW 270645Z AUTO 16003KT 10SM CLR 26/22 A2993 0 81 1300 160/03 RMK AO2 T02560222
53917KNEW NEW20190927005011309/27/19 00:50:31  5-MIN KNEW 270650Z AUTO 16003KT 10SM CLR 26/22 A2993 0 81 1300 160/03 RMK AO2 SLP127 T02560222
53917KNEW NEW20190927005510609/27/19 00:55:31  5-MIN KNEW 270655Z AUTO 16004KT 10SM CLR 26/22 A2993 0 81 1300 160/04 RMK AO2 T02560222
53917KNEW NEW20190927010010509/27/19 01:00:31  5-MIN KNEW 270700Z AUTO 16004KT 9SM CLR 26/22 A2992 0 81 1300 160/04 RMK AO2 T02560222
53917KNEW NEW20190927010510609/27/19 01:05:31  5-MIN KNEW 270705Z AUTO 17004KT 9SM CLR 26/22 A2992 10 79 1300 170/04 RMK AO2 T02560217
53917KNEW NEW20190927011010609/27/19 01:10:31  5-MIN KNEW 270710Z AUTO 17005KT 9SM CLR 25/22 A2992 10 81 1200 170/05 RMK AO2 T02500217
53917KNEW NEW20190927011510609/27/19 01:15:31  5-MIN KNEW 270715Z AUTO 17005KT 8SM CLR 25/22 A2992 10 81 1200 170/05 RMK AO2 T02500217
53917KNEW NEW20190927012010609/27/19 01:20:31  5-MIN KNEW 270720Z AUTO 16005KT 8SM CLR 25/22 A2992 10 84 1200 160/05 RMK AO2 T02500222
53917KNEW NEW20190927012510609/27/19 01:25:31  5-MIN KNEW 270725Z AUTO 16005KT 8SM CLR 25/22 A2992 10 84 1200 160/05 RMK AO2 T02500222
53917KNEW NEW20190927013010609/27/19 01:30:31  5-MIN KNEW 270730Z AUTO 16005KT 8SM CLR 25/22 A2992 10 84 1200 160/05 RMK AO2 T02500222
53917KNEW NEW20190927013510609/27/19 01:35:31  5-MIN KNEW 270735Z AUTO 16005KT 8SM CLR 25/22 A2992 10 84 1200 160/05 RMK AO2 T02500222
53917KNEW NEW20190927014010609/27/19 01:40:31  5-MIN KNEW 270740Z AUTO 16005KT 8SM CLR 25/22 A2992 10 84 1200 160/05 RMK AO2 T02500222
53917KNEW NEW20190927014510609/27/19 01:45:31  5-MIN KNEW 270745Z AUTO 17005KT 8SM CLR 25/23 A2992 10 87 1200 170/05 RMK AO2 T02500228
53917KNEW NEW20190927015011309/27/19 01:50:31  5-MIN KNEW 270750Z AUTO 17005KT 8SM CLR 25/23 A2992 10 87 1200 170/05 RMK AO2 SLP125 T02500228
53917KNEW NEW20190927015510609/27/19 01:55:31  5-MIN KNEW 270755Z AUTO 16004KT 8SM CLR 25/23 A2992 10 87 1200 160/04 RMK AO2 T02500228
53917KNEW NEW20190927020010609/27/19 02:00:31  5-MIN KNEW 270800Z AUTO 16004KT 8SM CLR 26/23 A2992 10 84 1300 160/04 RMK AO2 T02560228
53917KNEW NEW20190927020510609/27/19 02:05:31  5-MIN KNEW 270805Z AUTO 17004KT 8SM CLR 25/23 A2992 10 87 1200 170/04 RMK AO2 T02500228
53917KNEW NEW20190927021010609/27/19 02:10:31  5-MIN KNEW 270810Z AUTO 17004KT 8SM CLR 26/23 A2992 10 84 1300 170/04 RMK AO2 T02560228
53917KNEW NEW20190927021510609/27/19 02:15:31  5-MIN KNEW 270815Z AUTO 17004KT 8SM CLR 25/23 A2992 10 87 1200 170/04 RMK AO2 T02500228
53917KNEW NEW20190927022010609/27/19 02:20:31  5-MIN KNEW 270820Z AUTO 17003KT 8SM CLR 25/22 A2992 10 84 1200 170/03 RMK AO2 T02500222
53917KNEW NEW20190927022510609/27/19 02:25:31  5-MIN KNEW 270825Z AUTO 17003KT 8SM CLR 25/22 A2992 10 84 1200 170/03 RMK AO2 T02500222
53917KNEW NEW20190927023010609/27/19 02:30:31  5-MIN KNEW 270830Z AUTO 17003KT 8SM CLR 26/23 A2992 10 84 1300 170/03 RMK AO2 T02560228
53917KNEW NEW20190927023510609/27/19 02:35:31  5-MIN KNEW 270835Z AUTO 16003KT 8SM CLR 26/23 A2992 10 84 1300 160/03 RMK AO2 T02560228
53917KNEW NEW20190927024010609/27/19 02:40:31  5-MIN KNEW 270840Z AUTO 16003KT 8SM CLR 26/23 A2992 10 84 1300 160/03 RMK AO2 T02560228
53917KNEW NEW20190927024510609/27/19 02:45:31  5-MIN KNEW 270845Z AUTO 16003KT 8SM CLR 26/23 A2992 10 84 1300 160/03 RMK AO2 T02560228
53917KNEW NEW20190927025011909/27/19 02:50:31  5-MIN KNEW 270850Z AUTO 16003KT 8SM CLR 26/23 A2992 10 84 1300 160/03 RMK AO2 SLP123 T02560228 51002
53917KNEW NEW20190927025510609/27/19 02:55:31  5-MIN KNEW 270855Z AUTO 15003KT 8SM CLR 26/23 A2992 10 84 1300 150/03 RMK AO2 T02560228
53917KNEW NEW20190927030010609/27/19 03:00:31  5-MIN KNEW 270900Z AUTO 16003KT 7SM CLR 26/23 A2992 10 84 1300 160/03 RMK AO2 T02560228
53917KNEW NEW20190927030510609/27/19 03:05:31  5-MIN KNEW 270905Z AUTO 16004KT 7SM CLR 26/23 A2992 10 84 1300 160/04 RMK AO2 T02560228
53917KNEW NEW20190927031010609/27/19 03:10:31  5-MIN KNEW 270910Z AUTO 16004KT 7SM CLR 25/23 A2992 10 87 1200 160/04 RMK AO2 T02500228
53917KNEW NEW20190927031510509/27/19 03:15:31  5-MIN KNEW 270915Z AUTO 16004KT 7SM CLR 25/23 A2993 0 87 1200 160/04 RMK AO2 T02500228
53917KNEW NEW20190927032010509/27/19 03:20:31  5-MIN KNEW 270920Z AUTO 16003KT 7SM CLR 25/23 A2993 0 87 1200 160/03 RMK AO2 T02500228
53917KNEW NEW20190927032510509/27/19 03:25:31  5-MIN KNEW 270925Z AUTO 16004KT 7SM CLR 25/23 A2993 0 87 1200 160/04 RMK AO2 T02500228
53917KNEW NEW20190927033010509/27/19 03:30:31  5-MIN KNEW 270930Z AUTO 16003KT 7SM CLR 25/23 A2993 0 87 1200 160/03 RMK AO2 T02500228
53917KNEW NEW20190927033510509/27/19 03:35:31  5-MIN KNEW 270935Z AUTO 16003KT 7SM CLR 25/23 A2993 0 87 1200 160/03 RMK AO2 T02500228
53917KNEW NEW20190927034010509/27/19 03:40:31  5-MIN KNEW 270940Z AUTO 17003KT 7SM CLR 25/23 A2993 0 87 1200 170/03 RMK AO2 T02500228
53917KNEW NEW20190927034510509/27/19 03:45:31  5-MIN KNEW 270945Z AUTO 17004KT 7SM CLR 25/23 A2993 0 87 1200 170/04 RMK AO2 T02500228
53917KNEW NEW20190927035011209/27/19 03:50:31  5-MIN KNEW 270950Z AUTO 17003KT 7SM CLR 25/23 A2993 0 87 1200 170/03 RMK AO2 SLP130 T02500228
53917KNEW NEW20190927035510509/27/19 03:55:31  5-MIN KNEW 270955Z AUTO 17003KT 7SM CLR 26/23 A2994 0 84 1300 170/03 RMK AO2 T02560228
53917KNEW NEW20190927040010509/27/19 04:00:31  5-MIN KNEW 271000Z AUTO 17003KT 8SM CLR 26/23 A2994 0 84 1300 170/03 RMK AO2 T02560228
53917KNEW NEW20190927040510509/27/19 04:05:31  5-MIN KNEW 271005Z AUTO 17003KT 8SM CLR 26/23 A2994 0 84 1300 170/03 RMK AO2 T02560228
53917KNEW NEW20190927041010709/27/19 04:10:31  5-MIN KNEW 271010Z AUTO 18003KT 8SM CLR 26/23 A2994 -10 84 1300 180/03 RMK AO2 T02560228
53917KNEW NEW20190927041510709/27/19 04:15:31  5-MIN KNEW 271015Z AUTO 18003KT 8SM CLR 26/23 A2994 -10 84 1200 180/03 RMK AO2 T02560228
53917KNEW NEW20190927042010709/27/19 04:20:31  5-MIN KNEW 271020Z AUTO 19003KT 9SM CLR 26/23 A2994 -10 84 1200 190/03 RMK AO2 T02560228
53917KNEW NEW20190927042510709/27/19 04:25:31  5-MIN KNEW 271025Z AUTO 19003KT 9SM CLR 25/23 A2994 -10 87 1200 190/03 RMK AO2 T02500228
53917KNEW NEW20190927043010709/27/19 04:30:31  5-MIN KNEW 271030Z AUTO 19003KT 9SM CLR 25/22 A2994 -10 84 1200 190/03 RMK AO2 T02500222
53917KNEW NEW20190927043510809/27/19 04:35:31  5-MIN KNEW 271035Z AUTO 18003KT 10SM CLR 26/22 A2995 -10 81 1200 180/03 RMK AO2 T02560222
53917KNEW NEW20190927044010809/27/19 04:40:31  5-MIN KNEW 271040Z AUTO 18003KT 10SM CLR 26/22 A2995 -10 81 1200 180/03 RMK AO2 T02560222
53917KNEW NEW20190927044510809/27/19 04:45:31  5-MIN KNEW 271045Z AUTO 17003KT 10SM CLR 26/22 A2995 -10 81 1200 170/03 RMK AO2 T02560222
53917KNEW NEW20190927045011509/27/19 04:50:31  5-MIN KNEW 271050Z AUTO 00000KT 10SM CLR 26/22 A2995 -10 81 1200 000/00 RMK AO2 SLP135 T02560222
53917KNEW NEW20190927045510809/27/19 04:55:31  5-MIN KNEW 271055Z AUTO 00000KT 10SM CLR 26/22 A2995 -20 81 1200 000/00 RMK AO2 T02560222
53917KNEW NEW20190927050010809/27/19 05:00:31  5-MIN KNEW 271100Z AUTO 00000KT 10SM CLR 25/22 A2995 -20 84 1200 000/00 RMK AO2 T02500222
53917KNEW NEW20190927050510809/27/19 05:05:31  5-MIN KNEW 271105Z AUTO 00000KT 10SM CLR 25/22 A2995 -20 84 1200 000/00 RMK AO2 T02500222
53917KNEW NEW20190927051010809/27/19 05:10:31  5-MIN KNEW 271110Z AUTO 00000KT 10SM CLR 25/22 A2995 -20 84 1200 000/00 RMK AO2 T02500222
53917KNEW NEW20190927051510809/27/19 05:15:31  5-MIN KNEW 271115Z AUTO 00000KT 10SM CLR 25/22 A2995 -20 84 1200 000/00 RMK AO2 T02500222
53917KNEW NEW20190927052010709/27/19 05:20:31  5-MIN KNEW 271120Z AUTO 14003KT 9SM CLR 25/22 A2995 -20 84 1200 140/03 RMK AO2 T02500222
53917KNEW NEW20190927052510809/27/19 05:25:31  5-MIN KNEW 271125Z AUTO 15003KT 10SM CLR 25/22 A2996 -20 84 1200 150/03 RMK AO2 T02500222
53917KNEW NEW20190927053010809/27/19 05:30:31  5-MIN KNEW 271130Z AUTO 14003KT 10SM CLR 25/22 A2996 -20 84 1200 140/03 RMK AO2 T02500222
53917KNEW NEW20190927053510709/27/19 05:35:31  5-MIN KNEW 271135Z AUTO 14003KT 9SM CLR 25/22 A2996 -20 84 1200 140/03 RMK AO2 T02500222
53917KNEW NEW20190927054010709/27/19 05:40:31  5-MIN KNEW 271140Z AUTO 13003KT 9SM CLR 25/22 A2996 -20 84 1200 130/03 RMK AO2 T02500222
53917KNEW NEW20190927054510709/27/19 05:45:31  5-MIN KNEW 271145Z AUTO 13003KT 9SM CLR 25/22 A2996 -20 84 1200 130/03 RMK AO2 T02500222
53917KNEW NEW20190927055012709/27/19 05:50:31  5-MIN KNEW 271150Z 00000KT 8SM CLR 25/23 A2996 -20 87 1200 000/00 RMK AO2 SLP139 T02500228 10256 20250 58003
53917KNEW NEW20190927055510209/27/19 05:55:31  5-MIN KNEW 271155Z 13003KT 8SM CLR 25/23 A2996 -20 87 1200 130/03 RMK AO2 T02500228
53917KNEW NEW20190927060010209/27/19 06:00:31  5-MIN KNEW 271200Z 13003KT 7SM CLR 25/23 A2996 -20 87 1200 130/03 RMK AO2 T02500228
53917KNEW NEW20190927060510209/27/19 06:05:31  5-MIN KNEW 271205Z 12003KT 7SM CLR 25/23 A2996 -20 87 1200 120/03 RMK AO2 T02500228
53917KNEW NEW20190927061010209/27/19 06:10:31  5-MIN KNEW 271210Z 12004KT 7SM CLR 25/23 A2996 -30 87 1200 120/04 RMK AO2 T02500228
53917KNEW NEW20190927061510209/27/19 06:15:31  5-MIN KNEW 271215Z 12004KT 8SM CLR 25/23 A2997 -30 87 1200 120/04 RMK AO2 T02500228
53917KNEW NEW20190927062010209/27/19 06:20:31  5-MIN KNEW 271220Z 12004KT 8SM CLR 25/23 A2997 -30 87 1200 120/04 RMK AO2 T02500228
53917KNEW NEW20190927062510209/27/19 06:25:31  5-MIN KNEW 271225Z 12004KT 9SM CLR 25/23 A2996 -30 87 1200 120/04 RMK AO2 T02500228
53917KNEW NEW20190927063010209/27/19 06:30:31  5-MIN KNEW 271230Z 12004KT 9SM CLR 26/23 A2996 -30 84 1200 120/04 RMK AO2 T02560228
53917KNEW NEW20190927063510209/27/19 06:35:31  5-MIN KNEW 271235Z 12004KT 9SM CLR 26/23 A2996 -30 84 1200 120/04 RMK AO2 T02560228
53917KNEW NEW20190927064010209/27/19 06:40:31  5-MIN KNEW 271240Z 12004KT 9SM CLR 26/23 A2996 -20 84 1200 120/04 RMK AO2 T02560228
53917KNEW NEW20190927064510309/27/19 06:45:31  5-MIN KNEW 271245Z 12004KT 10SM CLR 26/23 A2996 -30 81 1300 120/04 RMK AO2 T02610228
53917KNEW NEW20190927065011009/27/19 06:50:31  5-MIN KNEW 271250Z 12003KT 10SM CLR 26/23 A2997 -30 81 1300 120/03 RMK AO2 SLP141 T02610228
53917KNEW NEW20190927065510309/27/19 06:55:31  5-MIN KNEW 271255Z 12003KT 10SM CLR 27/23 A2997 -30 79 1300 120/03 RMK AO2 T02670228
53917KNEW NEW20190927070010309/27/19 07:00:31  5-MIN KNEW 271300Z 11003KT 10SM CLR 27/23 A2997 -30 79 1300 110/03 RMK AO2 T02670228
53917KNEW NEW20190927070510309/27/19 07:05:31  5-MIN KNEW 271305Z 12003KT 10SM CLR 27/23 A2997 -30 79 1300 120/03 RMK AO2 T02670228
53917KNEW NEW20190927071010309/27/19 07:10:31  5-MIN KNEW 271310Z 11004KT 10SM CLR 27/23 A2997 -30 79 1300 110/04 RMK AO2 T02670228
53917KNEW NEW20190927071510309/27/19 07:15:31  5-MIN KNEW 271315Z 11003KT 10SM CLR 27/23 A2997 -30 79 1300 110/03 RMK AO2 T02670228
53917KNEW NEW20190927072010309/27/19 07:20:31  5-MIN KNEW 271320Z 12003KT 10SM CLR 27/23 A2997 -30 76 1400 120/03 RMK AO2 T02720228
53917KNEW NEW20190927072510309/27/19 07:25:31  5-MIN KNEW 271325Z 12004KT 10SM CLR 27/23 A2997 -30 76 1400 120/04 RMK AO2 T02720228
53917KNEW NEW20190927073010309/27/19 07:30:31  5-MIN KNEW 271330Z 10004KT 10SM CLR 27/23 A2997 -30 76 1400 100/04 RMK AO2 T02720228
53917KNEW NEW20190927073510309/27/19 07:35:31  5-MIN KNEW 271335Z 10003KT 10SM CLR 27/22 A2997 -40 74 1400 100/03 RMK AO2 T02720222
53917KNEW NEW20190927074010309/27/19 07:40:31  5-MIN KNEW 271340Z 08003KT 10SM CLR 28/22 A2998 -40 71 1500 080/03 RMK AO2 T02780222
53917KNEW NEW20190927074510309/27/19 07:45:31  5-MIN KNEW 271345Z 08003KT 10SM CLR 28/22 A2998 -40 71 1500 080/03 RMK AO2 T02780222
53917KNEW NEW20190927075011009/27/19 07:50:31  5-MIN KNEW 271350Z 09003KT 10SM CLR 28/22 A2998 -40 71 1500 090/03 RMK AO2 SLP145 T02780222
53917KNEW NEW20190927075510309/27/19 07:55:31  5-MIN KNEW 271355Z 08003KT 10SM CLR 28/22 A2998 -40 71 1500 080/03 RMK AO2 T02780222
53917KNEW NEW20190927080010309/27/19 08:00:31  5-MIN KNEW 271400Z 10004KT 10SM CLR 28/22 A2998 -40 71 1500 100/04 RMK AO2 T02780222
53917KNEW NEW20190927080510309/27/19 08:05:31  5-MIN KNEW 271405Z 10004KT 10SM CLR 28/23 A2998 -40 71 1500 100/04 RMK AO2 T02830228
53917KNEW NEW20190927081010309/27/19 08:10:31  5-MIN KNEW 271410Z 16005KT 10SM CLR 28/22 A2998 -40 69 1500 160/05 RMK AO2 T02830222
53917KNEW NEW20190927081510309/27/19 08:15:31  5-MIN KNEW 271415Z 12005KT 10SM CLR 28/22 A2998 -40 66 1500 120/05 RMK AO2 T02830217
53917KNEW NEW20190927082010309/27/19 08:20:31  5-MIN KNEW 271420Z 12005KT 10SM CLR 28/22 A2998 -40 66 1500 120/05 RMK AO2 T02830217
53917KNEW NEW20190927082510309/27/19 08:25:31  5-MIN KNEW 271425Z 14006KT 10SM CLR 29/22 A2998 -40 64 1600 140/06 RMK AO2 T02890217
53917KNEW NEW20190927083010309/27/19 08:30:31  5-MIN KNEW 271430Z 15007KT 10SM CLR 29/22 A2998 -40 67 1600 150/07 RMK AO2 T02890222
53917KNEW NEW20190927083510309/27/19 08:35:31  5-MIN KNEW 271435Z 13006KT 10SM CLR 29/22 A2998 -40 67 1600 130/06 RMK AO2 T02890222
53917KNEW NEW20190927084010309/27/19 08:40:31  5-MIN KNEW 271440Z VRB06KT 10SM CLR 29/22 A2998 -40 64 1600 VRB/06 RMK AO2 T02890217
53917KNEW NEW20190927084510309/27/19 08:45:31  5-MIN KNEW 271445Z 14009KT 10SM CLR 29/22 A2998 -40 67 1600 140/09 RMK AO2 T02890222
53917KNEW NEW20190927085011609/27/19 08:50:31  5-MIN KNEW 271450Z 16007KT 10SM CLR 29/22 A2998 -40 64 1600 160/07 RMK AO2 SLP147 T02890217 51015
53917KNEW NEW20190927085510309/27/19 08:55:31  5-MIN KNEW 271455Z 17007KT 10SM CLR 29/22 A2998 -40 64 1600 170/07 RMK AO2 T02940222
53917KNEW NEW20190927090010309/27/19 09:00:31  5-MIN KNEW 271500Z 14009KT 10SM CLR 29/22 A2998 -40 64 1600 140/09 RMK AO2 T02940222
53917KNEW NEW20190927090510309/27/19 09:05:31  5-MIN KNEW 271505Z 16007KT 10SM CLR 29/22 A2999 -50 64 1600 160/07 RMK AO2 T02890217
53917KNEW NEW20190927091010309/27/19 09:10:31  5-MIN KNEW 271510Z 17009KT 10SM CLR 29/22 A2999 -50 64 1600 170/09 RMK AO2 T02940222
53917KNEW NEW20190927091510309/27/19 09:15:31  5-MIN KNEW 271515Z 17009KT 10SM CLR 30/22 A2999 -50 60 1700 170/09 RMK AO2 T03000217
53917KNEW NEW20190927092010309/27/19 09:20:31  5-MIN KNEW 271520Z 16011KT 10SM CLR 30/22 A2999 -50 60 1700 160/11 RMK AO2 T03000217
53917KNEW NEW20190927092510309/27/19 09:25:31  5-MIN KNEW 271525Z 15011KT 10SM CLR 30/22 A2999 -50 60 1700 150/11 RMK AO2 T03000217
53917KNEW NEW20190927093010309/27/19 09:30:31  5-MIN KNEW 271530Z 16009KT 10SM CLR 30/22 A2999 -50 60 1700 160/09 RMK AO2 T03000217
53917KNEW NEW20190927093510609/27/19 09:35:31  5-MIN KNEW 271535Z 13009KT 10SM FEW031 31/22 A2999 -50 58 1800 130/09 RMK AO2 T03060217
53917KNEW NEW20190927094010609/27/19 09:40:31  5-MIN KNEW 271540Z 17011KT 10SM FEW031 31/22 A2999 -50 58 1800 170/11 RMK AO2 T03060217
53917KNEW NEW20190927094510609/27/19 09:45:31  5-MIN KNEW 271545Z 17008KT 10SM FEW031 30/22 A2999 -50 60 1700 170/08 RMK AO2 T03000217
53917KNEW NEW20190927095012909/27/19 09:50:31  5-MIN KNEW 271550Z 17008KT 150V220 10SM FEW031 30/22 A2999 -50 60 1700 170/08 150V220 RMK AO2 SLP149 T03000217
53917KNEW NEW20190927095510609/27/19 09:55:31  5-MIN KNEW 271555Z 17006KT 10SM FEW031 30/22 A2999 -50 60 1700 170/06 RMK AO2 T03000217
53917KNEW NEW20190927100010609/27/19 10:00:31  5-MIN KNEW 271600Z 15009KT 10SM FEW031 31/22 A2999 -50 58 1800 150/09 RMK AO2 T03060217
53917KNEW NEW20190927100510609/27/19 10:05:31  5-MIN KNEW 271605Z 13006KT 10SM FEW031 30/22 A2999 -50 60 1700 130/06 RMK AO2 T03000217
53917KNEW NEW20190927101010609/27/19 10:10:31  5-MIN KNEW 271610Z 15011KT 10SM FEW031 31/22 A2999 -50 56 1800 150/11 RMK AO2 T03110217
53917KNEW NEW20190927101510609/27/19 10:15:31  5-MIN KNEW 271615Z 16009KT 10SM FEW033 31/22 A2999 -50 58 1800 160/09 RMK AO2 T03060217
53917KNEW NEW20190927102010609/27/19 10:20:31  5-MIN KNEW 271620Z VRB04KT 10SM SCT033 30/22 A2999 -50 60 1700 VRB/04 RMK AO2 T03000217
53917KNEW NEW20190927102509609/27/19 10:25:31  5-MIN KNEW 271625Z 10SM FEW033 31/22 A2999 -50 56 1800 M /M RMK AO2 T03110217
53917KNEW NEW20190927103010609/27/19 10:30:31  5-MIN KNEW 271630Z 19008KT 10SM FEW033 31/22 A2998 -50 56 1800 190/08 RMK AO2 T03110217
53917KNEW NEW20190927103510609/27/19 10:35:31  5-MIN KNEW 271635Z VRB04KT 10SM FEW035 31/22 A2998 -40 58 1800 VRB/04 RMK AO2 T03060217
53917KNEW NEW20190927104009609/27/19 10:40:31  5-MIN KNEW 271640Z 10SM FEW037 31/22 A2998 -40 56 1800 M /M RMK AO2 T03110217
53917KNEW NEW20190927104511309/27/19 10:45:31  5-MIN KNEW 271645Z VRB05KT 10SM SCT039 SCT045 31/22 A2998 -40 56 1800 VRB/05 RMK AO2 T03110217
53917KNEW NEW20190927105011309/27/19 10:50:31  5-MIN KNEW 271650Z 18010KT 10SM SCT039 32/22 A2998 -40 55 1900 180/10 RMK AO2 SLP146 T03170217
53917KNEW NEW20190927105511309/27/19 10:55:31  5-MIN KNEW 271655Z 15007KT 10SM SCT037 BKN045 31/21 A2998 -40 54 1800 150/07 RMK AO2 T03110211
53917KNEW NEW20190927110011309/27/19 11:00:31  5-MIN KNEW 271700Z 19006KT 10SM FEW037 BKN045 31/22 A2998 -40 56 1800 190/06 RMK AO2 T03110217
53917KNEW NEW20190927110510609/27/19 11:05:31  5-MIN KNEW 271705Z 17011KT 10SM SCT041 31/21 A2998 -40 54 1800 170/11 RMK AO2 T03110211
53917KNEW NEW20190927111010609/27/19 11:10:31  5-MIN KNEW 271710Z VRB06KT 10SM SCT041 31/21 A2998 -40 54 1800 VRB/06 RMK AO2 T03110211
53917KNEW NEW20190927111510609/27/19 11:15:31  5-MIN KNEW 271715Z 15008KT 10SM SCT042 31/22 A2998 -40 56 1800 150/08 RMK AO2 T03110217
53917KNEW NEW20190927112011309/27/19 11:20:31  5-MIN KNEW 271720Z 18008KT 10SM FEW042 SCT060 31/21 A2998 -40 54 1800 180/08 RMK AO2 T03110211
53917KNEW NEW20190927112511309/27/19 11:25:31  5-MIN KNEW 271725Z 22005KT 10SM FEW045 SCT060 31/21 A2998 -40 54 1800 220/05 RMK AO2 T03110211
53917KNEW NEW20190927113011309/27/19 11:30:31  5-MIN KNEW 271730Z 16005KT 10SM SCT042 SCT048 31/21 A2997 -30 56 1800 160/05 RMK AO2 T03060211
53917KNEW NEW20190927113512609/27/19 11:35:31  5-MIN KNEW 271735Z 20009G14KT 10SM SCT040 BKN048 BKN060 31/21 A2997 -30 54 1800 200/09G14 RMK AO2 T03110211
53917KNEW NEW20190927114011909/27/19 11:40:31  5-MIN KNEW 271740Z 21010G14KT 10SM SCT040 BKN050 32/21 A2997 -30 53 1900 210/10G14 RMK AO2 T03170211
53917KNEW NEW20190927114511909/27/19 11:45:31  5-MIN KNEW 271745Z 17011G15KT 10SM SCT040 SCT050 32/21 A2997 -30 51 2000 170/11G15 RMK AO2 T03220211
53917KNEW NEW20190927115014409/27/19 11:50:31  5-MIN KNEW 271750Z 14009G15KT 10SM FEW040 SCT050 32/21 A2997 -30 49 2000 140/09G15 RMK AO2 SLP141 T03220206 10322 20250 51007
53917KNEW NEW20190927115510609/27/19 11:55:31  5-MIN KNEW 271755Z 17010KT 10SM FEW040 33/21 A2996 -30 48 2000 170/10 RMK AO2 T03280206
53917KNEW NEW20190927120010609/27/19 12:00:31  5-MIN KNEW 271800Z 18011KT 10SM FEW040 32/21 A2996 -30 49 2000 180/11 RMK AO2 T03220206
53917KNEW NEW20190927120510609/27/19 12:05:31  5-MIN KNEW 271805Z 16011KT 10SM FEW042 33/21 A2996 -20 48 2000 160/11 RMK AO2 T03280206
53917KNEW NEW20190927121010309/27/19 12:10:31  5-MIN KNEW 271810Z 16008KT 10SM CLR 33/19 A2996 -20 44 2000 160/08 RMK AO2 T03280194
53917KNEW NEW20190927121512209/27/19 12:15:31  5-MIN KNEW 271815Z 16011KT 140V200 10SM FEW048 33/21 A2996 -20 48 2000 160/11 140V200 RMK AO2 T03280206
53917KNEW NEW20190927122010609/27/19 12:20:31  5-MIN KNEW 271820Z 19010KT 10SM FEW048 32/21 A2996 -20 49 2000 190/10 RMK AO2 T03220206
53917KNEW NEW20190927122510609/27/19 12:25:31  5-MIN KNEW 271825Z 18012KT 10SM FEW048 32/21 A2995 -20 49 2000 180/12 RMK AO2 T03220206
53917KNEW NEW20190927123011209/27/19 12:30:31  5-MIN KNEW 271830Z 20010G16KT 10SM FEW049 32/21 A2995 -10 49 2000 200/10G16 RMK AO2 T03220206
53917KNEW NEW20190927123511209/27/19 12:35:31  5-MIN KNEW 271835Z 21007G16KT 10SM FEW049 32/21 A2995 -10 51 1900 210/07G16 RMK AO2 T03170206
53917KNEW NEW20190927124011209/27/19 12:40:31  5-MIN KNEW 271840Z 16010G15KT 10SM FEW049 33/20 A2995 -10 46 2000 160/10G15 RMK AO2 T03280200
53917KNEW NEW20190927124510909/27/19 12:45:31  5-MIN KNEW 271845Z 20010G15KT 10SM CLR 33/19 A2995 -10 44 2100 200/10G15 RMK AO2 T03280194
53917KNEW NEW20190927125011309/27/19 12:50:31  5-MIN KNEW 271850Z 16006KT 10SM FEW050 32/19 A2994 -10 46 2000 160/06 RMK AO2 SLP133 T03220194
53917KNEW NEW20190927125510609/27/19 12:55:31  5-MIN KNEW 271855Z 16010KT 10SM FEW055 33/19 A2994 -10 44 2100 160/10 RMK AO2 T03280194
53917KNEW NEW20190927130010409/27/19 13:00:31  5-MIN KNEW 271900Z 17009KT 10SM FEW055 33/19 A2994 0 43 2100 170/09 RMK AO2 T03280189
53917KNEW NEW20190927130510409/27/19 13:05:31  5-MIN KNEW 271905Z 19011KT 10SM FEW055 33/18 A2994 0 41 2100 190/11 RMK AO2 T03280183
53917KNEW NEW20190927131010709/27/19 13:10:31  5-MIN KNEW 271910Z 19010G17KT 10SM CLR 33/19 A2994 0 43 2100 190/10G17 RMK AO2 T03280189
53917KNEW NEW20190927131510109/27/19 13:15:31  5-MIN KNEW 271915Z 18013KT 10SM CLR 33/19 A2994 0 43 2100 180/13 RMK AO2 T03280189
53917KNEW NEW20190927132010109/27/19 13:20:31  5-MIN KNEW 271920Z 17010KT 10SM CLR 33/18 A2994 0 41 2100 170/10 RMK AO2 T03280183
53917KNEW NEW20190927132510109/27/19 13:25:31  5-MIN KNEW 271925Z 16015KT 10SM CLR 33/18 A2994 0 40 2100 160/15 RMK AO2 T03330183
53917KNEW NEW20190927133010109/27/19 13:30:31  5-MIN KNEW 271930Z 16011KT 10SM CLR 33/19 A2993 0 43 2100 160/11 RMK AO2 T03280189
53917KNEW NEW20190927133510709/27/19 13:35:31  5-MIN KNEW 271935Z 17014G19KT 10SM CLR 33/19 A2993 0 43 2100 170/14G19 RMK AO2 T03280189
53917KNEW NEW20190927134010109/27/19 13:40:31  5-MIN KNEW 271940Z 16013KT 10SM CLR 33/18 A2993 0 40 2100 160/13 RMK AO2 T03330183
53917KNEW NEW20190927134510109/27/19 13:45:31  5-MIN KNEW 271945Z 17012KT 10SM CLR 33/19 A2993 0 42 2100 170/12 RMK AO2 T03330189
53917KNEW NEW20190927135010809/27/19 13:50:31  5-MIN KNEW 271950Z 19011KT 10SM CLR 33/19 A2993 0 44 2100 190/11 RMK AO2 SLP128 T03280194
53917KNEW NEW20190927135510709/27/19 13:55:31  5-MIN KNEW 271955Z 16013G17KT 10SM CLR 33/20 A2993 0 46 2100 160/13G17 RMK AO2 T03280200
53917KNEW NEW20190927140011109/27/19 14:00:31  5-MIN KNEW 272000Z 18009G17KT 10SM FEW050 32/19 A2992 10 46 2000 180/09G17 RMK AO2 T03220194
53917KNEW NEW20190927140511109/27/19 14:05:31  5-MIN KNEW 272005Z 19012G18KT 10SM FEW050 33/20 A2992 10 46 2100 190/12G18 RMK AO2 T03280200
53917KNEW NEW20190927141010809/27/19 14:10:31  5-MIN KNEW 272010Z 17007G18KT 10SM CLR 32/19 A2992 10 47 2000 170/07G18 RMK AO2 T03170194
53917KNEW NEW20190927141510809/27/19 14:15:31  5-MIN KNEW 272015Z 16012G17KT 10SM CLR 33/20 A2992 10 46 2100 160/12G17 RMK AO2 T03280200
53917KNEW NEW20190927142011109/27/19 14:20:31  5-MIN KNEW 272020Z 17012G17KT 10SM FEW050 33/20 A2992 10 46 2100 170/12G17 RMK AO2 T03280200
53917KNEW NEW20190927142510509/27/19 14:25:31  5-MIN KNEW 272025Z 18008KT 10SM FEW050 33/19 A2992 10 43 2100 180/08 RMK AO2 T03280189
53917KNEW NEW20190927143010209/27/19 14:30:31  5-MIN KNEW 272030Z 16010KT 10SM CLR 33/20 A2992 10 46 2100 160/10 RMK AO2 T03280200
53917KNEW NEW20190927143510209/27/19 14:35:31  5-MIN KNEW 272035Z 15011KT 10SM CLR 32/20 A2992 10 48 2000 150/11 RMK AO2 T03220200
53917KNEW NEW20190927144010209/27/19 14:40:31  5-MIN KNEW 272040Z 17011KT 10SM CLR 32/19 A2992 10 46 2000 170/11 RMK AO2 T03220194
53917KNEW NEW20190927144510209/27/19 14:45:31  5-MIN KNEW 272045Z 20008KT 10SM CLR 32/19 A2992 10 46 2000 200/08 RMK AO2 T03220194
53917KNEW NEW20190927145011509/27/19 14:50:31  5-MIN KNEW 272050Z 19011KT 10SM CLR 32/20 A2992 10 48 2000 190/11 RMK AO2 SLP124 T03220200 58006
53917KNEW NEW20190927145510209/27/19 14:55:31  5-MIN KNEW 272055Z 17011KT 10SM CLR 32/19 A2992 10 44 2000 170/11 RMK AO2 T03220189
53917KNEW NEW20190927150010209/27/19 15:00:31  5-MIN KNEW 272100Z 16010KT 10SM CLR 32/19 A2991 20 44 2000 160/10 RMK AO2 T03220189
53917KNEW NEW20190927150510209/27/19 15:05:31  5-MIN KNEW 272105Z 17011KT 10SM CLR 33/19 A2991 20 43 2100 170/11 RMK AO2 T03280189
53917KNEW NEW20190927151010209/27/19 15:10:31  5-MIN KNEW 272110Z 16011KT 10SM CLR 32/18 A2991 20 41 2000 160/11 RMK AO2 T03220178
53917KNEW NEW20190927151510209/27/19 15:15:31  5-MIN KNEW 272115Z 17012KT 10SM CLR 33/17 A2991 20 39 2100 170/12 RMK AO2 T03280172
53917KNEW NEW20190927152010209/27/19 15:20:31  5-MIN KNEW 272120Z 17013KT 10SM CLR 33/18 A2991 20 40 2100 170/13 RMK AO2 T03280178
53917KNEW NEW20190927152510209/27/19 15:25:31  5-MIN KNEW 272125Z 18013KT 10SM CLR 32/18 A2991 20 41 2000 180/13 RMK AO2 T03220178
53917KNEW NEW20190927153010209/27/19 15:30:31  5-MIN KNEW 272130Z 19010KT 10SM CLR 32/17 A2990 20 40 2000 190/10 RMK AO2 T03220172
53917KNEW NEW20190927153510509/27/19 15:35:31  5-MIN KNEW 272135Z 15010KT 10SM FEW050 32/19 A2990 20 46 2000 150/10 RMK AO2 T03220194
53917KNEW NEW20190927154010509/27/19 15:40:31  5-MIN KNEW 272140Z 16011KT 10SM FEW050 32/20 A2990 20 48 2000 160/11 RMK AO2 T03220200
53917KNEW NEW20190927154510509/27/19 15:45:31  5-MIN KNEW 272145Z 15011KT 10SM FEW050 32/20 A2991 20 48 2000 150/11 RMK AO2 T03220200
53917KNEW NEW20190927155011209/27/19 15:50:31  5-MIN KNEW 272150Z 17012KT 10SM FEW050 32/19 A2991 20 46 2000 170/12 RMK AO2 SLP121 T03220194
53917KNEW NEW20190927155510509/27/19 15:55:31  5-MIN KNEW 272155Z 17011KT 10SM FEW050 32/19 A2991 20 46 2000 170/11 RMK AO2 T03220194
53917KNEW NEW20190927160010509/27/19 16:00:31  5-MIN KNEW 272200Z 15012KT 10SM FEW050 32/19 A2991 20 46 2000 150/12 RMK AO2 T03220194
53917KNEW NEW20190927160510209/27/19 16:05:31  5-MIN KNEW 272205Z 14013KT 10SM CLR 32/19 A2991 20 47 2000 140/13 RMK AO2 T03170194
53917KNEW NEW20190927161010209/27/19 16:10:31  5-MIN KNEW 272210Z 14011KT 10SM CLR 32/19 A2991 20 47 2000 140/11 RMK AO2 T03170194
53917KNEW NEW20190927161510209/27/19 16:15:31  5-MIN KNEW 272215Z 16012KT 10SM CLR 32/20 A2991 20 49 2000 160/12 RMK AO2 T03170200
53917KNEW NEW20190927162010209/27/19 16:20:31  5-MIN KNEW 272220Z 16013KT 10SM CLR 31/20 A2991 20 51 1900 160/13 RMK AO2 T03110200
53917KNEW NEW20190927162510209/27/19 16:25:31  5-MIN KNEW 272225Z 15011KT 10SM CLR 31/20 A2991 20 51 1900 150/11 RMK AO2 T03110200
53917KNEW NEW20190927163010209/27/19 16:30:31  5-MIN KNEW 272230Z 15013KT 10SM CLR 31/20 A2991 20 51 1900 150/13 RMK AO2 T03110200
53917KNEW NEW20190927163510209/27/19 16:35:31  5-MIN KNEW 272235Z 15011KT 10SM CLR 31/20 A2991 20 51 1900 150/11 RMK AO2 T03110200
53917KNEW NEW20190927164010209/27/19 16:40:31  5-MIN KNEW 272240Z 16012KT 10SM CLR 31/20 A2991 20 51 1900 160/12 RMK AO2 T03110200
53917KNEW NEW20190927164510209/27/19 16:45:31  5-MIN KNEW 272245Z 17010KT 10SM CLR 31/20 A2991 20 52 1800 170/10 RMK AO2 T03060200
53917KNEW NEW20190927165010909/27/19 16:50:31  5-MIN KNEW 272250Z 17012KT 10SM CLR 31/20 A2991 20 52 1800 170/12 RMK AO2 SLP122 T03060200
53917KNEW NEW20190927165510209/27/19 16:55:31  5-MIN KNEW 272255Z 16011KT 10SM CLR 31/20 A2991 20 52 1800 160/11 RMK AO2 T03060200
53917KNEW NEW20190927170010209/27/19 17:00:31  5-MIN KNEW 272300Z 15012KT 10SM CLR 31/21 A2991 20 54 1800 150/12 RMK AO2 T03060206
53917KNEW NEW20190927170510209/27/19 17:05:31  5-MIN KNEW 272305Z 15009KT 10SM CLR 31/21 A2991 20 54 1800 150/09 RMK AO2 T03060206
53917KNEW NEW20190927171010209/27/19 17:10:31  5-MIN KNEW 272310Z 15012KT 10SM CLR 31/20 A2991 20 52 1800 150/12 RMK AO2 T03060200
53917KNEW NEW20190927171510209/27/19 17:15:31  5-MIN KNEW 272315Z 16011KT 10SM CLR 30/20 A2991 20 54 1800 160/11 RMK AO2 T03000200
53917KNEW NEW20190927172010209/27/19 17:20:31  5-MIN KNEW 272320Z 17010KT 10SM CLR 30/21 A2991 20 56 1800 170/10 RMK AO2 T03000206
53917KNEW NEW20190927172510209/27/19 17:25:31  5-MIN KNEW 272325Z 17010KT 10SM CLR 30/21 A2991 20 58 1800 170/10 RMK AO2 T03000211
53917KNEW NEW20190927173010209/27/19 17:30:31  5-MIN KNEW 272330Z 15010KT 10SM CLR 30/22 A2991 20 60 1800 150/10 RMK AO2 T03000217
53917KNEW NEW20190927173510509/27/19 17:35:31  5-MIN KNEW 272335Z 14009KT 10SM FEW033 30/22 A2991 20 62 1800 140/09 RMK AO2 T03000222
53917KNEW NEW20190927174010509/27/19 17:40:31  5-MIN KNEW 272340Z 15009KT 10SM FEW033 29/22 A2991 20 64 1700 150/09 RMK AO2 T02940222
53917KNEW NEW20190927174510209/27/19 17:45:31  5-MIN KNEW 272345Z 15009KT 10SM CLR 29/22 A2991 20 64 1700 150/09 RMK AO2 T02940222
53917KNEW NEW20190927175013009/27/19 17:50:31  5-MIN KNEW 272350Z 14009KT 10SM FEW033 29/22 A2991 10 64 1700 140/09 RMK AO2 SLP123 T02940222 10333 20294 56016
53917KNEW NEW20190927175510509/27/19 17:55:31  5-MIN KNEW 272355Z 13010KT 10SM FEW033 29/23 A2991 10 67 1700 130/10 RMK AO2 T02940228
53917KNEW NEW20190927180010209/27/19 18:00:31  5-MIN KNEW 280000Z 13010KT 10SM CLR 29/23 A2991 20 69 1700 130/10 RMK AO2 T02890228
53917KNEW NEW20190927180510509/27/19 18:05:31  5-MIN KNEW 280005Z 13009KT 10SM FEW045 29/23 A2992 10 71 1700 130/09 RMK AO2 T02890233
53917KNEW NEW20190927181010509/27/19 18:10:31  5-MIN KNEW 280010Z 13008KT 10SM FEW045 29/23 A2992 10 71 1700 130/08 RMK AO2 T02890233
53917KNEW NEW20190927181510509/27/19 18:15:31  5-MIN KNEW 280015Z 14008KT 10SM FEW045 29/23 A2992 10 71 1700 140/08 RMK AO2 T02890233
53917KNEW NEW20190927182010509/27/19 18:20:31  5-MIN KNEW 280020Z 13008KT 10SM FEW045 29/23 A2992 10 71 1700 130/08 RMK AO2 T02890233
53917KNEW NEW20190927182510509/27/19 18:25:31  5-MIN KNEW 280025Z 13008KT 10SM FEW047 29/23 A2992 10 71 1700 130/08 RMK AO2 T02890233
53917KNEW NEW20190927183010509/27/19 18:30:31  5-MIN KNEW 280030Z 12009KT 10SM FEW049 29/23 A2992 10 71 1700 120/09 RMK AO2 T02890233
53917KNEW NEW20190927183510509/27/19 18:35:31  5-MIN KNEW 280035Z 13009KT 10SM FEW049 29/23 A2992 10 71 1700 130/09 RMK AO2 T02890233
53917KNEW NEW20190927184011209/27/19 18:40:31  5-MIN KNEW 280040Z 13010KT 10SM FEW033 SCT049 29/23 A2992 10 71 1600 130/10 RMK AO2 T02890233
53917KNEW NEW20190927184511209/27/19 18:45:31  5-MIN KNEW 280045Z 13010KT 10SM FEW033 FEW050 29/23 A2992 10 71 1600 130/10 RMK AO2 T02890233
53917KNEW NEW20190927185011809/27/19 18:50:31  5-MIN KNEW 280050Z 13007KT 10SM FEW033 FEW050 28/23 A2993 0 74 1600 130/07 RMK AO2 SLP127 T02830233
53917KNEW NEW20190927185511109/27/19 18:55:31  5-MIN KNEW 280055Z 13008KT 10SM FEW033 FEW050 28/23 A2993 0 74 1600 130/08 RMK AO2 T02830233
53917KNEW NEW20190927190010409/27/19 19:00:31  5-MIN KNEW 280100Z 13008KT 10SM FEW031 28/23 A2993 0 74 1600 130/08 RMK AO2 T02830233
53917KNEW NEW20190927190510409/27/19 19:05:31  5-MIN KNEW 280105Z 14008KT 10SM FEW031 28/24 A2993 0 76 1600 140/08 RMK AO2 T02830239
53917KNEW NEW20190927191010409/27/19 19:10:31  5-MIN KNEW 280110Z 13008KT 10SM FEW029 28/23 A2993 0 74 1600 130/08 RMK AO2 T02830233
53917KNEW NEW20190927191510409/27/19 19:15:31  5-MIN KNEW 280115Z 14007KT 10SM FEW029 28/24 A2993 0 76 1600 140/07 RMK AO2 T02830239
53917KNEW NEW20190927192010409/27/19 19:20:31  5-MIN KNEW 280120Z 14008KT 10SM FEW029 28/24 A2993 0 76 1600 140/08 RMK AO2 T02830239
53917KNEW NEW20190927192510109/27/19 19:25:31  5-MIN KNEW 280125Z 14008KT 10SM CLR 28/24 A2994 0 76 1600 140/08 RMK AO2 T02830239
53917KNEW NEW20190927193010109/27/19 19:30:31  5-MIN KNEW 280130Z 15008KT 10SM CLR 28/24 A2994 0 79 1500 150/08 RMK AO2 T02780239
53917KNEW NEW20190927193510109/27/19 19:35:31  5-MIN KNEW 280135Z 14007KT 10SM CLR 28/24 A2994 0 79 1500 140/07 RMK AO2 T02780239
53917KNEW NEW20190927194010309/27/19 19:40:31  5-MIN KNEW 280140Z 14006KT 10SM CLR 28/24 A2994 -10 79 1500 140/06 RMK AO2 T02780239
53917KNEW NEW20190927194510609/27/19 19:45:31  5-MIN KNEW 280145Z 14006KT 10SM FEW029 28/24 A2994 -10 79 1500 140/06 RMK AO2 T02780239
53917KNEW NEW20190927195011309/27/19 19:50:31  5-MIN KNEW 280150Z 14006KT 10SM FEW029 28/23 A2994 -10 76 1500 140/06 RMK AO2 SLP133 T02780233
53917KNEW NEW20190927195510609/27/19 19:55:31  5-MIN KNEW 280155Z 15007KT 10SM FEW029 28/23 A2994 -10 76 1500 150/07 RMK AO2 T02780233
53917KNEW NEW20190927200010609/27/19 20:00:31  5-MIN KNEW 280200Z 15006KT 10SM FEW030 28/23 A2994 -10 76 1500 150/06 RMK AO2 T02780233
53917KNEW NEW20190927200511109/27/19 20:05:31  5-MIN KNEW 280205Z AUTO 15005KT 10SM FEW030 28/23 A2995 -10 76 1500 150/05 RMK AO2 T02780233
53917KNEW NEW20190927201011109/27/19 20:10:31  5-MIN KNEW 280210Z AUTO 15005KT 10SM FEW030 28/23 A2995 -10 76 1500 150/05 RMK AO2 T02780233
53917KNEW NEW20190927201511109/27/19 20:15:31  5-MIN KNEW 280215Z AUTO 15005KT 10SM FEW030 28/23 A2995 -10 76 1500 150/05 RMK AO2 T02780233
53917KNEW NEW20190927202010809/27/19 20:20:31  5-MIN KNEW 280220Z AUTO 15004KT 10SM CLR 28/23 A2995 -10 76 1500 150/04 RMK AO2 T02780233
53917KNEW NEW20190927202510809/27/19 20:25:31  5-MIN KNEW 280225Z AUTO 14005KT 10SM CLR 28/23 A2995 -10 76 1500 140/05 RMK AO2 T02780233
53917KNEW NEW20190927203010809/27/19 20:30:31  5-MIN KNEW 280230Z AUTO 14005KT 10SM CLR 28/23 A2995 -20 76 1500 140/05 RMK AO2 T02780233
53917KNEW NEW20190927203510809/27/19 20:35:31  5-MIN KNEW 280235Z AUTO 15006KT 10SM CLR 27/23 A2995 -10 79 1400 150/06 RMK AO2 T02720233
53917KNEW NEW20190927204011109/27/19 20:40:31  5-MIN KNEW 280240Z AUTO 14005KT 10SM FEW028 27/23 A2995 -10 79 1400 140/05 RMK AO2 T02720233
53917KNEW NEW20190927204511109/27/19 20:45:31  5-MIN KNEW 280245Z AUTO 14005KT 10SM FEW028 28/23 A2995 -10 76 1500 140/05 RMK AO2 T02780233
53917KNEW NEW20190927205012409/27/19 20:50:31  5-MIN KNEW 280250Z AUTO 14006KT 10SM FEW027 27/23 A2995 -20 79 1400 140/06 RMK AO2 SLP136 T02720233 55001
53917KNEW NEW20190927205510809/27/19 20:55:31  5-MIN KNEW 280255Z AUTO 14005KT 10SM CLR 27/23 A2995 -20 79 1400 140/05 RMK AO2 T02720233
53917KNEW NEW20190927210010809/27/19 21:00:31  5-MIN KNEW 280300Z AUTO 14005KT 10SM CLR 27/23 A2996 -20 79 1400 140/05 RMK AO2 T02720233
53917KNEW NEW20190927210510809/27/19 21:05:31  5-MIN KNEW 280305Z AUTO 14006KT 10SM CLR 27/23 A2996 -20 79 1400 140/06 RMK AO2 T02720233
53917KNEW NEW20190927211010809/27/19 21:10:31  5-MIN KNEW 280310Z AUTO 14006KT 10SM CLR 27/23 A2996 -20 79 1400 140/06 RMK AO2 T02720233
53917KNEW NEW20190927211510809/27/19 21:15:31  5-MIN KNEW 280315Z AUTO 14006KT 10SM CLR 27/23 A2996 -20 79 1400 140/06 RMK AO2 T02720233
53917KNEW NEW20190927212010809/27/19 21:20:31  5-MIN KNEW 280320Z AUTO 14006KT 10SM CLR 27/23 A2996 -20 79 1400 140/06 RMK AO2 T02720233
53917KNEW NEW20190927212510809/27/19 21:25:31  5-MIN KNEW 280325Z AUTO 14008KT 10SM CLR 27/23 A2996 -20 79 1400 140/08 RMK AO2 T02720233
53917KNEW NEW20190927213010809/27/19 21:30:31  5-MIN KNEW 280330Z AUTO 14007KT 10SM CLR 27/23 A2996 -30 79 1400 140/07 RMK AO2 T02720233
53917KNEW NEW20190927213510809/27/19 21:35:31  5-MIN KNEW 280335Z AUTO 14007KT 10SM CLR 27/23 A2996 -20 79 1400 140/07 RMK AO2 T02720233
53917KNEW NEW20190927214010809/27/19 21:40:31  5-MIN KNEW 280340Z AUTO 14007KT 10SM CLR 27/23 A2996 -20 79 1400 140/07 RMK AO2 T02720233
53917KNEW NEW20190927214510809/27/19 21:45:31  5-MIN KNEW 280345Z AUTO 14007KT 10SM CLR 27/23 A2996 -30 79 1400 140/07 RMK AO2 T02720233
53917KNEW NEW20190927215011509/27/19 21:50:31  5-MIN KNEW 280350Z AUTO 14007KT 10SM CLR 27/23 A2996 -30 79 1400 140/07 RMK AO2 SLP140 T02720233
53917KNEW NEW20190927215510809/27/19 21:55:31  5-MIN KNEW 280355Z AUTO 14007KT 10SM CLR 27/23 A2996 -30 79 1400 140/07 RMK AO2 T02720233
53917KNEW NEW20190927220010809/27/19 22:00:31  5-MIN KNEW 280400Z AUTO 14006KT 10SM CLR 27/23 A2996 -30 79 1400 140/06 RMK AO2 T02720233
53917KNEW NEW20190927220510809/27/19 22:05:31  5-MIN KNEW 280405Z AUTO 14008KT 10SM CLR 27/23 A2996 -30 79 1400 140/08 RMK AO2 T02720233
53917KNEW NEW20190927221010809/27/19 22:10:31  5-MIN KNEW 280410Z AUTO 14007KT 10SM CLR 27/23 A2996 -20 79 1400 140/07 RMK AO2 T02720233
53917KNEW NEW20190927221510809/27/19 22:15:31  5-MIN KNEW 280415Z AUTO 14007KT 10SM CLR 28/23 A2996 -20 76 1500 140/07 RMK AO2 T02780233
53917KNEW NEW20190927222010809/27/19 22:20:31  5-MIN KNEW 280420Z AUTO 14007KT 10SM CLR 27/23 A2996 -20 79 1400 140/07 RMK AO2 T02720233
53917KNEW NEW20190927222510809/27/19 22:25:31  5-MIN KNEW 280425Z AUTO 15006KT 10SM CLR 27/23 A2996 -20 79 1400 150/06 RMK AO2 T02720233
53917KNEW NEW20190927223010809/27/19 22:30:31  5-MIN KNEW 280430Z AUTO 14006KT 10SM CLR 27/23 A2996 -20 82 1400 140/06 RMK AO2 T02670233
53917KNEW NEW20190927223510809/27/19 22:35:31  5-MIN KNEW 280435Z AUTO 14005KT 10SM CLR 27/23 A2996 -20 82 1400 140/05 RMK AO2 T02670233
53917KNEW NEW20190927224010809/27/19 22:40:31  5-MIN KNEW 280440Z AUTO 14005KT 10SM CLR 27/23 A2996 -20 82 1400 140/05 RMK AO2 T02670233
53917KNEW NEW20190927224510809/27/19 22:45:31  5-MIN KNEW 280445Z AUTO 14006KT 10SM CLR 27/23 A2996 -20 82 1400 140/06 RMK AO2 T02670233
53917KNEW NEW20190927225011509/27/19 22:50:31  5-MIN KNEW 280450Z AUTO 14005KT 10SM CLR 27/23 A2996 -20 82 1400 140/05 RMK AO2 SLP138 T02670233
53917KNEW NEW20190927225510809/27/19 22:55:31  5-MIN KNEW 280455Z AUTO 15005KT 10SM CLR 27/23 A2996 -20 82 1400 150/05 RMK AO2 T02670233
53917KNEW NEW20190927230010809/27/19 23:00:31  5-MIN KNEW 280500Z AUTO 15007KT 10SM CLR 27/23 A2996 -20 82 1400 150/07 RMK AO2 T02670233
53917KNEW NEW20190927230510809/27/19 23:05:31  5-MIN KNEW 280505Z AUTO 15006KT 10SM CLR 27/23 A2995 -20 82 1400 150/06 RMK AO2 T02670233
53917KNEW NEW20190927231010809/27/19 23:10:31  5-MIN KNEW 280510Z AUTO 16005KT 10SM CLR 27/23 A2995 -20 82 1400 160/05 RMK AO2 T02670233
53917KNEW NEW20190927231510809/27/19 23:15:31  5-MIN KNEW 280515Z AUTO 16005KT 10SM CLR 27/23 A2995 -20 82 1400 160/05 RMK AO2 T02670233
53917KNEW NEW20190927232010809/27/19 23:20:31  5-MIN KNEW 280520Z AUTO 15006KT 10SM CLR 27/23 A2995 -20 82 1400 150/06 RMK AO2 T02670233
53917KNEW NEW20190927232510809/27/19 23:25:31  5-MIN KNEW 280525Z AUTO 15006KT 10SM CLR 27/23 A2995 -20 82 1400 150/06 RMK AO2 T02670233
53917KNEW NEW20190927233010809/27/19 23:30:31  5-MIN KNEW 280530Z AUTO 15006KT 10SM CLR 27/23 A2995 -20 82 1400 150/06 RMK AO2 T02670233
53917KNEW NEW20190927233510809/27/19 23:35:31  5-MIN KNEW 280535Z AUTO 14006KT 10SM CLR 27/23 A2995 -10 82 1400 140/06 RMK AO2 T02670233
53917KNEW NEW20190927234010809/27/19 23:40:31  5-MIN KNEW 280540Z AUTO 15007KT 10SM CLR 27/23 A2995 -10 82 1400 150/07 RMK AO2 T02670233
53917KNEW NEW20190927234510809/27/19 23:45:31  5-MIN KNEW 280545Z AUTO 15007KT 10SM CLR 27/23 A2995 -10 82 1400 150/07 RMK AO2 T02670233
53917KNEW NEW20190927235014309/27/19 23:50:31  5-MIN KNEW 280550Z AUTO 15007KT 10SM CLR 27/23 A2995 -10 82 1400 150/07 RMK AO2 SLP135 T02670233 10294 20267 403330250 51013
53917KNEW NEW20190927235510809/27/19 23:55:31  5-MIN KNEW 280555Z AUTO 16006KT 10SM CLR 27/23 A2995 -10 82 1400 160/06 RMK AO2 T02670233
53917KNEW NEW20190928000010809/28/19 00:00:31  5-MIN KNEW 280600Z AUTO 16006KT 10SM CLR 27/23 A2995 -10 82 1400 160/06 RMK AO2 T02670233
53917KNEW NEW20190928000510809/28/19 00:05:31  5-MIN KNEW 280605Z AUTO 16006KT 10SM CLR 27/23 A2995 -10 82 1400 160/06 RMK AO2 T02670233
53917KNEW NEW20190928001010809/28/19 00:10:31  5-MIN KNEW 280610Z AUTO 16006KT 10SM CLR 27/23 A2995 -10 82 1400 160/06 RMK AO2 T02670233
53917KNEW NEW20190928001510809/28/19 00:15:31  5-MIN KNEW 280615Z AUTO 15006KT 10SM CLR 27/23 A2995 -20 82 1400 150/06 RMK AO2 T02670233
53917KNEW NEW20190928002010809/28/19 00:20:31  5-MIN KNEW 280620Z AUTO 15006KT 10SM CLR 27/23 A2995 -20 82 1400 150/06 RMK AO2 T02670233
53917KNEW NEW20190928002510809/28/19 00:25:31  5-MIN KNEW 280625Z AUTO 15007KT 10SM CLR 27/23 A2995 -20 82 1400 150/07 RMK AO2 T02670233
53917KNEW NEW20190928003010809/28/19 00:30:31  5-MIN KNEW 280630Z AUTO 15007KT 10SM CLR 27/23 A2995 -20 82 1400 150/07 RMK AO2 T02670233
53917KNEW NEW20190928003510809/28/19 00:35:31  5-MIN KNEW 280635Z AUTO 15006KT 10SM CLR 27/23 A2995 -10 82 1400 150/06 RMK AO2 T02670233
53917KNEW NEW20190928004010809/28/19 00:40:31  5-MIN KNEW 280640Z AUTO 15006KT 10SM CLR 27/23 A2995 -10 82 1400 150/06 RMK AO2 T02670233
53917KNEW NEW20190928004510809/28/19 00:45:31  5-MIN KNEW 280645Z AUTO 15006KT 10SM CLR 27/23 A2995 -10 82 1400 150/06 RMK AO2 T02670233
53917KNEW NEW20190928005011509/28/19 00:50:31  5-MIN KNEW 280650Z AUTO 14008KT 10SM CLR 27/23 A2995 -10 82 1400 140/08 RMK AO2 SLP134 T02670233
53917KNEW NEW20190928005510809/28/19 00:55:31  5-MIN KNEW 280655Z AUTO 14007KT 10SM CLR 27/23 A2995 -10 82 1400 140/07 RMK AO2 T02670233
53917KNEW NEW20190928010010809/28/19 01:00:31  5-MIN KNEW 280700Z AUTO 14007KT 10SM CLR 27/23 A2995 -10 82 1400 140/07 RMK AO2 T02670233
53917KNEW NEW20190928010510809/28/19 01:05:31  5-MIN KNEW 280705Z AUTO 14007KT 10SM CLR 27/23 A2995 -10 82 1400 140/07 RMK AO2 T02670233
53917KNEW NEW20190928011010809/28/19 01:10:31  5-MIN KNEW 280710Z AUTO 14007KT 10SM CLR 27/23 A2994 -10 82 1400 140/07 RMK AO2 T02670233
53917KNEW NEW20190928011510809/28/19 01:15:31  5-MIN KNEW 280715Z AUTO 14006KT 10SM CLR 27/23 A2995 -10 82 1400 140/06 RMK AO2 T02670233
53917KNEW NEW20190928012010809/28/19 01:20:31  5-MIN KNEW 280720Z AUTO 14006KT 10SM CLR 27/23 A2995 -10 82 1400 140/06 RMK AO2 T02670233
53917KNEW NEW20190928012510809/28/19 01:25:31  5-MIN KNEW 280725Z AUTO 14006KT 10SM CLR 27/23 A2995 -10 82 1400 140/06 RMK AO2 T02670233
53917KNEW NEW20190928013010809/28/19 01:30:31  5-MIN KNEW 280730Z AUTO 14006KT 10SM CLR 27/23 A2995 -10 82 1400 140/06 RMK AO2 T02670233
53917KNEW NEW20190928013510809/28/19 01:35:31  5-MIN KNEW 280735Z AUTO 14007KT 10SM CLR 27/23 A2995 -10 82 1400 140/07 RMK AO2 T02670233
53917KNEW NEW20190928014010809/28/19 01:40:31  5-MIN KNEW 280740Z AUTO 15006KT 10SM CLR 27/23 A2995 -10 82 1400 150/06 RMK AO2 T02670233
53917KNEW NEW20190928014510809/28/19 01:45:31  5-MIN KNEW 280745Z AUTO 15007KT 10SM CLR 27/23 A2995 -10 82 1400 150/07 RMK AO2 T02670233
53917KNEW NEW20190928015011509/28/19 01:50:31  5-MIN KNEW 280750Z AUTO 14006KT 10SM CLR 27/23 A2995 -10 82 1400 140/06 RMK AO2 SLP135 T02670233
53917KNEW NEW20190928015510809/28/19 01:55:31  5-MIN KNEW 280755Z AUTO 14006KT 10SM CLR 27/23 A2995 -10 82 1400 140/06 RMK AO2 T02670233
53917KNEW NEW20190928020010809/28/19 02:00:31  5-MIN KNEW 280800Z AUTO 14006KT 10SM CLR 27/23 A2995 -10 82 1400 140/06 RMK AO2 T02670233
53917KNEW NEW20190928020510809/28/19 02:05:31  5-MIN KNEW 280805Z AUTO 15006KT 10SM CLR 27/23 A2995 -10 82 1400 150/06 RMK AO2 T02670233
53917KNEW NEW20190928021010809/28/19 02:10:31  5-MIN KNEW 280810Z AUTO 16007KT 10SM CLR 27/23 A2994 -10 82 1400 160/07 RMK AO2 T02670233
53917KNEW NEW20190928021510809/28/19 02:15:31  5-MIN KNEW 280815Z AUTO 16006KT 10SM CLR 27/23 A2995 -10 82 1400 160/06 RMK AO2 T02670233
53917KNEW NEW20190928022010809/28/19 02:20:31  5-MIN KNEW 280820Z AUTO 17006KT 10SM CLR 27/23 A2995 -10 82 1400 170/06 RMK AO2 T02670233
53917KNEW NEW20190928022510809/28/19 02:25:31  5-MIN KNEW 280825Z AUTO 17006KT 10SM CLR 27/23 A2995 -10 82 1400 170/06 RMK AO2 T02670233
53917KNEW NEW20190928023010809/28/19 02:30:31  5-MIN KNEW 280830Z AUTO 17006KT 10SM CLR 26/23 A2995 -10 84 1300 170/06 RMK AO2 T02610233
53917KNEW NEW20190928023510809/28/19 02:35:31  5-MIN KNEW 280835Z AUTO 16006KT 10SM CLR 27/23 A2995 -10 82 1400 160/06 RMK AO2 T02670233
53917KNEW NEW20190928024010809/28/19 02:40:31  5-MIN KNEW 280840Z AUTO 16006KT 10SM CLR 27/23 A2995 -10 82 1400 160/06 RMK AO2 T02670233
53917KNEW NEW20190928024510809/28/19 02:45:31  5-MIN KNEW 280845Z AUTO 16005KT 10SM CLR 27/23 A2995 -10 82 1400 160/05 RMK AO2 T02670233
53917KNEW NEW20190928025012109/28/19 02:50:31  5-MIN KNEW 280850Z AUTO 15005KT 10SM CLR 27/23 A2995 -20 82 1400 150/05 RMK AO2 SLP136 T02670233 58001
53917KNEW NEW20190928025510809/28/19 02:55:31  5-MIN KNEW 280855Z AUTO 15005KT 10SM CLR 27/23 A2995 -20 82 1400 150/05 RMK AO2 T02670233
53917KNEW NEW20190928030010809/28/19 03:00:31  5-MIN KNEW 280900Z AUTO 15005KT 10SM CLR 27/23 A2995 -20 82 1400 150/05 RMK AO2 T02670233
53917KNEW NEW20190928030510809/28/19 03:05:31  5-MIN KNEW 280905Z AUTO 15005KT 10SM CLR 27/23 A2996 -20 82 1400 150/05 RMK AO2 T02670233
53917KNEW NEW20190928031010809/28/19 03:10:31  5-MIN KNEW 280910Z AUTO 15004KT 10SM CLR 27/23 A2996 -20 82 1400 150/04 RMK AO2 T02670233
53917KNEW NEW20190928031510809/28/19 03:15:31  5-MIN KNEW 280915Z AUTO 15004KT 10SM CLR 26/23 A2996 -20 84 1300 150/04 RMK AO2 T02610233
53917KNEW NEW20190928032010809/28/19 03:20:31  5-MIN KNEW 280920Z AUTO 14005KT 10SM CLR 26/23 A2996 -20 84 1300 140/05 RMK AO2 T02610233
53917KNEW NEW20190928032510809/28/19 03:25:31  5-MIN KNEW 280925Z AUTO 14004KT 10SM CLR 26/23 A2996 -20 84 1300 140/04 RMK AO2 T02610233
53917KNEW NEW20190928033010809/28/19 03:30:31  5-MIN KNEW 280930Z AUTO 14005KT 10SM CLR 26/24 A2996 -20 87 1300 140/05 RMK AO2 T02610239
53917KNEW NEW20190928033510809/28/19 03:35:31  5-MIN KNEW 280935Z AUTO 14004KT 10SM CLR 26/24 A2996 -20 87 1300 140/04 RMK AO2 T02610239
53917KNEW NEW20190928034010809/28/19 03:40:31  5-MIN KNEW 280940Z AUTO 14004KT 10SM CLR 26/24 A2996 -30 87 1300 140/04 RMK AO2 T02610239
53917KNEW NEW20190928034510809/28/19 03:45:31  5-MIN KNEW 280945Z AUTO 13003KT 10SM CLR 26/24 A2996 -30 87 1300 130/03 RMK AO2 T02610239
53917KNEW NEW20190928035011509/28/19 03:50:31  5-MIN KNEW 280950Z AUTO 13004KT 10SM CLR 26/24 A2996 -30 87 1300 130/04 RMK AO2 SLP140 T02610239
53917KNEW NEW20190928035510809/28/19 03:55:31  5-MIN KNEW 280955Z AUTO 13004KT 10SM CLR 26/24 A2997 -30 87 1300 130/04 RMK AO2 T02610239
53917KNEW NEW20190928040010809/28/19 04:00:31  5-MIN KNEW 281000Z AUTO 13004KT 10SM CLR 26/24 A2997 -30 87 1300 130/04 RMK AO2 T02610239
53917KNEW NEW20190928040510809/28/19 04:05:31  5-MIN KNEW 281005Z AUTO 13004KT 10SM CLR 26/24 A2997 -30 87 1300 130/04 RMK AO2 T02610239
53917KNEW NEW20190928041010809/28/19 04:10:31  5-MIN KNEW 281010Z AUTO 13004KT 10SM CLR 26/24 A2997 -30 87 1300 130/04 RMK AO2 T02610239
53917KNEW NEW20190928041510809/28/19 04:15:31  5-MIN KNEW 281015Z AUTO 12004KT 10SM CLR 26/24 A2997 -30 87 1300 120/04 RMK AO2 T02610239
53917KNEW NEW20190928042010709/28/19 04:20:31  5-MIN KNEW 281020Z AUTO 12005KT 9SM CLR 26/24 A2997 -30 87 1300 120/05 RMK AO2 T02610239
53917KNEW NEW20190928042510709/28/19 04:25:31  5-MIN KNEW 281025Z AUTO 12004KT 9SM CLR 26/24 A2997 -40 87 1300 120/04 RMK AO2 T02610239
53917KNEW NEW20190928043010709/28/19 04:30:31  5-MIN KNEW 281030Z AUTO 12005KT 9SM CLR 26/24 A2998 -40 87 1300 120/05 RMK AO2 T02610239
53917KNEW NEW20190928043510809/28/19 04:35:31  5-MIN KNEW 281035Z AUTO 12005KT 10SM CLR 26/24 A2998 -40 87 1300 120/05 RMK AO2 T02610239
53917KNEW NEW20190928044010809/28/19 04:40:31  5-MIN KNEW 281040Z AUTO 11005KT 10SM CLR 26/24 A2998 -40 87 1300 110/05 RMK AO2 T02610239
53917KNEW NEW20190928044510809/28/19 04:45:31  5-MIN KNEW 281045Z AUTO 12005KT 10SM CLR 26/24 A2999 -50 87 1300 120/05 RMK AO2 T02610239
53917KNEW NEW20190928045011509/28/19 04:50:31  5-MIN KNEW 281050Z AUTO 12005KT 10SM CLR 26/24 A2999 -50 87 1300 120/05 RMK AO2 SLP147 T02610239
53917KNEW NEW20190928045510809/28/19 04:55:31  5-MIN KNEW 281055Z AUTO 12005KT 10SM CLR 26/24 A2999 -50 87 1300 120/05 RMK AO2 T02610239
53917KNEW NEW20190928050010809/28/19 05:00:31  5-MIN KNEW 281100Z AUTO 12005KT 10SM CLR 26/24 A2999 -50 87 1300 120/05 RMK AO2 T02610239
53917KNEW NEW20190928050511109/28/19 05:05:31  5-MIN KNEW 281105Z AUTO 12005KT 10SM FEW027 26/24 A2999 -50 87 1300 120/05 RMK AO2 T02610239
53917KNEW NEW20190928051011109/28/19 05:10:31  5-MIN KNEW 281110Z AUTO 12005KT 10SM FEW027 26/24 A2999 -50 87 1300 120/05 RMK AO2 T02610239
53917KNEW NEW20190928051511109/28/19 05:15:31  5-MIN KNEW 281115Z AUTO 13004KT 10SM FEW027 26/24 A2999 -50 87 1300 130/04 RMK AO2 T02610239
53917KNEW NEW20190928052011109/28/19 05:20:31  5-MIN KNEW 281120Z AUTO 13005KT 10SM FEW027 26/24 A3000 -60 87 1300 130/05 RMK AO2 T02610239
53917KNEW NEW20190928052511109/28/19 05:25:31  5-MIN KNEW 281125Z AUTO 13005KT 10SM FEW026 26/24 A3000 -60 87 1200 130/05 RMK AO2 T02610239
53917KNEW NEW20190928053011109/28/19 05:30:31  5-MIN KNEW 281130Z AUTO 14005KT 10SM FEW026 26/24 A3000 -60 87 1200 140/05 RMK AO2 T02610239
53917KNEW NEW20190928053510809/28/19 05:35:31  5-MIN KNEW 281135Z AUTO 14004KT 10SM CLR 26/24 A3000 -60 87 1200 140/04 RMK AO2 T02610239
53917KNEW NEW20190928054010809/28/19 05:40:31  5-MIN KNEW 281140Z AUTO 13003KT 10SM CLR 26/24 A3000 -60 87 1200 130/03 RMK AO2 T02610239
53917KNEW NEW20190928054510809/28/19 05:45:31  5-MIN KNEW 281145Z AUTO 14004KT 10SM CLR 26/24 A3000 -60 87 1200 140/04 RMK AO2 T02610239
53917KNEW NEW20190928055012809/28/19 05:50:31  5-MIN KNEW 281150Z 14004KT 10SM CLR 26/23 A3001 -70 87 1200 140/04 RMK AO2 SLP154 T02560233 10267 20256 53001
53917KNEW NEW20190928055510209/28/19 05:55:31  5-MIN KNEW 281155Z 14004KT 9SM CLR 26/23 A3001 -70 87 1200 140/04 RMK AO2 T02560233
53917KNEW NEW20190928060010209/28/19 06:00:31  5-MIN KNEW 281200Z 13004KT 8SM CLR 26/23 A3001 -70 84 1200 130/04 RMK AO2 T02610233
53917KNEW NEW20190928060510209/28/19 06:05:31  5-MIN KNEW 281205Z 12004KT 8SM CLR 26/24 A3001 -70 87 1200 120/04 RMK AO2 T02610239
53917KNEW NEW20190928061010209/28/19 06:10:31  5-MIN KNEW 281210Z 13004KT 8SM CLR 26/24 A3001 -70 87 1200 130/04 RMK AO2 T02610239
53917KNEW NEW20190928061510209/28/19 06:15:31  5-MIN KNEW 281215Z 13004KT 8SM CLR 26/24 A3001 -70 87 1200 130/04 RMK AO2 T02610239
53917KNEW NEW20190928062010209/28/19 06:20:31  5-MIN KNEW 281220Z 12004KT 8SM CLR 26/24 A3002 -70 87 1200 120/04 RMK AO2 T02610239
53917KNEW NEW20190928062510209/28/19 06:25:31  5-MIN KNEW 281225Z 12004KT 8SM CLR 26/24 A3002 -80 87 1200 120/04 RMK AO2 T02610239
53917KNEW NEW20190928063010209/28/19 06:30:31  5-MIN KNEW 281230Z 13004KT 8SM CLR 26/24 A3002 -80 87 1200 130/04 RMK AO2 T02610239
53917KNEW NEW20190928063510209/28/19 06:35:31  5-MIN KNEW 281235Z 13004KT 8SM CLR 27/24 A3002 -80 87 1300 130/04 RMK AO2 T02670244
53917KNEW NEW20190928064010209/28/19 06:40:31  5-MIN KNEW 281240Z 13004KT 8SM CLR 27/24 A3002 -80 87 1300 130/04 RMK AO2 T02670244
53917KNEW NEW20190928064510209/28/19 06:45:31  5-MIN KNEW 281245Z 13004KT 8SM CLR 27/24 A3002 -80 87 1300 130/04 RMK AO2 T02670244
53917KNEW NEW20190928065010909/28/19 06:50:31  5-MIN KNEW 281250Z 13004KT 9SM CLR 27/24 A3003 -90 87 1300 130/04 RMK AO2 SLP161 T02670244
53917KNEW NEW20190928065510209/28/19 06:55:31  5-MIN KNEW 281255Z 13004KT 9SM CLR 27/24 A3003 -90 84 1300 130/04 RMK AO2 T02720244
53917KNEW NEW20190928070010209/28/19 07:00:31  5-MIN KNEW 281300Z 13004KT 9SM CLR 27/24 A3003 -90 84 1300 130/04 RMK AO2 T02720244
53917KNEW NEW20190928070510209/28/19 07:05:31  5-MIN KNEW 281305Z 12005KT 9SM CLR 27/24 A3003 -90 84 1300 120/05 RMK AO2 T02720244
53917KNEW NEW20190928071010209/28/19 07:10:31  5-MIN KNEW 281310Z 13005KT 9SM CLR 28/24 A3003 -90 82 1400 130/05 RMK AO2 T02780244
53917KNEW NEW20190928071510209/28/19 07:15:31  5-MIN KNEW 281315Z 12005KT 9SM CLR 28/24 A3003 -90 82 1400 120/05 RMK AO2 T02780244
53917KNEW NEW20190928072010209/28/19 07:20:31  5-MIN KNEW 281320Z 12005KT 9SM CLR 28/24 A3004 -90 82 1400 120/05 RMK AO2 T02780244
53917KNEW NEW20190928072510209/28/19 07:25:31  5-MIN KNEW 281325Z 13004KT 9SM CLR 28/24 A3004 -90 82 1400 130/04 RMK AO2 T02780244
53917KNEW NEW20190928073010209/28/19 07:30:31  5-MIN KNEW 281330Z 13006KT 9SM CLR 28/24 A3004 -90 79 1500 130/06 RMK AO2 T02830244
53917KNEW NEW20190928073510409/28/19 07:35:31  5-MIN KNEW 281335Z 12007KT 10SM CLR 28/24 A3004 -100 76 1500 120/07 RMK AO2 T02830239
53917KNEW NEW20190928074010409/28/19 07:40:31  5-MIN KNEW 281340Z 13007KT 10SM CLR 28/24 A3004 -100 76 1400 130/07 RMK AO2 T02830239
53917KNEW NEW20190928074510409/28/19 07:45:31  5-MIN KNEW 281345Z 13007KT 10SM CLR 28/24 A3004 -100 76 1400 130/07 RMK AO2 T02830239
53917KNEW NEW20190928075011109/28/19 07:50:31  5-MIN KNEW 281350Z 13008KT 10SM CLR 28/24 A3005 -100 76 1400 130/08 RMK AO2 SLP167 T02830239
53917KNEW NEW20190928075510409/28/19 07:55:31  5-MIN KNEW 281355Z 12008KT 10SM CLR 29/24 A3005 -100 74 1500 120/08 RMK AO2 T02890239
53917KNEW NEW20190928080010409/28/19 08:00:31  5-MIN KNEW 281400Z 13008KT 10SM CLR 29/24 A3005 -100 74 1500 130/08 RMK AO2 T02890239
53917KNEW NEW20190928080510409/28/19 08:05:31  5-MIN KNEW 281405Z 12007KT 10SM CLR 29/24 A3005 -110 74 1500 120/07 RMK AO2 T02890239
53917KNEW NEW20190928081010409/28/19 08:10:31  5-MIN KNEW 281410Z 13010KT 10SM CLR 29/23 A3006 -110 71 1500 130/10 RMK AO2 T02890233
53917KNEW NEW20190928081510409/28/19 08:15:31  5-MIN KNEW 281415Z 14009KT 10SM CLR 29/23 A3006 -110 71 1500 140/09 RMK AO2 T02890233
53917KNEW NEW20190928082010409/28/19 08:20:31  5-MIN KNEW 281420Z 14008KT 10SM CLR 29/23 A3006 -110 69 1600 140/08 RMK AO2 T02940233
53917KNEW NEW20190928082510409/28/19 08:25:31  5-MIN KNEW 281425Z 12011KT 10SM CLR 29/23 A3006 -110 69 1600 120/11 RMK AO2 T02940233
53917KNEW NEW20190928083010409/28/19 08:30:31  5-MIN KNEW 281430Z 13008KT 10SM CLR 29/23 A3006 -110 69 1600 130/08 RMK AO2 T02940233
53917KNEW NEW20190928083510409/28/19 08:35:31  5-MIN KNEW 281435Z 12009KT 10SM CLR 29/23 A3006 -120 69 1600 120/09 RMK AO2 T02940233
53917KNEW NEW20190928084010409/28/19 08:40:31  5-MIN KNEW 281440Z 13009KT 10SM CLR 29/23 A3006 -120 71 1500 130/09 RMK AO2 T02890233
53917KNEW NEW20190928084510409/28/19 08:45:31  5-MIN KNEW 281445Z 11008KT 10SM CLR 29/23 A3006 -120 69 1600 110/08 RMK AO2 T02940233
53917KNEW NEW20190928085011709/28/19 08:50:31  5-MIN KNEW 281450Z 13009KT 10SM CLR 29/23 A3006 -120 69 1500 130/09 RMK AO2 SLP174 T02940233 53018
53917KNEW NEW20190928085510409/28/19 08:55:31  5-MIN KNEW 281455Z 14008KT 10SM CLR 30/23 A3006 -120 65 1600 140/08 RMK AO2 T03000228
53917KNEW NEW20190928090010409/28/19 09:00:31  5-MIN KNEW 281500Z 13011KT 10SM CLR 30/23 A3007 -120 67 1600 130/11 RMK AO2 T03000233
53917KNEW NEW20190928090510409/28/19 09:05:31  5-MIN KNEW 281505Z 12008KT 10SM CLR 30/23 A3007 -120 65 1600 120/08 RMK AO2 T03000228
53917KNEW NEW20190928091010409/28/19 09:10:31  5-MIN KNEW 281510Z 12010KT 10SM CLR 30/23 A3007 -120 65 1600 120/10 RMK AO2 T03000228
53917KNEW NEW20190928091510709/28/19 09:15:31  5-MIN KNEW 281515Z 12009KT 10SM FEW028 30/23 A3007 -130 65 1600 120/09 RMK AO2 T03000228
53917KNEW NEW20190928092010709/28/19 09:20:31  5-MIN KNEW 281520Z 11011KT 10SM FEW028 30/22 A3007 -130 62 1600 110/11 RMK AO2 T03000222
53917KNEW NEW20190928092511409/28/19 09:25:31  5-MIN KNEW 281525Z 11008KT 10SM FEW030 SCT044 29/23 A3007 -130 67 1500 110/08 RMK AO2 T02940228
53917KNEW NEW20190928093012109/28/19 09:30:31  5-MIN KNEW 281530Z 13011KT 10SM SCT030 SCT037 SCT044 30/23 A3007 -130 65 1600 130/11 RMK AO2 T03000228
53917KNEW NEW20190928093511409/28/19 09:35:31  5-MIN KNEW 281535Z 14009KT 10SM FEW031 SCT040 30/22 A3007 -130 62 1600 140/09 RMK AO2 T03000222
53917KNEW NEW20190928094011409/28/19 09:40:31  5-MIN KNEW 281540Z 13008KT 10SM FEW031 SCT042 31/23 A3008 -130 62 1700 130/08 RMK AO2 T03060228
53917KNEW NEW20190928094511409/28/19 09:45:31  5-MIN KNEW 281545Z 11007KT 10SM SCT031 SCT042 30/23 A3008 -130 65 1600 110/07 RMK AO2 T03000228
53917KNEW NEW20190928095012109/28/19 09:50:31  5-MIN KNEW 281550Z 12006KT 10SM FEW029 SCT040 31/23 A3008 -140 62 1700 120/06 RMK AO2 SLP180 T03060228
53917KNEW NEW20190928095511409/28/19 09:55:31  5-MIN KNEW 281555Z 14011KT 10SM FEW031 SCT040 31/23 A3008 -130 62 1700 140/11 RMK AO2 T03060228
53917KNEW NEW20190928100010709/28/19 10:00:31  5-MIN KNEW 281600Z 13008KT 10SM FEW029 31/22 A3008 -130 60 1700 130/08 RMK AO2 T03060222
53917KNEW NEW20190928100510709/28/19 10:05:31  5-MIN KNEW 281605Z 10007KT 10SM SCT031 31/22 A3008 -130 60 1700 100/07 RMK AO2 T03060222
53917KNEW NEW20190928101010709/28/19 10:10:31  5-MIN KNEW 281610Z 11008KT 10SM SCT031 31/23 A3008 -130 62 1700 110/08 RMK AO2 T03060228
53917KNEW NEW20190928101510709/28/19 10:15:31  5-MIN KNEW 281615Z 11009KT 10SM FEW032 30/23 A3008 -130 67 1600 110/09 RMK AO2 T03000233
53917KNEW NEW20190928102012109/28/19 10:20:31  5-MIN KNEW 281620Z 10007KT 10SM FEW031 SCT038 SCT045 29/23 A3008 -140 69 1500 100/07 RMK AO2 T02940233
53917KNEW NEW20190928102512109/28/19 10:25:31  5-MIN KNEW 281625Z 10009KT 10SM SCT031 BKN038 BKN045 30/23 A3008 -130 67 1600 100/09 RMK AO2 T03000233
53917KNEW NEW20190928103010709/28/19 10:30:31  5-MIN KNEW 281630Z 11010KT 10SM BKN031 31/23 A3008 -130 62 1700 110/10 RMK AO2 T03060228
53917KNEW NEW20190928103510709/28/19 10:35:31  5-MIN KNEW 281635Z 11009KT 10SM BKN031 31/23 A3008 -130 60 1700 110/09 RMK AO2 T03110228
53917KNEW NEW20190928104011409/28/19 10:40:31  5-MIN KNEW 281640Z 11008KT 10SM SCT031 SCT040 31/23 A3008 -130 63 1700 110/08 RMK AO2 T03110233
53917KNEW NEW20190928104510709/28/19 10:45:31  5-MIN KNEW 281645Z 12009KT 10SM SCT031 32/23 A3008 -130 58 1800 120/09 RMK AO2 T03170228
53917KNEW NEW20190928105011409/28/19 10:50:31  5-MIN KNEW 281650Z 10009KT 10SM BKN031 31/23 A3008 -130 62 1700 100/09 RMK AO2 SLP179 T03060228
53917KNEW NEW20190928105510709/28/19 10:55:31  5-MIN KNEW 281655Z 09009KT 10SM BKN031 31/23 A3008 -130 62 1700 090/09 RMK AO2 T03060228
53917KNEW NEW20190928110012009/28/19 11:00:31  5-MIN KNEW 281700Z 09012G17KT 10SM SCT031 BKN044 31/23 A3008 -130 62 1700 090/12G17 RMK AO2 T03060228
53917KNEW NEW20190928110512709/28/19 11:05:31  5-MIN KNEW 281705Z 09009G17KT 10SM SCT032 BKN042 BKN049 31/23 A3007 -130 62 1700 090/09G17 RMK AO2 T03060228
53917KNEW NEW20190928111011409/28/19 11:10:31  5-MIN KNEW 281710Z 12010KT 10SM BKN034 BKN046 31/22 A3008 -130 58 1700 120/10 RMK AO2 T03110222
53917KNEW NEW20190928111511409/28/19 11:15:31  5-MIN KNEW 281715Z 10010KT 10SM SCT034 BKN044 32/22 A3007 -130 56 1800 100/10 RMK AO2 T03170222
53917KNEW NEW20190928112011409/28/19 11:20:31  5-MIN KNEW 281720Z 09011KT 10SM SCT034 BKN044 32/22 A3007 -120 56 1800 090/11 RMK AO2 T03170222
53917KNEW NEW20190928112511409/28/19 11:25:31  5-MIN KNEW 281725Z 11009KT 10SM SCT036 BKN044 32/22 A3007 -120 56 1800 110/09 RMK AO2 T03170222
53917KNEW NEW20190928113012009/28/19 11:30:31  5-MIN KNEW 281730Z 10011G16KT 10SM SCT036 SCT046 32/22 A3007 -120 56 1800 100/11G16 RMK AO2 T03170222
53917KNEW NEW20190928113511409/28/19 11:35:31  5-MIN KNEW 281735Z 11012KT 10SM SCT036 SCT046 31/22 A3007 -120 58 1700 110/12 RMK AO2 T03110222
53917KNEW NEW20190928114011409/28/19 11:40:31  5-MIN KNEW 281740Z 12011KT 10SM FEW036 SCT047 32/22 A3006 -120 55 1800 120/11 RMK AO2 T03170217
53917KNEW NEW20190928114511409/28/19 11:45:31  5-MIN KNEW 281745Z 12009KT 10SM FEW037 FEW047 32/21 A3006 -120 53 1800 120/09 RMK AO2 T03170211
53917KNEW NEW20190928115013909/28/19 11:50:31  5-MIN KNEW 281750Z 11010KT 10SM FEW037 FEW047 32/22 A3006 -110 55 1800 110/10 RMK AO2 SLP173 T03170217 10322 20256 51019
53917KNEW NEW20190928115511409/28/19 11:55:31  5-MIN KNEW 281755Z 11010KT 10SM FEW037 FEW047 32/21 A3006 -110 53 1800 110/10 RMK AO2 T03170211
53917KNEW NEW20190928120010709/28/19 12:00:31  5-MIN KNEW 281800Z 11012KT 10SM FEW041 32/22 A3006 -110 55 1800 110/12 RMK AO2 T03170217
53917KNEW NEW20190928120510709/28/19 12:05:31  5-MIN KNEW 281805Z 10010KT 10SM FEW041 32/21 A3006 -110 53 1800 100/10 RMK AO2 T03170211
53917KNEW NEW20190928121010709/28/19 12:10:31  5-MIN KNEW 281810Z 11007KT 10SM FEW041 32/22 A3006 -110 55 1800 110/07 RMK AO2 T03170217
53917KNEW NEW20190928121510709/28/19 12:15:31  5-MIN KNEW 281815Z 10011KT 10SM FEW039 32/22 A3006 -110 55 1900 100/11 RMK AO2 T03220222
53917KNEW NEW20190928122011409/28/19 12:20:31  5-MIN KNEW 281820Z 10011KT 10SM SCT039 SCT047 32/22 A3005 -110 55 1900 100/11 RMK AO2 T03220222
53917KNEW NEW20190928122511409/28/19 12:25:31  5-MIN KNEW 281825Z 10012KT 10SM SCT037 BKN047 32/22 A3005 -110 56 1800 100/12 RMK AO2 T03170222
53917KNEW NEW20190928123011409/28/19 12:30:31  5-MIN KNEW 281830Z 09013KT 10SM SCT039 SCT045 32/22 A3005 -110 55 1900 090/13 RMK AO2 T03220222
53917KNEW NEW20190928123511409/28/19 12:35:31  5-MIN KNEW 281835Z 10013KT 10SM FEW039 SCT049 31/22 A3005 -110 58 1700 100/13 RMK AO2 T03110222
53917KNEW NEW20190928124011409/28/19 12:40:31  5-MIN KNEW 281840Z 11010KT 10SM SCT039 BKN049 31/23 A3005 -110 60 1800 110/10 RMK AO2 T03110228
53917KNEW NEW20190928124511409/28/19 12:45:31  5-MIN KNEW 281845Z 10012KT 10SM SCT037 BKN047 32/23 A3005 -100 58 1800 100/12 RMK AO2 T03170228
53917KNEW NEW20190928125012109/28/19 12:50:31  5-MIN KNEW 281850Z 11011KT 10SM SCT037 BKN047 31/22 A3005 -100 56 1800 110/11 RMK AO2 SLP168 T03110217
53917KNEW NEW20190928125512109/28/19 12:55:31  5-MIN KNEW 281855Z 11014KT 10SM FEW037 BKN047 BKN060 32/22 A3005 -100 56 1800 110/14 RMK AO2 T03170222
53917KNEW NEW20190928130012109/28/19 13:00:31  5-MIN KNEW 281900Z 10010KT 10SM FEW037 SCT049 BKN060 32/22 A3004 -100 55 1800 100/10 RMK AO2 T03170217
53917KNEW NEW20190928130512109/28/19 13:05:31  5-MIN KNEW 281905Z 12014KT 10SM FEW037 SCT049 BKN075 32/22 A3004 -100 55 1800 120/14 RMK AO2 T03170217
53917KNEW NEW20190928131012009/28/19 13:10:31  5-MIN KNEW 281910Z 10015KT 10SM FEW037 FEW060 SCT075 32/22 A3004 -90 55 1800 100/15 RMK AO2 T03170217
53917KNEW NEW20190928131511409/28/19 13:15:31  5-MIN KNEW 281915Z 10013KT 10SM FEW037 FEW075 32/22 A3004 -100 55 1800 100/13 RMK AO2 T03170217
53917KNEW NEW20190928132011309/28/19 13:20:31  5-MIN KNEW 281920Z 10012KT 10SM FEW037 FEW070 32/22 A3004 -90 55 1800 100/12 RMK AO2 T03170217
53917KNEW NEW20190928132510609/28/19 13:25:31  5-MIN KNEW 281925Z 10011KT 10SM FEW038 32/22 A3003 -90 56 1800 100/11 RMK AO2 T03170222
53917KNEW NEW20190928133010609/28/19 13:30:31  5-MIN KNEW 281930Z 11013KT 10SM FEW038 32/22 A3003 -90 55 1800 110/13 RMK AO2 T03170217
53917KNEW NEW20190928133510609/28/19 13:35:31  5-MIN KNEW 281935Z 10012KT 10SM FEW038 32/22 A3003 -90 56 1800 100/12 RMK AO2 T03170222
53917KNEW NEW20190928134011309/28/19 13:40:31  5-MIN KNEW 281940Z 09012KT 10SM FEW038 SCT055 31/22 A3003 -90 56 1800 090/12 RMK AO2 T03110217
53917KNEW NEW20190928134511309/28/19 13:45:31  5-MIN KNEW 281945Z 11013KT 10SM SCT038 SCT060 32/22 A3003 -90 56 1800 110/13 RMK AO2 T03170222
53917KNEW NEW20190928135011309/28/19 13:50:31  5-MIN KNEW 281950Z 10014KT 10SM SCT038 31/22 A3003 -90 58 1800 100/14 RMK AO2 SLP162 T03110222
53917KNEW NEW20190928135510609/28/19 13:55:31  5-MIN KNEW 281955Z 10012KT 10SM SCT038 32/22 A3003 -90 56 1800 100/12 RMK AO2 T03170222
53917KNEW NEW20190928140011309/28/19 14:00:31  5-MIN KNEW 282000Z 09013KT 10SM BKN037 BKN044 32/23 A3003 -80 58 1800 090/13 RMK AO2 T03170228
53917KNEW NEW20190928140511309/28/19 14:05:31  5-MIN KNEW 282005Z 10015KT 10SM SCT037 BKN046 32/23 A3003 -80 58 1800 100/15 RMK AO2 T03170228
53917KNEW NEW20190928141011309/28/19 14:10:31  5-MIN KNEW 282010Z 10012KT 10SM SCT036 SCT046 31/22 A3003 -80 58 1800 100/12 RMK AO2 T03110222
53917KNEW NEW20190928141511309/28/19 14:15:31  5-MIN KNEW 282015Z 09015KT 10SM FEW036 SCT046 32/23 A3003 -80 58 1800 090/15 RMK AO2 T03170228
53917KNEW NEW20190928142011309/28/19 14:20:31  5-MIN KNEW 282020Z 10013KT 10SM SCT034 SCT045 31/23 A3003 -80 60 1800 100/13 RMK AO2 T03110228
53917KNEW NEW20190928142511309/28/19 14:25:31  5-MIN KNEW 282025Z 09015KT 10SM SCT034 SCT045 32/23 A3002 -80 58 1800 090/15 RMK AO2 T03170228
53917KNEW NEW20190928143011909/28/19 14:30:31  5-MIN KNEW 282030Z 09015G20KT 10SM SCT034 SCT045 31/23 A3002 -80 60 1800 090/15G20 RMK AO2 T03110228
53917KNEW NEW20190928143511309/28/19 14:35:31  5-MIN KNEW 282035Z 09015KT 10SM SCT031 BKN044 31/23 A3002 -80 60 1800 090/15 RMK AO2 T03110228
53917KNEW NEW20190928144011309/28/19 14:40:31  5-MIN KNEW 282040Z 10015KT 10SM SCT031 BKN044 31/23 A3002 -80 62 1700 100/15 RMK AO2 T03060228
53917KNEW NEW20190928144511309/28/19 14:45:31  5-MIN KNEW 282045Z 09015KT 10SM SCT032 BKN043 31/23 A3002 -80 62 1700 090/15 RMK AO2 T03060228
53917KNEW NEW20190928145013809/28/19 14:50:31  5-MIN KNEW 282050Z AUTO 09016KT 10SM FEW031 SCT039 SCT047 31/23 A3002 -80 60 1800 090/16 RMK AO2 SLP160 T03110228 58002
53917KNEW NEW20190928145511809/28/19 14:55:31  5-MIN KNEW 282055Z AUTO 09016KT 10SM FEW034 SCT047 31/23 A3002 -80 62 1700 090/16 RMK AO2 T03060228
53917KNEW NEW20190928150011309/28/19 15:00:31  5-MIN KNEW 282100Z 10014KT 10SM FEW034 SCT047 31/23 A3002 -80 62 1700 100/14 RMK AO2 T03060228
53917KNEW NEW20190928150510609/28/19 15:05:31  5-MIN KNEW 282105Z 10015KT 10SM FEW035 31/22 A3002 -80 60 1700 100/15 RMK AO2 T03060222
53917KNEW NEW20190928151010609/28/19 15:10:31  5-MIN KNEW 282110Z 11014KT 10SM FEW035 31/22 A3002 -80 58 1700 110/14 RMK AO2 T03060217
53917KNEW NEW20190928151510309/28/19 15:15:31  5-MIN KNEW 282115Z 11011KT 10SM CLR 31/22 A3002 -80 58 1700 110/11 RMK AO2 T03060217
53917KNEW NEW20190928152010309/28/19 15:20:31  5-MIN KNEW 282120Z 13013KT 10SM CLR 31/22 A3002 -80 56 1800 130/13 RMK AO2 T03110217
53917KNEW NEW20190928152510309/28/19 15:25:31  5-MIN KNEW 282125Z 12012KT 10SM CLR 31/22 A3002 -80 56 1800 120/12 RMK AO2 T03110217
53917KNEW NEW20190928153010309/28/19 15:30:31  5-MIN KNEW 282130Z 12013KT 10SM CLR 31/21 A3002 -80 54 1800 120/13 RMK AO2 T03110211
53917KNEW NEW20190928153510309/28/19 15:35:31  5-MIN KNEW 282135Z 11013KT 10SM CLR 31/22 A3002 -80 58 1800 110/13 RMK AO2 T03110222
53917KNEW NEW20190928154010309/28/19 15:40:31  5-MIN KNEW 282140Z 12014KT 10SM CLR 31/21 A3002 -80 56 1700 120/14 RMK AO2 T03060211
53917KNEW NEW20190928154510309/28/19 15:45:31  5-MIN KNEW 282145Z 11012KT 10SM CLR 31/21 A3002 -80 56 1700 110/12 RMK AO2 T03060211
53917KNEW NEW20190928155011009/28/19 15:50:31  5-MIN KNEW 282150Z 11013KT 10SM CLR 31/22 A3002 -70 58 1700 110/13 RMK AO2 SLP158 T03060217
53917KNEW NEW20190928155510309/28/19 15:55:31  5-MIN KNEW 282155Z 12013KT 10SM CLR 31/22 A3002 -80 58 1700 120/13 RMK AO2 T03060217
53917KNEW NEW20190928160010309/28/19 16:00:31  5-MIN KNEW 282200Z 11011KT 10SM CLR 31/22 A3002 -80 58 1700 110/11 RMK AO2 T03060217
53917KNEW NEW20190928160510309/28/19 16:05:31  5-MIN KNEW 282205Z 10014KT 10SM CLR 31/22 A3001 -70 58 1700 100/14 RMK AO2 T03060217
53917KNEW NEW20190928161010309/28/19 16:10:31  5-MIN KNEW 282210Z 10015KT 10SM CLR 31/22 A3002 -70 58 1700 100/15 RMK AO2 T03060217
53917KNEW NEW20190928161510309/28/19 16:15:31  5-MIN KNEW 282215Z 09014KT 10SM CLR 31/21 A3002 -70 56 1700 090/14 RMK AO2 T03060211
53917KNEW NEW20190928162010309/28/19 16:20:31  5-MIN KNEW 282220Z 10013KT 10SM CLR 31/21 A3001 -70 56 1700 100/13 RMK AO2 T03060211
53917KNEW NEW20190928162510309/28/19 16:25:31  5-MIN KNEW 282225Z 11013KT 10SM CLR 31/22 A3002 -70 58 1700 110/13 RMK AO2 T03060217
53917KNEW NEW20190928163010309/28/19 16:30:31  5-MIN KNEW 282230Z 12013KT 10SM CLR 30/22 A3002 -70 60 1700 120/13 RMK AO2 T03000217
53917KNEW NEW20190928163510309/28/19 16:35:31  5-MIN KNEW 282235Z 11012KT 10SM CLR 30/22 A3002 -80 60 1700 110/12 RMK AO2 T03000217
53917KNEW NEW20190928164010909/28/19 16:40:31  5-MIN KNEW 282240Z 11011G19KT 10SM CLR 30/21 A3002 -80 58 1700 110/11G19 RMK AO2 T03000211
53917KNEW NEW20190928164510909/28/19 16:45:31  5-MIN KNEW 282245Z 11014G19KT 10SM CLR 30/21 A3001 -70 58 1700 110/14G19 RMK AO2 T03000211
53917KNEW NEW20190928165011009/28/19 16:50:31  5-MIN KNEW 282250Z 11013KT 10SM CLR 30/21 A3001 -70 58 1700 110/13 RMK AO2 SLP157 T03000211
53917KNEW NEW20190928165510309/28/19 16:55:31  5-MIN KNEW 282255Z 13013KT 10SM CLR 30/21 A3002 -70 58 1700 130/13 RMK AO2 T03000211
53917KNEW NEW20190928170010309/28/19 17:00:31  5-MIN KNEW 282300Z 12011KT 10SM CLR 30/21 A3002 -70 58 1700 120/11 RMK AO2 T03000211
53917KNEW NEW20190928170510309/28/19 17:05:31  5-MIN KNEW 282305Z 12011KT 10SM CLR 30/21 A3002 -70 58 1700 120/11 RMK AO2 T03000211
53917KNEW NEW20190928171010309/28/19 17:10:31  5-MIN KNEW 282310Z 12013KT 10SM CLR 29/21 A3002 -80 58 1600 120/13 RMK AO2 T02940206
53917KNEW NEW20190928171510309/28/19 17:15:31  5-MIN KNEW 282315Z 12012KT 10SM CLR 29/21 A3002 -70 60 1600 120/12 RMK AO2 T02940211
53917KNEW NEW20190928172010309/28/19 17:20:31  5-MIN KNEW 282320Z 12012KT 10SM CLR 29/21 A3002 -70 60 1600 120/12 RMK AO2 T02940211
53917KNEW NEW20190928172510309/28/19 17:25:31  5-MIN KNEW 282325Z 12011KT 10SM CLR 29/21 A3002 -70 60 1600 120/11 RMK AO2 T02940211
53917KNEW NEW20190928173010309/28/19 17:30:31  5-MIN KNEW 282330Z 12011KT 10SM CLR 29/21 A3002 -70 60 1600 120/11 RMK AO2 T02940211
53917KNEW NEW20190928173510309/28/19 17:35:31  5-MIN KNEW 282335Z 12010KT 10SM CLR 29/21 A3002 -80 60 1600 120/10 RMK AO2 T02940211
53917KNEW NEW20190928174010309/28/19 17:40:31  5-MIN KNEW 282340Z 12011KT 10SM CLR 29/21 A3002 -80 62 1500 120/11 RMK AO2 T02890211
53917KNEW NEW20190928174510309/28/19 17:45:31  5-MIN KNEW 282345Z 12010KT 10SM CLR 29/21 A3002 -80 62 1500 120/10 RMK AO2 T02890211
53917KNEW NEW20190928175012809/28/19 17:50:31  5-MIN KNEW 282350Z 12011KT 10SM CLR 29/21 A3002 -80 62 1500 120/11 RMK AO2 SLP159 T02890211 10322 20289 56013
53917KNEW NEW20190928175510309/28/19 17:55:31  5-MIN KNEW 282355Z 13010KT 10SM CLR 29/21 A3002 -80 62 1500 130/10 RMK AO2 T02890211
53917KNEW NEW20190928180010309/28/19 18:00:31  5-MIN KNEW 290000Z 13009KT 10SM CLR 29/21 A3002 -80 62 1500 130/09 RMK AO2 T02890211
53917KNEW NEW20190928180510309/28/19 18:05:31  5-MIN KNEW 290005Z 13009KT 10SM CLR 29/21 A3002 -80 62 1500 130/09 RMK AO2 T02890211
53917KNEW NEW20190928181010309/28/19 18:10:31  5-MIN KNEW 290010Z 13009KT 10SM CLR 29/22 A3002 -80 64 1500 130/09 RMK AO2 T02890217
53917KNEW NEW20190928181510309/28/19 18:15:31  5-MIN KNEW 290015Z 12010KT 10SM CLR 28/22 A3002 -80 66 1500 120/10 RMK AO2 T02830217
53917KNEW NEW20190928182010309/28/19 18:20:31  5-MIN KNEW 290020Z 12010KT 10SM CLR 28/22 A3002 -80 66 1500 120/10 RMK AO2 T02830217
53917KNEW NEW20190928182510309/28/19 18:25:31  5-MIN KNEW 290025Z 12010KT 10SM CLR 28/22 A3002 -80 66 1500 120/10 RMK AO2 T02830217
53917KNEW NEW20190928183010309/28/19 18:30:31  5-MIN KNEW 290030Z 12009KT 10SM CLR 28/22 A3003 -80 66 1500 120/09 RMK AO2 T02830217
53917KNEW NEW20190928183510309/28/19 18:35:31  5-MIN KNEW 290035Z 13009KT 10SM CLR 28/22 A3003 -80 66 1500 130/09 RMK AO2 T02830217
53917KNEW NEW20190928184010309/28/19 18:40:31  5-MIN KNEW 290040Z 13008KT 10SM CLR 28/22 A3003 -90 69 1500 130/08 RMK AO2 T02830222
53917KNEW NEW20190928184511309/28/19 18:45:31  5-MIN KNEW 290045Z 13007KT 10SM FEW031 FEW040 28/22 A3003 -90 69 1500 130/07 RMK AO2 T02830222
53917KNEW NEW20190928185012009/28/19 18:50:31  5-MIN KNEW 290050Z 13009KT 10SM FEW031 SCT040 28/22 A3003 -90 69 1500 130/09 RMK AO2 SLP162 T02830222
53917KNEW NEW20190928185511309/28/19 18:55:31  5-MIN KNEW 290055Z 13008KT 10SM FEW031 FEW040 28/22 A3003 -90 69 1500 130/08 RMK AO2 T02830222
53917KNEW NEW20190928190010609/28/19 19:00:31  5-MIN KNEW 290100Z 13007KT 10SM FEW032 28/22 A3003 -90 69 1500 130/07 RMK AO2 T02830222
53917KNEW NEW20190928190510609/28/19 19:05:31  5-MIN KNEW 290105Z 13008KT 10SM FEW032 28/22 A3003 -90 69 1500 130/08 RMK AO2 T02830222
53917KNEW NEW20190928191010609/28/19 19:10:31  5-MIN KNEW 290110Z 13009KT 10SM FEW032 28/22 A3003 -90 69 1500 130/09 RMK AO2 T02830222
53917KNEW NEW20190928191510609/28/19 19:15:31  5-MIN KNEW 290115Z 13009KT 10SM FEW032 28/22 A3004 -90 69 1500 130/09 RMK AO2 T02830222
53917KNEW NEW20190928192010309/28/19 19:20:31  5-MIN KNEW 290120Z 12009KT 10SM CLR 28/22 A3004 -90 69 1500 120/09 RMK AO2 T02830222
53917KNEW NEW20190928192510309/28/19 19:25:31  5-MIN KNEW 290125Z 13009KT 10SM CLR 28/22 A3004 -90 69 1500 130/09 RMK AO2 T02830222
53917KNEW NEW20190928193010309/28/19 19:30:31  5-MIN KNEW 290130Z 12008KT 10SM CLR 28/22 A3004 -90 69 1500 120/08 RMK AO2 T02830222
53917KNEW NEW20190928193510309/28/19 19:35:31  5-MIN KNEW 290135Z 12008KT 10SM CLR 28/22 A3004 -90 71 1400 120/08 RMK AO2 T02780222
53917KNEW NEW20190928194010309/28/19 19:40:31  5-MIN KNEW 290140Z 12007KT 10SM CLR 28/23 A3004 -90 74 1400 120/07 RMK AO2 T02780228
53917KNEW NEW20190928194510409/28/19 19:45:31  5-MIN KNEW 290145Z 12007KT 10SM CLR 28/23 A3004 -100 74 1400 120/07 RMK AO2 T02780228
53917KNEW NEW20190928195011109/28/19 19:50:31  5-MIN KNEW 290150Z 12008KT 10SM CLR 28/23 A3004 -100 74 1400 120/08 RMK AO2 SLP166 T02780228
53917KNEW NEW20190928195510409/28/19 19:55:31  5-MIN KNEW 290155Z 12008KT 10SM CLR 28/23 A3004 -100 74 1400 120/08 RMK AO2 T02780228
53917KNEW NEW20190928200010409/28/19 20:00:31  5-MIN KNEW 290200Z 12007KT 10SM CLR 28/23 A3005 -100 74 1400 120/07 RMK AO2 T02780228
53917KNEW NEW20190928200510909/28/19 20:05:31  5-MIN KNEW 290205Z AUTO 13008KT 10SM CLR 28/23 A3005 -100 74 1400 130/08 RMK AO2 T02780228
53917KNEW NEW20190928201010909/28/19 20:10:31  5-MIN KNEW 290210Z AUTO 13009KT 10SM CLR 28/23 A3005 -110 74 1400 130/09 RMK AO2 T02780228
53917KNEW NEW20190928201510909/28/19 20:15:31  5-MIN KNEW 290215Z AUTO 12008KT 10SM CLR 28/23 A3005 -110 74 1400 120/08 RMK AO2 T02780228
53917KNEW NEW20190928202010909/28/19 20:20:31  5-MIN KNEW 290220Z AUTO 13008KT 10SM CLR 28/23 A3005 -110 76 1400 130/08 RMK AO2 T02780233
53917KNEW NEW20190928202510909/28/19 20:25:31  5-MIN KNEW 290225Z AUTO 13007KT 10SM CLR 28/23 A3006 -110 76 1400 130/07 RMK AO2 T02780233
53917KNEW NEW20190928203010909/28/19 20:30:31  5-MIN KNEW 290230Z AUTO 12008KT 10SM CLR 28/23 A3006 -110 76 1400 120/08 RMK AO2 T02780233
53917KNEW NEW20190928203510909/28/19 20:35:31  5-MIN KNEW 290235Z AUTO 12008KT 10SM CLR 28/23 A3006 -110 76 1400 120/08 RMK AO2 T02780233
53917KNEW NEW20190928204010909/28/19 20:40:31  5-MIN KNEW 290240Z AUTO 12009KT 10SM CLR 28/23 A3006 -110 76 1400 120/09 RMK AO2 T02780233
53917KNEW NEW20190928204510909/28/19 20:45:31  5-MIN KNEW 290245Z AUTO 12007KT 10SM CLR 28/23 A3006 -110 76 1400 120/07 RMK AO2 T02780233
53917KNEW NEW20190928205012209/28/19 20:50:31  5-MIN KNEW 290250Z AUTO 12007KT 10SM CLR 28/23 A3006 -110 76 1400 120/07 RMK AO2 SLP172 T02780233 55001
53917KNEW NEW20190928205511209/28/19 20:55:31  5-MIN KNEW 290255Z AUTO 12008KT 10SM FEW028 28/23 A3006 -110 76 1400 120/08 RMK AO2 T02780233
53917KNEW NEW20190928210011209/28/19 21:00:31  5-MIN KNEW 290300Z AUTO 12007KT 10SM FEW028 28/23 A3006 -120 76 1400 120/07 RMK AO2 T02780233
53917KNEW NEW20190928210510909/28/19 21:05:31  5-MIN KNEW 290305Z AUTO 12006KT 10SM CLR 28/23 A3006 -120 76 1400 120/06 RMK AO2 T02780233
53917KNEW NEW20190928211010909/28/19 21:10:31  5-MIN KNEW 290310Z AUTO 11008KT 10SM CLR 28/23 A3006 -120 76 1400 110/08 RMK AO2 T02780233
53917KNEW NEW20190928211510909/28/19 21:15:31  5-MIN KNEW 290315Z AUTO 12007KT 10SM CLR 28/23 A3007 -120 76 1400 120/07 RMK AO2 T02780233
53917KNEW NEW20190928212010909/28/19 21:20:31  5-MIN KNEW 290320Z AUTO 11008KT 10SM CLR 28/24 A3007 -120 79 1400 110/08 RMK AO2 T02780239
53917KNEW NEW20190928212510909/28/19 21:25:31  5-MIN KNEW 290325Z AUTO 12007KT 10SM CLR 28/24 A3006 -120 79 1400 120/07 RMK AO2 T02780239
53917KNEW NEW20190928213010909/28/19 21:30:31  5-MIN KNEW 290330Z AUTO 11009KT 10SM CLR 28/24 A3006 -120 79 1400 110/09 RMK AO2 T02780239
53917KNEW NEW20190928213510909/28/19 21:35:31  5-MIN KNEW 290335Z AUTO 12010KT 10SM CLR 28/23 A3006 -120 76 1400 120/10 RMK AO2 T02780233
53917KNEW NEW20190928214010909/28/19 21:40:31  5-MIN KNEW 290340Z AUTO 12008KT 10SM CLR 28/23 A3006 -120 76 1400 120/08 RMK AO2 T02780233
53917KNEW NEW20190928214510909/28/19 21:45:31  5-MIN KNEW 290345Z AUTO 12008KT 10SM CLR 28/23 A3006 -120 76 1400 120/08 RMK AO2 T02780233
53917KNEW NEW20190928215011609/28/19 21:50:31  5-MIN KNEW 290350Z AUTO 12008KT 10SM CLR 28/23 A3006 -120 76 1400 120/08 RMK AO2 SLP173 T02780233
53917KNEW NEW20190928215510909/28/19 21:55:31  5-MIN KNEW 290355Z AUTO 12008KT 10SM CLR 28/23 A3006 -120 76 1400 120/08 RMK AO2 T02780233
53917KNEW NEW20190928220010909/28/19 22:00:31  5-MIN KNEW 290400Z AUTO 12008KT 10SM CLR 28/23 A3006 -120 76 1400 120/08 RMK AO2 T02780233
53917KNEW NEW20190928220510909/28/19 22:05:31  5-MIN KNEW 290405Z AUTO 12009KT 10SM CLR 28/23 A3006 -120 76 1400 120/09 RMK AO2 T02780233
53917KNEW NEW20190928221010909/28/19 22:10:31  5-MIN KNEW 290410Z AUTO 12009KT 10SM CLR 28/23 A3006 -120 76 1400 120/09 RMK AO2 T02780233
53917KNEW NEW20190928221510909/28/19 22:15:31  5-MIN KNEW 290415Z AUTO 12008KT 10SM CLR 28/23 A3006 -110 76 1400 120/08 RMK AO2 T02780233
53917KNEW NEW20190928222010909/28/19 22:20:31  5-MIN KNEW 290420Z AUTO 12010KT 10SM CLR 28/23 A3006 -110 76 1400 120/10 RMK AO2 T02780233
53917KNEW NEW20190928222510909/28/19 22:25:31  5-MIN KNEW 290425Z AUTO 12010KT 10SM CLR 28/23 A3006 -110 76 1400 120/10 RMK AO2 T02780233
53917KNEW NEW20190928223010909/28/19 22:30:31  5-MIN KNEW 290430Z AUTO 12010KT 10SM CLR 28/23 A3006 -110 76 1400 120/10 RMK AO2 T02780233
53917KNEW NEW20190928223510909/28/19 22:35:31  5-MIN KNEW 290435Z AUTO 12010KT 10SM CLR 28/23 A3006 -110 76 1400 120/10 RMK AO2 T02780233
53917KNEW NEW20190928224010909/28/19 22:40:31  5-MIN KNEW 290440Z AUTO 13011KT 10SM CLR 28/23 A3005 -110 76 1400 130/11 RMK AO2 T02780233
53917KNEW NEW20190928224510909/28/19 22:45:31  5-MIN KNEW 290445Z AUTO 13009KT 10SM CLR 28/23 A3005 -110 76 1400 130/09 RMK AO2 T02780233
53917KNEW NEW20190928225011609/28/19 22:50:31  5-MIN KNEW 290450Z AUTO 13009KT 10SM CLR 28/23 A3005 -110 76 1400 130/09 RMK AO2 SLP169 T02780233
53917KNEW NEW20190928225510909/28/19 22:55:31  5-MIN KNEW 290455Z AUTO 13009KT 10SM CLR 28/23 A3005 -110 76 1400 130/09 RMK AO2 T02780233
53917KNEW NEW20190928230010909/28/19 23:00:31  5-MIN KNEW 290500Z AUTO 13010KT 10SM CLR 27/23 A3005 -100 79 1300 130/10 RMK AO2 T02720233
53917KNEW NEW20190928230510909/28/19 23:05:31  5-MIN KNEW 290505Z AUTO 13009KT 10SM CLR 27/23 A3005 -100 79 1300 130/09 RMK AO2 T02720233
53917KNEW NEW20190928231010909/28/19 23:10:31  5-MIN KNEW 290510Z AUTO 13009KT 10SM CLR 27/23 A3005 -110 79 1300 130/09 RMK AO2 T02720233
53917KNEW NEW20190928231510909/28/19 23:15:31  5-MIN KNEW 290515Z AUTO 13010KT 10SM CLR 27/23 A3005 -110 79 1300 130/10 RMK AO2 T02720233
53917KNEW NEW20190928232010909/28/19 23:20:31  5-MIN KNEW 290520Z AUTO 13009KT 10SM CLR 27/23 A3005 -110 79 1300 130/09 RMK AO2 T02720233
53917KNEW NEW20190928232510909/28/19 23:25:31  5-MIN KNEW 290525Z AUTO 13009KT 10SM CLR 27/23 A3005 -110 79 1300 130/09 RMK AO2 T02720233
53917KNEW NEW20190928233010909/28/19 23:30:31  5-MIN KNEW 290530Z AUTO 13009KT 10SM CLR 27/23 A3005 -110 79 1300 130/09 RMK AO2 T02720233
53917KNEW NEW20190928233510909/28/19 23:35:31  5-MIN KNEW 290535Z AUTO 13007KT 10SM CLR 27/23 A3005 -110 79 1300 130/07 RMK AO2 T02720233
53917KNEW NEW20190928234010909/28/19 23:40:31  5-MIN KNEW 290540Z AUTO 14007KT 10SM CLR 27/23 A3005 -110 79 1300 140/07 RMK AO2 T02720233
53917KNEW NEW20190928234510909/28/19 23:45:31  5-MIN KNEW 290545Z AUTO 14007KT 10SM CLR 27/23 A3005 -110 79 1300 140/07 RMK AO2 T02720233
53917KNEW NEW20190928235014409/28/19 23:50:31  5-MIN KNEW 290550Z AUTO 14007KT 10SM CLR 27/23 A3006 -110 82 1200 140/07 RMK AO2 SLP171 T02670233 10289 20267 403220256 53013
53917KNEW NEW20190928235510909/28/19 23:55:31  5-MIN KNEW 290555Z AUTO 14009KT 10SM CLR 27/23 A3006 -110 82 1200 140/09 RMK AO2 T02670233
53917KNEW NEW20190929000010909/29/19 00:00:31  5-MIN KNEW 290600Z AUTO 14008KT 10SM CLR 27/23 A3006 -110 82 1200 140/08 RMK AO2 T02670233
53917KNEW NEW20190929000510909/29/19 00:05:31  5-MIN KNEW 290605Z AUTO 13007KT 10SM CLR 27/23 A3006 -110 82 1200 130/07 RMK AO2 T02670233
53917KNEW NEW20190929001010909/29/19 00:10:31  5-MIN KNEW 290610Z AUTO 13009KT 10SM CLR 27/23 A3006 -110 82 1200 130/09 RMK AO2 T02670233
53917KNEW NEW20190929001510909/29/19 00:15:31  5-MIN KNEW 290615Z AUTO 13008KT 10SM CLR 27/23 A3005 -110 82 1200 130/08 RMK AO2 T02670233
53917KNEW NEW20190929002010909/29/19 00:20:31  5-MIN KNEW 290620Z AUTO 13007KT 10SM CLR 27/23 A3005 -110 82 1200 130/07 RMK AO2 T02670233
53917KNEW NEW20190929002510909/29/19 00:25:31  5-MIN KNEW 290625Z AUTO 14007KT 10SM CLR 27/23 A3005 -110 82 1300 140/07 RMK AO2 T02670233
53917KNEW NEW20190929003010909/29/19 00:30:31  5-MIN KNEW 290630Z AUTO 14008KT 10SM CLR 27/23 A3005 -110 82 1300 140/08 RMK AO2 T02670233
53917KNEW NEW20190929003510909/29/19 00:35:31  5-MIN KNEW 290635Z AUTO 14007KT 10SM CLR 27/23 A3005 -110 82 1300 140/07 RMK AO2 T02670233
53917KNEW NEW20190929004010909/29/19 00:40:31  5-MIN KNEW 290640Z AUTO 14007KT 10SM CLR 27/23 A3005 -110 82 1200 140/07 RMK AO2 T02670233
53917KNEW NEW20190929004510909/29/19 00:45:31  5-MIN KNEW 290645Z AUTO 14007KT 10SM CLR 27/23 A3005 -110 82 1200 140/07 RMK AO2 T02670233
53917KNEW NEW20190929005011609/29/19 00:50:31  5-MIN KNEW 290650Z AUTO 14008KT 10SM CLR 26/23 A3006 -110 84 1200 140/08 RMK AO2 SLP171 T02610233
53917KNEW NEW20190929005510909/29/19 00:55:31  5-MIN KNEW 290655Z AUTO 13006KT 10SM CLR 26/23 A3006 -110 84 1200 130/06 RMK AO2 T02610233
53917KNEW NEW20190929010010909/29/19 01:00:31  5-MIN KNEW 290700Z AUTO 13007KT 10SM CLR 26/23 A3005 -110 84 1200 130/07 RMK AO2 T02610233
53917KNEW NEW20190929010510909/29/19 01:05:31  5-MIN KNEW 290705Z AUTO 13007KT 10SM CLR 26/23 A3005 -110 84 1200 130/07 RMK AO2 T02610233
53917KNEW NEW20190929011010909/29/19 01:10:31  5-MIN KNEW 290710Z AUTO 13005KT 10SM CLR 26/23 A3005 -110 84 1200 130/05 RMK AO2 T02610233
53917KNEW NEW20190929011510909/29/19 01:15:31  5-MIN KNEW 290715Z AUTO 13006KT 10SM CLR 26/23 A3006 -110 84 1200 130/06 RMK AO2 T02610233
53917KNEW NEW20190929012010909/29/19 01:20:31  5-MIN KNEW 290720Z AUTO 13005KT 10SM CLR 26/23 A3005 -110 84 1200 130/05 RMK AO2 T02610233
53917KNEW NEW20190929012510909/29/19 01:25:31  5-MIN KNEW 290725Z AUTO 14005KT 10SM CLR 26/23 A3005 -110 84 1200 140/05 RMK AO2 T02610233
53917KNEW NEW20190929013010909/29/19 01:30:31  5-MIN KNEW 290730Z AUTO 14005KT 10SM CLR 26/23 A3005 -110 84 1200 140/05 RMK AO2 T02610233
53917KNEW NEW20190929013510909/29/19 01:35:31  5-MIN KNEW 290735Z AUTO 14005KT 10SM CLR 26/23 A3005 -110 84 1200 140/05 RMK AO2 T02610233
53917KNEW NEW20190929014010909/29/19 01:40:31  5-MIN KNEW 290740Z AUTO 14005KT 10SM CLR 26/23 A3005 -110 87 1100 140/05 RMK AO2 T02560233
53917KNEW NEW20190929014510909/29/19 01:45:31  5-MIN KNEW 290745Z AUTO 14005KT 10SM CLR 26/23 A3005 -100 87 1100 140/05 RMK AO2 T02560233
53917KNEW NEW20190929015011609/29/19 01:50:31  5-MIN KNEW 290750Z AUTO 14005KT 10SM CLR 26/23 A3005 -100 87 1100 140/05 RMK AO2 SLP168 T02560233
53917KNEW NEW20190929015510909/29/19 01:55:31  5-MIN KNEW 290755Z AUTO 13004KT 10SM CLR 26/23 A3005 -100 87 1100 130/04 RMK AO2 T02560233
53917KNEW NEW20190929020010909/29/19 02:00:31  5-MIN KNEW 290800Z AUTO 15005KT 10SM CLR 26/23 A3004 -100 87 1100 150/05 RMK AO2 T02560233
53917KNEW NEW20190929020510909/29/19 02:05:31  5-MIN KNEW 290805Z AUTO 16004KT 10SM CLR 26/23 A3005 -100 87 1100 160/04 RMK AO2 T02560233
53917KNEW NEW20190929021010909/29/19 02:10:31  5-MIN KNEW 290810Z AUTO 15004KT 10SM CLR 25/23 A3005 -100 87 1100 150/04 RMK AO2 T02500228
53917KNEW NEW20190929021510909/29/19 02:15:31  5-MIN KNEW 290815Z AUTO 15004KT 10SM CLR 26/23 A3005 -100 87 1100 150/04 RMK AO2 T02560233
53917KNEW NEW20190929022010909/29/19 02:20:31  5-MIN KNEW 290820Z AUTO 13005KT 10SM CLR 26/23 A3005 -100 87 1100 130/05 RMK AO2 T02560233
53917KNEW NEW20190929022510909/29/19 02:25:31  5-MIN KNEW 290825Z AUTO 13004KT 10SM CLR 26/23 A3005 -100 87 1100 130/04 RMK AO2 T02560233
53917KNEW NEW20190929023010909/29/19 02:30:31  5-MIN KNEW 290830Z AUTO 13004KT 10SM CLR 26/23 A3005 -100 87 1100 130/04 RMK AO2 T02560233
53917KNEW NEW20190929023510909/29/19 02:35:31  5-MIN KNEW 290835Z AUTO 13004KT 10SM CLR 26/23 A3005 -110 87 1100 130/04 RMK AO2 T02560233
53917KNEW NEW20190929024010909/29/19 02:40:31  5-MIN KNEW 290840Z AUTO 13004KT 10SM CLR 26/23 A3005 -110 87 1100 130/04 RMK AO2 T02560233
53917KNEW NEW20190929024510909/29/19 02:45:31  5-MIN KNEW 290845Z AUTO 12004KT 10SM CLR 26/23 A3005 -110 87 1100 120/04 RMK AO2 T02560233
53917KNEW NEW20190929025012209/29/19 02:50:31  5-MIN KNEW 290850Z AUTO 13004KT 10SM CLR 26/23 A3005 -110 87 1100 130/04 RMK AO2 SLP169 T02560233 55000
53917KNEW NEW20190929025510909/29/19 02:55:31  5-MIN KNEW 290855Z AUTO 13003KT 10SM CLR 26/23 A3005 -110 87 1100 130/03 RMK AO2 T02560233
53917KNEW NEW20190929030010909/29/19 03:00:31  5-MIN KNEW 290900Z AUTO 13003KT 10SM CLR 26/23 A3005 -110 87 1100 130/03 RMK AO2 T02560233
53917KNEW NEW20190929030510909/29/19 03:05:31  5-MIN KNEW 290905Z AUTO 13004KT 10SM CLR 26/23 A3005 -110 87 1100 130/04 RMK AO2 T02560233
53917KNEW NEW20190929031010909/29/19 03:10:31  5-MIN KNEW 290910Z AUTO 12005KT 10SM CLR 26/23 A3005 -110 87 1100 120/05 RMK AO2 T02560233
53917KNEW NEW20190929031510909/29/19 03:15:31  5-MIN KNEW 290915Z AUTO 12004KT 10SM CLR 26/23 A3005 -100 87 1100 120/04 RMK AO2 T02560233
53917KNEW NEW20190929032010909/29/19 03:20:31  5-MIN KNEW 290920Z AUTO 12004KT 10SM CLR 26/23 A3005 -100 87 1100 120/04 RMK AO2 T02560233
53917KNEW NEW20190929032510909/29/19 03:25:31  5-MIN KNEW 290925Z AUTO 12004KT 10SM CLR 26/23 A3005 -110 87 1100 120/04 RMK AO2 T02560233
53917KNEW NEW20190929033010909/29/19 03:30:31  5-MIN KNEW 290930Z AUTO 12003KT 10SM CLR 26/23 A3005 -110 84 1200 120/03 RMK AO2 T02610233
53917KNEW NEW20190929033510909/29/19 03:35:31  5-MIN KNEW 290935Z AUTO 12004KT 10SM CLR 26/23 A3005 -110 84 1200 120/04 RMK AO2 T02610233
53917KNEW NEW20190929034010909/29/19 03:40:31  5-MIN KNEW 290940Z AUTO 12005KT 10SM CLR 26/23 A3005 -110 84 1200 120/05 RMK AO2 T02610233
53917KNEW NEW20190929034510909/29/19 03:45:31  5-MIN KNEW 290945Z AUTO 12004KT 10SM CLR 26/23 A3005 -110 84 1200 120/04 RMK AO2 T02610233
53917KNEW NEW20190929035011609/29/19 03:50:31  5-MIN KNEW 290950Z AUTO 12004KT 10SM CLR 26/24 A3006 -110 87 1200 120/04 RMK AO2 SLP171 T02610239
53917KNEW NEW20190929035510909/29/19 03:55:31  5-MIN KNEW 290955Z AUTO 11006KT 10SM CLR 26/24 A3006 -110 87 1200 110/06 RMK AO2 T02610239
53917KNEW NEW20190929040010909/29/19 04:00:31  5-MIN KNEW 291000Z AUTO 10005KT 10SM CLR 26/24 A3006 -120 87 1200 100/05 RMK AO2 T02610239
53917KNEW NEW20190929040510909/29/19 04:05:31  5-MIN KNEW 291005Z AUTO 10005KT 10SM CLR 26/24 A3006 -120 87 1200 100/05 RMK AO2 T02610239
53917KNEW NEW20190929041010909/29/19 04:10:31  5-MIN KNEW 291010Z AUTO 10005KT 10SM CLR 26/24 A3007 -120 87 1200 100/05 RMK AO2 T02610239
53917KNEW NEW20190929041510909/29/19 04:15:31  5-MIN KNEW 291015Z AUTO 11005KT 10SM CLR 26/24 A3007 -120 87 1200 110/05 RMK AO2 T02610239
53917KNEW NEW20190929042010909/29/19 04:20:31  5-MIN KNEW 291020Z AUTO 11005KT 10SM CLR 26/24 A3007 -120 87 1200 110/05 RMK AO2 T02610239
53917KNEW NEW20190929042510909/29/19 04:25:31  5-MIN KNEW 291025Z AUTO 11006KT 10SM CLR 26/24 A3007 -120 87 1200 110/06 RMK AO2 T02610239
53917KNEW NEW20190929043010909/29/19 04:30:31  5-MIN KNEW 291030Z AUTO 11005KT 10SM CLR 27/24 A3007 -130 84 1200 110/05 RMK AO2 T02670239
53917KNEW NEW20190929043510909/29/19 04:35:31  5-MIN KNEW 291035Z AUTO 11005KT 10SM CLR 27/24 A3007 -130 84 1200 110/05 RMK AO2 T02670239
53917KNEW NEW20190929044010909/29/19 04:40:31  5-MIN KNEW 291040Z AUTO 10006KT 10SM CLR 27/24 A3007 -130 84 1200 100/06 RMK AO2 T02670239
53917KNEW NEW20190929044510909/29/19 04:45:31  5-MIN KNEW 291045Z AUTO 11004KT 10SM CLR 27/24 A3008 -130 84 1200 110/04 RMK AO2 T02670239
53917KNEW NEW20190929045011609/29/19 04:50:31  5-MIN KNEW 291050Z AUTO 11004KT 10SM CLR 27/24 A3008 -130 84 1200 110/04 RMK AO2 SLP178 T02670239
53917KNEW NEW20190929045510909/29/19 04:55:31  5-MIN KNEW 291055Z AUTO 11005KT 10SM CLR 27/24 A3008 -130 84 1200 110/05 RMK AO2 T02670239
53917KNEW NEW20190929050010909/29/19 05:00:31  5-MIN KNEW 291100Z AUTO 10005KT 10SM CLR 27/24 A3008 -130 84 1200 100/05 RMK AO2 T02670239
53917KNEW NEW20190929050510909/29/19 05:05:31  5-MIN KNEW 291105Z AUTO 10005KT 10SM CLR 27/24 A3008 -140 84 1200 100/05 RMK AO2 T02670239
53917KNEW NEW20190929051010909/29/19 05:10:31  5-MIN KNEW 291110Z AUTO 10005KT 10SM CLR 27/24 A3009 -140 87 1200 100/05 RMK AO2 T02670244
53917KNEW NEW20190929051510909/29/19 05:15:31  5-MIN KNEW 291115Z AUTO 09006KT 10SM CLR 27/24 A3009 -140 84 1200 090/06 RMK AO2 T02670239
53917KNEW NEW20190929052010909/29/19 05:20:31  5-MIN KNEW 291120Z AUTO 09005KT 10SM CLR 27/24 A3009 -140 87 1200 090/05 RMK AO2 T02670244
53917KNEW NEW20190929052510909/29/19 05:25:31  5-MIN KNEW 291125Z AUTO 08006KT 10SM CLR 27/24 A3009 -140 87 1200 080/06 RMK AO2 T02670244
53917KNEW NEW20190929053010909/29/19 05:30:31  5-MIN KNEW 291130Z AUTO 09005KT 10SM CLR 27/24 A3009 -140 87 1200 090/05 RMK AO2 T02670244
53917KNEW NEW20190929053510909/29/19 05:35:31  5-MIN KNEW 291135Z AUTO 09005KT 10SM CLR 27/24 A3009 -140 87 1200 090/05 RMK AO2 T02670244
53917KNEW NEW20190929054010909/29/19 05:40:31  5-MIN KNEW 291140Z AUTO 09005KT 10SM CLR 27/24 A3009 -140 84 1300 090/05 RMK AO2 T02720244
53917KNEW NEW20190929054510909/29/19 05:45:31  5-MIN KNEW 291145Z AUTO 09005KT 10SM CLR 27/24 A3009 -140 84 1300 090/05 RMK AO2 T02720244
53917KNEW NEW20190929055013409/29/19 05:50:31  5-MIN KNEW 291150Z AUTO 09005KT 10SM CLR 27/24 A3009 -140 84 1300 090/05 RMK AO2 SLP183 T02720244 10272 20250 55003
53917KNEW NEW20190929055510909/29/19 05:55:31  5-MIN KNEW 291155Z AUTO 09004KT 10SM CLR 27/24 A3009 -150 84 1300 090/04 RMK AO2 T02720244
53917KNEW NEW20190929060010909/29/19 06:00:31  5-MIN KNEW 291200Z AUTO 08005KT 10SM CLR 27/24 A3009 -140 87 1200 080/05 RMK AO2 T02670244
53917KNEW NEW20190929060510909/29/19 06:05:31  5-MIN KNEW 291205Z AUTO 08005KT 10SM CLR 27/24 A3009 -150 87 1200 080/05 RMK AO2 T02670244
53917KNEW NEW20190929061010409/29/19 06:10:31  5-MIN KNEW 291210Z 08006KT 10SM CLR 27/24 A3010 -150 87 1200 080/06 RMK AO2 T02670244
53917KNEW NEW20190929061510409/29/19 06:15:31  5-MIN KNEW 291215Z 08006KT 10SM CLR 27/24 A3010 -150 84 1300 080/06 RMK AO2 T02720244
53917KNEW NEW20190929062010409/29/19 06:20:31  5-MIN KNEW 291220Z 09005KT 10SM CLR 27/24 A3010 -150 84 1300 090/05 RMK AO2 T02720244
53917KNEW NEW20190929062510409/29/19 06:25:31  5-MIN KNEW 291225Z 09006KT 10SM CLR 27/24 A3010 -150 84 1300 090/06 RMK AO2 T02720244
53917KNEW NEW20190929063010409/29/19 06:30:31  5-MIN KNEW 291230Z 09006KT 10SM CLR 27/24 A3010 -150 84 1300 090/06 RMK AO2 T02720244
53917KNEW NEW20190929063510409/29/19 06:35:31  5-MIN KNEW 291235Z 08006KT 10SM CLR 27/24 A3010 -150 84 1300 080/06 RMK AO2 T02720244
53917KNEW NEW20190929064010409/29/19 06:40:31  5-MIN KNEW 291240Z 09006KT 10SM CLR 27/24 A3010 -150 84 1300 090/06 RMK AO2 T02720244
53917KNEW NEW20190929064510409/29/19 06:45:31  5-MIN KNEW 291245Z 09006KT 10SM CLR 27/24 A3010 -150 84 1300 090/06 RMK AO2 T02720244
53917KNEW NEW20190929065011109/29/19 06:50:31  5-MIN KNEW 291250Z 09006KT 10SM CLR 27/24 A3010 -150 84 1300 090/06 RMK AO2 SLP187 T02720244
53917KNEW NEW20190929065510409/29/19 06:55:31  5-MIN KNEW 291255Z 10006KT 10SM CLR 27/24 A3010 -150 84 1300 100/06 RMK AO2 T02720244
53917KNEW NEW20190929070010409/29/19 07:00:31  5-MIN KNEW 291300Z 10006KT 10SM CLR 27/24 A3010 -150 84 1300 100/06 RMK AO2 T02720244
53917KNEW NEW20190929070510409/29/19 07:05:31  5-MIN KNEW 291305Z 10006KT 10SM CLR 28/24 A3011 -160 82 1300 100/06 RMK AO2 T02780244
53917KNEW NEW20190929071010409/29/19 07:10:31  5-MIN KNEW 291310Z 09006KT 10SM CLR 28/24 A3011 -160 82 1300 090/06 RMK AO2 T02780244
53917KNEW NEW20190929071510409/29/19 07:15:31  5-MIN KNEW 291315Z 10005KT 10SM CLR 28/24 A3011 -160 82 1300 100/05 RMK AO2 T02780244
53917KNEW NEW20190929072010409/29/19 07:20:31  5-MIN KNEW 291320Z 09006KT 10SM CLR 28/24 A3011 -160 79 1400 090/06 RMK AO2 T02830244
53917KNEW NEW20190929072510409/29/19 07:25:31  5-MIN KNEW 291325Z 09006KT 10SM CLR 28/24 A3011 -170 79 1400 090/06 RMK AO2 T02830244
53917KNEW NEW20190929073010409/29/19 07:30:31  5-MIN KNEW 291330Z 09007KT 10SM CLR 28/24 A3012 -170 79 1400 090/07 RMK AO2 T02830244
53917KNEW NEW20190929073510409/29/19 07:35:31  5-MIN KNEW 291335Z 09007KT 10SM CLR 28/24 A3012 -170 79 1400 090/07 RMK AO2 T02830244
53917KNEW NEW20190929074010409/29/19 07:40:31  5-MIN KNEW 291340Z 09006KT 10SM CLR 28/24 A3012 -170 79 1400 090/06 RMK AO2 T02830244
53917KNEW NEW20190929074510409/29/19 07:45:31  5-MIN KNEW 291345Z 09006KT 10SM CLR 28/24 A3012 -170 79 1400 090/06 RMK AO2 T02830244
53917KNEW NEW20190929075011109/29/19 07:50:31  5-MIN KNEW 291350Z 09007KT 10SM CLR 28/24 A3012 -170 79 1400 090/07 RMK AO2 SLP193 T02830244
53917KNEW NEW20190929075510409/29/19 07:55:31  5-MIN KNEW 291355Z 09006KT 10SM CLR 28/24 A3012 -170 76 1400 090/06 RMK AO2 T02830239
53917KNEW NEW20190929080010709/29/19 08:00:31  5-MIN KNEW 291400Z 09007KT 10SM FEW023 29/24 A3012 -170 76 1400 090/07 RMK AO2 T02890244
53917KNEW NEW20190929080510709/29/19 08:05:31  5-MIN KNEW 291405Z 09011KT 10SM SCT023 29/24 A3012 -170 74 1400 090/11 RMK AO2 T02890239
53917KNEW NEW20190929081012109/29/19 08:10:31  5-MIN KNEW 291410Z 10010KT 10SM FEW022 SCT029 SCT037 29/23 A3013 -170 71 1400 100/10 RMK AO2 T02890233
53917KNEW NEW20190929081512109/29/19 08:15:31  5-MIN KNEW 291415Z 10011KT 10SM FEW022 SCT030 BKN037 29/23 A3013 -180 71 1400 100/11 RMK AO2 T02890233
53917KNEW NEW20190929082012109/29/19 08:20:31  5-MIN KNEW 291420Z 11009KT 10SM FEW022 SCT030 BKN039 29/23 A3013 -180 71 1400 110/09 RMK AO2 T02890233
53917KNEW NEW20190929082512109/29/19 08:25:31  5-MIN KNEW 291425Z 11010KT 10SM SCT024 BKN030 BKN039 29/23 A3013 -180 71 1400 110/10 RMK AO2 T02890233
53917KNEW NEW20190929083012109/29/19 08:30:31  5-MIN KNEW 291430Z 10011KT 10SM SCT024 BKN030 BKN039 29/23 A3013 -170 71 1400 100/11 RMK AO2 T02890233
53917KNEW NEW20190929083511409/29/19 08:35:31  5-MIN KNEW 291435Z 10011KT 10SM BKN026 BKN036 29/23 A3013 -180 69 1500 100/11 RMK AO2 T02940233
53917KNEW NEW20190929084011409/29/19 08:40:31  5-MIN KNEW 291440Z 11011KT 10SM BKN026 BKN036 29/23 A3013 -180 69 1500 110/11 RMK AO2 T02940233
53917KNEW NEW20190929084511409/29/19 08:45:31  5-MIN KNEW 291445Z 11010KT 10SM SCT026 BKN034 29/23 A3013 -180 69 1500 110/10 RMK AO2 T02940233
53917KNEW NEW20190929085012709/29/19 08:50:31  5-MIN KNEW 291450Z 12010KT 10SM FEW026 SCT034 29/23 A3013 -180 69 1500 120/10 RMK AO2 SLP195 T02940233 51011
53917KNEW NEW20190929085512109/29/19 08:55:31  5-MIN KNEW 291455Z 10010KT 10SM FEW026 FEW031 SCT039 30/23 A3013 -180 67 1500 100/10 RMK AO2 T03000233
53917KNEW NEW20190929090010709/29/19 09:00:31  5-MIN KNEW 291500Z 10012KT 10SM SCT028 29/23 A3013 -180 69 1500 100/12 RMK AO2 T02940233
53917KNEW NEW20190929090510709/29/19 09:05:31  5-MIN KNEW 291505Z 10010KT 10SM SCT028 29/23 A3013 -180 69 1500 100/10 RMK AO2 T02940233
53917KNEW NEW20190929091010709/29/19 09:10:31  5-MIN KNEW 291510Z 11012KT 10SM SCT028 29/23 A3013 -180 69 1500 110/12 RMK AO2 T02940233
53917KNEW NEW20190929091510709/29/19 09:15:31  5-MIN KNEW 291515Z 11013KT 10SM SCT028 30/23 A3013 -180 67 1500 110/13 RMK AO2 T03000233
53917KNEW NEW20190929092010709/29/19 09:20:31  5-MIN KNEW 291520Z 09011KT 10SM FEW028 30/23 A3013 -180 67 1500 090/11 RMK AO2 T03000233
53917KNEW NEW20190929092510709/29/19 09:25:31  5-MIN KNEW 291525Z 09013KT 10SM FEW028 30/23 A3013 -180 65 1500 090/13 RMK AO2 T03000228
53917KNEW NEW20190929093011409/29/19 09:30:31  5-MIN KNEW 291530Z 09010KT 10SM FEW028 SCT035 30/23 A3013 -180 65 1500 090/10 RMK AO2 T03000228
53917KNEW NEW20190929093510709/29/19 09:35:31  5-MIN KNEW 291535Z 10011KT 10SM FEW027 30/23 A3013 -180 65 1500 100/11 RMK AO2 T03000228
53917KNEW NEW20190929094010709/29/19 09:40:31  5-MIN KNEW 291540Z 10011KT 10SM FEW029 30/23 A3013 -180 65 1500 100/11 RMK AO2 T03000228
53917KNEW NEW20190929094511409/29/19 09:45:31  5-MIN KNEW 291545Z 10010KT 10SM FEW029 SCT042 31/23 A3013 -180 65 1600 100/10 RMK AO2 T03060233
53917KNEW NEW20190929095012109/29/19 09:50:31  5-MIN KNEW 291550Z 11011KT 10SM FEW033 SCT042 31/23 A3013 -180 65 1600 110/11 RMK AO2 SLP196 T03060233
53917KNEW NEW20190929095511409/29/19 09:55:31  5-MIN KNEW 291555Z 11012KT 10SM FEW033 SCT042 30/23 A3013 -180 65 1500 110/12 RMK AO2 T03000228
53917KNEW NEW20190929100011409/29/19 10:00:31  5-MIN KNEW 291600Z 10011KT 10SM FEW033 SCT044 31/23 A3013 -180 65 1600 100/11 RMK AO2 T03060233
53917KNEW NEW20190929100511409/29/19 10:05:31  5-MIN KNEW 291605Z 11010KT 10SM SCT041 SCT049 30/23 A3013 -180 65 1500 110/10 RMK AO2 T03000228
53917KNEW NEW20190929101012109/29/19 10:10:31  5-MIN KNEW 291610Z 10010KT 10SM FEW029 BKN041 BKN048 30/23 A3013 -180 67 1500 100/10 RMK AO2 T03000233
53917KNEW NEW20190929101512709/29/19 10:15:31  5-MIN KNEW 291615Z 10013G18KT 10SM SCT029 BKN039 BKN048 30/23 A3013 -180 67 1500 100/13G18 RMK AO2 T03000233
53917KNEW NEW20190929102012709/29/19 10:20:31  5-MIN KNEW 291620Z 11012G18KT 10SM SCT029 BKN039 BKN048 31/23 A3013 -180 65 1600 110/12G18 RMK AO2 T03060233
53917KNEW NEW20190929102511409/29/19 10:25:31  5-MIN KNEW 291625Z 09010KT 10SM FEW030 BKN037 31/23 A3013 -180 65 1600 090/10 RMK AO2 T03060233
53917KNEW NEW20190929103011409/29/19 10:30:31  5-MIN KNEW 291630Z 10009KT 10SM FEW030 BKN037 31/23 A3013 -180 63 1700 100/09 RMK AO2 T03110233
53917KNEW NEW20190929103511409/29/19 10:35:31  5-MIN KNEW 291635Z 11013KT 10SM SCT030 BKN037 31/23 A3013 -180 63 1700 110/13 RMK AO2 T03110233
53917KNEW NEW20190929104011409/29/19 10:40:31  5-MIN KNEW 291640Z 10013KT 10SM SCT030 BKN037 31/23 A3013 -180 65 1600 100/13 RMK AO2 T03060233
53917KNEW NEW20190929104511409/29/19 10:45:31  5-MIN KNEW 291645Z 09012KT 10SM SCT030 BKN037 31/23 A3013 -180 62 1600 090/12 RMK AO2 T03060228
53917KNEW NEW20190929105012109/29/19 10:50:31  5-MIN KNEW 291650Z 09012KT 10SM SCT030 BKN037 31/23 A3013 -180 65 1600 090/12 RMK AO2 SLP195 T03060233
53917KNEW NEW20190929105511409/29/19 10:55:31  5-MIN KNEW 291655Z 10012KT 10SM SCT030 BKN037 31/23 A3013 -180 62 1600 100/12 RMK AO2 T03060228
53917KNEW NEW20190929110011409/29/19 11:00:31  5-MIN KNEW 291700Z 10011KT 10SM BKN030 OVC041 31/23 A3013 -180 62 1600 100/11 RMK AO2 T03060228
53917KNEW NEW20190929110512109/29/19 11:05:31  5-MIN KNEW 291705Z 10012KT 10SM SCT030 BKN041 OVC050 31/23 A3012 -170 63 1700 100/12 RMK AO2 T03110233
53917KNEW NEW20190929111012109/29/19 11:10:31  5-MIN KNEW 291710Z 10012KT 10SM SCT030 BKN039 BKN046 31/23 A3012 -170 63 1700 100/12 RMK AO2 T03110233
53917KNEW NEW20190929111512109/29/19 11:15:31  5-MIN KNEW 291715Z 10012KT 10SM FEW030 BKN035 BKN046 31/23 A3012 -170 65 1600 100/12 RMK AO2 T03060233
53917KNEW NEW20190929112012109/29/19 11:20:31  5-MIN KNEW 291720Z 10013KT 10SM FEW030 SCT035 BKN043 31/23 A3012 -170 62 1600 100/13 RMK AO2 T03060228
53917KNEW NEW20190929112512109/29/19 11:25:31  5-MIN KNEW 291725Z 10014KT 10SM FEW033 SCT043 SCT070 31/23 A3012 -170 65 1600 100/14 RMK AO2 T03060233
53917KNEW NEW20190929113012109/29/19 11:30:31  5-MIN KNEW 291730Z 11013KT 10SM SCT032 SCT047 BKN070 31/23 A3012 -170 65 1600 110/13 RMK AO2 T03060233
53917KNEW NEW20190929113511409/29/19 11:35:31  5-MIN KNEW 291735Z 10011KT 10SM FEW030 SCT035 31/23 A3011 -160 60 1700 100/11 RMK AO2 T03110228
53917KNEW NEW20190929114011409/29/19 11:40:31  5-MIN KNEW 291740Z 10013KT 10SM FEW030 SCT035 31/23 A3011 -160 63 1700 100/13 RMK AO2 T03110233
53917KNEW NEW20190929114510709/29/19 11:45:31  5-MIN KNEW 291745Z 10013KT 10SM SCT032 32/23 A3011 -160 61 1700 100/13 RMK AO2 T03170233
53917KNEW NEW20190929115013209/29/19 11:50:31  5-MIN KNEW 291750Z 11013KT 10SM SCT032 32/23 A3011 -160 61 1700 110/13 RMK AO2 SLP189 T03170233 10317 20267 51008
53917KNEW NEW20190929115510709/29/19 11:55:31  5-MIN KNEW 291755Z 10014KT 10SM SCT032 32/23 A3011 -160 58 1700 100/14 RMK AO2 T03170228
53917KNEW NEW20190929120011409/29/19 12:00:31  5-MIN KNEW 291800Z 10014KT 10SM FEW032 SCT041 31/23 A3010 -160 62 1600 100/14 RMK AO2 T03060228
53917KNEW NEW20190929120511409/29/19 12:05:31  5-MIN KNEW 291805Z 10014KT 10SM FEW032 SCT041 31/23 A3010 -150 62 1600 100/14 RMK AO2 T03060228
53917KNEW NEW20190929121011409/29/19 12:10:31  5-MIN KNEW 291810Z 10014KT 10SM FEW032 SCT043 31/23 A3010 -150 60 1700 100/14 RMK AO2 T03110228
53917KNEW NEW20190929121510709/29/19 12:15:31  5-MIN KNEW 291815Z 11011KT 10SM FEW035 31/23 A3010 -150 63 1700 110/11 RMK AO2 T03110233
53917KNEW NEW20190929122010709/29/19 12:20:31  5-MIN KNEW 291820Z 11012KT 10SM FEW035 31/23 A3010 -150 63 1700 110/12 RMK AO2 T03110233
53917KNEW NEW20190929122511409/29/19 12:25:31  5-MIN KNEW 291825Z 10013KT 10SM FEW033 FEW042 31/23 A3010 -150 63 1700 100/13 RMK AO2 T03110233
53917KNEW NEW20190929123010709/29/19 12:30:31  5-MIN KNEW 291830Z 10014KT 10SM FEW031 31/23 A3009 -150 63 1700 100/14 RMK AO2 T03110233
53917KNEW NEW20190929123510709/29/19 12:35:31  5-MIN KNEW 291835Z 10015KT 10SM SCT033 31/23 A3009 -150 60 1700 100/15 RMK AO2 T03110228
53917KNEW NEW20190929124010709/29/19 12:40:31  5-MIN KNEW 291840Z 10013KT 10SM SCT033 31/23 A3009 -140 63 1700 100/13 RMK AO2 T03110233
53917KNEW NEW20190929124511309/29/19 12:45:31  5-MIN KNEW 291845Z 10014G19KT 10SM SCT033 31/23 A3009 -140 63 1700 100/14G19 RMK AO2 T03110233
53917KNEW NEW20190929125011409/29/19 12:50:31  5-MIN KNEW 291850Z 10012KT 10SM SCT033 31/23 A3008 -140 63 1700 100/12 RMK AO2 SLP180 T03110233
53917KNEW NEW20190929125511309/29/19 12:55:31  5-MIN KNEW 291855Z 10014G20KT 10SM SCT033 31/23 A3008 -140 63 1700 100/14G20 RMK AO2 T03110233
53917KNEW NEW20190929130011309/29/19 13:00:31  5-MIN KNEW 291900Z 10013G20KT 10SM SCT033 31/23 A3008 -140 63 1700 100/13G20 RMK AO2 T03110233
53917KNEW NEW20190929130510709/29/19 13:05:31  5-MIN KNEW 291905Z 11012KT 10SM FEW030 31/23 A3008 -140 63 1700 110/12 RMK AO2 T03110233
53917KNEW NEW20190929131012009/29/19 13:10:31  5-MIN KNEW 291910Z 11011G21KT 10SM FEW030 FEW046 31/23 A3008 -130 63 1700 110/11G21 RMK AO2 T03110233
53917KNEW NEW20190929131512009/29/19 13:15:31  5-MIN KNEW 291915Z 10012G21KT 10SM SCT030 SCT046 31/23 A3008 -130 63 1700 100/12G21 RMK AO2 T03110233
53917KNEW NEW20190929132011309/29/19 13:20:31  5-MIN KNEW 291920Z 09015G21KT 10SM SCT030 31/23 A3008 -130 63 1700 090/15G21 RMK AO2 T03110233
53917KNEW NEW20190929205510909/29/19 20:55:31  5-MIN KNEW 300255Z AUTO 14007KT 10SM CLR 27/23 A3010 -150 79 1300 140/07 RMK AO2 T02720233
53917KNEW NEW20190929210010909/29/19 21:00:31  5-MIN KNEW 300300Z AUTO 14007KT 10SM CLR 27/23 A3010 -150 79 1300 140/07 RMK AO2 T02720233
53917KNEW NEW20190929210510909/29/19 21:05:31  5-MIN KNEW 300305Z AUTO 14007KT 10SM CLR 27/23 A3010 -150 79 1300 140/07 RMK AO2 T02720233
53917KNEW NEW20190929211010909/29/19 21:10:31  5-MIN KNEW 300310Z AUTO 15007KT 10SM CLR 27/23 A3010 -150 82 1200 150/07 RMK AO2 T02670233
53917KNEW NEW20190929211510909/29/19 21:15:31  5-MIN KNEW 300315Z AUTO 15006KT 10SM CLR 27/23 A3010 -150 82 1200 150/06 RMK AO2 T02670233
53917KNEW NEW20190929212010909/29/19 21:20:31  5-MIN KNEW 300320Z AUTO 14006KT 10SM CLR 27/23 A3010 -150 82 1200 140/06 RMK AO2 T02670233
53917KNEW NEW20190929212510909/29/19 21:25:31  5-MIN KNEW 300325Z AUTO 14005KT 10SM CLR 27/23 A3010 -150 82 1200 140/05 RMK AO2 T02670233
53917KNEW NEW20190929213010909/29/19 21:30:31  5-MIN KNEW 300330Z AUTO 14006KT 10SM CLR 27/23 A3010 -150 82 1200 140/06 RMK AO2 T02670233
53917KNEW NEW20190929213510909/29/19 21:35:31  5-MIN KNEW 300335Z AUTO 14005KT 10SM CLR 27/23 A3010 -150 82 1200 140/05 RMK AO2 T02670233
53917KNEW NEW20190929214010909/29/19 21:40:31  5-MIN KNEW 300340Z AUTO 13005KT 10SM CLR 27/23 A3010 -150 82 1200 130/05 RMK AO2 T02670233
53917KNEW NEW20190929214510909/29/19 21:45:31  5-MIN KNEW 300345Z AUTO 13005KT 10SM CLR 27/23 A3009 -150 82 1200 130/05 RMK AO2 T02670233
53917KNEW NEW20190929215011609/29/19 21:50:31  5-MIN KNEW 300350Z AUTO 13005KT 10SM CLR 27/23 A3009 -150 82 1200 130/05 RMK AO2 SLP184 T02670233
53917KNEW NEW20190929215510909/29/19 21:55:31  5-MIN KNEW 300355Z AUTO 14005KT 10SM CLR 27/23 A3010 -150 82 1200 140/05 RMK AO2 T02670233
53917KNEW NEW20190929220010909/29/19 22:00:31  5-MIN KNEW 300400Z AUTO 14005KT 10SM CLR 27/23 A3010 -150 82 1200 140/05 RMK AO2 T02670233
53917KNEW NEW20190929220510909/29/19 22:05:31  5-MIN KNEW 300405Z AUTO 14005KT 10SM CLR 27/23 A3010 -150 82 1200 140/05 RMK AO2 T02670233
53917KNEW NEW20190929221010909/29/19 22:10:31  5-MIN KNEW 300410Z AUTO 15005KT 10SM CLR 26/23 A3010 -150 84 1100 150/05 RMK AO2 T02610233
53917KNEW NEW20190929221510909/29/19 22:15:31  5-MIN KNEW 300415Z AUTO 15004KT 10SM CLR 26/23 A3010 -150 84 1100 150/04 RMK AO2 T02610233
53917KNEW NEW20190929222010909/29/19 22:20:31  5-MIN KNEW 300420Z AUTO 15004KT 10SM CLR 26/23 A3010 -150 84 1100 150/04 RMK AO2 T02610233
53917KNEW NEW20190929222510909/29/19 22:25:31  5-MIN KNEW 300425Z AUTO 14004KT 10SM CLR 26/23 A3010 -150 84 1100 140/04 RMK AO2 T02610233
53917KNEW NEW20190929223010909/29/19 22:30:31  5-MIN KNEW 300430Z AUTO 13004KT 10SM CLR 26/23 A3010 -150 84 1100 130/04 RMK AO2 T02610233
53917KNEW NEW20190929223510909/29/19 22:35:31  5-MIN KNEW 300435Z AUTO 14004KT 10SM CLR 26/23 A3010 -150 84 1100 140/04 RMK AO2 T02610233
53917KNEW NEW20190929224010909/29/19 22:40:31  5-MIN KNEW 300440Z AUTO 15004KT 10SM CLR 26/23 A3010 -150 84 1100 150/04 RMK AO2 T02610233
53917KNEW NEW20190929224510909/29/19 22:45:31  5-MIN KNEW 300445Z AUTO 15004KT 10SM CLR 26/23 A3010 -150 84 1100 150/04 RMK AO2 T02610233
53917KNEW NEW20190929225011609/29/19 22:50:31  5-MIN KNEW 300450Z AUTO 14003KT 10SM CLR 26/23 A3010 -150 84 1100 140/03 RMK AO2 SLP186 T02610233
53917KNEW NEW20190929225510909/29/19 22:55:31  5-MIN KNEW 300455Z AUTO 14003KT 10SM CLR 26/23 A3010 -150 84 1100 140/03 RMK AO2 T02610233
53917KNEW NEW20190929230010909/29/19 23:00:31  5-MIN KNEW 300500Z AUTO 14004KT 10SM CLR 26/23 A3010 -150 84 1100 140/04 RMK AO2 T02610233
53917KNEW NEW20190929230510909/29/19 23:05:31  5-MIN KNEW 300505Z AUTO 14004KT 10SM CLR 26/23 A3009 -150 84 1100 140/04 RMK AO2 T02610233
53917KNEW NEW20190929231010909/29/19 23:10:31  5-MIN KNEW 300510Z AUTO 13005KT 10SM CLR 26/23 A3009 -150 84 1100 130/05 RMK AO2 T02610233
53917KNEW NEW20190929231510909/29/19 23:15:31  5-MIN KNEW 300515Z AUTO 14004KT 10SM CLR 26/23 A3009 -150 84 1100 140/04 RMK AO2 T02610233
53917KNEW NEW20190929232010909/29/19 23:20:31  5-MIN KNEW 300520Z AUTO 13004KT 10SM CLR 26/23 A3009 -140 84 1100 130/04 RMK AO2 T02610233
53917KNEW NEW20190929232510909/29/19 23:25:31  5-MIN KNEW 300525Z AUTO 13004KT 10SM CLR 26/24 A3009 -140 87 1100 130/04 RMK AO2 T02610239
53917KNEW NEW20190929233010909/29/19 23:30:31  5-MIN KNEW 300530Z AUTO 14004KT 10SM CLR 26/24 A3009 -150 87 1100 140/04 RMK AO2 T02610239
53917KNEW NEW20190929233510909/29/19 23:35:31  5-MIN KNEW 300535Z AUTO 14004KT 10SM CLR 26/24 A3009 -150 87 1100 140/04 RMK AO2 T02610239
53917KNEW NEW20190929234010909/29/19 23:40:31  5-MIN KNEW 300540Z AUTO 14004KT 10SM CLR 26/24 A3009 -150 87 1100 140/04 RMK AO2 T02610239
53917KNEW NEW20190929234510909/29/19 23:45:31  5-MIN KNEW 300545Z AUTO 14004KT 10SM CLR 26/24 A3009 -150 87 1100 140/04 RMK AO2 T02610239
53917KNEW NEW20190929235014409/29/19 23:50:31  5-MIN KNEW 300550Z AUTO 13005KT 10SM CLR 26/24 A3009 -150 87 1100 130/05 RMK AO2 SLP184 T02610239 10289 20261 403170250 53013
53917KNEW NEW20190929235510909/29/19 23:55:31  5-MIN KNEW 300555Z AUTO 13004KT 10SM CLR 26/24 A3009 -140 87 1100 130/04 RMK AO2 T02610239
53917KNEW NEW20190930000010909/30/19 00:00:31  5-MIN KNEW 300600Z AUTO 13004KT 10SM CLR 26/24 A3009 -140 87 1100 130/04 RMK AO2 T02610239
53917KNEW NEW20190930000510909/30/19 00:05:31  5-MIN KNEW 300605Z AUTO 14004KT 10SM CLR 26/24 A3009 -140 87 1100 140/04 RMK AO2 T02610239
53917KNEW NEW20190930001010909/30/19 00:10:31  5-MIN KNEW 300610Z AUTO 13004KT 10SM CLR 26/24 A3009 -140 87 1100 130/04 RMK AO2 T02610239
53917KNEW NEW20190930001510909/30/19 00:15:31  5-MIN KNEW 300615Z AUTO 13004KT 10SM CLR 27/24 A3009 -140 84 1200 130/04 RMK AO2 T02670239
53917KNEW NEW20190930002010909/30/19 00:20:31  5-MIN KNEW 300620Z AUTO 13004KT 10SM CLR 26/24 A3009 -150 87 1100 130/04 RMK AO2 T02610239
53917KNEW NEW20190930002510909/30/19 00:25:31  5-MIN KNEW 300625Z AUTO 13004KT 10SM CLR 26/24 A3009 -150 87 1100 130/04 RMK AO2 T02610239
53917KNEW NEW20190930003010909/30/19 00:30:31  5-MIN KNEW 300630Z AUTO 13004KT 10SM CLR 26/24 A3009 -150 87 1100 130/04 RMK AO2 T02610239
53917KNEW NEW20190930003510909/30/19 00:35:31  5-MIN KNEW 300635Z AUTO 13003KT 10SM CLR 26/24 A3009 -150 87 1100 130/03 RMK AO2 T02610239
53917KNEW NEW20190930004010909/30/19 00:40:31  5-MIN KNEW 300640Z AUTO 13004KT 10SM CLR 27/24 A3009 -150 84 1200 130/04 RMK AO2 T02670239
53917KNEW NEW20190930004510909/30/19 00:45:31  5-MIN KNEW 300645Z AUTO 11004KT 10SM CLR 26/24 A3009 -150 87 1100 110/04 RMK AO2 T02610239
53917KNEW NEW20190930005011609/30/19 00:50:31  5-MIN KNEW 300650Z AUTO 12004KT 10SM CLR 26/24 A3009 -140 87 1100 120/04 RMK AO2 SLP183 T02610239
53917KNEW NEW20190930005510909/30/19 00:55:31  5-MIN KNEW 300655Z AUTO 12004KT 10SM CLR 26/24 A3009 -140 87 1100 120/04 RMK AO2 T02610239
53917KNEW NEW20190930010010909/30/19 01:00:31  5-MIN KNEW 300700Z AUTO 12005KT 10SM CLR 26/24 A3009 -140 87 1100 120/05 RMK AO2 T02610239
53917KNEW NEW20190930010510909/30/19 01:05:31  5-MIN KNEW 300705Z AUTO 12004KT 10SM CLR 26/24 A3009 -140 87 1100 120/04 RMK AO2 T02610239
53917KNEW NEW20190930011010909/30/19 01:10:31  5-MIN KNEW 300710Z AUTO 12004KT 10SM CLR 26/24 A3009 -140 87 1200 120/04 RMK AO2 T02610239
53917KNEW NEW20190930011510909/30/19 01:15:31  5-MIN KNEW 300715Z AUTO 12004KT 10SM CLR 26/24 A3009 -140 87 1100 120/04 RMK AO2 T02610239
53917KNEW NEW20190930012010909/30/19 01:20:31  5-MIN KNEW 300720Z AUTO 13004KT 10SM CLR 26/24 A3009 -140 87 1100 130/04 RMK AO2 T02610239
53917KNEW NEW20190930012510909/30/19 01:25:31  5-MIN KNEW 300725Z AUTO 13005KT 10SM CLR 26/24 A3008 -140 87 1200 130/05 RMK AO2 T02610239
53917KNEW NEW20190930013010909/30/19 01:30:31  5-MIN KNEW 300730Z AUTO 12004KT 10SM CLR 26/24 A3008 -130 87 1200 120/04 RMK AO2 T02610239
53917KNEW NEW20190930013510909/30/19 01:35:31  5-MIN KNEW 300735Z AUTO 13004KT 10SM CLR 26/24 A3008 -130 87 1200 130/04 RMK AO2 T02610239
53917KNEW NEW20190930014010909/30/19 01:40:31  5-MIN KNEW 300740Z AUTO 12004KT 10SM CLR 26/24 A3008 -130 87 1200 120/04 RMK AO2 T02610239
53917KNEW NEW20190930014510909/30/19 01:45:31  5-MIN KNEW 300745Z AUTO 13004KT 10SM CLR 26/24 A3007 -130 87 1200 130/04 RMK AO2 T02610239
53917KNEW NEW20190930015011609/30/19 01:50:31  5-MIN KNEW 300750Z AUTO 12004KT 10SM CLR 26/24 A3007 -130 87 1200 120/04 RMK AO2 SLP177 T02610239
53917KNEW NEW20190930015510909/30/19 01:55:31  5-MIN KNEW 300755Z AUTO 12005KT 10SM CLR 26/24 A3007 -130 87 1200 120/05 RMK AO2 T02610239
53917KNEW NEW20190930020010909/30/19 02:00:31  5-MIN KNEW 300800Z AUTO 12005KT 10SM CLR 26/24 A3007 -130 87 1200 120/05 RMK AO2 T02610239
53917KNEW NEW20190930020510909/30/19 02:05:31  5-MIN KNEW 300805Z AUTO 12005KT 10SM CLR 26/24 A3008 -130 87 1200 120/05 RMK AO2 T02610239
53917KNEW NEW20190930021011209/30/19 02:10:31  5-MIN KNEW 300810Z AUTO 12004KT 10SM FEW033 26/24 A3008 -130 87 1200 120/04 RMK AO2 T02610239
53917KNEW NEW20190930021511209/30/19 02:15:31  5-MIN KNEW 300815Z AUTO 12004KT 10SM FEW033 26/24 A3007 -130 87 1200 120/04 RMK AO2 T02610239
53917KNEW NEW20190930022011209/30/19 02:20:31  5-MIN KNEW 300820Z AUTO 12004KT 10SM FEW030 27/24 A3007 -130 84 1200 120/04 RMK AO2 T02670239
53917KNEW NEW20190930022512609/30/19 02:25:31  5-MIN KNEW 300825Z AUTO 12004KT 10SM FEW026 FEW034 SCT045 27/24 A3007 -130 84 1200 120/04 RMK AO2 T02670239
53917KNEW NEW20190930023012609/30/19 02:30:31  5-MIN KNEW 300830Z AUTO 12004KT 10SM FEW026 SCT036 SCT045 27/24 A3007 -130 84 1200 120/04 RMK AO2 T02670239
53917KNEW NEW20190930023512609/30/19 02:35:31  5-MIN KNEW 300835Z AUTO 11003KT 10SM FEW026 SCT036 SCT045 27/24 A3007 -130 84 1200 110/03 RMK AO2 T02670239
53917KNEW NEW20190930024012609/30/19 02:40:31  5-MIN KNEW 300840Z AUTO 11003KT 10SM FEW026 FEW036 SCT045 27/24 A3007 -130 84 1200 110/03 RMK AO2 T02670239
53917KNEW NEW20190930024511909/30/19 02:45:31  5-MIN KNEW 300845Z AUTO 00000KT 10SM FEW026 SCT042 27/24 A3007 -130 87 1200 000/00 RMK AO2 T02670244
53917KNEW NEW20190930025013209/30/19 02:50:31  5-MIN KNEW 300850Z AUTO 00000KT 10SM FEW026 BKN040 27/24 A3008 -130 87 1200 000/00 RMK AO2 SLP178 T02670244 57003
53917KNEW NEW20190930025512609/30/19 02:55:31  5-MIN KNEW 300855Z AUTO 08003KT 10SM FEW026 SCT036 BKN044 27/24 A3008 -130 84 1300 080/03 RMK AO2 T02720244
53917KNEW NEW20190930030012609/30/19 03:00:31  5-MIN KNEW 300900Z AUTO 00000KT 10SM FEW026 FEW036 SCT044 27/24 A3008 -130 84 1300 000/00 RMK AO2 T02720244
53917KNEW NEW20190930030511909/30/19 03:05:31  5-MIN KNEW 300905Z AUTO 09003KT 10SM FEW036 FEW044 27/24 A3008 -130 84 1300 090/03 RMK AO2 T02720244
53917KNEW NEW20190930031011909/30/19 03:10:31  5-MIN KNEW 300910Z AUTO 00000KT 10SM FEW036 FEW044 27/24 A3008 -130 84 1300 000/00 RMK AO2 T02720244
53917KNEW NEW20190930031511909/30/19 03:15:31  5-MIN KNEW 300915Z AUTO 07003KT 10SM FEW036 FEW046 27/24 A3008 -130 84 1300 070/03 RMK AO2 T02720244
53917KNEW NEW20190930032012609/30/19 03:20:31  5-MIN KNEW 300920Z AUTO 09004KT 10SM FEW026 FEW036 SCT046 27/24 A3008 -130 84 1300 090/04 RMK AO2 T02720244
53917KNEW NEW20190930032512609/30/19 03:25:31  5-MIN KNEW 300925Z AUTO 09005KT 10SM FEW026 FEW038 SCT047 27/24 A3008 -130 84 1300 090/05 RMK AO2 T02720244
53917KNEW NEW20190930033012609/30/19 03:30:31  5-MIN KNEW 300930Z AUTO 11004KT 10SM FEW027 FEW039 SCT047 27/24 A3007 -130 82 1300 110/04 RMK AO2 T02720239
53917KNEW NEW20190930033511909/30/19 03:35:31  5-MIN KNEW 300935Z AUTO 12005KT 10SM FEW027 SCT043 27/24 A3007 -130 82 1300 120/05 RMK AO2 T02720239
53917KNEW NEW20190930034012609/30/19 03:40:31  5-MIN KNEW 300940Z AUTO 12004KT 10SM SCT024 SCT031 BKN043 27/24 A3007 -130 82 1300 120/04 RMK AO2 T02720239
53917KNEW NEW20190930034512609/30/19 03:45:31  5-MIN KNEW 300945Z AUTO 12004KT 10SM SCT024 BKN040 BKN047 27/24 A3008 -130 82 1300 120/04 RMK AO2 T02720239
53917KNEW NEW20190930035012609/30/19 03:50:31  5-MIN KNEW 300950Z AUTO 12003KT 10SM FEW024 SCT044 27/24 A3008 -130 84 1200 120/03 RMK AO2 SLP179 T02670239
53917KNEW NEW20190930035512609/30/19 03:55:31  5-MIN KNEW 300955Z AUTO 10004KT 10SM FEW024 SCT029 BKN044 27/24 A3008 -130 84 1200 100/04 RMK AO2 T02670239
53917KNEW NEW20190930040012609/30/19 04:00:31  5-MIN KNEW 301000Z AUTO 11005KT 10SM FEW024 SCT029 BKN042 27/24 A3008 -130 84 1200 110/05 RMK AO2 T02670239
53917KNEW NEW20190930040511909/30/19 04:05:31  5-MIN KNEW 301005Z AUTO 11005KT 10SM SCT026 BKN033 27/24 A3008 -130 84 1200 110/05 RMK AO2 T02670239
53917KNEW NEW20190930041011909/30/19 04:10:31  5-MIN KNEW 301010Z AUTO 12005KT 10SM FEW026 SCT036 27/23 A3008 -130 82 1200 120/05 RMK AO2 T02670233
53917KNEW NEW20190930041511909/30/19 04:15:31  5-MIN KNEW 301015Z AUTO 11009KT 10SM FEW026 FEW032 27/23 A3008 -130 82 1200 110/09 RMK AO2 T02670233
53917KNEW NEW20190930042011909/30/19 04:20:31  5-MIN KNEW 301020Z AUTO 11007KT 10SM FEW026 FEW034 27/23 A3008 -130 79 1200 110/07 RMK AO2 T02670228
53917KNEW NEW20190930042511209/30/19 04:25:31  5-MIN KNEW 301025Z AUTO 11007KT 10SM FEW037 27/22 A3008 -140 76 1200 110/07 RMK AO2 T02670222
53917KNEW NEW20190930043011209/30/19 04:30:31  5-MIN KNEW 301030Z AUTO 11007KT 10SM FEW037 27/22 A3009 -140 76 1200 110/07 RMK AO2 T02670222
53917KNEW NEW20190930043510909/30/19 04:35:31  5-MIN KNEW 301035Z AUTO 11007KT 10SM CLR 27/22 A3009 -140 76 1200 110/07 RMK AO2 T02670222
53917KNEW NEW20190930044011209/30/19 04:40:31  5-MIN KNEW 301040Z AUTO 11005KT 10SM FEW028 27/22 A3009 -140 76 1200 110/05 RMK AO2 T02670222
53917KNEW NEW20190930044510909/30/19 04:45:31  5-MIN KNEW 301045Z AUTO 10007KT 10SM CLR 27/22 A3009 -140 76 1200 100/07 RMK AO2 T02670222
53917KNEW NEW20190930045011609/30/19 04:50:31  5-MIN KNEW 301050Z AUTO 11007KT 10SM CLR 27/22 A3009 -140 76 1200 110/07 RMK AO2 SLP181 T02670222
53917KNEW NEW20190930045510909/30/19 04:55:31  5-MIN KNEW 301055Z AUTO 11007KT 10SM CLR 27/22 A3009 -140 73 1200 110/07 RMK AO2 T02670217
53917KNEW NEW20190930050010909/30/19 05:00:31  5-MIN KNEW 301100Z AUTO 11007KT 10SM CLR 27/22 A3009 -140 73 1200 110/07 RMK AO2 T02670217
53917KNEW NEW20190930050510909/30/19 05:05:31  5-MIN KNEW 301105Z AUTO 11008KT 10SM CLR 27/22 A3009 -140 73 1200 110/08 RMK AO2 T02670217
53917KNEW NEW20190930051010909/30/19 05:10:31  5-MIN KNEW 301110Z AUTO 11007KT 10SM CLR 27/22 A3009 -140 73 1200 110/07 RMK AO2 T02670217
53917KNEW NEW20190930051510909/30/19 05:15:31  5-MIN KNEW 301115Z AUTO 12008KT 10SM CLR 27/22 A3009 -140 73 1200 120/08 RMK AO2 T02670217
53917KNEW NEW20190930052010909/30/19 05:20:31  5-MIN KNEW 301120Z AUTO 11007KT 10SM CLR 27/22 A3009 -140 73 1200 110/07 RMK AO2 T02670217
53917KNEW NEW20190930052510909/30/19 05:25:31  5-MIN KNEW 301125Z AUTO 12007KT 10SM CLR 27/22 A3009 -140 73 1200 120/07 RMK AO2 T02670217
53917KNEW NEW20190930053010909/30/19 05:30:31  5-MIN KNEW 301130Z AUTO 12007KT 10SM CLR 26/22 A3009 -150 76 1100 120/07 RMK AO2 T02610217
53917KNEW NEW20190930053510909/30/19 05:35:31  5-MIN KNEW 301135Z AUTO 12006KT 10SM CLR 26/22 A3009 -150 76 1100 120/06 RMK AO2 T02610217
53917KNEW NEW20190930054010909/30/19 05:40:31  5-MIN KNEW 301140Z AUTO 12007KT 10SM CLR 26/22 A3009 -150 76 1100 120/07 RMK AO2 T02610217
53917KNEW NEW20190930054510909/30/19 05:45:31  5-MIN KNEW 301145Z AUTO 12006KT 10SM CLR 26/22 A3009 -150 76 1100 120/06 RMK AO2 T02610217
53917KNEW NEW20190930055012909/30/19 05:50:31  5-MIN KNEW 301150Z 12006KT 10SM CLR 26/22 A3009 -150 76 1100 120/06 RMK AO2 SLP184 T02610217 10272 20261 55005
53917KNEW NEW20190930055510409/30/19 05:55:31  5-MIN KNEW 301155Z 12007KT 10SM CLR 26/22 A3010 -150 76 1100 120/07 RMK AO2 T02610217
53917KNEW NEW20190930060010409/30/19 06:00:31  5-MIN KNEW 301200Z 12007KT 10SM CLR 26/22 A3010 -150 76 1100 120/07 RMK AO2 T02610217
53917KNEW NEW20190930060510409/30/19 06:05:31  5-MIN KNEW 301205Z 12007KT 10SM CLR 26/22 A3010 -150 76 1100 120/07 RMK AO2 T02610217
53917KNEW NEW20190930061010409/30/19 06:10:31  5-MIN KNEW 301210Z 12007KT 10SM CLR 26/22 A3010 -150 76 1100 120/07 RMK AO2 T02610217
53917KNEW NEW20190930061510409/30/19 06:15:31  5-MIN KNEW 301215Z 12007KT 10SM CLR 26/22 A3010 -150 76 1100 120/07 RMK AO2 T02610217
53917KNEW NEW20190930062010409/30/19 06:20:31  5-MIN KNEW 301220Z 12007KT 10SM CLR 26/22 A3010 -150 76 1100 120/07 RMK AO2 T02610217
53917KNEW NEW20190930062510409/30/19 06:25:31  5-MIN KNEW 301225Z 13007KT 10SM CLR 26/22 A3010 -160 76 1100 130/07 RMK AO2 T02610217
53917KNEW NEW20190930063010409/30/19 06:30:31  5-MIN KNEW 301230Z 12008KT 10SM CLR 27/22 A3010 -160 73 1200 120/08 RMK AO2 T02670217
53917KNEW NEW20190930063510409/30/19 06:35:31  5-MIN KNEW 301235Z 12006KT 10SM CLR 27/22 A3011 -160 73 1200 120/06 RMK AO2 T02670217
53917KNEW NEW20190930064010409/30/19 06:40:31  5-MIN KNEW 301240Z 13005KT 10SM CLR 27/22 A3011 -160 73 1200 130/05 RMK AO2 T02670217
53917KNEW NEW20190930064510409/30/19 06:45:31  5-MIN KNEW 301245Z 13007KT 10SM CLR 27/22 A3011 -160 73 1200 130/07 RMK AO2 T02670217
53917KNEW NEW20190930065011109/30/19 06:50:31  5-MIN KNEW 301250Z 13006KT 10SM CLR 27/22 A3011 -160 73 1200 130/06 RMK AO2 SLP189 T02670217
53917KNEW NEW20190930065510409/30/19 06:55:31  5-MIN KNEW 301255Z 13006KT 10SM CLR 27/22 A3011 -160 73 1200 130/06 RMK AO2 T02670217
53917KNEW NEW20190930070010409/30/19 07:00:31  5-MIN KNEW 301300Z 13007KT 10SM CLR 27/22 A3011 -160 71 1300 130/07 RMK AO2 T02720217
53917KNEW NEW20190930070510409/30/19 07:05:31  5-MIN KNEW 301305Z 13007KT 10SM CLR 27/22 A3011 -160 71 1300 130/07 RMK AO2 T02720217
53917KNEW NEW20190930071010409/30/19 07:10:31  5-MIN KNEW 301310Z 13007KT 10SM CLR 27/22 A3011 -160 71 1300 130/07 RMK AO2 T02720217
53917KNEW NEW20190930071510409/30/19 07:15:31  5-MIN KNEW 301315Z 13007KT 10SM CLR 27/22 A3011 -160 71 1300 130/07 RMK AO2 T02720217
53917KNEW NEW20190930072010409/30/19 07:20:31  5-MIN KNEW 301320Z 14007KT 10SM CLR 28/22 A3011 -160 69 1300 140/07 RMK AO2 T02780217
53917KNEW NEW20190930072510409/30/19 07:25:31  5-MIN KNEW 301325Z 13008KT 10SM CLR 28/22 A3011 -160 69 1300 130/08 RMK AO2 T02780217
53917KNEW NEW20190930073010409/30/19 07:30:31  5-MIN KNEW 301330Z 13008KT 10SM CLR 28/22 A3011 -160 69 1300 130/08 RMK AO2 T02780217
53917KNEW NEW20190930073510409/30/19 07:35:31  5-MIN KNEW 301335Z 13009KT 10SM CLR 28/22 A3011 -160 69 1300 130/09 RMK AO2 T02780217
53917KNEW NEW20190930074010409/30/19 07:40:31  5-MIN KNEW 301340Z 13010KT 10SM CLR 28/22 A3011 -160 69 1300 130/10 RMK AO2 T02780217
53917KNEW NEW20190930074510409/30/19 07:45:31  5-MIN KNEW 301345Z 13008KT 10SM CLR 28/22 A3011 -160 69 1400 130/08 RMK AO2 T02830222
53917KNEW NEW20190930075011109/30/19 07:50:31  5-MIN KNEW 301350Z 13008KT 10SM CLR 28/22 A3011 -160 69 1400 130/08 RMK AO2 SLP190 T02830222
53917KNEW NEW20190930075510409/30/19 07:55:31  5-MIN KNEW 301355Z 12008KT 10SM CLR 28/22 A3011 -160 69 1400 120/08 RMK AO2 T02830222
53917KNEW NEW20190930080010409/30/19 08:00:31  5-MIN KNEW 301400Z 13009KT 10SM CLR 28/22 A3011 -160 69 1400 130/09 RMK AO2 T02830222
53917KNEW NEW20190930080510409/30/19 08:05:31  5-MIN KNEW 301405Z 14009KT 10SM CLR 28/22 A3011 -160 69 1400 140/09 RMK AO2 T02830222
53917KNEW NEW20190930081010409/30/19 08:10:31  5-MIN KNEW 301410Z 13008KT 10SM CLR 29/22 A3011 -160 67 1400 130/08 RMK AO2 T02890222
53917KNEW NEW20190930081510409/30/19 08:15:31  5-MIN KNEW 301415Z 12009KT 10SM CLR 29/22 A3011 -160 67 1400 120/09 RMK AO2 T02890222
53917KNEW NEW20190930082010409/30/19 08:20:31  5-MIN KNEW 301420Z 14009KT 10SM CLR 29/22 A3011 -160 64 1400 140/09 RMK AO2 T02890217
53917KNEW NEW20190930082510409/30/19 08:25:31  5-MIN KNEW 301425Z 13009KT 10SM CLR 29/22 A3012 -170 67 1400 130/09 RMK AO2 T02890222
53917KNEW NEW20190930083010409/30/19 08:30:31  5-MIN KNEW 301430Z 14010KT 10SM CLR 29/22 A3012 -170 67 1400 140/10 RMK AO2 T02890222
53917KNEW NEW20190930083510709/30/19 08:35:31  5-MIN KNEW 301435Z 14009KT 10SM FEW026 29/22 A3012 -170 67 1400 140/09 RMK AO2 T02890222
53917KNEW NEW20190930084010709/30/19 08:40:31  5-MIN KNEW 301440Z 13010KT 10SM FEW028 29/22 A3012 -170 67 1400 130/10 RMK AO2 T02890222
53917KNEW NEW20190930084510709/30/19 08:45:31  5-MIN KNEW 301445Z 14011KT 10SM FEW028 29/22 A3012 -170 67 1400 140/11 RMK AO2 T02890222
53917KNEW NEW20190930085012009/30/19 08:50:31  5-MIN KNEW 301450Z 14010KT 10SM FEW028 29/22 A3012 -170 67 1400 140/10 RMK AO2 SLP193 T02890222 53006
53917KNEW NEW20190930085510709/30/19 08:55:31  5-MIN KNEW 301455Z 14009KT 10SM SCT029 29/22 A3012 -170 64 1500 140/09 RMK AO2 T02940222
53917KNEW NEW20190930090010709/30/19 09:00:31  5-MIN KNEW 301500Z 14011KT 10SM FEW027 29/23 A3012 -170 67 1500 140/11 RMK AO2 T02940228
53917KNEW NEW20190930090510709/30/19 09:05:31  5-MIN KNEW 301505Z 14010KT 10SM FEW027 29/22 A3012 -170 64 1500 140/10 RMK AO2 T02940222
53917KNEW NEW20190930091010709/30/19 09:10:31  5-MIN KNEW 301510Z 13009KT 10SM FEW028 30/23 A3012 -170 65 1500 130/09 RMK AO2 T03000228
53917KNEW NEW20190930091510709/30/19 09:15:31  5-MIN KNEW 301515Z 13011KT 10SM FEW028 30/22 A3012 -170 62 1500 130/11 RMK AO2 T03000222
53917KNEW NEW20190930092010709/30/19 09:20:31  5-MIN KNEW 301520Z 13011KT 10SM FEW028 29/22 A3012 -170 64 1500 130/11 RMK AO2 T02940222
53917KNEW NEW20190930092510709/30/19 09:25:31  5-MIN KNEW 301525Z 14011KT 10SM FEW028 30/23 A3012 -170 65 1500 140/11 RMK AO2 T03000228
53917KNEW NEW20190930093011309/30/19 09:30:31  5-MIN KNEW 301530Z 15012G18KT 10SM FEW028 31/22 A3012 -170 60 1600 150/12G18 RMK AO2 T03060222
53917KNEW NEW20190930093510709/30/19 09:35:31  5-MIN KNEW 301535Z 13010KT 10SM FEW028 30/22 A3012 -170 62 1500 130/10 RMK AO2 T03000222
53917KNEW NEW20190930094011309/30/19 09:40:31  5-MIN KNEW 301540Z 15013G17KT 10SM FEW028 31/23 A3012 -170 62 1600 150/13G17 RMK AO2 T03060228
53917KNEW NEW20190930094511309/30/19 09:45:31  5-MIN KNEW 301545Z 13013G17KT 10SM FEW028 31/23 A3012 -170 62 1600 130/13G17 RMK AO2 T03060228
53917KNEW NEW20190930095011409/30/19 09:50:31  5-MIN KNEW 301550Z 14013KT 10SM FEW029 31/23 A3012 -170 62 1600 140/13 RMK AO2 SLP194 T03060228
53917KNEW NEW20190930095510709/30/19 09:55:31  5-MIN KNEW 301555Z 12012KT 10SM FEW029 31/22 A3012 -170 60 1600 120/12 RMK AO2 T03060222
53917KNEW NEW20190930100011409/30/19 10:00:31  5-MIN KNEW 301600Z 15013KT 10SM FEW029 FEW038 31/22 A3012 -170 58 1700 150/13 RMK AO2 T03110222
53917KNEW NEW20190930100510709/30/19 10:05:31  5-MIN KNEW 301605Z 13011KT 10SM FEW031 31/22 A3012 -170 58 1700 130/11 RMK AO2 T03110222
53917KNEW NEW20190930101011409/30/19 10:10:31  5-MIN KNEW 301610Z 15010KT 10SM FEW029 FEW037 31/22 A3012 -170 58 1700 150/10 RMK AO2 T03110222
53917KNEW NEW20190930101511309/30/19 10:15:31  5-MIN KNEW 301615Z 13011G18KT 10SM FEW032 31/22 A3012 -170 58 1700 130/11G18 RMK AO2 T03110222
53917KNEW NEW20190930102011309/30/19 10:20:31  5-MIN KNEW 301620Z 14014G21KT 10SM FEW032 31/22 A3012 -170 58 1700 140/14G21 RMK AO2 T03110222
53917KNEW NEW20190930102511309/30/19 10:25:31  5-MIN KNEW 301625Z 13011G21KT 10SM FEW032 31/22 A3012 -170 56 1700 130/11G21 RMK AO2 T03110217
53917KNEW NEW20190930103010709/30/19 10:30:31  5-MIN KNEW 301630Z 13012KT 10SM FEW032 32/22 A3012 -170 55 1700 130/12 RMK AO2 T03170217
53917KNEW NEW20190930103510709/30/19 10:35:31  5-MIN KNEW 301635Z 15012KT 10SM FEW033 32/22 A3012 -170 55 1700 150/12 RMK AO2 T03170217
53917KNEW NEW20190930104010709/30/19 10:40:31  5-MIN KNEW 301640Z 15013KT 10SM FEW033 32/22 A3012 -170 55 1700 150/13 RMK AO2 T03170217
53917KNEW NEW20190930104510709/30/19 10:45:31  5-MIN KNEW 301645Z 14013KT 10SM FEW037 32/22 A3012 -170 55 1700 140/13 RMK AO2 T03170217
53917KNEW NEW20190930105011409/30/19 10:50:31  5-MIN KNEW 301650Z 13013KT 10SM FEW037 32/22 A3012 -170 55 1700 130/13 RMK AO2 SLP193 T03170217
53917KNEW NEW20190930105510709/30/19 10:55:31  5-MIN KNEW 301655Z 14010KT 10SM FEW037 31/22 A3012 -170 56 1700 140/10 RMK AO2 T03110217
53917KNEW NEW20190930110010709/30/19 11:00:31  5-MIN KNEW 301700Z 12012KT 10SM FEW037 31/22 A3012 -170 58 1700 120/12 RMK AO2 T03110222
53917KNEW NEW20190930110510709/30/19 11:05:31  5-MIN KNEW 301705Z 13009KT 10SM FEW036 31/22 A3011 -170 58 1700 130/09 RMK AO2 T03110222
53917KNEW NEW20190930111010709/30/19 11:10:31  5-MIN KNEW 301710Z 13011KT 10SM SCT034 31/22 A3011 -160 58 1700 130/11 RMK AO2 T03110222
53917KNEW NEW20190930111511409/30/19 11:15:31  5-MIN KNEW 301715Z 13013KT 10SM SCT034 SCT043 32/22 A3011 -160 56 1700 130/13 RMK AO2 T03170222
53917KNEW NEW20190930112010709/30/19 11:20:31  5-MIN KNEW 301720Z 13009KT 10SM FEW034 31/22 A3011 -160 56 1700 130/09 RMK AO2 T03110217
53917KNEW NEW20190930112510709/30/19 11:25:31  5-MIN KNEW 301725Z 15010KT 10SM FEW034 32/22 A3011 -160 55 1700 150/10 RMK AO2 T03170217
53917KNEW NEW20190930113010709/30/19 11:30:31  5-MIN KNEW 301730Z 13012KT 10SM FEW034 32/22 A3011 -160 55 1800 130/12 RMK AO2 T03220222
53917KNEW NEW20190930113510709/30/19 11:35:31  5-MIN KNEW 301735Z 13010KT 10SM FEW036 32/22 A3010 -160 55 1800 130/10 RMK AO2 T03170217
53917KNEW NEW20190930114010709/30/19 11:40:31  5-MIN KNEW 301740Z 13011KT 10SM FEW036 32/22 A3010 -150 53 1800 130/11 RMK AO2 T03220217
53917KNEW NEW20190930114510709/30/19 11:45:31  5-MIN KNEW 301745Z 15015KT 10SM FEW040 32/22 A3010 -150 55 1800 150/15 RMK AO2 T03170217
53917KNEW NEW20190930115013809/30/19 11:50:31  5-MIN KNEW 301750Z 14010G17KT 10SM FEW040 31/22 A3010 -150 56 1700 140/10G17 RMK AO2 SLP187 T03110217 10322 20261 51009
53917KNEW NEW20190930115511409/30/19 11:55:31  5-MIN KNEW 301755Z 13008KT 10SM FEW038 FEW048 32/22 A3010 -150 55 1800 130/08 RMK AO2 T03170217
53917KNEW NEW20190930120011409/30/19 12:00:31  5-MIN KNEW 301800Z 15012KT 10SM FEW038 SCT048 32/21 A3010 -150 51 1800 150/12 RMK AO2 T03220211
53917KNEW NEW20190930120510709/30/19 12:05:31  5-MIN KNEW 301805Z 12010KT 10SM FEW040 32/21 A3010 -150 51 1800 120/10 RMK AO2 T03220211
53917KNEW NEW20190930121010709/30/19 12:10:31  5-MIN KNEW 301810Z 15010KT 10SM FEW040 32/21 A3010 -150 51 1800 150/10 RMK AO2 T03220211
53917KNEW NEW20190930121510709/30/19 12:15:31  5-MIN KNEW 301815Z 17010KT 10SM FEW040 32/21 A3009 -150 51 1800 170/10 RMK AO2 T03220211
53917KNEW NEW20190930122010709/30/19 12:20:31  5-MIN KNEW 301820Z VRB05KT 10SM FEW041 32/22 A3009 -140 55 1800 VRB/05 RMK AO2 T03170217
53917KNEW NEW20190930122510709/30/19 12:25:31  5-MIN KNEW 301825Z 14010KT 10SM FEW041 33/21 A3009 -140 49 1900 140/10 RMK AO2 T03280211
53917KNEW NEW20190930123010709/30/19 12:30:31  5-MIN KNEW 301830Z 16010KT 10SM FEW043 32/21 A3008 -140 51 1800 160/10 RMK AO2 T03220211
53917KNEW NEW20190930123510709/30/19 12:35:31  5-MIN KNEW 301835Z 14010KT 10SM FEW043 32/21 A3008 -130 51 1800 140/10 RMK AO2 T03220211
53917KNEW NEW20190930124011309/30/19 12:40:31  5-MIN KNEW 301840Z 14011G16KT 10SM SCT043 32/21 A3008 -130 49 1800 140/11G16 RMK AO2 T03220206
53917KNEW NEW20190930124512909/30/19 12:45:31  5-MIN KNEW 301845Z 16008G16KT 130V200 10SM FEW042 33/21 A3008 -130 48 1900 160/08G16 130V200 RMK AO2 T03280206
53917KNEW NEW20190930125011409/30/19 12:50:31  5-MIN KNEW 301850Z 11009KT 10SM FEW042 32/21 A3007 -130 51 1800 110/09 RMK AO2 SLP177 T03220211
53917KNEW NEW20190930125510709/30/19 12:55:31  5-MIN KNEW 301855Z VRB06KT 10SM SCT044 32/21 A3007 -130 51 1800 VRB/06 RMK AO2 T03220211
53917KNEW NEW20190930130011409/30/19 13:00:31  5-MIN KNEW 301900Z 12009KT 10SM SCT044 BKN050 32/21 A3007 -120 51 1800 120/09 RMK AO2 T03220211
53917KNEW NEW20190930130512009/30/19 13:05:31  5-MIN KNEW 301905Z 13006G14KT 10SM SCT045 BKN050 32/22 A3007 -120 56 1800 130/06G14 RMK AO2 T03170222
53917KNEW NEW20190930131010709/30/19 13:10:31  5-MIN KNEW 301910Z 10009KT 10SM BKN050 31/22 A3007 -120 56 1700 100/09 RMK AO2 T03110217
53917KNEW NEW20190930131511409/30/19 13:15:31  5-MIN KNEW 301915Z 10008KT 10SM SCT044 BKN050 32/22 A3006 -120 55 1800 100/08 RMK AO2 T03170217
53917KNEW NEW20190930132010709/30/19 13:20:31  5-MIN KNEW 301920Z 12009KT 10SM BKN048 32/22 A3006 -120 53 1900 120/09 RMK AO2 T03220217
53917KNEW NEW20190930132511409/30/19 13:25:31  5-MIN KNEW 301925Z 12010KT 10SM SCT045 BKN050 32/22 A3006 -120 53 1900 120/10 RMK AO2 T03220217
53917KNEW NEW20190930133011409/30/19 13:30:31  5-MIN KNEW 301930Z 13006KT 10SM FEW043 SCT055 32/22 A3006 -110 53 1900 130/06 RMK AO2 T03220217
53917KNEW NEW20190930133511409/30/19 13:35:31  5-MIN KNEW 301935Z 10007KT 10SM FEW042 SCT049 32/22 A3006 -110 53 1900 100/07 RMK AO2 T03220217
53917KNEW NEW20190930134011409/30/19 13:40:31  5-MIN KNEW 301940Z 12009KT 10SM FEW042 FEW049 32/22 A3006 -110 53 1900 120/09 RMK AO2 T03220217
53917KNEW NEW20190930134510709/30/19 13:45:31  5-MIN KNEW 301945Z 12006KT 10SM FEW047 32/21 A3006 -110 51 1900 120/06 RMK AO2 T03220211
53917KNEW NEW20190930135011409/30/19 13:50:31  5-MIN KNEW 301950Z 12007KT 10SM FEW040 32/22 A3006 -110 53 1900 120/07 RMK AO2 SLP171 T03220217
53917KNEW NEW20190930135510709/30/19 13:55:31  5-MIN KNEW 301955Z 10008KT 10SM FEW040 32/22 A3005 -110 55 1900 100/08 RMK AO2 T03220222
53917KNEW NEW20190930140010709/30/19 14:00:31  5-MIN KNEW 302000Z 09009KT 10SM FEW040 32/22 A3005 -110 55 1900 090/09 RMK AO2 T03220222
53917KNEW NEW20190930140510709/30/19 14:05:31  5-MIN KNEW 302005Z 09009KT 10SM FEW040 32/22 A3005 -110 53 1900 090/09 RMK AO2 T03220217
53917KNEW NEW20190930141010709/30/19 14:10:31  5-MIN KNEW 302010Z 09007KT 10SM FEW040 32/22 A3005 -100 53 1900 090/07 RMK AO2 T03220217
53917KNEW NEW20190930141510709/30/19 14:15:31  5-MIN KNEW 302015Z 11009KT 10SM FEW040 32/22 A3005 -100 53 1900 110/09 RMK AO2 T03220217
53917KNEW NEW20190930142010709/30/19 14:20:31  5-MIN KNEW 302020Z 10008KT 10SM FEW040 32/22 A3005 -100 55 1800 100/08 RMK AO2 T03170217
53917KNEW NEW20190930142510709/30/19 14:25:31  5-MIN KNEW 302025Z 09008KT 10SM SCT042 32/22 A3005 -100 53 1900 090/08 RMK AO2 T03220217
53917KNEW NEW20190930143010709/30/19 14:30:31  5-MIN KNEW 302030Z 09009KT 10SM SCT042 32/22 A3005 -100 53 1900 090/09 RMK AO2 T03220217
53917KNEW NEW20190930143510709/30/19 14:35:31  5-MIN KNEW 302035Z 09008KT 10SM FEW042 32/22 A3004 -100 55 1800 090/08 RMK AO2 T03170217
53917KNEW NEW20190930144010709/30/19 14:40:31  5-MIN KNEW 302040Z 09008KT 10SM SCT040 32/23 A3004 -100 57 1900 090/08 RMK AO2 T03220228
53917KNEW NEW20190930144510709/30/19 14:45:31  5-MIN KNEW 302045Z 09009KT 10SM SCT040 32/22 A3004 -100 55 1900 090/09 RMK AO2 T03220222
53917KNEW NEW20190930145012009/30/19 14:50:31  5-MIN KNEW 302050Z 10010KT 10SM SCT040 32/22 A3004 -100 56 1800 100/10 RMK AO2 SLP166 T03170222 58007
53917KNEW NEW20190930145510709/30/19 14:55:31  5-MIN KNEW 302055Z 10009KT 10SM SCT040 32/22 A3004 -100 53 1900 100/09 RMK AO2 T03220217
53917KNEW NEW20190930150010709/30/19 15:00:31  5-MIN KNEW 302100Z 10007KT 10SM FEW040 32/22 A3004 -100 56 1800 100/07 RMK AO2 T03170222
53917KNEW NEW20190930150510709/30/19 15:05:31  5-MIN KNEW 302105Z 11008KT 10SM FEW039 32/22 A3004 -100 55 1800 110/08 RMK AO2 T03170217
53917KNEW NEW20190930151010609/30/19 15:10:31  5-MIN KNEW 302110Z 10008KT 10SM FEW039 32/22 A3004 -90 55 1900 100/08 RMK AO2 T03220222
53917KNEW NEW20190930151510609/30/19 15:15:31  5-MIN KNEW 302115Z 09008KT 10SM FEW039 32/22 A3004 -90 56 1800 090/08 RMK AO2 T03170222
53917KNEW NEW20190930152010609/30/19 15:20:31  5-MIN KNEW 302120Z 10009KT 10SM FEW039 32/22 A3004 -90 55 1800 100/09 RMK AO2 T03170217
53917KNEW NEW20190930152510609/30/19 15:25:31  5-MIN KNEW 302125Z 10009KT 10SM FEW039 32/22 A3004 -90 56 1800 100/09 RMK AO2 T03170222
53917KNEW NEW20190930153010609/30/19 15:30:31  5-MIN KNEW 302130Z 09008KT 10SM FEW039 32/23 A3004 -90 58 1800 090/08 RMK AO2 T03170228
53917KNEW NEW20190930153510609/30/19 15:35:31  5-MIN KNEW 302135Z 10011KT 10SM FEW039 32/22 A3004 -90 56 1800 100/11 RMK AO2 T03170222
53917KNEW NEW20190930154010309/30/19 15:40:31  5-MIN KNEW 302140Z 10010KT 10SM CLR 31/22 A3003 -90 58 1800 100/10 RMK AO2 T03110222
53917KNEW NEW20190930154510309/30/19 15:45:31  5-MIN KNEW 302145Z 10011KT 10SM CLR 31/22 A3003 -90 58 1800 100/11 RMK AO2 T03110222
53917KNEW NEW20190930155011309/30/19 15:50:31  5-MIN KNEW 302150Z 10009KT 10SM FEW037 31/22 A3003 -90 58 1800 100/09 RMK AO2 SLP163 T03110222
53917KNEW NEW20190930155510609/30/19 15:55:31  5-MIN KNEW 302155Z 11008KT 10SM FEW037 31/23 A3003 -90 60 1800 110/08 RMK AO2 T03110228
53917KNEW NEW20190930160010309/30/19 16:00:31  5-MIN KNEW 302200Z 11009KT 10SM CLR 31/22 A3003 -90 58 1800 110/09 RMK AO2 T03110222
53917KNEW NEW20190930160510309/30/19 16:05:31  5-MIN KNEW 302205Z 11009KT 10SM CLR 31/22 A3003 -90 58 1800 110/09 RMK AO2 T03110222
53917KNEW NEW20190930161010309/30/19 16:10:31  5-MIN KNEW 302210Z 11010KT 10SM CLR 31/23 A3003 -90 60 1800 110/10 RMK AO2 T03110228
53917KNEW NEW20190930161510309/30/19 16:15:31  5-MIN KNEW 302215Z 10009KT 10SM CLR 31/22 A3003 -90 58 1800 100/09 RMK AO2 T03110222
53917KNEW NEW20190930162010309/30/19 16:20:31  5-MIN KNEW 302220Z 10011KT 10SM CLR 31/23 A3003 -90 60 1800 100/11 RMK AO2 T03110228
53917KNEW NEW20190930162510309/30/19 16:25:31  5-MIN KNEW 302225Z 10010KT 10SM CLR 31/23 A3003 -90 62 1700 100/10 RMK AO2 T03060228
53917KNEW NEW20190930163010309/30/19 16:30:31  5-MIN KNEW 302230Z 10010KT 10SM CLR 31/23 A3003 -90 62 1700 100/10 RMK AO2 T03060228
53917KNEW NEW20190930163510309/30/19 16:35:31  5-MIN KNEW 302235Z 10009KT 10SM CLR 31/23 A3003 -90 65 1700 100/09 RMK AO2 T03060233
53917KNEW NEW20190930164010309/30/19 16:40:31  5-MIN KNEW 302240Z 11009KT 10SM CLR 31/23 A3003 -80 65 1700 110/09 RMK AO2 T03060233
53917KNEW NEW20190930164510309/30/19 16:45:31  5-MIN KNEW 302245Z 08008KT 10SM CLR 31/23 A3003 -80 62 1700 080/08 RMK AO2 T03060228
53917KNEW NEW20190930165011009/30/19 16:50:31  5-MIN KNEW 302250Z 10010KT 10SM CLR 31/23 A3003 -80 65 1700 100/10 RMK AO2 SLP161 T03060233
53917KNEW NEW20190930165510309/30/19 16:55:31  5-MIN KNEW 302255Z 10011KT 10SM CLR 30/23 A3003 -90 65 1700 100/11 RMK AO2 T03000228
53917KNEW NEW20190930170010309/30/19 17:00:31  5-MIN KNEW 302300Z 11009KT 10SM CLR 30/23 A3003 -80 65 1700 110/09 RMK AO2 T03000228
53917KNEW NEW20190930170510309/30/19 17:05:31  5-MIN KNEW 302305Z 11010KT 10SM CLR 30/23 A3003 -80 65 1700 110/10 RMK AO2 T03000228
53917KNEW NEW20190930171010309/30/19 17:10:31  5-MIN KNEW 302310Z 10010KT 10SM CLR 30/23 A3002 -80 67 1700 100/10 RMK AO2 T03000233
53917KNEW NEW20190930171510309/30/19 17:15:31  5-MIN KNEW 302315Z 11011KT 10SM CLR 30/23 A3002 -80 67 1700 110/11 RMK AO2 T03000233
53917KNEW NEW20190930172010309/30/19 17:20:31  5-MIN KNEW 302320Z 11010KT 10SM CLR 30/23 A3002 -80 67 1700 110/10 RMK AO2 T03000233
53917KNEW NEW20190930172510309/30/19 17:25:31  5-MIN KNEW 302325Z 10009KT 10SM CLR 29/23 A3002 -80 69 1600 100/09 RMK AO2 T02940233
53917KNEW NEW20190930173010309/30/19 17:30:31  5-MIN KNEW 302330Z 10010KT 10SM CLR 29/23 A3002 -80 69 1600 100/10 RMK AO2 T02940233
53917KNEW NEW20190930173510309/30/19 17:35:31  5-MIN KNEW 302335Z 11010KT 10SM CLR 29/23 A3003 -80 69 1600 110/10 RMK AO2 T02940233
53917KNEW NEW20190930174010309/30/19 17:40:31  5-MIN KNEW 302340Z 10010KT 10SM CLR 29/23 A3003 -80 69 1600 100/10 RMK AO2 T02940233
53917KNEW NEW20190930174510309/30/19 17:45:31  5-MIN KNEW 302345Z 11008KT 10SM CLR 29/24 A3003 -80 71 1600 110/08 RMK AO2 T02940239
53917KNEW NEW20190930175012809/30/19 17:50:31  5-MIN KNEW 302350Z 11011KT 10SM CLR 29/24 A3003 -80 74 1500 110/11 RMK AO2 SLP161 T02890239 10328 20289 56020
53917KNEW NEW20190930175510309/30/19 17:55:31  5-MIN KNEW 302355Z 11009KT 10SM CLR 29/24 A3003 -80 74 1500 110/09 RMK AO2 T02890239
53917KNEW NEW20190930180010309/30/19 18:00:31  5-MIN KNEW 010000Z 11009KT 10SM CLR 29/24 A3003 -80 74 1500 110/09 RMK AO2 T02890239
53917KNEW NEW20190930180510309/30/19 18:05:31  5-MIN KNEW 010005Z 11008KT 10SM CLR 29/24 A3003 -90 74 1500 110/08 RMK AO2 T02890239
53917KNEW NEW20190930181010309/30/19 18:10:31  5-MIN KNEW 010010Z 11007KT 10SM CLR 29/24 A3003 -90 74 1500 110/07 RMK AO2 T02890239
53917KNEW NEW20190930181510309/30/19 18:15:31  5-MIN KNEW 010015Z 12008KT 10SM CLR 29/24 A3003 -90 74 1500 120/08 RMK AO2 T02890239
53917KNEW NEW20190930182010309/30/19 18:20:31  5-MIN KNEW 010020Z 11009KT 10SM CLR 29/24 A3003 -90 74 1500 110/09 RMK AO2 T02890239
53917KNEW NEW20190930182510309/30/19 18:25:31  5-MIN KNEW 010025Z 11008KT 10SM CLR 29/24 A3003 -90 74 1500 110/08 RMK AO2 T02890239
53917KNEW NEW20190930183010309/30/19 18:30:31  5-MIN KNEW 010030Z 11007KT 10SM CLR 29/24 A3003 -90 74 1500 110/07 RMK AO2 T02890239
53917KNEW NEW20190930183510309/30/19 18:35:31  5-MIN KNEW 010035Z 11008KT 10SM CLR 29/24 A3003 -90 74 1500 110/08 RMK AO2 T02890239
53917KNEW NEW20190930184010309/30/19 18:40:31  5-MIN KNEW 010040Z 12007KT 10SM CLR 29/24 A3003 -90 74 1500 120/07 RMK AO2 T02890239
53917KNEW NEW20190930184510309/30/19 18:45:31  5-MIN KNEW 010045Z 12008KT 10SM CLR 29/24 A3003 -90 74 1500 120/08 RMK AO2 T02890239
53917KNEW NEW20190930185011009/30/19 18:50:31  5-MIN KNEW 010050Z 12007KT 10SM CLR 29/24 A3003 -90 74 1500 120/07 RMK AO2 SLP164 T02890239
53917KNEW NEW20190930185510309/30/19 18:55:31  5-MIN KNEW 010055Z 12007KT 10SM CLR 28/24 A3004 -90 76 1500 120/07 RMK AO2 T02830239
53917KNEW NEW20190930190010309/30/19 19:00:31  5-MIN KNEW 010100Z 12007KT 10SM CLR 28/24 A3004 -90 76 1500 120/07 RMK AO2 T02830239
53917KNEW NEW20190930190510309/30/19 19:05:31  5-MIN KNEW 010105Z 12006KT 10SM CLR 28/24 A3004 -90 76 1500 120/06 RMK AO2 T02830239
53917KNEW NEW20190930191010309/30/19 19:10:31  5-MIN KNEW 010110Z 12007KT 10SM CLR 28/24 A3004 -90 76 1500 120/07 RMK AO2 T02830239
53917KNEW NEW20190930191510309/30/19 19:15:31  5-MIN KNEW 010115Z 12007KT 10SM CLR 28/24 A3004 -90 76 1500 120/07 RMK AO2 T02830239
53917KNEW NEW20190930192010309/30/19 19:20:31  5-MIN KNEW 010120Z 12007KT 10SM CLR 28/24 A3004 -90 76 1500 120/07 RMK AO2 T02830239
53917KNEW NEW20190930192510409/30/19 19:25:31  5-MIN KNEW 010125Z 12006KT 10SM CLR 28/24 A3004 -100 76 1500 120/06 RMK AO2 T02830239
53917KNEW NEW20190930193010409/30/19 19:30:31  5-MIN KNEW 010130Z 13006KT 10SM CLR 28/24 A3004 -100 76 1500 130/06 RMK AO2 T02830239
53917KNEW NEW20190930193510409/30/19 19:35:31  5-MIN KNEW 010135Z 13007KT 10SM CLR 28/24 A3004 -100 76 1500 130/07 RMK AO2 T02830239
53917KNEW NEW20190930194010909/30/19 19:40:31  5-MIN KNEW 010140Z AUTO 13007KT 10SM CLR 28/24 A3004 -100 76 1500 130/07 RMK AO2 T02830239
53917KNEW NEW20190930194510909/30/19 19:45:31  5-MIN KNEW 010145Z AUTO 13008KT 10SM CLR 28/24 A3004 -100 76 1400 130/08 RMK AO2 T02830239
53917KNEW NEW20190930195011609/30/19 19:50:31  5-MIN KNEW 010150Z AUTO 13006KT 10SM CLR 28/24 A3005 -100 76 1400 130/06 RMK AO2 SLP168 T02830239
53917KNEW NEW20190930195510909/30/19 19:55:31  5-MIN KNEW 010155Z AUTO 14007KT 10SM CLR 28/24 A3005 -100 82 1400 140/07 RMK AO2 T02780244
53917KNEW NEW20190930200010909/30/19 20:00:31  5-MIN KNEW 010200Z AUTO 14005KT 10SM CLR 28/24 A3005 -100 82 1400 140/05 RMK AO2 T02780244
53917KNEW NEW20190930200510909/30/19 20:05:31  5-MIN KNEW 010205Z AUTO 14006KT 10SM CLR 28/24 A3005 -100 82 1400 140/06 RMK AO2 T02780244
53917KNEW NEW20190930201010909/30/19 20:10:31  5-MIN KNEW 010210Z AUTO 14006KT 10SM CLR 28/24 A3005 -100 82 1400 140/06 RMK AO2 T02780244
53917KNEW NEW20190930201510909/30/19 20:15:31  5-MIN KNEW 010215Z AUTO 14007KT 10SM CLR 28/24 A3005 -100 79 1400 140/07 RMK AO2 T02780239
53917KNEW NEW20190930202010909/30/19 20:20:31  5-MIN KNEW 010220Z AUTO 14006KT 10SM CLR 28/24 A3005 -100 79 1400 140/06 RMK AO2 T02780239
53917KNEW NEW20190930202510909/30/19 20:25:31  5-MIN KNEW 010225Z AUTO 14006KT 10SM CLR 28/24 A3005 -110 79 1400 140/06 RMK AO2 T02780239
53917KNEW NEW20190930203010909/30/19 20:30:31  5-MIN KNEW 010230Z AUTO 15006KT 10SM CLR 27/24 A3005 -110 82 1300 150/06 RMK AO2 T02720239
53917KNEW NEW20190930203510909/30/19 20:35:31  5-MIN KNEW 010235Z AUTO 15006KT 10SM CLR 27/24 A3005 -110 82 1300 150/06 RMK AO2 T02720239
53917KNEW NEW20190930204010909/30/19 20:40:31  5-MIN KNEW 010240Z AUTO 14006KT 10SM CLR 27/24 A3005 -110 82 1300 140/06 RMK AO2 T02720239
53917KNEW NEW20190930204510909/30/19 20:45:31  5-MIN KNEW 010245Z AUTO 15005KT 10SM CLR 27/24 A3005 -110 82 1300 150/05 RMK AO2 T02720239
53917KNEW NEW20190930205012209/30/19 20:50:31  5-MIN KNEW 010250Z AUTO 15005KT 10SM CLR 27/24 A3005 -110 82 1300 150/05 RMK AO2 SLP170 T02720239 56005
53917KNEW NEW20190930205510909/30/19 20:55:31  5-MIN KNEW 010255Z AUTO 14005KT 10SM CLR 27/24 A3005 -110 82 1300 140/05 RMK AO2 T02720239
53917KNEW NEW20190930210010909/30/19 21:00:31  5-MIN KNEW 010300Z AUTO 14005KT 10SM CLR 27/24 A3005 -110 82 1300 140/05 RMK AO2 T02720239
53917KNEW NEW20190930210510909/30/19 21:05:31  5-MIN KNEW 010305Z AUTO 13005KT 10SM CLR 27/24 A3005 -110 84 1300 130/05 RMK AO2 T02720244
53917KNEW NEW20190930211010909/30/19 21:10:31  5-MIN KNEW 010310Z AUTO 14006KT 10SM CLR 27/24 A3005 -110 84 1300 140/06 RMK AO2 T02720244
53917KNEW NEW20190930211510909/30/19 21:15:31  5-MIN KNEW 010315Z AUTO 14006KT 10SM CLR 27/24 A3005 -110 84 1300 140/06 RMK AO2 T02720244
53917KNEW NEW20190930212010909/30/19 21:20:31  5-MIN KNEW 010320Z AUTO 14006KT 10SM CLR 27/24 A3005 -110 84 1300 140/06 RMK AO2 T02720244
53917KNEW NEW20190930212510909/30/19 21:25:31  5-MIN KNEW 010325Z AUTO 14006KT 10SM CLR 27/24 A3005 -110 84 1300 140/06 RMK AO2 T02720244
53917KNEW NEW20190930213010909/30/19 21:30:31  5-MIN KNEW 010330Z AUTO 14006KT 10SM CLR 27/24 A3005 -110 82 1300 140/06 RMK AO2 T02720239
53917KNEW NEW20190930213510909/30/19 21:35:31  5-MIN KNEW 010335Z AUTO 14005KT 10SM CLR 27/24 A3005 -110 82 1300 140/05 RMK AO2 T02720239
53917KNEW NEW20190930214010909/30/19 21:40:31  5-MIN KNEW 010340Z AUTO 13005KT 10SM CLR 27/24 A3005 -110 82 1300 130/05 RMK AO2 T02720239
53917KNEW NEW20190930214510909/30/19 21:45:31  5-MIN KNEW 010345Z AUTO 13004KT 10SM CLR 27/24 A3005 -110 82 1300 130/04 RMK AO2 T02720239
53917KNEW NEW20190930215011609/30/19 21:50:31  5-MIN KNEW 010350Z AUTO 13005KT 10SM CLR 27/24 A3005 -110 84 1300 130/05 RMK AO2 SLP170 T02720244
53917KNEW NEW20190930215510909/30/19 21:55:31  5-MIN KNEW 010355Z AUTO 14005KT 10SM CLR 27/24 A3005 -110 84 1300 140/05 RMK AO2 T02720244
53917KNEW NEW20190930220010909/30/19 22:00:31  5-MIN KNEW 010400Z AUTO 14006KT 10SM CLR 27/24 A3005 -110 84 1300 140/06 RMK AO2 T02720244
53917KNEW NEW20190930220510909/30/19 22:05:31  5-MIN KNEW 010405Z AUTO 14006KT 10SM CLR 27/24 A3005 -110 82 1300 140/06 RMK AO2 T02720239
53917KNEW NEW20190930221010909/30/19 22:10:31  5-MIN KNEW 010410Z AUTO 13005KT 10SM CLR 27/24 A3005 -110 82 1300 130/05 RMK AO2 T02720239
53917KNEW NEW20190930221510909/30/19 22:15:31  5-MIN KNEW 010415Z AUTO 14006KT 10SM CLR 27/24 A3005 -100 84 1300 140/06 RMK AO2 T02670239
53917KNEW NEW20190930222010909/30/19 22:20:31  5-MIN KNEW 010420Z AUTO 14005KT 10SM CLR 27/24 A3005 -100 84 1300 140/05 RMK AO2 T02670239
53917KNEW NEW20190930222510909/30/19 22:25:31  5-MIN KNEW 010425Z AUTO 14005KT 10SM CLR 27/24 A3005 -100 84 1300 140/05 RMK AO2 T02670239
53917KNEW NEW20190930223010909/30/19 22:30:31  5-MIN KNEW 010430Z AUTO 14006KT 10SM CLR 27/24 A3005 -100 84 1300 140/06 RMK AO2 T02670239
53917KNEW NEW20190930223510909/30/19 22:35:31  5-MIN KNEW 010435Z AUTO 14005KT 10SM CLR 27/24 A3005 -100 84 1300 140/05 RMK AO2 T02670239
53917KNEW NEW20190930224010909/30/19 22:40:31  5-MIN KNEW 010440Z AUTO 15005KT 10SM CLR 27/24 A3005 -100 84 1300 150/05 RMK AO2 T02670239
53917KNEW NEW20190930224510909/30/19 22:45:31  5-MIN KNEW 010445Z AUTO 14006KT 10SM CLR 27/24 A3005 -100 84 1300 140/06 RMK AO2 T02670239
53917KNEW NEW20190930225011609/30/19 22:50:31  5-MIN KNEW 010450Z AUTO 14005KT 10SM CLR 27/24 A3005 -100 84 1300 140/05 RMK AO2 SLP168 T02670239
53917KNEW NEW20190930225510909/30/19 22:55:31  5-MIN KNEW 010455Z AUTO 14005KT 10SM CLR 27/24 A3004 -100 84 1300 140/05 RMK AO2 T02670239
53917KNEW NEW20190930230010909/30/19 23:00:31  5-MIN KNEW 010500Z AUTO 14006KT 10SM CLR 27/24 A3004 -100 84 1300 140/06 RMK AO2 T02670239
53917KNEW NEW20190930230510909/30/19 23:05:31  5-MIN KNEW 010505Z AUTO 14006KT 10SM CLR 27/24 A3004 -100 84 1300 140/06 RMK AO2 T02670239
53917KNEW NEW20190930231010909/30/19 23:10:31  5-MIN KNEW 010510Z AUTO 14005KT 10SM CLR 27/24 A3004 -100 84 1300 140/05 RMK AO2 T02670239
53917KNEW NEW20190930231510909/30/19 23:15:31  5-MIN KNEW 010515Z AUTO 14004KT 10SM CLR 27/24 A3004 -100 84 1300 140/04 RMK AO2 T02670239
53917KNEW NEW20190930232010909/30/19 23:20:31  5-MIN KNEW 010520Z AUTO 14005KT 10SM CLR 27/24 A3004 -100 84 1300 140/05 RMK AO2 T02670239
53917KNEW NEW20190930232510809/30/19 23:25:31  5-MIN KNEW 010525Z AUTO 13005KT 10SM CLR 27/24 A3004 -90 84 1300 130/05 RMK AO2 T02670239
53917KNEW NEW20190930233010809/30/19 23:30:31  5-MIN KNEW 010530Z AUTO 13005KT 10SM CLR 27/24 A3004 -90 84 1300 130/05 RMK AO2 T02670239
53917KNEW NEW20190930233510809/30/19 23:35:31  5-MIN KNEW 010535Z AUTO 14005KT 10SM CLR 27/24 A3003 -90 84 1300 140/05 RMK AO2 T02670239
53917KNEW NEW20190930234010809/30/19 23:40:31  5-MIN KNEW 010540Z AUTO 14005KT 10SM CLR 27/24 A3003 -90 84 1300 140/05 RMK AO2 T02670239
53917KNEW NEW20190930234510809/30/19 23:45:31  5-MIN KNEW 010545Z AUTO 13005KT 10SM CLR 27/24 A3003 -90 84 1300 130/05 RMK AO2 T02670239
53917KNEW NEW20190930235014309/30/19 23:50:31  5-MIN KNEW 010550Z AUTO 13005KT 10SM CLR 27/24 A3003 -90 87 1300 130/05 RMK AO2 SLP163 T02670244 10289 20267 403280261 52009
53917KNEW NEW20190930235510809/30/19 23:55:31  5-MIN KNEW 010555Z AUTO 13005KT 10SM CLR 27/24 A3003 -90 87 1300 130/05 RMK AO2 T02670244
